<?xml version="1.0" encoding="UTF-8"?>
<gpx xmlns="http://www.topografix.com/GPX/1/1" xmlns:xsi="http://www.w3.org/2001/XMLSchema-instance" xsi:schemaLocation="http://www.topografix.com/GPX/1/1 http://www.topografix.com/GPX/1/1/gpx.xsd" version="1.1" creator="Robert Kampf">
  <metadata>
    <name>Feldkreuz mit Sitzbank – Offenes Bücherregal Westendorf Runde von Westendorf</name>
    <desc>Distance: 7.153km, Estimated duration: 1.82h, Elevation up: 21.18621448698235m, Elevation down: 21.18621448698235m, Grade: easy</desc>
    <author>
      <name>Robert Kampf</name>
      <link href="https://www.komoot.de/user/4125295338453">
        <text>View Robert Kampf's Profile on Komoot</text>
      </link>
    </author>
    <link href="https://www.komoot.de/tour/2940467419">
      <text>View tour on Komoot</text>
    </link>
  </metadata>
  <wpt lat="48.571958" lon="10.843343">
    <name>Westendorf</name>
    <cmt></cmt>
    <desc>Accessible</desc>
    <src>Komoot</src>
    <type>POI</type>
  </wpt>
  <wpt lat="48.573052" lon="10.832915">
    <ele>469.2</ele>
    <name>Anglers' Bridge</name>
    <cmt>https://d2exd72xrrp1s7.cloudfront.net/www/000/1k9/8w/8wj7k8ulbjohda9n9py6xisq5kuvus9x-uhi96215129/0</cmt>
    <desc></desc>
    <src>Komoot</src>
    <link href="https://www.komoot.de/highlight/8117971">
      <text>View POI on Komoot</text>
    </link>
    <type>Highlight</type>
  </wpt>
  <wpt lat="48.572748" lon="10.822773">
    <ele>468.8</ele>
    <name>Wayside cross with bench</name>
    <cmt>https://d2exd72xrrp1s7.cloudfront.net/www/000/1k9/zx/zx6wn3xjt1ke1sdnlt3bg2wru5kuvvqd0-uhi96215137/0</cmt>
    <desc></desc>
    <src>Komoot</src>
    <link href="https://www.komoot.de/highlight/8117974">
      <text>View POI on Komoot</text>
    </link>
    <type>Highlight</type>
  </wpt>
  <wpt lat="48.579733" lon="10.825245">
    <ele>469.4</ele>
    <name>Wayside Cross</name>
    <cmt>https://d2exd72xrrp1s7.cloudfront.net/www/000/1k9/1m/1mqb0ahthh5zh1ktyatnyn4xjq5kuvwahz-uhi96215138/0</cmt>
    <desc></desc>
    <src>Komoot</src>
    <link href="https://www.komoot.de/highlight/8117975">
      <text>View POI on Komoot</text>
    </link>
    <type>Highlight</type>
  </wpt>
  <wpt lat="48.573443" lon="10.83724">
    <ele>479.2</ele>
    <name>Open Bookshelf Westendorf</name>
    <cmt>https://d2exd72xrrp1s7.cloudfront.net/www/000/1k5/lj/ljv7dtr8cwfr1nmrbxjuscqe43t3vcsrx-uhi35644960/0</cmt>
    <desc>Beate mit 🐩🐩: Kleine Pause gefällig? Schnapp dir ein Buch. Setz dich auf die Bank unterm Baum und wenn du Glück hast kannst du dir noch  was kaltes zum Trinken oder Kaffee und Kuchen aus dem Dorfladen nebenan holen.</desc>
    <src>Komoot</src>
    <link href="https://www.komoot.de/highlight/3362057">
      <text>View POI on Komoot</text>
    </link>
    <type>Highlight</type>
  </wpt>
  <trk>
    <name>Feldkreuz mit Sitzbank – Offenes Bücherregal Westendorf Runde von Westendorf</name>
    <desc>Distance: 7.153km, Estimated duration: 1.82h, Elevation up: 21.18621448698235m, Elevation down: 21.18621448698235m, Grade: easy</desc>
    <link href="https://www.komoot.de/tour/2940467419">
      <text>View tour on Komoot</text>
    </link>
    <trkseg>
      <trkpt lat="48.571963" lon="10.843381">
        <ele>423.6</ele>
        <time>2026-05-08T12:46:31.568000Z</time>
      </trkpt>
      <trkpt lat="48.572389" lon="10.843233">
        <ele>423.7</ele>
        <time>2026-05-08T12:47:15.612000Z</time>
      </trkpt>
      <trkpt lat="48.572499" lon="10.843195">
        <ele>423.7</ele>
        <time>2026-05-08T12:47:27.020000Z</time>
      </trkpt>
      <trkpt lat="48.572506" lon="10.843242">
        <ele>423.8</ele>
        <time>2026-05-08T12:47:30.182000Z</time>
      </trkpt>
      <trkpt lat="48.572603" lon="10.843214">
        <ele>423.8</ele>
        <time>2026-05-08T12:47:40.153000Z</time>
      </trkpt>
      <trkpt lat="48.572635" lon="10.843205">
        <ele>423.8</ele>
        <time>2026-05-08T12:47:43.465000Z</time>
      </trkpt>
      <trkpt lat="48.572633" lon="10.843022">
        <ele>423.8</ele>
        <time>2026-05-08T12:47:55.731000Z</time>
      </trkpt>
      <trkpt lat="48.572633" lon="10.843007">
        <ele>423.8</ele>
        <time>2026-05-08T12:47:56.749000Z</time>
      </trkpt>
      <trkpt lat="48.572546" lon="10.84227">
        <ele>424</ele>
        <time>2026-05-08T12:48:47.021000Z</time>
      </trkpt>
      <trkpt lat="48.572496" lon="10.84192">
        <ele>424.1</ele>
        <time>2026-05-08T12:49:10.902000Z</time>
      </trkpt>
      <trkpt lat="48.572513" lon="10.841761">
        <ele>424.1</ele>
        <time>2026-05-08T12:49:21.682000Z</time>
      </trkpt>
      <trkpt lat="48.572478" lon="10.841537">
        <ele>424.2</ele>
        <time>2026-05-08T12:49:37.100000Z</time>
      </trkpt>
      <trkpt lat="48.572435" lon="10.841258">
        <ele>424.2</ele>
        <time>2026-05-08T12:49:56.221000Z</time>
      </trkpt>
      <trkpt lat="48.572424" lon="10.84112">
        <ele>424.2</ele>
        <time>2026-05-08T12:50:05.515000Z</time>
      </trkpt>
      <trkpt lat="48.57222" lon="10.841215">
        <ele>424.3</ele>
        <time>2026-05-08T12:50:26.970000Z</time>
      </trkpt>
      <trkpt lat="48.571916" lon="10.841316">
        <ele>424.3</ele>
        <time>2026-05-08T12:50:58.216000Z</time>
      </trkpt>
      <trkpt lat="48.571547" lon="10.841257">
        <ele>424.3</ele>
        <time>2026-05-08T12:51:35.434000Z</time>
      </trkpt>
      <trkpt lat="48.571331" lon="10.841197">
        <ele>424.3</ele>
        <time>2026-05-08T12:51:57.416000Z</time>
      </trkpt>
      <trkpt lat="48.571226" lon="10.841081">
        <ele>424.2</ele>
        <time>2026-05-08T12:52:10.499000Z</time>
      </trkpt>
      <trkpt lat="48.571169" lon="10.840952">
        <ele>424.2</ele>
        <time>2026-05-08T12:52:20.849000Z</time>
      </trkpt>
      <trkpt lat="48.571033" lon="10.840549">
        <ele>424.1</ele>
        <time>2026-05-08T12:52:50.940000Z</time>
      </trkpt>
      <trkpt lat="48.570993" lon="10.840416">
        <ele>424.1</ele>
        <time>2026-05-08T12:53:00.738000Z</time>
      </trkpt>
      <trkpt lat="48.570927" lon="10.840182">
        <ele>424</ele>
        <time>2026-05-08T12:53:17.707000Z</time>
      </trkpt>
      <trkpt lat="48.570829" lon="10.839801">
        <ele>424</ele>
        <time>2026-05-08T12:53:44.885000Z</time>
      </trkpt>
      <trkpt lat="48.570819" lon="10.839759">
        <ele>424</ele>
        <time>2026-05-08T12:53:47.909000Z</time>
      </trkpt>
      <trkpt lat="48.570752" lon="10.839482">
        <ele>423.9</ele>
        <time>2026-05-08T12:54:07.498000Z</time>
      </trkpt>
      <trkpt lat="48.570693" lon="10.839235">
        <ele>423.9</ele>
        <time>2026-05-08T12:54:24.971000Z</time>
      </trkpt>
      <trkpt lat="48.570602" lon="10.83888">
        <ele>423.8</ele>
        <time>2026-05-08T12:54:50.423000Z</time>
      </trkpt>
      <trkpt lat="48.570527" lon="10.838608">
        <ele>423.7</ele>
        <time>2026-05-08T12:55:10.149000Z</time>
      </trkpt>
      <trkpt lat="48.570489" lon="10.838458">
        <ele>423.6</ele>
        <time>2026-05-08T12:55:20.858000Z</time>
      </trkpt>
      <trkpt lat="48.570425" lon="10.838206">
        <ele>423.6</ele>
        <time>2026-05-08T12:55:38.851000Z</time>
      </trkpt>
      <trkpt lat="48.570371" lon="10.837724">
        <ele>423.4</ele>
        <time>2026-05-08T12:56:11.567000Z</time>
      </trkpt>
      <trkpt lat="48.570304" lon="10.83746">
        <ele>423.3</ele>
        <time>2026-05-08T12:56:30.481000Z</time>
      </trkpt>
      <trkpt lat="48.570412" lon="10.8373">
        <ele>423.2</ele>
        <time>2026-05-08T12:56:45.818000Z</time>
      </trkpt>
      <trkpt lat="48.570562" lon="10.837235">
        <ele>423.1</ele>
        <time>2026-05-08T12:57:01.653000Z</time>
      </trkpt>
      <trkpt lat="48.570759" lon="10.837241">
        <ele>422.9</ele>
        <time>2026-05-08T12:57:21.860000Z</time>
      </trkpt>
      <trkpt lat="48.570893" lon="10.837263">
        <ele>422.7</ele>
        <time>2026-05-08T12:57:35.727000Z</time>
      </trkpt>
      <trkpt lat="48.570901" lon="10.836958">
        <ele>422.5</ele>
        <time>2026-05-08T12:57:56.355000Z</time>
      </trkpt>
      <trkpt lat="48.570881" lon="10.836802">
        <ele>422.4</ele>
        <time>2026-05-08T12:58:07.116000Z</time>
      </trkpt>
      <trkpt lat="48.570726" lon="10.836323">
        <ele>422.1</ele>
        <time>2026-05-08T12:58:43.040000Z</time>
      </trkpt>
      <trkpt lat="48.570624" lon="10.836094">
        <ele>422</ele>
        <time>2026-05-08T12:59:01.508000Z</time>
      </trkpt>
      <trkpt lat="48.5706" lon="10.836024">
        <ele>422</ele>
        <time>2026-05-08T12:59:06.778000Z</time>
      </trkpt>
      <trkpt lat="48.570536" lon="10.835749">
        <ele>421.9</ele>
        <time>2026-05-08T12:59:26.427000Z</time>
      </trkpt>
      <trkpt lat="48.570436" lon="10.835088">
        <ele>421.6</ele>
        <time>2026-05-08T13:00:11.884000Z</time>
      </trkpt>
      <trkpt lat="48.570604" lon="10.834787">
        <ele>421.5</ele>
        <time>2026-05-08T13:00:38.015000Z</time>
      </trkpt>
      <trkpt lat="48.57059" lon="10.834769">
        <ele>421.5</ele>
        <time>2026-05-08T13:00:39.802000Z</time>
      </trkpt>
      <trkpt lat="48.570683" lon="10.834411">
        <ele>421.6</ele>
        <time>2026-05-08T13:01:05.656000Z</time>
      </trkpt>
      <trkpt lat="48.57072" lon="10.833988">
        <ele>421.8</ele>
        <time>2026-05-08T13:01:34.316000Z</time>
      </trkpt>
      <trkpt lat="48.57079" lon="10.833687">
        <ele>421.8</ele>
        <time>2026-05-08T13:01:55.704000Z</time>
      </trkpt>
      <trkpt lat="48.570864" lon="10.833516">
        <ele>421.9</ele>
        <time>2026-05-08T13:02:09.368000Z</time>
      </trkpt>
      <trkpt lat="48.571296" lon="10.833065">
        <ele>422</ele>
        <time>2026-05-08T13:03:02.514000Z</time>
      </trkpt>
      <trkpt lat="48.571729" lon="10.832615">
        <ele>422.2</ele>
        <time>2026-05-08T13:03:55.680000Z</time>
      </trkpt>
      <trkpt lat="48.571789" lon="10.832548">
        <ele>422.2</ele>
        <time>2026-05-08T13:04:03.239000Z</time>
      </trkpt>
      <trkpt lat="48.571867" lon="10.832477">
        <ele>422.2</ele>
        <time>2026-05-08T13:04:12.450000Z</time>
      </trkpt>
      <trkpt lat="48.571974" lon="10.832436">
        <ele>422.3</ele>
        <time>2026-05-08T13:04:23.626000Z</time>
      </trkpt>
      <trkpt lat="48.572083" lon="10.83244">
        <ele>422.3</ele>
        <time>2026-05-08T13:04:34.600000Z</time>
      </trkpt>
      <trkpt lat="48.572275" lon="10.832499">
        <ele>422.4</ele>
        <time>2026-05-08T13:04:54.477000Z</time>
      </trkpt>
      <trkpt lat="48.572802" lon="10.832509">
        <ele>422.4</ele>
        <time>2026-05-08T13:05:47.441000Z</time>
      </trkpt>
      <trkpt lat="48.573054" lon="10.832618">
        <ele>422.4</ele>
        <time>2026-05-08T13:06:13.756000Z</time>
      </trkpt>
      <trkpt lat="48.573101" lon="10.832688">
        <ele>422.4</ele>
        <time>2026-05-08T13:06:20.336000Z</time>
      </trkpt>
      <trkpt lat="48.573113" lon="10.832894">
        <ele>422.4</ele>
        <time>2026-05-08T13:06:34.032000Z</time>
      </trkpt>
      <trkpt lat="48.573101" lon="10.832688">
        <ele>422.3</ele>
        <time>2026-05-08T13:06:47.745000Z</time>
      </trkpt>
      <trkpt lat="48.573054" lon="10.832618">
        <ele>422.3</ele>
        <time>2026-05-08T13:06:54.329000Z</time>
      </trkpt>
      <trkpt lat="48.572904" lon="10.831977">
        <ele>422.2</ele>
        <time>2026-05-08T13:07:39.566000Z</time>
      </trkpt>
      <trkpt lat="48.572824" lon="10.831789">
        <ele>422.2</ele>
        <time>2026-05-08T13:07:54.427000Z</time>
      </trkpt>
      <trkpt lat="48.57234" lon="10.830923">
        <ele>422.1</ele>
        <time>2026-05-08T13:09:09.641000Z</time>
      </trkpt>
      <trkpt lat="48.570653" lon="10.828475">
        <ele>423.1</ele>
        <time>2026-05-08T13:13:07.242000Z</time>
      </trkpt>
      <trkpt lat="48.570111" lon="10.827603">
        <ele>423.6</ele>
        <time>2026-05-08T13:14:28.101000Z</time>
      </trkpt>
      <trkpt lat="48.569805" lon="10.827065">
        <ele>423.7</ele>
        <time>2026-05-08T13:15:15.557000Z</time>
      </trkpt>
      <trkpt lat="48.569809" lon="10.827018">
        <ele>423.7</ele>
        <time>2026-05-08T13:15:18.669000Z</time>
      </trkpt>
      <trkpt lat="48.569782" lon="10.82697">
        <ele>423.7</ele>
        <time>2026-05-08T13:15:22.914000Z</time>
      </trkpt>
      <trkpt lat="48.569609" lon="10.826664">
        <ele>423.7</ele>
        <time>2026-05-08T13:15:49.560000Z</time>
      </trkpt>
      <trkpt lat="48.569556" lon="10.826627">
        <ele>423.7</ele>
        <time>2026-05-08T13:15:55.418000Z</time>
      </trkpt>
      <trkpt lat="48.569078" lon="10.825813">
        <ele>423.5</ele>
        <time>2026-05-08T13:17:07.855000Z</time>
      </trkpt>
      <trkpt lat="48.569119" lon="10.825762">
        <ele>423.5</ele>
        <time>2026-05-08T13:17:13.238000Z</time>
      </trkpt>
      <trkpt lat="48.569152" lon="10.825687">
        <ele>423.5</ele>
        <time>2026-05-08T13:17:19.222000Z</time>
      </trkpt>
      <trkpt lat="48.569108" lon="10.824897">
        <ele>423.7</ele>
        <time>2026-05-08T13:18:12.234000Z</time>
      </trkpt>
      <trkpt lat="48.569107" lon="10.824853">
        <ele>423.7</ele>
        <time>2026-05-08T13:18:15.260000Z</time>
      </trkpt>
      <trkpt lat="48.569102" lon="10.824764">
        <ele>423.7</ele>
        <time>2026-05-08T13:18:21.308000Z</time>
      </trkpt>
      <trkpt lat="48.569136" lon="10.82474">
        <ele>423.8</ele>
        <time>2026-05-08T13:18:25.176000Z</time>
      </trkpt>
      <trkpt lat="48.569117" lon="10.824289">
        <ele>424.1</ele>
        <time>2026-05-08T13:18:56.330000Z</time>
      </trkpt>
      <trkpt lat="48.569046" lon="10.822687">
        <ele>425.7</ele>
        <time>2026-05-08T13:20:48.415000Z</time>
      </trkpt>
      <trkpt lat="48.569073" lon="10.822645">
        <ele>425.8</ele>
        <time>2026-05-08T13:20:52.506000Z</time>
      </trkpt>
      <trkpt lat="48.569107" lon="10.822647">
        <ele>425.8</ele>
        <time>2026-05-08T13:20:56.149000Z</time>
      </trkpt>
      <trkpt lat="48.569593" lon="10.822683">
        <ele>426.5</ele>
        <time>2026-05-08T13:21:47.193000Z</time>
      </trkpt>
      <trkpt lat="48.570321" lon="10.822572">
        <ele>426.4</ele>
        <time>2026-05-08T13:23:00.545000Z</time>
      </trkpt>
      <trkpt lat="48.570326" lon="10.822491">
        <ele>426.4</ele>
        <time>2026-05-08T13:23:05.974000Z</time>
      </trkpt>
      <trkpt lat="48.570435" lon="10.822478">
        <ele>426.3</ele>
        <time>2026-05-08T13:23:17.189000Z</time>
      </trkpt>
      <trkpt lat="48.571213" lon="10.822391">
        <ele>425.6</ele>
        <time>2026-05-08T13:24:36.795000Z</time>
      </trkpt>
      <trkpt lat="48.571695" lon="10.822362">
        <ele>425</ele>
        <time>2026-05-08T13:25:26.314000Z</time>
      </trkpt>
      <trkpt lat="48.571801" lon="10.822381">
        <ele>424.9</ele>
        <time>2026-05-08T13:25:37.225000Z</time>
      </trkpt>
      <trkpt lat="48.572078" lon="10.822457">
        <ele>424.7</ele>
        <time>2026-05-08T13:26:05.730000Z</time>
      </trkpt>
      <trkpt lat="48.572461" lon="10.822675">
        <ele>424.9</ele>
        <time>2026-05-08T13:26:47.165000Z</time>
      </trkpt>
      <trkpt lat="48.57271" lon="10.822878">
        <ele>425.2</ele>
        <time>2026-05-08T13:27:16.577000Z</time>
      </trkpt>
      <trkpt lat="48.572721" lon="10.822887">
        <ele>425.2</ele>
        <time>2026-05-08T13:27:17.867000Z</time>
      </trkpt>
      <trkpt lat="48.572957" lon="10.823042">
        <ele>425.6</ele>
        <time>2026-05-08T13:27:45.244000Z</time>
      </trkpt>
      <trkpt lat="48.573101" lon="10.823101">
        <ele>425.9</ele>
        <time>2026-05-08T13:28:01.223000Z</time>
      </trkpt>
      <trkpt lat="48.57356" lon="10.823172">
        <ele>426.7</ele>
        <time>2026-05-08T13:28:50.073000Z</time>
      </trkpt>
      <trkpt lat="48.573997" lon="10.823122">
        <ele>428</ele>
        <time>2026-05-08T13:29:38.361000Z</time>
      </trkpt>
      <trkpt lat="48.574163" lon="10.823094">
        <ele>428.2</ele>
        <time>2026-05-08T13:29:56.054000Z</time>
      </trkpt>
      <trkpt lat="48.574558" lon="10.823193">
        <ele>428.1</ele>
        <time>2026-05-08T13:30:36.369000Z</time>
      </trkpt>
      <trkpt lat="48.574609" lon="10.82302">
        <ele>428</ele>
        <time>2026-05-08T13:30:49.177000Z</time>
      </trkpt>
      <trkpt lat="48.574748" lon="10.822919">
        <ele>427.7</ele>
        <time>2026-05-08T13:31:05.294000Z</time>
      </trkpt>
      <trkpt lat="48.575172" lon="10.8231">
        <ele>426.5</ele>
        <time>2026-05-08T13:31:51.819000Z</time>
      </trkpt>
      <trkpt lat="48.575457" lon="10.823698">
        <ele>425</ele>
        <time>2026-05-08T13:32:43.668000Z</time>
      </trkpt>
      <trkpt lat="48.575497" lon="10.823724">
        <ele>424.8</ele>
        <time>2026-05-08T13:32:48.383000Z</time>
      </trkpt>
      <trkpt lat="48.575478" lon="10.823797">
        <ele>424.5</ele>
        <time>2026-05-08T13:32:54.116000Z</time>
      </trkpt>
      <trkpt lat="48.575828" lon="10.824001">
        <ele>422.8</ele>
        <time>2026-05-08T13:33:35.109000Z</time>
      </trkpt>
      <trkpt lat="48.576229" lon="10.824139">
        <ele>421.6</ele>
        <time>2026-05-08T13:34:18.798000Z</time>
      </trkpt>
      <trkpt lat="48.577764" lon="10.824354">
        <ele>420.8</ele>
        <time>2026-05-08T13:36:54.795000Z</time>
      </trkpt>
      <trkpt lat="48.578244" lon="10.824468">
        <ele>420.9</ele>
        <time>2026-05-08T13:37:43.970000Z</time>
      </trkpt>
      <trkpt lat="48.578437" lon="10.824547">
        <ele>421</ele>
        <time>2026-05-08T13:38:04.280000Z</time>
      </trkpt>
      <trkpt lat="48.579555" lon="10.825193">
        <ele>422</ele>
        <time>2026-05-08T13:40:07.502000Z</time>
      </trkpt>
      <trkpt lat="48.579732" lon="10.825253">
        <ele>422.2</ele>
        <time>2026-05-08T13:40:26.577000Z</time>
      </trkpt>
      <trkpt lat="48.580102" lon="10.825381">
        <ele>423</ele>
        <time>2026-05-08T13:41:07.461000Z</time>
      </trkpt>
      <trkpt lat="48.580742" lon="10.825438">
        <ele>424.8</ele>
        <time>2026-05-08T13:42:17.752000Z</time>
      </trkpt>
      <trkpt lat="48.581112" lon="10.825446">
        <ele>425.9</ele>
        <time>2026-05-08T13:42:58.593000Z</time>
      </trkpt>
      <trkpt lat="48.582116" lon="10.825303">
        <ele>427</ele>
        <time>2026-05-08T13:44:43.632000Z</time>
      </trkpt>
      <trkpt lat="48.582901" lon="10.825506">
        <ele>425.2</ele>
        <time>2026-05-08T13:46:07.106000Z</time>
      </trkpt>
      <trkpt lat="48.583369" lon="10.825677">
        <ele>423.5</ele>
        <time>2026-05-08T13:46:58.791000Z</time>
      </trkpt>
      <trkpt lat="48.583964" lon="10.825945">
        <ele>421.7</ele>
        <time>2026-05-08T13:48:04.590000Z</time>
      </trkpt>
      <trkpt lat="48.584446" lon="10.825996">
        <ele>420.8</ele>
        <time>2026-05-08T13:48:54.836000Z</time>
      </trkpt>
      <trkpt lat="48.584952" lon="10.825953">
        <ele>420.3</ele>
        <time>2026-05-08T13:49:46.612000Z</time>
      </trkpt>
      <trkpt lat="48.584949" lon="10.825993">
        <ele>420.3</ele>
        <time>2026-05-08T13:49:49.335000Z</time>
      </trkpt>
      <trkpt lat="48.584971" lon="10.826009">
        <ele>420.3</ele>
        <time>2026-05-08T13:49:51.800000Z</time>
      </trkpt>
      <trkpt lat="48.584976" lon="10.826326">
        <ele>420.2</ele>
        <time>2026-05-08T13:50:12.947000Z</time>
      </trkpt>
      <trkpt lat="48.585" lon="10.826483">
        <ele>420.2</ele>
        <time>2026-05-08T13:50:23.654000Z</time>
      </trkpt>
      <trkpt lat="48.585022" lon="10.826526">
        <ele>420.2</ele>
        <time>2026-05-08T13:50:27.245000Z</time>
      </trkpt>
      <trkpt lat="48.585124" lon="10.826969">
        <ele>420.1</ele>
        <time>2026-05-08T13:50:58.370000Z</time>
      </trkpt>
      <trkpt lat="48.585315" lon="10.827468">
        <ele>420.1</ele>
        <time>2026-05-08T13:51:36.685000Z</time>
      </trkpt>
      <trkpt lat="48.585765" lon="10.82858">
        <ele>420</ele>
        <time>2026-05-08T13:53:03.093000Z</time>
      </trkpt>
      <trkpt lat="48.585867" lon="10.828727">
        <ele>420</ele>
        <time>2026-05-08T13:53:17.290000Z</time>
      </trkpt>
      <trkpt lat="48.586148" lon="10.829649">
        <ele>420</ele>
        <time>2026-05-08T13:54:24.485000Z</time>
      </trkpt>
      <trkpt lat="48.586224" lon="10.830052">
        <ele>420</ele>
        <time>2026-05-08T13:54:52.260000Z</time>
      </trkpt>
      <trkpt lat="48.586542" lon="10.831491">
        <ele>419.9</ele>
        <time>2026-05-08T13:56:32.884000Z</time>
      </trkpt>
      <trkpt lat="48.586621" lon="10.831658">
        <ele>419.9</ele>
        <time>2026-05-08T13:56:46.534000Z</time>
      </trkpt>
      <trkpt lat="48.586652" lon="10.831779">
        <ele>419.9</ele>
        <time>2026-05-08T13:56:55.133000Z</time>
      </trkpt>
      <trkpt lat="48.586679" lon="10.831886">
        <ele>419.8</ele>
        <time>2026-05-08T13:57:02.752000Z</time>
      </trkpt>
      <trkpt lat="48.586683" lon="10.832108">
        <ele>419.8</ele>
        <time>2026-05-08T13:57:17.515000Z</time>
      </trkpt>
      <trkpt lat="48.586773" lon="10.832469">
        <ele>419.8</ele>
        <time>2026-05-08T13:57:43.140000Z</time>
      </trkpt>
      <trkpt lat="48.586889" lon="10.832734">
        <ele>419.8</ele>
        <time>2026-05-08T13:58:04.230000Z</time>
      </trkpt>
      <trkpt lat="48.586981" lon="10.83289">
        <ele>419.7</ele>
        <time>2026-05-08T13:58:18.045000Z</time>
      </trkpt>
      <trkpt lat="48.587248" lon="10.833177">
        <ele>419.8</ele>
        <time>2026-05-08T13:58:50.943000Z</time>
      </trkpt>
      <trkpt lat="48.587342" lon="10.833232">
        <ele>419.8</ele>
        <time>2026-05-08T13:59:01.106000Z</time>
      </trkpt>
      <trkpt lat="48.587861" lon="10.833568">
        <ele>419.9</ele>
        <time>2026-05-08T13:59:58.030000Z</time>
      </trkpt>
      <trkpt lat="48.588133" lon="10.833853">
        <ele>420</ele>
        <time>2026-05-08T14:00:31.459000Z</time>
      </trkpt>
      <trkpt lat="48.588456" lon="10.834434">
        <ele>420.2</ele>
        <time>2026-05-08T14:01:22.441000Z</time>
      </trkpt>
      <trkpt lat="48.588462" lon="10.834591">
        <ele>420.2</ele>
        <time>2026-05-08T14:01:32.952000Z</time>
      </trkpt>
      <trkpt lat="48.588266" lon="10.834648">
        <ele>420.3</ele>
        <time>2026-05-08T14:01:53.079000Z</time>
      </trkpt>
      <trkpt lat="48.588101" lon="10.834696">
        <ele>420.3</ele>
        <time>2026-05-08T14:02:10.060000Z</time>
      </trkpt>
      <trkpt lat="48.587833" lon="10.83476">
        <ele>420.3</ele>
        <time>2026-05-08T14:02:37.296000Z</time>
      </trkpt>
      <trkpt lat="48.587634" lon="10.834807">
        <ele>420.3</ele>
        <time>2026-05-08T14:02:57.417000Z</time>
      </trkpt>
      <trkpt lat="48.585065" lon="10.835592">
        <ele>420.1</ele>
        <time>2026-05-08T14:07:20.117000Z</time>
      </trkpt>
      <trkpt lat="48.579864" lon="10.836646">
        <ele>421.2</ele>
        <time>2026-05-08T14:16:09.112000Z</time>
      </trkpt>
      <trkpt lat="48.577576" lon="10.837119">
        <ele>421.9</ele>
        <time>2026-05-08T14:20:02.877000Z</time>
      </trkpt>
      <trkpt lat="48.577267" lon="10.837184">
        <ele>422.3</ele>
        <time>2026-05-08T14:20:35.168000Z</time>
      </trkpt>
      <trkpt lat="48.577041" lon="10.837229">
        <ele>422.5</ele>
        <time>2026-05-08T14:20:58.817000Z</time>
      </trkpt>
      <trkpt lat="48.576378" lon="10.837369">
        <ele>423</ele>
        <time>2026-05-08T14:22:07.759000Z</time>
      </trkpt>
      <trkpt lat="48.576222" lon="10.837413">
        <ele>423.2</ele>
        <time>2026-05-08T14:22:24.213000Z</time>
      </trkpt>
      <trkpt lat="48.576184" lon="10.837424">
        <ele>423.2</ele>
        <time>2026-05-08T14:22:28.208000Z</time>
      </trkpt>
      <trkpt lat="48.575558" lon="10.837601">
        <ele>423.9</ele>
        <time>2026-05-08T14:23:34.530000Z</time>
      </trkpt>
      <trkpt lat="48.575313" lon="10.837661">
        <ele>424.1</ele>
        <time>2026-05-08T14:23:59.790000Z</time>
      </trkpt>
      <trkpt lat="48.574744" lon="10.837773">
        <ele>424.1</ele>
        <time>2026-05-08T14:24:57.272000Z</time>
      </trkpt>
      <trkpt lat="48.574705" lon="10.837734">
        <ele>424.1</ele>
        <time>2026-05-08T14:25:01.939000Z</time>
      </trkpt>
      <trkpt lat="48.574672" lon="10.837785">
        <ele>424.1</ele>
        <time>2026-05-08T14:25:06.713000Z</time>
      </trkpt>
      <trkpt lat="48.574385" lon="10.837785">
        <ele>424.1</ele>
        <time>2026-05-08T14:25:35.444000Z</time>
      </trkpt>
      <trkpt lat="48.57438" lon="10.837711">
        <ele>424.1</ele>
        <time>2026-05-08T14:25:40.322000Z</time>
      </trkpt>
      <trkpt lat="48.574168" lon="10.837564">
        <ele>424.1</ele>
        <time>2026-05-08T14:26:03.638000Z</time>
      </trkpt>
      <trkpt lat="48.573593" lon="10.837362">
        <ele>424</ele>
        <time>2026-05-08T14:27:02.871000Z</time>
      </trkpt>
      <trkpt lat="48.573492" lon="10.837297">
        <ele>424</ele>
        <time>2026-05-08T14:27:13.881000Z</time>
      </trkpt>
      <trkpt lat="48.573402" lon="10.837256">
        <ele>424</ele>
        <time>2026-05-08T14:27:23.351000Z</time>
      </trkpt>
      <trkpt lat="48.573454" lon="10.837214">
        <ele>424</ele>
        <time>2026-05-08T14:27:29.328000Z</time>
      </trkpt>
      <trkpt lat="48.573402" lon="10.837256">
        <ele>424</ele>
        <time>2026-05-08T14:27:35.318000Z</time>
      </trkpt>
      <trkpt lat="48.573279" lon="10.837699">
        <ele>423.9</ele>
        <time>2026-05-08T14:28:07.201000Z</time>
      </trkpt>
      <trkpt lat="48.573214" lon="10.837767">
        <ele>424</ele>
        <time>2026-05-08T14:28:15.100000Z</time>
      </trkpt>
      <trkpt lat="48.573157" lon="10.83814">
        <ele>424</ele>
        <time>2026-05-08T14:28:40.741000Z</time>
      </trkpt>
      <trkpt lat="48.57311" lon="10.838378">
        <ele>424.1</ele>
        <time>2026-05-08T14:28:57.488000Z</time>
      </trkpt>
      <trkpt lat="48.573097" lon="10.838453">
        <ele>424.2</ele>
        <time>2026-05-08T14:29:02.725000Z</time>
      </trkpt>
      <trkpt lat="48.573" lon="10.838767">
        <ele>424.3</ele>
        <time>2026-05-08T14:29:26.206000Z</time>
      </trkpt>
      <trkpt lat="48.572826" lon="10.83924">
        <ele>424.5</ele>
        <time>2026-05-08T14:30:02.702000Z</time>
      </trkpt>
      <trkpt lat="48.572771" lon="10.83942">
        <ele>424.5</ele>
        <time>2026-05-08T14:30:16.033000Z</time>
      </trkpt>
      <trkpt lat="48.572716" lon="10.839646">
        <ele>424.6</ele>
        <time>2026-05-08T14:30:32.111000Z</time>
      </trkpt>
      <trkpt lat="48.572581" lon="10.840205">
        <ele>424.7</ele>
        <time>2026-05-08T14:31:11.893000Z</time>
      </trkpt>
      <trkpt lat="48.572558" lon="10.840303">
        <ele>424.7</ele>
        <time>2026-05-08T14:31:18.799000Z</time>
      </trkpt>
      <trkpt lat="48.572519" lon="10.840464">
        <ele>424.7</ele>
        <time>2026-05-08T14:31:30.237000Z</time>
      </trkpt>
      <trkpt lat="48.572487" lon="10.840597">
        <ele>424.7</ele>
        <time>2026-05-08T14:31:39.616000Z</time>
      </trkpt>
      <trkpt lat="48.572455" lon="10.840746">
        <ele>424.7</ele>
        <time>2026-05-08T14:31:49.967000Z</time>
      </trkpt>
      <trkpt lat="48.572423" lon="10.840962">
        <ele>424.7</ele>
        <time>2026-05-08T14:32:04.681000Z</time>
      </trkpt>
      <trkpt lat="48.572424" lon="10.84112">
        <ele>424.6</ele>
        <time>2026-05-08T14:32:15.222000Z</time>
      </trkpt>
      <trkpt lat="48.572435" lon="10.841258">
        <ele>424.6</ele>
        <time>2026-05-08T14:32:24.517000Z</time>
      </trkpt>
      <trkpt lat="48.572478" lon="10.841537">
        <ele>424.5</ele>
        <time>2026-05-08T14:32:43.716000Z</time>
      </trkpt>
      <trkpt lat="48.572513" lon="10.841761">
        <ele>424.4</ele>
        <time>2026-05-08T14:32:59.214000Z</time>
      </trkpt>
      <trkpt lat="48.572496" lon="10.84192">
        <ele>424.3</ele>
        <time>2026-05-08T14:33:10.062000Z</time>
      </trkpt>
      <trkpt lat="48.572546" lon="10.84227">
        <ele>424.1</ele>
        <time>2026-05-08T14:33:34.121000Z</time>
      </trkpt>
      <trkpt lat="48.572633" lon="10.843007">
        <ele>423.8</ele>
        <time>2026-05-08T14:34:24.272000Z</time>
      </trkpt>
      <trkpt lat="48.572633" lon="10.843022">
        <ele>423.8</ele>
        <time>2026-05-08T14:34:25.282000Z</time>
      </trkpt>
      <trkpt lat="48.572635" lon="10.843205">
        <ele>423.8</ele>
        <time>2026-05-08T14:34:37.479000Z</time>
      </trkpt>
      <trkpt lat="48.572603" lon="10.843214">
        <ele>423.8</ele>
        <time>2026-05-08T14:34:40.777000Z</time>
      </trkpt>
      <trkpt lat="48.572506" lon="10.843242">
        <ele>423.8</ele>
        <time>2026-05-08T14:34:50.699000Z</time>
      </trkpt>
      <trkpt lat="48.572499" lon="10.843195">
        <ele>423.7</ele>
        <time>2026-05-08T14:34:53.854000Z</time>
      </trkpt>
      <trkpt lat="48.572389" lon="10.843233">
        <ele>423.7</ele>
        <time>2026-05-08T14:35:05.209000Z</time>
      </trkpt>
      <trkpt lat="48.571963" lon="10.843381">
        <ele>423.6</ele>
        <time>2026-05-08T14:35:49.122000Z</time>
      </trkpt>
    </trkseg>
  </trk>
</gpx>