<?xml version="1.0" encoding="UTF-8"?>
<gpx xmlns="http://www.topografix.com/GPX/1/1" xmlns:xsi="http://www.w3.org/2001/XMLSchema-instance" xsi:schemaLocation="http://www.topografix.com/GPX/1/1 http://www.topografix.com/GPX/1/1/gpx.xsd" version="1.1" creator="Robert Kampf">
  <metadata>
    <name>Gasthaus Schmieder Alm – Blick auf das Weißhorn Runde von Petersberg</name>
    <desc>Distance: 4.896km, Estimated duration: 1.45h, Elevation up: 153.17976103074875m, Elevation down: 151.17965097989077m, Grade: easy</desc>
    <author>
      <name>Robert Kampf</name>
      <link href="https://www.komoot.de/user/4125295338453">
        <text>View Robert Kampf's Profile on Komoot</text>
      </link>
    </author>
    <link href="https://www.komoot.de/tour/2501593584">
      <text>View tour on Komoot</text>
    </link>
  </metadata>
  <wpt lat="46.375541" lon="11.395598">
    <name>Schmieder Alm - Malga Schmieder</name>
    <cmt></cmt>
    <desc></desc>
    <src>Komoot</src>
    <type>POI</type>
  </wpt>
  <wpt lat="46.375468" lon="11.395444">
    <ele>1728</ele>
    <name>Schmieder Alm</name>
    <cmt>https://d2exd72xrrp1s7.cloudfront.net/www/000/1k3/1c/1cdoc52d721vh11g2qauwuppsr32yfjpn1-uhi7442975/0</cmt>
    <desc>Andrea 🚴‍♀️⛷️🎿🥾: Tolle Alme. Leckere Knödel. 
Alkoholfreien Veneziano. Preis 
Leistung perfekt.
――――――――――
Dieter G.: Gute südtrioler Küche
Sehr freudliches Personal
――――――――――
Iwo: Eine sehr schöne Alm mit dem besten Ausblick in das Etschtal rund um Kaltern. Sehr freundliche Bedienung und schmackhaftes Essen.
――――――――――
Harry: Lademöglichkeiten für E-Bikes sind vorhanden.
――――――――――
Ludger: Hervorragendes Essen. </desc>
    <src>Komoot</src>
    <link href="https://www.komoot.de/highlight/7054632">
      <text>View POI on Komoot</text>
    </link>
    <type>Highlight</type>
  </wpt>
  <wpt lat="46.375063" lon="11.39542">
    <ele>1668.6</ele>
    <name>Schmieder Alm Guesthouse</name>
    <cmt>https://d2exd72xrrp1s7.cloudfront.net/www/000/1k6/60/60egaecl5v3976yhckrlggd64bc8n9sx-uhi54557832/0</cmt>
    <desc>Nordhesse: Die Schmieder Alm liegt auf einer Seehöhe von 1.674 Metern in der Nähe der Ortschaft Aldein im Südtiroler Unterland. Sie bietet eine gute Küche und eine wunderbare Aussicht. Ein Wanderparkplatz liegt direkt vor der Alm mit der Möglichkeit zu schönen Wanderungen über Almen und durch Wälder.
――――――――――
Andrea 🚴‍♀️⛷️🎿🥾: Tolles Essen.  Preisleistung passt.
――――――――――
🥾 Noreen 📸: Sehr freundliches Personal, leckeres Essen mit gutem Preisleistungsverhältnis.
――――――――――
JuBe: Leckere, bodenständige Küche
――――――――――
Iwo: Gasthaus Schmieder-Alm, die beste Aussicht ins Bozner Umland.
――――――――――
Andreas Trust 🥾: War leider Mitte April noch geschlossen</desc>
    <src>Komoot</src>
    <link href="https://www.komoot.de/highlight/121890">
      <text>View POI on Komoot</text>
    </link>
    <type>Highlight</type>
  </wpt>
  <wpt lat="46.37235" lon="11.396669">
    <ele>1685</ele>
    <name>Forest Trail near Heidewiese</name>
    <cmt>https://d2exd72xrrp1s7.cloudfront.net/www/000/1k4/gv/gv4lrf0zq9fp1fi6wd5a9sx9c3fzdedtg-uhi17405256/0</cmt>
    <desc></desc>
    <src>Komoot</src>
    <link href="https://www.komoot.de/highlight/111023">
      <text>View POI on Komoot</text>
    </link>
    <type>Highlight</type>
  </wpt>
  <wpt lat="46.368756" lon="11.411051">
    <ele>1577.3</ele>
    <name>Lahner Alpine Hut</name>
    <cmt>https://d2exd72xrrp1s7.cloudfront.net/www/000/1k5/s2/s2lpkt5vzrh51m7bqqe4zmfuv3w13y40x-uhi40128483/0</cmt>
    <desc>R.Bungartz: Hier auf der schönen Lahneralm kann man sich nach einer Wanderung durch die beeindruckende Bletterbachschlucht die verdiente Stärkung gönnen. Wir haben uns für die Bratkartoffeln mit Spiegeleiern und Speck entschieden. Genau das Richtige nach unserer abenteuerlichen Wanderung durch die Bletterbachschlucht.
――――――――――
Karin  🐾   🇺🇦 🕊: Sehr leckerer Kaiserschmarrn.  Sehr freundliches Personal. Saubere Hütte.
――――――――――
Michael: Für alle Wanderer rund um die Bletterbachschlucht ein Muss zur Einkehr. 
Super leckeres Essen, egal ob herzhaft oder süß. Ein Traum!

Ein wirkliches Highlight! ;)
――――――――――
Petra 🌞💐🥳🥾🚴: Sehr schöne Alm, die neu renoviert wurde und innen mit sehr schönem warmen Zirpelholz ausgestattet wurde. Empfehlenswert ist Strauben mit Preiselbeeren, die es erst ab 15:00 Uhr serviert werden.
――――――――――
Kerstin: Sind heute nach der Bletterbachschluchtentour in der Lahn Alm eingekehrt. Viele Sitzplätze (auch im Schatten). Mein Kaiserschmarrn war sehr lecker und reichlich. Habe 12 € gezahlt. Die Bedienung war sehr freundlich. Hier kann man die Helme (die in der Bletterbachschlucht Pflicht sind) wieder abgeben, wenn man nicht vor hat den selben Weg zurück zu gehen.
――――――――――
Andrea 🚴‍♀️⛷️🎿🥾: Moderne Alm, moderate Preise. Nach der Wanderung gibt es hier einen genialen Kaiserschmarrn.
――――――――――
Denis: Tolle Einkehrmöglichkeit nach einem Gang durch die Bletterbachschlucht!
――――――――――
Grauer Rabe: Stand des Tips: Februar 2025
(Fotobuch, Erfassen der Tour in Komoot und so Zeug :) )

Infos zu Öffnungszeiten: https://www.lahner-alm.com/
Wir fanden das Essen auf der Alm gut.
――――――――――
Silke: Schöne Einkehrmöglichkeit
――――――――――
Christian: Genau richtig gelegen nach einer Wanderung durch die Bletterbach - Schlucht . Lecker Käsknödel und Kaiserschmarrn . Die Schlucht ist auf jeden Fall einen Besuch wert . Wir waren um die Mittagszeit da, so war gutes Licht .
――――――――――
Melanie: sehr schöne Alm, leckeres essen und kann super mit der Bletterbachschlucht kombiniert werden. https://www.komoot.com/de-de/tour/2520067278</desc>
    <src>Komoot</src>
    <link href="https://www.komoot.de/highlight/3697473">
      <text>View POI on Komoot</text>
    </link>
    <type>Highlight</type>
  </wpt>
  <wpt lat="46.373394" lon="11.408772">
    <ele>1768.5</ele>
    <name>Wildflower Meadow</name>
    <cmt>https://d2exd72xrrp1s7.cloudfront.net/www/000/1k3/1c/1c28wdqigul2ktkrkq6brd8dw31aqf7f9-uhi6678803/0</cmt>
    <desc></desc>
    <src>Komoot</src>
    <link href="https://www.komoot.de/highlight/860333">
      <text>View POI on Komoot</text>
    </link>
    <type>Highlight</type>
  </wpt>
  <wpt lat="46.373313" lon="11.401816">
    <ele>1682.5</ele>
    <name>View of Weißhorn</name>
    <cmt>https://d2exd72xrrp1s7.cloudfront.net/www/000/1k7/1p/1pm004ykfng0j1w7t6wqnltnb04pjqmqet-uhi64996647/0</cmt>
    <desc>Stefan: Angenehmer Wanderweg mit herrlichem Ausblick auf das Weißhorn</desc>
    <src>Komoot</src>
    <link href="https://www.komoot.de/highlight/6110846">
      <text>View POI on Komoot</text>
    </link>
    <type>Highlight</type>
  </wpt>
  <wpt lat="46.373171" lon="11.401597">
    <ele>1772.5</ele>
    <name>View of the Valley</name>
    <cmt>https://d2exd72xrrp1s7.cloudfront.net/www/000/1k7/35/350qf75e46u3u2ktdv4lvl1e4nn4d2t3-uhi63004222/0</cmt>
    <desc>Simone Peluffo: punto panoramico a strapiombo con vista sulla valle</desc>
    <src>Komoot</src>
    <link href="https://www.komoot.de/highlight/5946217">
      <text>View POI on Komoot</text>
    </link>
    <type>Highlight</type>
  </wpt>
  <wpt lat="46.37321" lon="11.401592">
    <ele>1705.5</ele>
    <name>Bench with a View of the Dolomites</name>
    <cmt>https://d2exd72xrrp1s7.cloudfront.net/www/000/1k2/3f/3fvl5dyhc9i21lnu8fbyqs7ux2nlzp334-uhi3228820/0</cmt>
    <desc>Nordhesse: Wandert man auf der Aldeiner Almenrunde (Südtiroler Almenwanderungen von H.P. Menara) kommt man an dieser Rastbank vorbei. 
Schöner Pausenplatz mit wundervoller Aussicht.</desc>
    <src>Komoot</src>
    <link href="https://www.komoot.de/highlight/513803">
      <text>View POI on Komoot</text>
    </link>
    <type>Highlight</type>
  </wpt>
  <trk>
    <name>Gasthaus Schmieder Alm – Blick auf das Weißhorn Runde von Petersberg</name>
    <desc>Distance: 4.896km, Estimated duration: 1.45h, Elevation up: 153.17976103074875m, Elevation down: 151.17965097989077m, Grade: easy</desc>
    <link href="https://www.komoot.de/tour/2501593584">
      <text>View tour on Komoot</text>
    </link>
    <trkseg>
      <trkpt lat="46.37554" lon="11.395554">
        <ele>1668.2</ele>
        <time>2025-08-17T08:14:53.783000Z</time>
      </trkpt>
      <trkpt lat="46.37543" lon="11.395563">
        <ele>1667.7</ele>
        <time>2025-08-17T08:15:05.707000Z</time>
      </trkpt>
      <trkpt lat="46.37542" lon="11.395507">
        <ele>1667.5</ele>
        <time>2025-08-17T08:15:10.101000Z</time>
      </trkpt>
      <trkpt lat="46.37543" lon="11.395563">
        <ele>1667.4</ele>
        <time>2025-08-17T08:15:14.376000Z</time>
      </trkpt>
      <trkpt lat="46.375374" lon="11.395556">
        <ele>1667.1</ele>
        <time>2025-08-17T08:15:20.536000Z</time>
      </trkpt>
      <trkpt lat="46.37517" lon="11.395508">
        <ele>1665.9</ele>
        <time>2025-08-17T08:15:43.590000Z</time>
      </trkpt>
      <trkpt lat="46.37505" lon="11.395421">
        <ele>1665.1</ele>
        <time>2025-08-17T08:15:58.674000Z</time>
      </trkpt>
      <trkpt lat="46.374982" lon="11.395377">
        <ele>1664.6</ele>
        <time>2025-08-17T08:16:07.110000Z</time>
      </trkpt>
      <trkpt lat="46.374807" lon="11.395367">
        <ele>1663.4</ele>
        <time>2025-08-17T08:16:27.096000Z</time>
      </trkpt>
      <trkpt lat="46.374755" lon="11.395371">
        <ele>1663</ele>
        <time>2025-08-17T08:16:33.139000Z</time>
      </trkpt>
      <trkpt lat="46.374677" lon="11.395457">
        <ele>1662.2</ele>
        <time>2025-08-17T08:16:44.454000Z</time>
      </trkpt>
      <trkpt lat="46.374619" lon="11.395585">
        <ele>1661.3</ele>
        <time>2025-08-17T08:16:56.826000Z</time>
      </trkpt>
      <trkpt lat="46.374404" lon="11.396132">
        <ele>1656.8</ele>
        <time>2025-08-17T08:17:49.201000Z</time>
      </trkpt>
      <trkpt lat="46.374243" lon="11.396417">
        <ele>1653.7</ele>
        <time>2025-08-17T08:18:20.620000Z</time>
      </trkpt>
      <trkpt lat="46.374134" lon="11.396548">
        <ele>1651.9</ele>
        <time>2025-08-17T08:18:38.140000Z</time>
      </trkpt>
      <trkpt lat="46.374071" lon="11.396584">
        <ele>1651.1</ele>
        <time>2025-08-17T08:18:46.707000Z</time>
      </trkpt>
      <trkpt lat="46.373861" lon="11.396563">
        <ele>1648.5</ele>
        <time>2025-08-17T08:19:12.670000Z</time>
      </trkpt>
      <trkpt lat="46.373377" lon="11.396428">
        <ele>1644.4</ele>
        <time>2025-08-17T08:20:10.244000Z</time>
      </trkpt>
      <trkpt lat="46.373213" lon="11.396344">
        <ele>1643.2</ele>
        <time>2025-08-17T08:20:30.017000Z</time>
      </trkpt>
      <trkpt lat="46.373004" lon="11.396135">
        <ele>1640.9</ele>
        <time>2025-08-17T08:21:00.013000Z</time>
      </trkpt>
      <trkpt lat="46.37298" lon="11.396171">
        <ele>1640.5</ele>
        <time>2025-08-17T08:21:04.104000Z</time>
      </trkpt>
      <trkpt lat="46.372979" lon="11.396245">
        <ele>1640</ele>
        <time>2025-08-17T08:21:10.261000Z</time>
      </trkpt>
      <trkpt lat="46.373019" lon="11.396762">
        <ele>1635.7</ele>
        <time>2025-08-17T08:21:54.504000Z</time>
      </trkpt>
      <trkpt lat="46.372984" lon="11.396877">
        <ele>1634.7</ele>
        <time>2025-08-17T08:22:05.178000Z</time>
      </trkpt>
      <trkpt lat="46.37272" lon="11.396742">
        <ele>1631.2</ele>
        <time>2025-08-17T08:22:39.929000Z</time>
      </trkpt>
      <trkpt lat="46.372611" lon="11.396734">
        <ele>1629.9</ele>
        <time>2025-08-17T08:22:53.470000Z</time>
      </trkpt>
      <trkpt lat="46.372429" lon="11.396774">
        <ele>1627.9</ele>
        <time>2025-08-17T08:23:15.759000Z</time>
      </trkpt>
      <trkpt lat="46.372339" lon="11.396694">
        <ele>1626.9</ele>
        <time>2025-08-17T08:23:28.370000Z</time>
      </trkpt>
      <trkpt lat="46.372229" lon="11.396595">
        <ele>1625.4</ele>
        <time>2025-08-17T08:23:44.141000Z</time>
      </trkpt>
      <trkpt lat="46.371999" lon="11.396471">
        <ele>1622.2</ele>
        <time>2025-08-17T08:24:14.804000Z</time>
      </trkpt>
      <trkpt lat="46.371891" lon="11.396469">
        <ele>1620.6</ele>
        <time>2025-08-17T08:24:28.732000Z</time>
      </trkpt>
      <trkpt lat="46.371816" lon="11.396541">
        <ele>1619.2</ele>
        <time>2025-08-17T08:24:40.473000Z</time>
      </trkpt>
      <trkpt lat="46.371795" lon="11.396898">
        <ele>1615.4</ele>
        <time>2025-08-17T08:25:12.497000Z</time>
      </trkpt>
      <trkpt lat="46.37186" lon="11.398243">
        <ele>1605</ele>
        <time>2025-08-17T08:27:05.983000Z</time>
      </trkpt>
      <trkpt lat="46.371834" lon="11.398384">
        <ele>1604.1</ele>
        <time>2025-08-17T08:27:17.773000Z</time>
      </trkpt>
      <trkpt lat="46.371597" lon="11.398649">
        <ele>1601.5</ele>
        <time>2025-08-17T08:27:52.864000Z</time>
      </trkpt>
      <trkpt lat="46.37148" lon="11.398898">
        <ele>1599.6</ele>
        <time>2025-08-17T08:28:17.314000Z</time>
      </trkpt>
      <trkpt lat="46.371385" lon="11.399244">
        <ele>1597.6</ele>
        <time>2025-08-17T08:28:47.106000Z</time>
      </trkpt>
      <trkpt lat="46.371287" lon="11.399873">
        <ele>1594.7</ele>
        <time>2025-08-17T08:29:37.426000Z</time>
      </trkpt>
      <trkpt lat="46.371295" lon="11.400042">
        <ele>1594.1</ele>
        <time>2025-08-17T08:29:50.347000Z</time>
      </trkpt>
      <trkpt lat="46.371249" lon="11.400362">
        <ele>1593.2</ele>
        <time>2025-08-17T08:30:14.747000Z</time>
      </trkpt>
      <trkpt lat="46.37119" lon="11.400601">
        <ele>1592.7</ele>
        <time>2025-08-17T08:30:33.264000Z</time>
      </trkpt>
      <trkpt lat="46.371271" lon="11.401529">
        <ele>1592.6</ele>
        <time>2025-08-17T08:31:38.080000Z</time>
      </trkpt>
      <trkpt lat="46.37123" lon="11.401705">
        <ele>1592.8</ele>
        <time>2025-08-17T08:31:51.629000Z</time>
      </trkpt>
      <trkpt lat="46.371109" lon="11.4018">
        <ele>1593.2</ele>
        <time>2025-08-17T08:32:06.764000Z</time>
      </trkpt>
      <trkpt lat="46.370948" lon="11.401875">
        <ele>1593.9</ele>
        <time>2025-08-17T08:32:25.976000Z</time>
      </trkpt>
      <trkpt lat="46.37073" lon="11.402043">
        <ele>1595.1</ele>
        <time>2025-08-17T08:32:54.872000Z</time>
      </trkpt>
      <trkpt lat="46.370661" lon="11.402138">
        <ele>1595.6</ele>
        <time>2025-08-17T08:33:06.151000Z</time>
      </trkpt>
      <trkpt lat="46.370618" lon="11.402249">
        <ele>1596</ele>
        <time>2025-08-17T08:33:16.439000Z</time>
      </trkpt>
      <trkpt lat="46.370597" lon="11.402508">
        <ele>1596.9</ele>
        <time>2025-08-17T08:33:37.565000Z</time>
      </trkpt>
      <trkpt lat="46.370482" lon="11.402541">
        <ele>1597.5</ele>
        <time>2025-08-17T08:33:51.272000Z</time>
      </trkpt>
      <trkpt lat="46.370342" lon="11.402691">
        <ele>1598.2</ele>
        <time>2025-08-17T08:34:11.086000Z</time>
      </trkpt>
      <trkpt lat="46.370303" lon="11.402734">
        <ele>1598.4</ele>
        <time>2025-08-17T08:34:16.703000Z</time>
      </trkpt>
      <trkpt lat="46.370213" lon="11.402786">
        <ele>1598.7</ele>
        <time>2025-08-17T08:34:27.588000Z</time>
      </trkpt>
      <trkpt lat="46.369935" lon="11.402774">
        <ele>1599.6</ele>
        <time>2025-08-17T08:34:58.743000Z</time>
      </trkpt>
      <trkpt lat="46.369757" lon="11.402834">
        <ele>1600.2</ele>
        <time>2025-08-17T08:35:19.076000Z</time>
      </trkpt>
      <trkpt lat="46.36981" lon="11.403291">
        <ele>1601.5</ele>
        <time>2025-08-17T08:35:55.402000Z</time>
      </trkpt>
      <trkpt lat="46.369768" lon="11.403453">
        <ele>1602</ele>
        <time>2025-08-17T08:36:09.072000Z</time>
      </trkpt>
      <trkpt lat="46.369595" lon="11.403821">
        <ele>1602.8</ele>
        <time>2025-08-17T08:36:42.843000Z</time>
      </trkpt>
      <trkpt lat="46.369507" lon="11.404009">
        <ele>1603</ele>
        <time>2025-08-17T08:36:59.293000Z</time>
      </trkpt>
      <trkpt lat="46.369362" lon="11.404203">
        <ele>1603.1</ele>
        <time>2025-08-17T08:37:19.306000Z</time>
      </trkpt>
      <trkpt lat="46.369088" lon="11.404509">
        <ele>1602.9</ele>
        <time>2025-08-17T08:37:54.353000Z</time>
      </trkpt>
      <trkpt lat="46.368981" lon="11.404694">
        <ele>1602.6</ele>
        <time>2025-08-17T08:38:11.575000Z</time>
      </trkpt>
      <trkpt lat="46.368475" lon="11.405665">
        <ele>1601.3</ele>
        <time>2025-08-17T08:39:38.429000Z</time>
      </trkpt>
      <trkpt lat="46.36835" lon="11.405967">
        <ele>1600.6</ele>
        <time>2025-08-17T08:40:04.125000Z</time>
      </trkpt>
      <trkpt lat="46.368339" lon="11.406124">
        <ele>1600.2</ele>
        <time>2025-08-17T08:40:15.802000Z</time>
      </trkpt>
      <trkpt lat="46.368391" lon="11.406432">
        <ele>1599.3</ele>
        <time>2025-08-17T08:40:39.514000Z</time>
      </trkpt>
      <trkpt lat="46.36849" lon="11.406699">
        <ele>1598.3</ele>
        <time>2025-08-17T08:41:02.401000Z</time>
      </trkpt>
      <trkpt lat="46.368449" lon="11.406897">
        <ele>1597.6</ele>
        <time>2025-08-17T08:41:18.258000Z</time>
      </trkpt>
      <trkpt lat="46.368477" lon="11.407395">
        <ele>1595.7</ele>
        <time>2025-08-17T08:41:56.482000Z</time>
      </trkpt>
      <trkpt lat="46.368426" lon="11.407754">
        <ele>1594.7</ele>
        <time>2025-08-17T08:42:23.942000Z</time>
      </trkpt>
      <trkpt lat="46.368445" lon="11.408118">
        <ele>1593.7</ele>
        <time>2025-08-17T08:42:51.090000Z</time>
      </trkpt>
      <trkpt lat="46.368544" lon="11.408442">
        <ele>1592.6</ele>
        <time>2025-08-17T08:43:17.756000Z</time>
      </trkpt>
      <trkpt lat="46.368814" lon="11.408809">
        <ele>1591</ele>
        <time>2025-08-17T08:43:58.194000Z</time>
      </trkpt>
      <trkpt lat="46.369285" lon="11.40919">
        <ele>1588.6</ele>
        <time>2025-08-17T08:44:57.048000Z</time>
      </trkpt>
      <trkpt lat="46.369496" lon="11.409424">
        <ele>1587.5</ele>
        <time>2025-08-17T08:45:25.777000Z</time>
      </trkpt>
      <trkpt lat="46.369573" lon="11.409729">
        <ele>1586.6</ele>
        <time>2025-08-17T08:45:50.220000Z</time>
      </trkpt>
      <trkpt lat="46.369589" lon="11.409949">
        <ele>1585.8</ele>
        <time>2025-08-17T08:46:06.990000Z</time>
      </trkpt>
      <trkpt lat="46.369575" lon="11.41012">
        <ele>1585.3</ele>
        <time>2025-08-17T08:46:20.037000Z</time>
      </trkpt>
      <trkpt lat="46.369537" lon="11.410235">
        <ele>1584.9</ele>
        <time>2025-08-17T08:46:29.672000Z</time>
      </trkpt>
      <trkpt lat="46.36942" lon="11.410411">
        <ele>1584.2</ele>
        <time>2025-08-17T08:46:47.936000Z</time>
      </trkpt>
      <trkpt lat="46.36918" lon="11.410659">
        <ele>1583.2</ele>
        <time>2025-08-17T08:47:19.560000Z</time>
      </trkpt>
      <trkpt lat="46.368837" lon="11.410913">
        <ele>1582.3</ele>
        <time>2025-08-17T08:47:59.877000Z</time>
      </trkpt>
      <trkpt lat="46.368767" lon="11.411012">
        <ele>1582.2</ele>
        <time>2025-08-17T08:48:09.794000Z</time>
      </trkpt>
      <trkpt lat="46.368751" lon="11.411047">
        <ele>1582.2</ele>
        <time>2025-08-17T08:48:12.765000Z</time>
      </trkpt>
      <trkpt lat="46.368767" lon="11.411012">
        <ele>1582.2</ele>
        <time>2025-08-17T08:48:15.713000Z</time>
      </trkpt>
      <trkpt lat="46.368837" lon="11.410913">
        <ele>1582.3</ele>
        <time>2025-08-17T08:48:25.710000Z</time>
      </trkpt>
      <trkpt lat="46.36918" lon="11.410659">
        <ele>1583.2</ele>
        <time>2025-08-17T08:49:07.328000Z</time>
      </trkpt>
      <trkpt lat="46.36942" lon="11.410411">
        <ele>1584.2</ele>
        <time>2025-08-17T08:49:40.424000Z</time>
      </trkpt>
      <trkpt lat="46.369537" lon="11.410235">
        <ele>1584.9</ele>
        <time>2025-08-17T08:49:59.694000Z</time>
      </trkpt>
      <trkpt lat="46.369575" lon="11.41012">
        <ele>1585.3</ele>
        <time>2025-08-17T08:50:09.931000Z</time>
      </trkpt>
      <trkpt lat="46.369589" lon="11.409949">
        <ele>1585.8</ele>
        <time>2025-08-17T08:50:23.796000Z</time>
      </trkpt>
      <trkpt lat="46.369573" lon="11.409729">
        <ele>1586.6</ele>
        <time>2025-08-17T08:50:41.597000Z</time>
      </trkpt>
      <trkpt lat="46.369496" lon="11.409424">
        <ele>1587.5</ele>
        <time>2025-08-17T08:51:07.440000Z</time>
      </trkpt>
      <trkpt lat="46.369285" lon="11.40919">
        <ele>1588.6</ele>
        <time>2025-08-17T08:51:37.706000Z</time>
      </trkpt>
      <trkpt lat="46.368814" lon="11.408809">
        <ele>1591</ele>
        <time>2025-08-17T08:52:40.010000Z</time>
      </trkpt>
      <trkpt lat="46.368544" lon="11.408442">
        <ele>1592.6</ele>
        <time>2025-08-17T08:53:22.815000Z</time>
      </trkpt>
      <trkpt lat="46.368445" lon="11.408118">
        <ele>1593.8</ele>
        <time>2025-08-17T08:53:51.421000Z</time>
      </trkpt>
      <trkpt lat="46.368426" lon="11.407754">
        <ele>1595.4</ele>
        <time>2025-08-17T08:54:21.821000Z</time>
      </trkpt>
      <trkpt lat="46.368477" lon="11.407395">
        <ele>1597.2</ele>
        <time>2025-08-17T08:54:53.309000Z</time>
      </trkpt>
      <trkpt lat="46.368449" lon="11.406897">
        <ele>1600</ele>
        <time>2025-08-17T08:55:37.332000Z</time>
      </trkpt>
      <trkpt lat="46.36849" lon="11.406699">
        <ele>1601.2</ele>
        <time>2025-08-17T08:55:55.878000Z</time>
      </trkpt>
      <trkpt lat="46.368835" lon="11.407325">
        <ele>1606</ele>
        <time>2025-08-17T08:57:07.415000Z</time>
      </trkpt>
      <trkpt lat="46.368979" lon="11.407432">
        <ele>1607.4</ele>
        <time>2025-08-17T08:57:28.297000Z</time>
      </trkpt>
      <trkpt lat="46.369308" lon="11.408049">
        <ele>1612.4</ele>
        <time>2025-08-17T08:58:39.002000Z</time>
      </trkpt>
      <trkpt lat="46.369752" lon="11.408504">
        <ele>1617.8</ele>
        <time>2025-08-17T08:59:51.497000Z</time>
      </trkpt>
      <trkpt lat="46.369979" lon="11.408602">
        <ele>1620.2</ele>
        <time>2025-08-17T09:00:23.344000Z</time>
      </trkpt>
      <trkpt lat="46.370669" lon="11.408812">
        <ele>1628.6</ele>
        <time>2025-08-17T09:02:03.563000Z</time>
      </trkpt>
      <trkpt lat="46.370919" lon="11.409198">
        <ele>1633.7</ele>
        <time>2025-08-17T09:03:00.788000Z</time>
      </trkpt>
      <trkpt lat="46.371027" lon="11.409252">
        <ele>1635.4</ele>
        <time>2025-08-17T09:03:18.874000Z</time>
      </trkpt>
      <trkpt lat="46.371045" lon="11.409261">
        <ele>1635.6</ele>
        <time>2025-08-17T09:03:21.866000Z</time>
      </trkpt>
      <trkpt lat="46.371821" lon="11.409142">
        <ele>1646.7</ele>
        <time>2025-08-17T09:05:25.613000Z</time>
      </trkpt>
      <trkpt lat="46.371909" lon="11.409209">
        <ele>1648.1</ele>
        <time>2025-08-17T09:05:40.888000Z</time>
      </trkpt>
      <trkpt lat="46.372355" lon="11.409944">
        <ele>1656.1</ele>
        <time>2025-08-17T09:07:16.736000Z</time>
      </trkpt>
      <trkpt lat="46.37244" lon="11.410419">
        <ele>1659.4</ele>
        <time>2025-08-17T09:08:01.784000Z</time>
      </trkpt>
      <trkpt lat="46.372459" lon="11.410934">
        <ele>1662.8</ele>
        <time>2025-08-17T09:08:48.789000Z</time>
      </trkpt>
      <trkpt lat="46.372402" lon="11.41127">
        <ele>1665.4</ele>
        <time>2025-08-17T09:09:21.132000Z</time>
      </trkpt>
      <trkpt lat="46.372286" lon="11.411573">
        <ele>1668.2</ele>
        <time>2025-08-17T09:09:55.126000Z</time>
      </trkpt>
      <trkpt lat="46.371902" lon="11.412357">
        <ele>1676.7</ele>
        <time>2025-08-17T09:11:33.483000Z</time>
      </trkpt>
      <trkpt lat="46.371862" lon="11.412558">
        <ele>1678.4</ele>
        <time>2025-08-17T09:11:54Z</time>
      </trkpt>
      <trkpt lat="46.371876" lon="11.412738">
        <ele>1679.8</ele>
        <time>2025-08-17T09:12:11.601000Z</time>
      </trkpt>
      <trkpt lat="46.371966" lon="11.413049">
        <ele>1682.3</ele>
        <time>2025-08-17T09:12:43.004000Z</time>
      </trkpt>
      <trkpt lat="46.371987" lon="11.413104">
        <ele>1682.8</ele>
        <time>2025-08-17T09:12:48.922000Z</time>
      </trkpt>
      <trkpt lat="46.372116" lon="11.413356">
        <ele>1684.8</ele>
        <time>2025-08-17T09:13:17.586000Z</time>
      </trkpt>
      <trkpt lat="46.372355" lon="11.413484">
        <ele>1687</ele>
        <time>2025-08-17T09:13:50.418000Z</time>
      </trkpt>
      <trkpt lat="46.372294" lon="11.413207">
        <ele>1688.5</ele>
        <time>2025-08-17T09:14:15.440000Z</time>
      </trkpt>
      <trkpt lat="46.372276" lon="11.412699">
        <ele>1690.3</ele>
        <time>2025-08-17T09:14:56.919000Z</time>
      </trkpt>
      <trkpt lat="46.372332" lon="11.412537">
        <ele>1690.8</ele>
        <time>2025-08-17T09:15:11.281000Z</time>
      </trkpt>
      <trkpt lat="46.372718" lon="11.412229">
        <ele>1692.2</ele>
        <time>2025-08-17T09:16:00.231000Z</time>
      </trkpt>
      <trkpt lat="46.372832" lon="11.411982">
        <ele>1692.9</ele>
        <time>2025-08-17T09:16:23.221000Z</time>
      </trkpt>
      <trkpt lat="46.37304" lon="11.411716">
        <ele>1694.2</ele>
        <time>2025-08-17T09:16:55.441000Z</time>
      </trkpt>
      <trkpt lat="46.373116" lon="11.411511">
        <ele>1695.2</ele>
        <time>2025-08-17T09:17:14.837000Z</time>
      </trkpt>
      <trkpt lat="46.373157" lon="11.411249">
        <ele>1696.4</ele>
        <time>2025-08-17T09:17:37.546000Z</time>
      </trkpt>
      <trkpt lat="46.373146" lon="11.411039">
        <ele>1697.4</ele>
        <time>2025-08-17T09:17:55.704000Z</time>
      </trkpt>
      <trkpt lat="46.373232" lon="11.410302">
        <ele>1701.6</ele>
        <time>2025-08-17T09:19:01.577000Z</time>
      </trkpt>
      <trkpt lat="46.373194" lon="11.410134">
        <ele>1702.7</ele>
        <time>2025-08-17T09:19:17.223000Z</time>
      </trkpt>
      <trkpt lat="46.373266" lon="11.409576">
        <ele>1705.9</ele>
        <time>2025-08-17T09:20:07.540000Z</time>
      </trkpt>
      <trkpt lat="46.373352" lon="11.409402">
        <ele>1707.1</ele>
        <time>2025-08-17T09:20:26.296000Z</time>
      </trkpt>
      <trkpt lat="46.373389" lon="11.409094">
        <ele>1708.7</ele>
        <time>2025-08-17T09:20:53.290000Z</time>
      </trkpt>
      <trkpt lat="46.373357" lon="11.40878">
        <ele>1710.1</ele>
        <time>2025-08-17T09:21:19.979000Z</time>
      </trkpt>
      <trkpt lat="46.373316" lon="11.408378">
        <ele>1711.5</ele>
        <time>2025-08-17T09:21:53.003000Z</time>
      </trkpt>
      <trkpt lat="46.373166" lon="11.407892">
        <ele>1712.4</ele>
        <time>2025-08-17T09:22:32.989000Z</time>
      </trkpt>
      <trkpt lat="46.373205" lon="11.407626">
        <ele>1712.4</ele>
        <time>2025-08-17T09:22:51.785000Z</time>
      </trkpt>
      <trkpt lat="46.373443" lon="11.407107">
        <ele>1711.4</ele>
        <time>2025-08-17T09:23:36.889000Z</time>
      </trkpt>
      <trkpt lat="46.373534" lon="11.40659">
        <ele>1709.8</ele>
        <time>2025-08-17T09:24:17.010000Z</time>
      </trkpt>
      <trkpt lat="46.373624" lon="11.406446">
        <ele>1709.2</ele>
        <time>2025-08-17T09:24:31.722000Z</time>
      </trkpt>
      <trkpt lat="46.373632" lon="11.406126">
        <ele>1708.1</ele>
        <time>2025-08-17T09:24:56.101000Z</time>
      </trkpt>
      <trkpt lat="46.373728" lon="11.405855">
        <ele>1707.1</ele>
        <time>2025-08-17T09:25:19.205000Z</time>
      </trkpt>
      <trkpt lat="46.373699" lon="11.405545">
        <ele>1706.1</ele>
        <time>2025-08-17T09:25:42.719000Z</time>
      </trkpt>
      <trkpt lat="46.373721" lon="11.405439">
        <ele>1705.8</ele>
        <time>2025-08-17T09:25:51.036000Z</time>
      </trkpt>
      <trkpt lat="46.373833" lon="11.405343">
        <ele>1705.3</ele>
        <time>2025-08-17T09:26:05.110000Z</time>
      </trkpt>
      <trkpt lat="46.373967" lon="11.405044">
        <ele>1704.5</ele>
        <time>2025-08-17T09:26:31.361000Z</time>
      </trkpt>
      <trkpt lat="46.374004" lon="11.404361">
        <ele>1703.4</ele>
        <time>2025-08-17T09:27:20.920000Z</time>
      </trkpt>
      <trkpt lat="46.373981" lon="11.404003">
        <ele>1702.8</ele>
        <time>2025-08-17T09:27:46.938000Z</time>
      </trkpt>
      <trkpt lat="46.374033" lon="11.403793">
        <ele>1702.4</ele>
        <time>2025-08-17T09:28:03.226000Z</time>
      </trkpt>
      <trkpt lat="46.373942" lon="11.403466">
        <ele>1701.7</ele>
        <time>2025-08-17T09:28:29.063000Z</time>
      </trkpt>
      <trkpt lat="46.373874" lon="11.403365">
        <ele>1701.4</ele>
        <time>2025-08-17T09:28:39.462000Z</time>
      </trkpt>
      <trkpt lat="46.37374" lon="11.402877">
        <ele>1700.2</ele>
        <time>2025-08-17T09:29:18.066000Z</time>
      </trkpt>
      <trkpt lat="46.373547" lon="11.402515">
        <ele>1699.7</ele>
        <time>2025-08-17T09:29:50.719000Z</time>
      </trkpt>
      <trkpt lat="46.373499" lon="11.402348">
        <ele>1699.7</ele>
        <time>2025-08-17T09:30:03.308000Z</time>
      </trkpt>
      <trkpt lat="46.373295" lon="11.401862">
        <ele>1700.5</ele>
        <time>2025-08-17T09:30:45.550000Z</time>
      </trkpt>
      <trkpt lat="46.373286" lon="11.401835">
        <ele>1700.6</ele>
        <time>2025-08-17T09:30:47.929000Z</time>
      </trkpt>
      <trkpt lat="46.373231" lon="11.401672">
        <ele>1701.2</ele>
        <time>2025-08-17T09:31:02.478000Z</time>
      </trkpt>
      <trkpt lat="46.373238" lon="11.401614">
        <ele>1701.4</ele>
        <time>2025-08-17T09:31:07.304000Z</time>
      </trkpt>
      <trkpt lat="46.37324" lon="11.401599">
        <ele>1701.5</ele>
        <time>2025-08-17T09:31:08.553000Z</time>
      </trkpt>
      <trkpt lat="46.37325" lon="11.401518">
        <ele>1701.8</ele>
        <time>2025-08-17T09:31:15.376000Z</time>
      </trkpt>
      <trkpt lat="46.373322" lon="11.401418">
        <ele>1702.4</ele>
        <time>2025-08-17T09:31:27.340000Z</time>
      </trkpt>
      <trkpt lat="46.373537" lon="11.401384">
        <ele>1703.9</ele>
        <time>2025-08-17T09:31:54.226000Z</time>
      </trkpt>
      <trkpt lat="46.373709" lon="11.40132">
        <ele>1705.4</ele>
        <time>2025-08-17T09:32:16.927000Z</time>
      </trkpt>
      <trkpt lat="46.373999" lon="11.400817">
        <ele>1709.1</ele>
        <time>2025-08-17T09:33:14.893000Z</time>
      </trkpt>
      <trkpt lat="46.374006" lon="11.400529">
        <ele>1710.5</ele>
        <time>2025-08-17T09:33:39.514000Z</time>
      </trkpt>
      <trkpt lat="46.374213" lon="11.400104">
        <ele>1712</ele>
        <time>2025-08-17T09:34:20.781000Z</time>
      </trkpt>
      <trkpt lat="46.374239" lon="11.399945">
        <ele>1712.1</ele>
        <time>2025-08-17T09:34:32.454000Z</time>
      </trkpt>
      <trkpt lat="46.374299" lon="11.399839">
        <ele>1712.1</ele>
        <time>2025-08-17T09:34:42.007000Z</time>
      </trkpt>
      <trkpt lat="46.374287" lon="11.399518">
        <ele>1711.4</ele>
        <time>2025-08-17T09:35:05.694000Z</time>
      </trkpt>
      <trkpt lat="46.374514" lon="11.398883">
        <ele>1707.2</ele>
        <time>2025-08-17T09:36:03.396000Z</time>
      </trkpt>
      <trkpt lat="46.374531" lon="11.39871">
        <ele>1705.7</ele>
        <time>2025-08-17T09:36:18.285000Z</time>
      </trkpt>
      <trkpt lat="46.374656" lon="11.398255">
        <ele>1700.9</ele>
        <time>2025-08-17T09:37:01.294000Z</time>
      </trkpt>
      <trkpt lat="46.374762" lon="11.398075">
        <ele>1698.4</ele>
        <time>2025-08-17T09:37:22.460000Z</time>
      </trkpt>
      <trkpt lat="46.374904" lon="11.397607">
        <ele>1692.4</ele>
        <time>2025-08-17T09:38:09.237000Z</time>
      </trkpt>
      <trkpt lat="46.374939" lon="11.397232">
        <ele>1687.6</ele>
        <time>2025-08-17T09:38:45.304000Z</time>
      </trkpt>
      <trkpt lat="46.375102" lon="11.396737">
        <ele>1681.7</ele>
        <time>2025-08-17T09:39:34.334000Z</time>
      </trkpt>
      <trkpt lat="46.375096" lon="11.396606">
        <ele>1680.5</ele>
        <time>2025-08-17T09:39:45.686000Z</time>
      </trkpt>
      <trkpt lat="46.375067" lon="11.396499">
        <ele>1679.5</ele>
        <time>2025-08-17T09:39:55.599000Z</time>
      </trkpt>
      <trkpt lat="46.375089" lon="11.396279">
        <ele>1677.7</ele>
        <time>2025-08-17T09:40:14.529000Z</time>
      </trkpt>
      <trkpt lat="46.374952" lon="11.395825">
        <ele>1674.2</ele>
        <time>2025-08-17T09:40:55.677000Z</time>
      </trkpt>
      <trkpt lat="46.374974" lon="11.395731">
        <ele>1673.6</ele>
        <time>2025-08-17T09:41:03.668000Z</time>
      </trkpt>
      <trkpt lat="46.37503" lon="11.395653">
        <ele>1673</ele>
        <time>2025-08-17T09:41:12.770000Z</time>
      </trkpt>
      <trkpt lat="46.375318" lon="11.395606">
        <ele>1671.1</ele>
        <time>2025-08-17T09:41:45.425000Z</time>
      </trkpt>
      <trkpt lat="46.375374" lon="11.395556">
        <ele>1670.8</ele>
        <time>2025-08-17T09:41:52.651000Z</time>
      </trkpt>
      <trkpt lat="46.37543" lon="11.395563">
        <ele>1670.6</ele>
        <time>2025-08-17T09:41:58.684000Z</time>
      </trkpt>
      <trkpt lat="46.37554" lon="11.395554">
        <ele>1670.2</ele>
        <time>2025-08-17T09:42:10.534000Z</time>
      </trkpt>
    </trkseg>
  </trk>
</gpx>