<?xml version="1.0" encoding="UTF-8"?>
<gpx xmlns="http://www.topografix.com/GPX/1/1" xmlns:xsi="http://www.w3.org/2001/XMLSchema-instance" xsi:schemaLocation="http://www.topografix.com/GPX/1/1 http://www.topografix.com/GPX/1/1/gpx.xsd" version="1.1" creator="Robert Kampf">
  <metadata>
    <name>Hansenhohl-Schluchtweg – Mehlbrünnele Kneippanlage Runde von Thannhausen</name>
    <desc>Distance: 5.018km, Estimated duration: 1.34h, Elevation up: 58.156251863914235m, Elevation down: 57.48341922351506m, Grade: easy</desc>
    <author>
      <name>Robert Kampf</name>
      <link href="https://www.komoot.de/user/4125295338453">
        <text>View Robert Kampf's Profile on Komoot</text>
      </link>
    </author>
    <link href="https://www.komoot.de/tour/3037253319">
      <text>View tour on Komoot</text>
    </link>
  </metadata>
  <wpt lat="48.284927" lon="10.474949">
    <name>Thannhausen - Hansenhohl</name>
    <cmt></cmt>
    <desc>Thannhausen, 86470, DE</desc>
    <src>Komoot</src>
    <type>POI</type>
  </wpt>
  <wpt lat="48.285089" lon="10.474779">
    <ele>553</ele>
    <name>Leonhard's Chapel</name>
    <cmt>https://d2exd72xrrp1s7.cloudfront.net/www/000/1k5/bc/bc19la6sqod21ayr79ehl7ymd3zqzlx92-uhi44790321/0</cmt>
    <desc></desc>
    <src>Komoot</src>
    <link href="https://www.komoot.de/highlight/3978090">
      <text>View POI on Komoot</text>
    </link>
    <type>Highlight</type>
  </wpt>
  <wpt lat="48.282986" lon="10.48059">
    <ele>551.6</ele>
    <name>Hansenhohl Nature Experience — Gorge Trail</name>
    <cmt>https://d2exd72xrrp1s7.cloudfront.net/www/000/1k6/1h/1hsvm4eqxys791seljfcvgv1gw47ek5pxt-uhi50799406/0</cmt>
    <desc>Stephanie: Ein Extra für Kinder: Über eine App kann eine Krimigeschichte enträtselt werden (am 1. Schild ist der QR-Code zur App und dort auch die Geschichte starten!). Entlang des Pfades befinden sich Beweisstücke/Hinweise zur Lösung, super mit Kindern! 
――――――――――
🚵🌲Christian👨‍👩‍👧‍👦: Am oberen Ende des Weges an der Gabelung nach rechts gehen lohnt sich nicht.
――――――――――
TS Blue Chili: Schöner informativer Steig 😀 mit vielen Naturtreppen, jedoch leider nicht besonders lang 🥲.
――――――――――
Michael: Für Kinder ganz nett gemacht</desc>
    <src>Komoot</src>
    <link href="https://www.komoot.de/highlight/4533503">
      <text>View POI on Komoot</text>
    </link>
    <type>Highlight</type>
  </wpt>
  <wpt lat="48.283835" lon="10.485233">
    <ele>558.8</ele>
    <name>View of the Surrounding Fields in Naturpark Augsburg - Westliche Wälder</name>
    <cmt>https://d2exd72xrrp1s7.cloudfront.net/www/000/1k7/b1/b1ogdqj441y19xdpifcmkbft4p86nymp-uhi64604734/0</cmt>
    <desc></desc>
    <src>Komoot</src>
    <link href="https://www.komoot.de/highlight/6080754">
      <text>View POI on Komoot</text>
    </link>
    <type>Highlight</type>
  </wpt>
  <wpt lat="48.289819" lon="10.499534">
    <ele>584</ele>
    <name>Kneipp pool and gazebo in Naturpark Augsburg – Westliche Wälder</name>
    <cmt>https://d2exd72xrrp1s7.cloudfront.net/www/000/1k5/wl/wliz0mcb2tnb1g382nc2jy6203svp96zy-uhi35249500/0</cmt>
    <desc>Chris Zäpfle: Die Kneipp Anlage ist schon sehr verwahrlost</desc>
    <src>Komoot</src>
    <link href="https://www.komoot.de/highlight/3336886">
      <text>View POI on Komoot</text>
    </link>
    <type>Highlight</type>
  </wpt>
  <wpt lat="48.289747" lon="10.499477">
    <ele>547.4</ele>
    <name>Mehlbrünnele Kneipp facility</name>
    <cmt>https://d2exd72xrrp1s7.cloudfront.net/www/000/1k4/eg/egq8yi2rcdnd15dbreqj140wm3gdrqjqs-uhi18218393/0</cmt>
    <desc>Alex: Toller Stop für ein Fußbad und zum Nachfüllen von Trinkflaschen
――――――――――
Hebbe: Mehlbrünnele mit Kneippanlage 
――――――――――
Hebbe: Herbststimmung beim Mehlbrünnele 🪾🍂</desc>
    <src>Komoot</src>
    <link href="https://www.komoot.de/highlight/7533235">
      <text>View POI on Komoot</text>
    </link>
    <type>Highlight</type>
  </wpt>
  <wpt lat="48.28458" lon="10.475665">
    <ele>517.4</ele>
    <name>Crime App Adventure in Naturpark Augsburg – Westliche Wälder</name>
    <cmt></cmt>
    <desc>Christine: Man kann sich eine Krimi App Downloaden und Hinweise im Wald finden um das Rätsel zu lösen. Ganz nett für Familien bzw. ältere Kinder.</desc>
    <src>Komoot</src>
    <link href="https://www.komoot.de/highlight/7132272">
      <text>View POI on Komoot</text>
    </link>
    <type>Highlight</type>
  </wpt>
  <trk>
    <name>Hansenhohl-Schluchtweg – Mehlbrünnele Kneippanlage Runde von Thannhausen</name>
    <desc>Distance: 5.018km, Estimated duration: 1.34h, Elevation up: 58.156251863914235m, Elevation down: 57.48341922351506m, Grade: easy</desc>
    <link href="https://www.komoot.de/tour/3037253319">
      <text>View tour on Komoot</text>
    </link>
    <trkseg>
      <trkpt lat="48.284911" lon="10.474959">
        <ele>512.8</ele>
        <time>2026-06-14T12:31:48.130000Z</time>
      </trkpt>
      <trkpt lat="48.284828" lon="10.474644">
        <ele>512.7</ele>
        <time>2026-06-14T12:32:10.988000Z</time>
      </trkpt>
      <trkpt lat="48.284932" lon="10.474668">
        <ele>512.7</ele>
        <time>2026-06-14T12:32:21.665000Z</time>
      </trkpt>
      <trkpt lat="48.285104" lon="10.474825">
        <ele>512.9</ele>
        <time>2026-06-14T12:32:42.538000Z</time>
      </trkpt>
      <trkpt lat="48.284932" lon="10.474668">
        <ele>513.2</ele>
        <time>2026-06-14T12:33:03.924000Z</time>
      </trkpt>
      <trkpt lat="48.284828" lon="10.474644">
        <ele>513.4</ele>
        <time>2026-06-14T12:33:15.146000Z</time>
      </trkpt>
      <trkpt lat="48.284765" lon="10.474647">
        <ele>513.6</ele>
        <time>2026-06-14T12:33:22.030000Z</time>
      </trkpt>
      <trkpt lat="48.284747" lon="10.474585">
        <ele>513.7</ele>
        <time>2026-06-14T12:33:26.978000Z</time>
      </trkpt>
      <trkpt lat="48.284724" lon="10.474503">
        <ele>513.9</ele>
        <time>2026-06-14T12:33:33.497000Z</time>
      </trkpt>
      <trkpt lat="48.284611" lon="10.474651">
        <ele>514.4</ele>
        <time>2026-06-14T12:33:50.259000Z</time>
      </trkpt>
      <trkpt lat="48.284671" lon="10.474905">
        <ele>515.2</ele>
        <time>2026-06-14T12:34:10.941000Z</time>
      </trkpt>
      <trkpt lat="48.284705" lon="10.47531">
        <ele>516.6</ele>
        <time>2026-06-14T12:34:43.176000Z</time>
      </trkpt>
      <trkpt lat="48.284585" lon="10.475621">
        <ele>517.9</ele>
        <time>2026-06-14T12:35:11.554000Z</time>
      </trkpt>
      <trkpt lat="48.284576" lon="10.475663">
        <ele>518.1</ele>
        <time>2026-06-14T12:35:15.100000Z</time>
      </trkpt>
      <trkpt lat="48.284502" lon="10.476008">
        <ele>519.6</ele>
        <time>2026-06-14T12:35:44.335000Z</time>
      </trkpt>
      <trkpt lat="48.284298" lon="10.476575">
        <ele>522.2</ele>
        <time>2026-06-14T12:36:36.301000Z</time>
      </trkpt>
      <trkpt lat="48.284284" lon="10.476755">
        <ele>522.8</ele>
        <time>2026-06-14T12:36:50.339000Z</time>
      </trkpt>
      <trkpt lat="48.284218" lon="10.477019">
        <ele>523.5</ele>
        <time>2026-06-14T12:37:11.800000Z</time>
      </trkpt>
      <trkpt lat="48.284064" lon="10.477178">
        <ele>524.2</ele>
        <time>2026-06-14T12:37:32.832000Z</time>
      </trkpt>
      <trkpt lat="48.283851" lon="10.477509">
        <ele>525</ele>
        <time>2026-06-14T12:38:06.362000Z</time>
      </trkpt>
      <trkpt lat="48.283822" lon="10.477803">
        <ele>525.3</ele>
        <time>2026-06-14T12:38:27.350000Z</time>
      </trkpt>
      <trkpt lat="48.28381" lon="10.477963">
        <ele>525.5</ele>
        <time>2026-06-14T12:38:38.604000Z</time>
      </trkpt>
      <trkpt lat="48.28376" lon="10.478071">
        <ele>525.6</ele>
        <time>2026-06-14T12:38:47.764000Z</time>
      </trkpt>
      <trkpt lat="48.283593" lon="10.478147">
        <ele>525.9</ele>
        <time>2026-06-14T12:39:06.383000Z</time>
      </trkpt>
      <trkpt lat="48.28354" lon="10.478211">
        <ele>526.1</ele>
        <time>2026-06-14T12:39:13.837000Z</time>
      </trkpt>
      <trkpt lat="48.283448" lon="10.478474">
        <ele>526.6</ele>
        <time>2026-06-14T12:39:35.528000Z</time>
      </trkpt>
      <trkpt lat="48.28337" lon="10.478889">
        <ele>527.6</ele>
        <time>2026-06-14T12:40:07.510000Z</time>
      </trkpt>
      <trkpt lat="48.283353" lon="10.479174">
        <ele>528.2</ele>
        <time>2026-06-14T12:40:28.865000Z</time>
      </trkpt>
      <trkpt lat="48.283175" lon="10.479532">
        <ele>529.7</ele>
        <time>2026-06-14T12:41:03.729000Z</time>
      </trkpt>
      <trkpt lat="48.283094" lon="10.479793">
        <ele>530.8</ele>
        <time>2026-06-14T12:41:26.690000Z</time>
      </trkpt>
      <trkpt lat="48.283076" lon="10.479928">
        <ele>531.3</ele>
        <time>2026-06-14T12:41:37.574000Z</time>
      </trkpt>
      <trkpt lat="48.283122" lon="10.480018">
        <ele>531.7</ele>
        <time>2026-06-14T12:41:46.679000Z</time>
      </trkpt>
      <trkpt lat="48.28315" lon="10.480202">
        <ele>532.4</ele>
        <time>2026-06-14T12:42:01.620000Z</time>
      </trkpt>
      <trkpt lat="48.283186" lon="10.480477">
        <ele>533.5</ele>
        <time>2026-06-14T12:42:23.888000Z</time>
      </trkpt>
      <trkpt lat="48.283179" lon="10.480532">
        <ele>533.7</ele>
        <time>2026-06-14T12:42:28.293000Z</time>
      </trkpt>
      <trkpt lat="48.283116" lon="10.480627">
        <ele>534.2</ele>
        <time>2026-06-14T12:42:38.919000Z</time>
      </trkpt>
      <trkpt lat="48.283026" lon="10.480627">
        <ele>534.6</ele>
        <time>2026-06-14T12:42:49.597000Z</time>
      </trkpt>
      <trkpt lat="48.282985" lon="10.480596">
        <ele>534.9</ele>
        <time>2026-06-14T12:42:54.988000Z</time>
      </trkpt>
      <trkpt lat="48.282912" lon="10.480648">
        <ele>535.2</ele>
        <time>2026-06-14T12:43:04.364000Z</time>
      </trkpt>
      <trkpt lat="48.282799" lon="10.48086">
        <ele>536</ele>
        <time>2026-06-14T12:43:25.167000Z</time>
      </trkpt>
      <trkpt lat="48.282803" lon="10.480954">
        <ele>536.3</ele>
        <time>2026-06-14T12:43:32.522000Z</time>
      </trkpt>
      <trkpt lat="48.282837" lon="10.481044">
        <ele>536.6</ele>
        <time>2026-06-14T12:43:40.305000Z</time>
      </trkpt>
      <trkpt lat="48.28292" lon="10.481139">
        <ele>537</ele>
        <time>2026-06-14T12:43:52.211000Z</time>
      </trkpt>
      <trkpt lat="48.283064" lon="10.481096">
        <ele>537.5</ele>
        <time>2026-06-14T12:44:08.797000Z</time>
      </trkpt>
      <trkpt lat="48.283133" lon="10.481195">
        <ele>537.8</ele>
        <time>2026-06-14T12:44:19.330000Z</time>
      </trkpt>
      <trkpt lat="48.283194" lon="10.48119">
        <ele>538</ele>
        <time>2026-06-14T12:44:26.235000Z</time>
      </trkpt>
      <trkpt lat="48.283242" lon="10.481237">
        <ele>538.2</ele>
        <time>2026-06-14T12:44:32.594000Z</time>
      </trkpt>
      <trkpt lat="48.283386" lon="10.481448">
        <ele>538.8</ele>
        <time>2026-06-14T12:44:54.708000Z</time>
      </trkpt>
      <trkpt lat="48.283379" lon="10.481506">
        <ele>538.9</ele>
        <time>2026-06-14T12:44:58.995000Z</time>
      </trkpt>
      <trkpt lat="48.283448" lon="10.481592">
        <ele>539.1</ele>
        <time>2026-06-14T12:45:08.522000Z</time>
      </trkpt>
      <trkpt lat="48.283517" lon="10.481783">
        <ele>539.3</ele>
        <time>2026-06-14T12:45:23.972000Z</time>
      </trkpt>
      <trkpt lat="48.2835" lon="10.481865">
        <ele>539.5</ele>
        <time>2026-06-14T12:45:30.100000Z</time>
      </trkpt>
      <trkpt lat="48.283507" lon="10.48195">
        <ele>539.5</ele>
        <time>2026-06-14T12:45:36.161000Z</time>
      </trkpt>
      <trkpt lat="48.283573" lon="10.482021">
        <ele>539.7</ele>
        <time>2026-06-14T12:45:44.776000Z</time>
      </trkpt>
      <trkpt lat="48.28358" lon="10.482048">
        <ele>539.7</ele>
        <time>2026-06-14T12:45:46.775000Z</time>
      </trkpt>
      <trkpt lat="48.283628" lon="10.482051">
        <ele>539.8</ele>
        <time>2026-06-14T12:45:51.911000Z</time>
      </trkpt>
      <trkpt lat="48.283667" lon="10.482163">
        <ele>540</ele>
        <time>2026-06-14T12:46:00.984000Z</time>
      </trkpt>
      <trkpt lat="48.283666" lon="10.482214">
        <ele>540.1</ele>
        <time>2026-06-14T12:46:04.622000Z</time>
      </trkpt>
      <trkpt lat="48.283633" lon="10.482231">
        <ele>540.1</ele>
        <time>2026-06-14T12:46:08.373000Z</time>
      </trkpt>
      <trkpt lat="48.283665" lon="10.482406">
        <ele>540.5</ele>
        <time>2026-06-14T12:46:21.544000Z</time>
      </trkpt>
      <trkpt lat="48.283677" lon="10.482547">
        <ele>540.7</ele>
        <time>2026-06-14T12:46:31.857000Z</time>
      </trkpt>
      <trkpt lat="48.2837" lon="10.482584">
        <ele>540.8</ele>
        <time>2026-06-14T12:46:35.585000Z</time>
      </trkpt>
      <trkpt lat="48.283747" lon="10.4826">
        <ele>540.9</ele>
        <time>2026-06-14T12:46:40.929000Z</time>
      </trkpt>
      <trkpt lat="48.283812" lon="10.482536">
        <ele>541.2</ele>
        <time>2026-06-14T12:46:49.640000Z</time>
      </trkpt>
      <trkpt lat="48.283825" lon="10.482584">
        <ele>541.4</ele>
        <time>2026-06-14T12:46:53.564000Z</time>
      </trkpt>
      <trkpt lat="48.283899" lon="10.482616">
        <ele>541.7</ele>
        <time>2026-06-14T12:47:02.368000Z</time>
      </trkpt>
      <trkpt lat="48.283966" lon="10.482745">
        <ele>542.2</ele>
        <time>2026-06-14T12:47:15.189000Z</time>
      </trkpt>
      <trkpt lat="48.283943" lon="10.482829">
        <ele>542.5</ele>
        <time>2026-06-14T12:47:22.249000Z</time>
      </trkpt>
      <trkpt lat="48.283945" lon="10.482936">
        <ele>542.9</ele>
        <time>2026-06-14T12:47:30.794000Z</time>
      </trkpt>
      <trkpt lat="48.284078" lon="10.483272">
        <ele>544.2</ele>
        <time>2026-06-14T12:48:01.274000Z</time>
      </trkpt>
      <trkpt lat="48.284087" lon="10.483582">
        <ele>545.2</ele>
        <time>2026-06-14T12:48:25.505000Z</time>
      </trkpt>
      <trkpt lat="48.284107" lon="10.483896">
        <ele>546.4</ele>
        <time>2026-06-14T12:48:50.540000Z</time>
      </trkpt>
      <trkpt lat="48.283941" lon="10.484189">
        <ele>547.9</ele>
        <time>2026-06-14T12:49:21.388000Z</time>
      </trkpt>
      <trkpt lat="48.283893" lon="10.484324">
        <ele>548.5</ele>
        <time>2026-06-14T12:49:33.607000Z</time>
      </trkpt>
      <trkpt lat="48.283888" lon="10.484438">
        <ele>548.9</ele>
        <time>2026-06-14T12:49:42.554000Z</time>
      </trkpt>
      <trkpt lat="48.283956" lon="10.484649">
        <ele>549.7</ele>
        <time>2026-06-14T12:50:01.127000Z</time>
      </trkpt>
      <trkpt lat="48.283982" lon="10.484929">
        <ele>550.7</ele>
        <time>2026-06-14T12:50:23.396000Z</time>
      </trkpt>
      <trkpt lat="48.283905" lon="10.485117">
        <ele>551.5</ele>
        <time>2026-06-14T12:50:40.675000Z</time>
      </trkpt>
      <trkpt lat="48.283823" lon="10.48521">
        <ele>552</ele>
        <time>2026-06-14T12:50:52.729000Z</time>
      </trkpt>
      <trkpt lat="48.283782" lon="10.485257">
        <ele>552.2</ele>
        <time>2026-06-14T12:50:58.758000Z</time>
      </trkpt>
      <trkpt lat="48.283855" lon="10.485836">
        <ele>554</ele>
        <time>2026-06-14T12:51:44.097000Z</time>
      </trkpt>
      <trkpt lat="48.283936" lon="10.486783">
        <ele>556.1</ele>
        <time>2026-06-14T12:52:54.946000Z</time>
      </trkpt>
      <trkpt lat="48.283915" lon="10.48756">
        <ele>557.1</ele>
        <time>2026-06-14T12:53:50.547000Z</time>
      </trkpt>
      <trkpt lat="48.283802" lon="10.488138">
        <ele>557.9</ele>
        <time>2026-06-14T12:54:33.455000Z</time>
      </trkpt>
      <trkpt lat="48.283563" lon="10.489009">
        <ele>558.6</ele>
        <time>2026-06-14T12:55:38.641000Z</time>
      </trkpt>
      <trkpt lat="48.283856" lon="10.489074">
        <ele>558.7</ele>
        <time>2026-06-14T12:56:08.595000Z</time>
      </trkpt>
      <trkpt lat="48.284021" lon="10.488995">
        <ele>558.7</ele>
        <time>2026-06-14T12:56:25.951000Z</time>
      </trkpt>
      <trkpt lat="48.284949" lon="10.488549">
        <ele>558.7</ele>
        <time>2026-06-14T12:58:03.474000Z</time>
      </trkpt>
      <trkpt lat="48.284975" lon="10.488777">
        <ele>558.7</ele>
        <time>2026-06-14T12:58:18.943000Z</time>
      </trkpt>
      <trkpt lat="48.286161" lon="10.492672">
        <ele>559.9</ele>
        <time>2026-06-14T13:03:08.338000Z</time>
      </trkpt>
      <trkpt lat="48.286692" lon="10.494344">
        <ele>558.2</ele>
        <time>2026-06-14T13:05:15.246000Z</time>
      </trkpt>
      <trkpt lat="48.287246" lon="10.494648">
        <ele>556.5</ele>
        <time>2026-06-14T13:06:17.884000Z</time>
      </trkpt>
      <trkpt lat="48.287898" lon="10.494646">
        <ele>554.6</ele>
        <time>2026-06-14T13:07:26.994000Z</time>
      </trkpt>
      <trkpt lat="48.288003" lon="10.495369">
        <ele>553.5</ele>
        <time>2026-06-14T13:08:18.488000Z</time>
      </trkpt>
      <trkpt lat="48.288515" lon="10.497626">
        <ele>552.1</ele>
        <time>2026-06-14T13:11:00.296000Z</time>
      </trkpt>
      <trkpt lat="48.288574" lon="10.497841">
        <ele>551.9</ele>
        <time>2026-06-14T13:11:16.213000Z</time>
      </trkpt>
      <trkpt lat="48.288602" lon="10.498148">
        <ele>551.5</ele>
        <time>2026-06-14T13:11:37.576000Z</time>
      </trkpt>
      <trkpt lat="48.288713" lon="10.498436">
        <ele>551.1</ele>
        <time>2026-06-14T13:12:00.667000Z</time>
      </trkpt>
      <trkpt lat="48.288862" lon="10.498735">
        <ele>550.5</ele>
        <time>2026-06-14T13:12:26.684000Z</time>
      </trkpt>
      <trkpt lat="48.289051" lon="10.498959">
        <ele>550</ele>
        <time>2026-06-14T13:12:51.874000Z</time>
      </trkpt>
      <trkpt lat="48.289247" lon="10.499343">
        <ele>549.4</ele>
        <time>2026-06-14T13:13:25.316000Z</time>
      </trkpt>
      <trkpt lat="48.289346" lon="10.499427">
        <ele>549.3</ele>
        <time>2026-06-14T13:13:36.910000Z</time>
      </trkpt>
      <trkpt lat="48.289463" lon="10.499463">
        <ele>549.2</ele>
        <time>2026-06-14T13:13:49.142000Z</time>
      </trkpt>
      <trkpt lat="48.289608" lon="10.499448">
        <ele>549.1</ele>
        <time>2026-06-14T13:14:03.894000Z</time>
      </trkpt>
      <trkpt lat="48.289755" lon="10.499453">
        <ele>549</ele>
        <time>2026-06-14T13:14:18.650000Z</time>
      </trkpt>
      <trkpt lat="48.28978" lon="10.499411">
        <ele>549</ele>
        <time>2026-06-14T13:14:22.469000Z</time>
      </trkpt>
      <trkpt lat="48.289845" lon="10.499479">
        <ele>549</ele>
        <time>2026-06-14T13:14:30.409000Z</time>
      </trkpt>
      <trkpt lat="48.28978" lon="10.499411">
        <ele>549.1</ele>
        <time>2026-06-14T13:14:38.511000Z</time>
      </trkpt>
      <trkpt lat="48.289755" lon="10.499453">
        <ele>549.1</ele>
        <time>2026-06-14T13:14:42.337000Z</time>
      </trkpt>
      <trkpt lat="48.289608" lon="10.499448">
        <ele>549.2</ele>
        <time>2026-06-14T13:14:57.438000Z</time>
      </trkpt>
      <trkpt lat="48.289558" lon="10.499422">
        <ele>549.3</ele>
        <time>2026-06-14T13:15:02.912000Z</time>
      </trkpt>
      <trkpt lat="48.289363" lon="10.498999">
        <ele>549.8</ele>
        <time>2026-06-14T13:15:39.096000Z</time>
      </trkpt>
      <trkpt lat="48.289206" lon="10.498755">
        <ele>550.3</ele>
        <time>2026-06-14T13:16:03.413000Z</time>
      </trkpt>
      <trkpt lat="48.28912" lon="10.498552">
        <ele>550.6</ele>
        <time>2026-06-14T13:16:20.731000Z</time>
      </trkpt>
      <trkpt lat="48.288969" lon="10.498005">
        <ele>551.5</ele>
        <time>2026-06-14T13:17:03.205000Z</time>
      </trkpt>
      <trkpt lat="48.288958" lon="10.497926">
        <ele>551.6</ele>
        <time>2026-06-14T13:17:08.949000Z</time>
      </trkpt>
      <trkpt lat="48.288942" lon="10.497812">
        <ele>551.8</ele>
        <time>2026-06-14T13:17:17.198000Z</time>
      </trkpt>
      <trkpt lat="48.288947" lon="10.497377">
        <ele>552.2</ele>
        <time>2026-06-14T13:17:47.777000Z</time>
      </trkpt>
      <trkpt lat="48.288735" lon="10.497525">
        <ele>552.5</ele>
        <time>2026-06-14T13:18:12.103000Z</time>
      </trkpt>
      <trkpt lat="48.288515" lon="10.497626">
        <ele>552.7</ele>
        <time>2026-06-14T13:18:35.848000Z</time>
      </trkpt>
      <trkpt lat="48.288003" lon="10.495369">
        <ele>553.5</ele>
        <time>2026-06-14T13:21:17.751000Z</time>
      </trkpt>
      <trkpt lat="48.287898" lon="10.494646">
        <ele>554.6</ele>
        <time>2026-06-14T13:22:10.791000Z</time>
      </trkpt>
      <trkpt lat="48.287246" lon="10.494648">
        <ele>556.5</ele>
        <time>2026-06-14T13:23:22.672000Z</time>
      </trkpt>
      <trkpt lat="48.286692" lon="10.494344">
        <ele>558.2</ele>
        <time>2026-06-14T13:24:27.893000Z</time>
      </trkpt>
      <trkpt lat="48.286161" lon="10.492672">
        <ele>559.9</ele>
        <time>2026-06-14T13:26:37.275000Z</time>
      </trkpt>
      <trkpt lat="48.284975" lon="10.488777">
        <ele>558.2</ele>
        <time>2026-06-14T13:31:26.018000Z</time>
      </trkpt>
      <trkpt lat="48.284949" lon="10.488549">
        <ele>558</ele>
        <time>2026-06-14T13:31:41.977000Z</time>
      </trkpt>
      <trkpt lat="48.284951" lon="10.487826">
        <ele>556.8</ele>
        <time>2026-06-14T13:32:32.400000Z</time>
      </trkpt>
      <trkpt lat="48.284997" lon="10.487435">
        <ele>556</ele>
        <time>2026-06-14T13:33:00.631000Z</time>
      </trkpt>
      <trkpt lat="48.284982" lon="10.486972">
        <ele>554.8</ele>
        <time>2026-06-14T13:33:33.953000Z</time>
      </trkpt>
      <trkpt lat="48.284845" lon="10.485935">
        <ele>551.2</ele>
        <time>2026-06-14T13:34:51.548000Z</time>
      </trkpt>
      <trkpt lat="48.284431" lon="10.484371">
        <ele>544.9</ele>
        <time>2026-06-14T13:36:56.470000Z</time>
      </trkpt>
      <trkpt lat="48.284438" lon="10.483635">
        <ele>542.4</ele>
        <time>2026-06-14T13:37:50.507000Z</time>
      </trkpt>
      <trkpt lat="48.284402" lon="10.482953">
        <ele>540.2</ele>
        <time>2026-06-14T13:38:40.487000Z</time>
      </trkpt>
      <trkpt lat="48.284356" lon="10.482793">
        <ele>539.7</ele>
        <time>2026-06-14T13:38:53.220000Z</time>
      </trkpt>
      <trkpt lat="48.284178" lon="10.482498">
        <ele>538.4</ele>
        <time>2026-06-14T13:39:22.384000Z</time>
      </trkpt>
      <trkpt lat="48.283929" lon="10.481614">
        <ele>535.1</ele>
        <time>2026-06-14T13:40:32.953000Z</time>
      </trkpt>
      <trkpt lat="48.283496" lon="10.480574">
        <ele>531.8</ele>
        <time>2026-06-14T13:42:01.523000Z</time>
      </trkpt>
      <trkpt lat="48.283463" lon="10.480288">
        <ele>531.3</ele>
        <time>2026-06-14T13:42:21.881000Z</time>
      </trkpt>
      <trkpt lat="48.283495" lon="10.480178">
        <ele>531.1</ele>
        <time>2026-06-14T13:42:30.218000Z</time>
      </trkpt>
      <trkpt lat="48.283576" lon="10.480051">
        <ele>530.7</ele>
        <time>2026-06-14T13:42:42.747000Z</time>
      </trkpt>
      <trkpt lat="48.283346" lon="10.479854">
        <ele>529.8</ele>
        <time>2026-06-14T13:43:11.017000Z</time>
      </trkpt>
      <trkpt lat="48.283288" lon="10.479989">
        <ele>529.5</ele>
        <time>2026-06-14T13:43:22.410000Z</time>
      </trkpt>
      <trkpt lat="48.283315" lon="10.480096">
        <ele>529.3</ele>
        <time>2026-06-14T13:43:30.507000Z</time>
      </trkpt>
      <trkpt lat="48.283279" lon="10.480135">
        <ele>529.2</ele>
        <time>2026-06-14T13:43:35.176000Z</time>
      </trkpt>
      <trkpt lat="48.283214" lon="10.48017">
        <ele>529</ele>
        <time>2026-06-14T13:43:42.517000Z</time>
      </trkpt>
      <trkpt lat="48.28315" lon="10.480202">
        <ele>528.8</ele>
        <time>2026-06-14T13:43:49.485000Z</time>
      </trkpt>
      <trkpt lat="48.283136" lon="10.48011">
        <ele>528.7</ele>
        <time>2026-06-14T13:43:56.075000Z</time>
      </trkpt>
      <trkpt lat="48.283122" lon="10.480018">
        <ele>528.5</ele>
        <time>2026-06-14T13:44:02.578000Z</time>
      </trkpt>
      <trkpt lat="48.283076" lon="10.479928">
        <ele>528.4</ele>
        <time>2026-06-14T13:44:10.454000Z</time>
      </trkpt>
      <trkpt lat="48.283094" lon="10.479793">
        <ele>528.3</ele>
        <time>2026-06-14T13:44:19.906000Z</time>
      </trkpt>
      <trkpt lat="48.283175" lon="10.479532">
        <ele>528</ele>
        <time>2026-06-14T13:44:39.648000Z</time>
      </trkpt>
      <trkpt lat="48.283353" lon="10.479174">
        <ele>527.7</ele>
        <time>2026-06-14T13:45:10.055000Z</time>
      </trkpt>
      <trkpt lat="48.28337" lon="10.478889">
        <ele>527.5</ele>
        <time>2026-06-14T13:45:29.627000Z</time>
      </trkpt>
      <trkpt lat="48.283448" lon="10.478474">
        <ele>526.6</ele>
        <time>2026-06-14T13:46:00.009000Z</time>
      </trkpt>
      <trkpt lat="48.28354" lon="10.478211">
        <ele>526.1</ele>
        <time>2026-06-14T13:46:20.895000Z</time>
      </trkpt>
      <trkpt lat="48.283593" lon="10.478147">
        <ele>525.9</ele>
        <time>2026-06-14T13:46:28.096000Z</time>
      </trkpt>
      <trkpt lat="48.28376" lon="10.478071">
        <ele>525.6</ele>
        <time>2026-06-14T13:46:46.259000Z</time>
      </trkpt>
      <trkpt lat="48.28381" lon="10.477963">
        <ele>525.5</ele>
        <time>2026-06-14T13:46:55.251000Z</time>
      </trkpt>
      <trkpt lat="48.283822" lon="10.477803">
        <ele>525.3</ele>
        <time>2026-06-14T13:47:06.275000Z</time>
      </trkpt>
      <trkpt lat="48.283851" lon="10.477509">
        <ele>525</ele>
        <time>2026-06-14T13:47:26.771000Z</time>
      </trkpt>
      <trkpt lat="48.284064" lon="10.477178">
        <ele>524.2</ele>
        <time>2026-06-14T13:47:59.118000Z</time>
      </trkpt>
      <trkpt lat="48.284218" lon="10.477019">
        <ele>523.5</ele>
        <time>2026-06-14T13:48:19.164000Z</time>
      </trkpt>
      <trkpt lat="48.284284" lon="10.476755">
        <ele>522.8</ele>
        <time>2026-06-14T13:48:39.512000Z</time>
      </trkpt>
      <trkpt lat="48.284298" lon="10.476575">
        <ele>522.2</ele>
        <time>2026-06-14T13:48:52.729000Z</time>
      </trkpt>
      <trkpt lat="48.284502" lon="10.476008">
        <ele>519.6</ele>
        <time>2026-06-14T13:49:40.962000Z</time>
      </trkpt>
      <trkpt lat="48.284576" lon="10.475663">
        <ele>518.1</ele>
        <time>2026-06-14T13:50:08.064000Z</time>
      </trkpt>
      <trkpt lat="48.284585" lon="10.475621">
        <ele>517.9</ele>
        <time>2026-06-14T13:50:11.339000Z</time>
      </trkpt>
      <trkpt lat="48.284705" lon="10.47531">
        <ele>516.8</ele>
        <time>2026-06-14T13:50:37.665000Z</time>
      </trkpt>
      <trkpt lat="48.284671" lon="10.474905">
        <ele>515.5</ele>
        <time>2026-06-14T13:51:07.364000Z</time>
      </trkpt>
      <trkpt lat="48.284611" lon="10.474651">
        <ele>514.8</ele>
        <time>2026-06-14T13:51:26.782000Z</time>
      </trkpt>
      <trkpt lat="48.284724" lon="10.474503">
        <ele>514.3</ele>
        <time>2026-06-14T13:51:42.814000Z</time>
      </trkpt>
      <trkpt lat="48.284747" lon="10.474585">
        <ele>514.2</ele>
        <time>2026-06-14T13:51:49.091000Z</time>
      </trkpt>
      <trkpt lat="48.284765" lon="10.474647">
        <ele>514</ele>
        <time>2026-06-14T13:51:53.870000Z</time>
      </trkpt>
      <trkpt lat="48.284828" lon="10.474644">
        <ele>513.9</ele>
        <time>2026-06-14T13:52:00.502000Z</time>
      </trkpt>
      <trkpt lat="48.284911" lon="10.474959">
        <ele>513.5</ele>
        <time>2026-06-14T13:52:23.866000Z</time>
      </trkpt>
    </trkseg>
  </trk>
</gpx>