<?xml version="1.0" encoding="UTF-8"?>
<gpx xmlns="http://www.topografix.com/GPX/1/1" xmlns:xsi="http://www.w3.org/2001/XMLSchema-instance" xsi:schemaLocation="http://www.topografix.com/GPX/1/1 http://www.topografix.com/GPX/1/1/gpx.xsd" version="1.1" creator="Robert Kampf">
  <metadata>
    <name>Riedensheimer Fluttore – Schloss Moy Runde von Unterhausen (Bay)</name>
    <desc>Distance: 28.193km, Estimated duration: 7.38h, Elevation up: 215.68470167541972m, Elevation down: 215.68470167541977m, Grade: difficult</desc>
    <author>
      <name>Robert Kampf</name>
      <link href="https://www.komoot.de/user/4125295338453">
        <text>View Robert Kampf's Profile on Komoot</text>
      </link>
    </author>
    <link href="https://www.komoot.de/tour/3049312463">
      <text>View tour on Komoot</text>
    </link>
  </metadata>
  <wpt lat="48.716804" lon="11.100293">
    <name>Unterhausen (Bay)</name>
    <cmt></cmt>
    <desc>Limited access</desc>
    <src>Komoot</src>
    <type>POI</type>
  </wpt>
  <wpt lat="48.726353" lon="11.103633">
    <name>Römerstraße</name>
    <cmt></cmt>
    <desc></desc>
    <src>Komoot</src>
    <type>POI</type>
  </wpt>
  <wpt lat="48.734315" lon="11.14347">
    <ele>442.3</ele>
    <name>Bittenbrunn Hydroelectric Power Plant</name>
    <cmt>https://d2exd72xrrp1s7.cloudfront.net/www/000/1k4/1w/1w9f35oejfr4w1iqizvd0r7p003edtakfq-uhi14695567/0</cmt>
    <desc>Tamara (unterwegs): Das Wasserkraftwerk Bittenbrunn ist seit 1969 in Betrieb und verfügt über drei Turbinen und drei Generatoren. Bei der Überquerung ergeben sich tolle Ausblicke auf die Donau.
――――――――――
Sandra: Hier kann man von einer auf die andere Seite der Donau wechseln
――――――――――
Michael: 1969 erbautes Laufwasserkraftwerk mit drei Kaplan Turbinen </desc>
    <src>Komoot</src>
    <link href="https://www.komoot.de/highlight/1441358">
      <text>View POI on Komoot</text>
    </link>
    <type>Highlight</type>
  </wpt>
  <wpt lat="48.732742" lon="11.085117">
    <ele>385.7</ele>
    <name>Riedensheim Flood Gates</name>
    <cmt>https://d2exd72xrrp1s7.cloudfront.net/www/000/1k5/ok/okmyzfhot68qpwzm4kst02id3qdhb94f-uhi31310871/0</cmt>
    <desc>Marfi: https://www.wwa-in.bayern.de/hochwasser/hochwasserschutzprojekte/riedensheim/
――――――――――
Gerd: Die Flutpolder wurden als Hochwasserschutz errichtet.</desc>
    <src>Komoot</src>
    <link href="https://www.komoot.de/highlight/3084223">
      <text>View POI on Komoot</text>
    </link>
    <type>Highlight</type>
  </wpt>
  <wpt lat="48.734168" lon="11.07948">
    <name>Altdonau</name>
    <cmt></cmt>
    <desc></desc>
    <src>Komoot</src>
    <type>POI</type>
  </wpt>
  <wpt lat="48.738562" lon="11.075483">
    <ele>416.1</ele>
    <name>St. Antonius and St. Anna Chapels</name>
    <cmt>https://d2exd72xrrp1s7.cloudfront.net/www/000/1k5/3x/3xom3457wcol1jpygu2mpm03y3motqjt2-uhi27622182/0</cmt>
    <desc>Mantimann: Das ist meiner Meinung nach einer der schönsten Plätze der Welt, definitiv "ein liebenswertes Fleckchen Erde". Berauschende Natur an der Donau entlang und auf dem Antoniberg die schönen alten Linden, die sich um die kleinen, aber feinen Kirchen und Kapelle gruppieren. St. Anton ist die älteste Kirche hier und wurde dann um einen Anbau im 90°-Winkel erweitert, St. Anna - auch sehr selten so zu sehen. Ferner gibt es noch eine Gruftkapelle im neugotischen Stil, die heute von den Grafen Arco und Moy genutzt wird und ursprünglich als Begräbnisstätte der Prinzessin und Erzherzogin von Oesterreich und bayrische Kurfürstin Marie Leopoldine gebaut worden war. Sie war zeitlebens auch eine sehr schillernde und geschäftstüchtige Figur die hier an ihrem Lieblingsplatz beigesetzt werden wollte. Leider sind die Kirchen seit langer Zeit geschloßen, da sie in den Siebziger Jahren mal komplett ausgeraubt worden waren. Aber jedes Jahr findet jetzt wieder eine Wallfahrt mit dem Antonibergfest statt. Am Fuße des Hügels gab es Jahrhunderte lang eine Fähre über die Donau bis in das 20.Jahrhundert hinein. Der letzte Fährmann und Fischer Anton Riedl ruhte sich immer zwischen den Fahrten in dem Strudelloch der Donau aus, bis er 1985 neunzigjährig verstarb. Zeitweise gab es auch noch eine Einsiedelei auf dem Antoniberg, der letzte Eremit verstarb aber schon 1827.
Informationen sind aus einem kleinen Büchlein "Am Antoniberg" von Horst Schwark und Jürgen Polifke, 1987 Neuburg/Donau.
――――――――――
Lomanfu: Die Antoniuskapelle (gelbes Gebäude mit dem kleinen Glockenturm) wurde 1676 vom Bauherr Freiherr Dominikus v. Servi erbaut. Rd. 100 Jahre später, 1790-92 baute Freiherr Jos. Seb. v. Staader die Annakapelle im rechten Winkel an den Chor der Antoniuskapelle an. 
Das weithin sichtbare, graue Kirchengebäude  ist die Gruftkapelle der Grafen von Arco und Moy, ebenfalls aus dem Ende des 18. Jhd. In ihr fand im Jahre 1848 die bayerische Kurfürstin Marie Leopoldine ihre letzte Ruhe.
――――――――――
Klaus-S: Ein geheimnisvoller Ort mit tollem Blick auf die Donau
――――――――――
||~•Erich•~||: Super schöner ruhiger Platz,ein bisschen Probleme mit der Orientierung trotz Komoot muss man aber machen Anstieg mit E Bike trotzdem schwer Steig etwas glatt die ganze Tour ist sehr schön
――――――――――
Lomanfu: Ein schönes Ausflugsziel auf dem Antoniberg in Stepberg: die Antoniuskapelle. Unter dem folgenden Link findet man einige Details zu ihrer Geschichte: https://www.naturpark-altmuehltal.de/sehenswertes/aussichtspunkt_antoniberg-1795/

――――――――――
Daddy Cool: Ein Idyll an einem besonderen Ort.</desc>
    <src>Komoot</src>
    <link href="https://www.komoot.de/highlight/4188267">
      <text>View POI on Komoot</text>
    </link>
    <type>Highlight</type>
  </wpt>
  <wpt lat="48.743025" lon="11.069914">
    <ele>448.2</ele>
    <name>Schloss Moy</name>
    <cmt>https://d2exd72xrrp1s7.cloudfront.net/www/000/1k8/bg/bgt4joegkey911m7rvb2q917z4zp3rq30-uhi72807047/0</cmt>
    <desc>IRI𝕊 with
🅱️🅴🅻🅻🅰️ 🚵‍♀️: SCHLOSS MOY; FRÜHER WAR HIER NOCH EINE BRAUEREI; WURDE BEREITS ALLES ABGERISSEN
SOMIT WIRD HIER DAS MOY BIER NICHT MEHR GEBRAUT; HAT ABER DEN URSPRUNG HIER
――――――――――
Gerd: Das Schloss wurde durch die Besitzerfamilie, Graf von Moy, in den letzten Jahren vorbildlich renoviert.
――――――――――
K🅾️JACK 🚵‍♀️🥾🐕‍🦺🐾: Leider ist das Schloss Moy in Privatbesitz und kann nicht besichtigt werden. Gleiche gilt für den schönen Schloss-Park.</desc>
    <src>Komoot</src>
    <link href="https://www.komoot.de/highlight/1414670">
      <text>View POI on Komoot</text>
    </link>
    <type>Highlight</type>
  </wpt>
  <wpt lat="48.734905" lon="11.020424">
    <ele>390.1</ele>
    <name>Bertoldsheim Dam</name>
    <cmt>https://d2exd72xrrp1s7.cloudfront.net/www/000/1k5/xm/xml73lhphb171x6a21ds4fd883uckk5oj-uhi37324713/0</cmt>
    <desc>Tamara (unterwegs): Bei Bertoldsheim wird die Donau durch ein Staumauer aufgestaut, die auch über eine Schleuse verfügt. Der Stausee ist ein beliebtes Segelrevier und auch bei Kanufahrern beliebt. Die angrenzenden kleineren Stauseen sind ein Vogelschutzgebiet, mit etwas Glück kannst du also unterschiedliche Arten wie Reiher beobachten.</desc>
    <src>Komoot</src>
    <link href="https://www.komoot.de/highlight/3467524">
      <text>View POI on Komoot</text>
    </link>
    <type>Highlight</type>
  </wpt>
  <wpt lat="48.73279" lon="11.046373">
    <ele>440.5</ele>
    <name>Bridge Over the Friedberger Ach</name>
    <cmt>https://d2exd72xrrp1s7.cloudfront.net/www/000/1k5/1m/1m9xj1s8zltkj1e1ir03bd3qog3uckxd15-uhi37325373/0</cmt>
    <desc>Luca: Schöne Brücke im Wald an rauschendem Bach. Hier kann man mal kurz anhalten.
――――――――――
Richie: Unberührte Auenlandschaft .... und wohltuende Stille.
――――――――――
Albrecht: Inmitten der Natur - fast wie im Dschungel</desc>
    <src>Komoot</src>
    <link href="https://www.komoot.de/highlight/1560035">
      <text>View POI on Komoot</text>
    </link>
    <type>Highlight</type>
  </wpt>
  <wpt lat="48.726715" lon="11.087773">
    <ele>489</ele>
    <name>St. Ulrich Chapel</name>
    <cmt>https://d2exd72xrrp1s7.cloudfront.net/www/000/1k4/1m/1m6v1i0pn6uvy1inb0e5ezooy3bbwlnji-uhi11043229/0</cmt>
    <desc>IRI𝕊 with
🅱️🅴🅻🅻🅰️ 🚵‍♀️: 1982/83 erbaute Waldkapelle ist dem heiligen Ulrich gewidmet. Die Figuren wurden von Josef Ettinger aus Unterhausen geschnitzt, ebenso der "Vater unser-Baum" neben der Kapelle.
――――――――――
IRI𝕊 with
🅱️🅴🅻🅻🅰️ 🚵‍♀️: 1982/83 erbaute Waldkapelle ist dem heiligen Ulrich gewidmet. Die Figuren wurden von Josef Ettinger aus Unterhausen geschnitzt, ebenso der "Vater unser-Baum" neben der Kapelle
――――――――――
S🌼nja: Schöner Rastplatz direkt neben der Kapelle mit Blick in den Süden.
――――――――――
Gerd: Auf Privatinitiative und auf Grundlage zahlreicher Geldspenden errichtet und in 1983 eingeweiht.
――――――――――
Meribor: Eine Kapelle und eine Sitzgelegenheit laden ein zum Rasten. Einfach pausieren und schauen.
――――――――――
ja18: Eine super Aussicht und ruhig gelegen.
――――――――――
Dani Snuff Degi 👾🫟: Kapelle vorm Wald
――――――――――
Dexter Cath: An dieser kleiner Wegkreuzung findet man diese nette Waldkapelle, einen Gebetsbaum (Vater unser) sowie eine Rastbank.
――――――――――
Dani Snuff Degi 👾🫟: baum</desc>
    <src>Komoot</src>
    <link href="https://www.komoot.de/highlight/1132430">
      <text>View POI on Komoot</text>
    </link>
    <type>Highlight</type>
  </wpt>
  <trk>
    <name>Riedensheimer Fluttore – Schloss Moy Runde von Unterhausen (Bay)</name>
    <desc>Distance: 28.193km, Estimated duration: 7.38h, Elevation up: 215.68470167541972m, Elevation down: 215.68470167541977m, Grade: difficult</desc>
    <link href="https://www.komoot.de/tour/3049312463">
      <text>View tour on Komoot</text>
    </link>
    <trkseg>
      <trkpt lat="48.716816" lon="11.100304">
        <ele>418.6</ele>
        <time>2026-06-19T12:09:39.454000Z</time>
      </trkpt>
      <trkpt lat="48.716848" lon="11.100218">
        <ele>418.6</ele>
        <time>2026-06-19T12:09:45.997000Z</time>
      </trkpt>
      <trkpt lat="48.716871" lon="11.100237">
        <ele>418.6</ele>
        <time>2026-06-19T12:09:48.700000Z</time>
      </trkpt>
      <trkpt lat="48.716881" lon="11.100246">
        <ele>418.6</ele>
        <time>2026-06-19T12:09:49.870000Z</time>
      </trkpt>
      <trkpt lat="48.716892" lon="11.100216">
        <ele>418.6</ele>
        <time>2026-06-19T12:09:52.164000Z</time>
      </trkpt>
      <trkpt lat="48.716903" lon="11.100224">
        <ele>418.6</ele>
        <time>2026-06-19T12:09:53.330000Z</time>
      </trkpt>
      <trkpt lat="48.717097" lon="11.100389">
        <ele>418.6</ele>
        <time>2026-06-19T12:10:15.715000Z</time>
      </trkpt>
      <trkpt lat="48.717138" lon="11.100282">
        <ele>418.5</ele>
        <time>2026-06-19T12:10:23.893000Z</time>
      </trkpt>
      <trkpt lat="48.717302" lon="11.099868">
        <ele>418.5</ele>
        <time>2026-06-19T12:10:55.896000Z</time>
      </trkpt>
      <trkpt lat="48.717568" lon="11.09917">
        <ele>418.3</ele>
        <time>2026-06-19T12:11:49.409000Z</time>
      </trkpt>
      <trkpt lat="48.717759" lon="11.098254">
        <ele>418.1</ele>
        <time>2026-06-19T12:12:53.417000Z</time>
      </trkpt>
      <trkpt lat="48.71784" lon="11.097365">
        <ele>417.9</ele>
        <time>2026-06-19T12:13:52.978000Z</time>
      </trkpt>
      <trkpt lat="48.717891" lon="11.096588">
        <ele>417.7</ele>
        <time>2026-06-19T12:14:44.902000Z</time>
      </trkpt>
      <trkpt lat="48.718001" lon="11.094914">
        <ele>416.8</ele>
        <time>2026-06-19T12:16:37.848000Z</time>
      </trkpt>
      <trkpt lat="48.718071" lon="11.094336">
        <ele>416.4</ele>
        <time>2026-06-19T12:17:17.587000Z</time>
      </trkpt>
      <trkpt lat="48.718116" lon="11.094155">
        <ele>416.2</ele>
        <time>2026-06-19T12:17:30.677000Z</time>
      </trkpt>
      <trkpt lat="48.718122" lon="11.094129">
        <ele>416.2</ele>
        <time>2026-06-19T12:17:32.572000Z</time>
      </trkpt>
      <trkpt lat="48.718265" lon="11.09356">
        <ele>415.6</ele>
        <time>2026-06-19T12:18:13.977000Z</time>
      </trkpt>
      <trkpt lat="48.718332" lon="11.093332">
        <ele>415.4</ele>
        <time>2026-06-19T12:18:30.918000Z</time>
      </trkpt>
      <trkpt lat="48.718421" lon="11.093052">
        <ele>415</ele>
        <time>2026-06-19T12:18:52.196000Z</time>
      </trkpt>
      <trkpt lat="48.718476" lon="11.092857">
        <ele>414.8</ele>
        <time>2026-06-19T12:19:06.693000Z</time>
      </trkpt>
      <trkpt lat="48.718496" lon="11.092881">
        <ele>414.7</ele>
        <time>2026-06-19T12:19:09.337000Z</time>
      </trkpt>
      <trkpt lat="48.718783" lon="11.093253">
        <ele>414</ele>
        <time>2026-06-19T12:19:48.675000Z</time>
      </trkpt>
      <trkpt lat="48.718814" lon="11.093348">
        <ele>413.9</ele>
        <time>2026-06-19T12:19:55.958000Z</time>
      </trkpt>
      <trkpt lat="48.718892" lon="11.093862">
        <ele>413.1</ele>
        <time>2026-06-19T12:20:32.412000Z</time>
      </trkpt>
      <trkpt lat="48.718961" lon="11.09409">
        <ele>412.7</ele>
        <time>2026-06-19T12:20:49.734000Z</time>
      </trkpt>
      <trkpt lat="48.718976" lon="11.094116">
        <ele>412.7</ele>
        <time>2026-06-19T12:20:52.091000Z</time>
      </trkpt>
      <trkpt lat="48.719044" lon="11.094203">
        <ele>412.5</ele>
        <time>2026-06-19T12:21:01.370000Z</time>
      </trkpt>
      <trkpt lat="48.719141" lon="11.094285">
        <ele>412.3</ele>
        <time>2026-06-19T12:21:12.922000Z</time>
      </trkpt>
      <trkpt lat="48.71933" lon="11.094379">
        <ele>411.9</ele>
        <time>2026-06-19T12:21:33.580000Z</time>
      </trkpt>
      <trkpt lat="48.719455" lon="11.094396">
        <ele>411.8</ele>
        <time>2026-06-19T12:21:46.461000Z</time>
      </trkpt>
      <trkpt lat="48.719662" lon="11.094426">
        <ele>411.6</ele>
        <time>2026-06-19T12:22:07.749000Z</time>
      </trkpt>
      <trkpt lat="48.719907" lon="11.094494">
        <ele>411.4</ele>
        <time>2026-06-19T12:22:32.950000Z</time>
      </trkpt>
      <trkpt lat="48.720013" lon="11.094562">
        <ele>411.4</ele>
        <time>2026-06-19T12:22:44.560000Z</time>
      </trkpt>
      <trkpt lat="48.720095" lon="11.09466">
        <ele>411.4</ele>
        <time>2026-06-19T12:22:55.039000Z</time>
      </trkpt>
      <trkpt lat="48.720158" lon="11.094802">
        <ele>411.4</ele>
        <time>2026-06-19T12:23:06.420000Z</time>
      </trkpt>
      <trkpt lat="48.720215" lon="11.09504">
        <ele>411.5</ele>
        <time>2026-06-19T12:23:23.575000Z</time>
      </trkpt>
      <trkpt lat="48.720245" lon="11.095384">
        <ele>411.8</ele>
        <time>2026-06-19T12:23:47.579000Z</time>
      </trkpt>
      <trkpt lat="48.720272" lon="11.095696">
        <ele>412.3</ele>
        <time>2026-06-19T12:24:09.908000Z</time>
      </trkpt>
      <trkpt lat="48.720292" lon="11.09594">
        <ele>412.7</ele>
        <time>2026-06-19T12:24:27.718000Z</time>
      </trkpt>
      <trkpt lat="48.720331" lon="11.096376">
        <ele>413.7</ele>
        <time>2026-06-19T12:25:00.045000Z</time>
      </trkpt>
      <trkpt lat="48.720337" lon="11.096455">
        <ele>413.8</ele>
        <time>2026-06-19T12:25:05.911000Z</time>
      </trkpt>
      <trkpt lat="48.720346" lon="11.096552">
        <ele>414</ele>
        <time>2026-06-19T12:25:13.167000Z</time>
      </trkpt>
      <trkpt lat="48.720352" lon="11.097008">
        <ele>415.1</ele>
        <time>2026-06-19T12:25:46.971000Z</time>
      </trkpt>
      <trkpt lat="48.720383" lon="11.097361">
        <ele>416</ele>
        <time>2026-06-19T12:26:13.459000Z</time>
      </trkpt>
      <trkpt lat="48.720414" lon="11.097745">
        <ele>417</ele>
        <time>2026-06-19T12:26:42.527000Z</time>
      </trkpt>
      <trkpt lat="48.720519" lon="11.098518">
        <ele>419.4</ele>
        <time>2026-06-19T12:27:43.029000Z</time>
      </trkpt>
      <trkpt lat="48.720604" lon="11.099414">
        <ele>422</ele>
        <time>2026-06-19T12:28:51.729000Z</time>
      </trkpt>
      <trkpt lat="48.72068" lon="11.100212">
        <ele>423.8</ele>
        <time>2026-06-19T12:29:51.461000Z</time>
      </trkpt>
      <trkpt lat="48.720716" lon="11.100209">
        <ele>423.9</ele>
        <time>2026-06-19T12:29:55.440000Z</time>
      </trkpt>
      <trkpt lat="48.720838" lon="11.100219">
        <ele>424.4</ele>
        <time>2026-06-19T12:30:09.409000Z</time>
      </trkpt>
      <trkpt lat="48.721135" lon="11.100338">
        <ele>425.8</ele>
        <time>2026-06-19T12:30:44.895000Z</time>
      </trkpt>
      <trkpt lat="48.721227" lon="11.100336">
        <ele>426.2</ele>
        <time>2026-06-19T12:30:55.660000Z</time>
      </trkpt>
      <trkpt lat="48.721363" lon="11.100249">
        <ele>427</ele>
        <time>2026-06-19T12:31:13.080000Z</time>
      </trkpt>
      <trkpt lat="48.721489" lon="11.100116">
        <ele>427.7</ele>
        <time>2026-06-19T12:31:31.103000Z</time>
      </trkpt>
      <trkpt lat="48.721555" lon="11.099992">
        <ele>428.2</ele>
        <time>2026-06-19T12:31:43.288000Z</time>
      </trkpt>
      <trkpt lat="48.721609" lon="11.099796">
        <ele>428.9</ele>
        <time>2026-06-19T12:31:59.716000Z</time>
      </trkpt>
      <trkpt lat="48.721777" lon="11.100305">
        <ele>430.8</ele>
        <time>2026-06-19T12:32:43.690000Z</time>
      </trkpt>
      <trkpt lat="48.721879" lon="11.100809">
        <ele>432.5</ele>
        <time>2026-06-19T12:33:24.516000Z</time>
      </trkpt>
      <trkpt lat="48.72206" lon="11.101379">
        <ele>434.6</ele>
        <time>2026-06-19T12:34:13.501000Z</time>
      </trkpt>
      <trkpt lat="48.722119" lon="11.102145">
        <ele>436.5</ele>
        <time>2026-06-19T12:35:11.147000Z</time>
      </trkpt>
      <trkpt lat="48.722168" lon="11.103307">
        <ele>438.2</ele>
        <time>2026-06-19T12:36:34.160000Z</time>
      </trkpt>
      <trkpt lat="48.722231" lon="11.103377">
        <ele>438.4</ele>
        <time>2026-06-19T12:36:42.539000Z</time>
      </trkpt>
      <trkpt lat="48.722399" lon="11.104274">
        <ele>440.2</ele>
        <time>2026-06-19T12:37:50.612000Z</time>
      </trkpt>
      <trkpt lat="48.722747" lon="11.104459">
        <ele>441.8</ele>
        <time>2026-06-19T12:38:32.915000Z</time>
      </trkpt>
      <trkpt lat="48.723213" lon="11.104581">
        <ele>444.2</ele>
        <time>2026-06-19T12:39:28.679000Z</time>
      </trkpt>
      <trkpt lat="48.723729" lon="11.104556">
        <ele>447.4</ele>
        <time>2026-06-19T12:40:31.309000Z</time>
      </trkpt>
      <trkpt lat="48.723856" lon="11.10452">
        <ele>448.3</ele>
        <time>2026-06-19T12:40:47.413000Z</time>
      </trkpt>
      <trkpt lat="48.72396" lon="11.104617">
        <ele>449.2</ele>
        <time>2026-06-19T12:41:02.687000Z</time>
      </trkpt>
      <trkpt lat="48.72415" lon="11.105338">
        <ele>453.3</ele>
        <time>2026-06-19T12:42:07.767000Z</time>
      </trkpt>
      <trkpt lat="48.724888" lon="11.104602">
        <ele>459.7</ele>
        <time>2026-06-19T12:43:57.961000Z</time>
      </trkpt>
      <trkpt lat="48.725192" lon="11.104306">
        <ele>461.7</ele>
        <time>2026-06-19T12:44:41.260000Z</time>
      </trkpt>
      <trkpt lat="48.725447" lon="11.104124">
        <ele>462.9</ele>
        <time>2026-06-19T12:45:13.596000Z</time>
      </trkpt>
      <trkpt lat="48.726348" lon="11.103608">
        <ele>462.3</ele>
        <time>2026-06-19T12:46:51.130000Z</time>
      </trkpt>
      <trkpt lat="48.726416" lon="11.103583">
        <ele>462.1</ele>
        <time>2026-06-19T12:46:58.702000Z</time>
      </trkpt>
      <trkpt lat="48.727976" lon="11.103055">
        <ele>451.7</ele>
        <time>2026-06-19T12:49:59.586000Z</time>
      </trkpt>
      <trkpt lat="48.728238" lon="11.103002">
        <ele>449.5</ele>
        <time>2026-06-19T12:50:30.264000Z</time>
      </trkpt>
      <trkpt lat="48.728624" lon="11.10283">
        <ele>446.5</ele>
        <time>2026-06-19T12:51:16.662000Z</time>
      </trkpt>
      <trkpt lat="48.728835" lon="11.102874">
        <ele>444.9</ele>
        <time>2026-06-19T12:51:41.030000Z</time>
      </trkpt>
      <trkpt lat="48.728907" lon="11.103134">
        <ele>443.7</ele>
        <time>2026-06-19T12:52:02.126000Z</time>
      </trkpt>
      <trkpt lat="48.729084" lon="11.103305">
        <ele>442.4</ele>
        <time>2026-06-19T12:52:25.812000Z</time>
      </trkpt>
      <trkpt lat="48.729301" lon="11.103279">
        <ele>441.1</ele>
        <time>2026-06-19T12:52:50.325000Z</time>
      </trkpt>
      <trkpt lat="48.729515" lon="11.103456">
        <ele>439.7</ele>
        <time>2026-06-19T12:53:17.489000Z</time>
      </trkpt>
      <trkpt lat="48.729855" lon="11.103541">
        <ele>437.9</ele>
        <time>2026-06-19T12:53:55.576000Z</time>
      </trkpt>
      <trkpt lat="48.729919" lon="11.103616">
        <ele>437.6</ele>
        <time>2026-06-19T12:54:04.407000Z</time>
      </trkpt>
      <trkpt lat="48.730156" lon="11.103674">
        <ele>436.5</ele>
        <time>2026-06-19T12:54:30.715000Z</time>
      </trkpt>
      <trkpt lat="48.730317" lon="11.103757">
        <ele>435.7</ele>
        <time>2026-06-19T12:54:49.231000Z</time>
      </trkpt>
      <trkpt lat="48.730895" lon="11.103756">
        <ele>432.8</ele>
        <time>2026-06-19T12:55:52.995000Z</time>
      </trkpt>
      <trkpt lat="48.731108" lon="11.103874">
        <ele>431.5</ele>
        <time>2026-06-19T12:56:18.173000Z</time>
      </trkpt>
      <trkpt lat="48.731348" lon="11.103917">
        <ele>430.3</ele>
        <time>2026-06-19T12:56:44.903000Z</time>
      </trkpt>
      <trkpt lat="48.731468" lon="11.103981">
        <ele>429.7</ele>
        <time>2026-06-19T12:56:58.872000Z</time>
      </trkpt>
      <trkpt lat="48.731861" lon="11.104668">
        <ele>427.6</ele>
        <time>2026-06-19T12:58:03.231000Z</time>
      </trkpt>
      <trkpt lat="48.732034" lon="11.105021">
        <ele>426.7</ele>
        <time>2026-06-19T12:58:34.229000Z</time>
      </trkpt>
      <trkpt lat="48.732084" lon="11.105172">
        <ele>426.3</ele>
        <time>2026-06-19T12:58:46.117000Z</time>
      </trkpt>
      <trkpt lat="48.732176" lon="11.105687">
        <ele>425.3</ele>
        <time>2026-06-19T12:59:23.459000Z</time>
      </trkpt>
      <trkpt lat="48.732325" lon="11.106191">
        <ele>424.5</ele>
        <time>2026-06-19T13:00:01.480000Z</time>
      </trkpt>
      <trkpt lat="48.732544" lon="11.106674">
        <ele>423.9</ele>
        <time>2026-06-19T13:00:41.412000Z</time>
      </trkpt>
      <trkpt lat="48.732707" lon="11.106857">
        <ele>423.6</ele>
        <time>2026-06-19T13:01:02.316000Z</time>
      </trkpt>
      <trkpt lat="48.732834" lon="11.106889">
        <ele>423.3</ele>
        <time>2026-06-19T13:01:15.752000Z</time>
      </trkpt>
      <trkpt lat="48.732905" lon="11.106953">
        <ele>423.2</ele>
        <time>2026-06-19T13:01:24.387000Z</time>
      </trkpt>
      <trkpt lat="48.733025" lon="11.107211">
        <ele>422.7</ele>
        <time>2026-06-19T13:01:46.123000Z</time>
      </trkpt>
      <trkpt lat="48.733736" lon="11.109121">
        <ele>417.5</ele>
        <time>2026-06-19T13:04:21.541000Z</time>
      </trkpt>
      <trkpt lat="48.733803" lon="11.109266">
        <ele>416.8</ele>
        <time>2026-06-19T13:04:34.808000Z</time>
      </trkpt>
      <trkpt lat="48.73398" lon="11.109591">
        <ele>414.6</ele>
        <time>2026-06-19T13:05:06.904000Z</time>
      </trkpt>
      <trkpt lat="48.73424" lon="11.1099">
        <ele>411.3</ele>
        <time>2026-06-19T13:05:46.597000Z</time>
      </trkpt>
      <trkpt lat="48.73436" lon="11.11017">
        <ele>408.8</ele>
        <time>2026-06-19T13:06:12.898000Z</time>
      </trkpt>
      <trkpt lat="48.734556" lon="11.110375">
        <ele>405.8</ele>
        <time>2026-06-19T13:06:42.581000Z</time>
      </trkpt>
      <trkpt lat="48.734624" lon="11.110644">
        <ele>403.4</ele>
        <time>2026-06-19T13:07:06.272000Z</time>
      </trkpt>
      <trkpt lat="48.734814" lon="11.110635">
        <ele>401.1</ele>
        <time>2026-06-19T13:07:29.804000Z</time>
      </trkpt>
      <trkpt lat="48.73489" lon="11.110717">
        <ele>400</ele>
        <time>2026-06-19T13:07:41.329000Z</time>
      </trkpt>
      <trkpt lat="48.735336" lon="11.112191">
        <ele>390.5</ele>
        <time>2026-06-19T13:09:47.151000Z</time>
      </trkpt>
      <trkpt lat="48.736578" lon="11.117105">
        <ele>387.1</ele>
        <time>2026-06-19T13:15:41.510000Z</time>
      </trkpt>
      <trkpt lat="48.737189" lon="11.119913">
        <ele>384.8</ele>
        <time>2026-06-19T13:19:01.469000Z</time>
      </trkpt>
      <trkpt lat="48.737335" lon="11.12071">
        <ele>384</ele>
        <time>2026-06-19T13:19:57.795000Z</time>
      </trkpt>
      <trkpt lat="48.737475" lon="11.121919">
        <ele>383.2</ele>
        <time>2026-06-19T13:21:20.441000Z</time>
      </trkpt>
      <trkpt lat="48.737496" lon="11.122531">
        <ele>383.2</ele>
        <time>2026-06-19T13:22:00.857000Z</time>
      </trkpt>
      <trkpt lat="48.737471" lon="11.123695">
        <ele>383.9</ele>
        <time>2026-06-19T13:23:20.021000Z</time>
      </trkpt>
      <trkpt lat="48.737399" lon="11.124317">
        <ele>384.3</ele>
        <time>2026-06-19T13:24:03.438000Z</time>
      </trkpt>
      <trkpt lat="48.737245" lon="11.12525">
        <ele>384.9</ele>
        <time>2026-06-19T13:25:09.016000Z</time>
      </trkpt>
      <trkpt lat="48.737115" lon="11.125786">
        <ele>385.1</ele>
        <time>2026-06-19T13:25:47.442000Z</time>
      </trkpt>
      <trkpt lat="48.736433" lon="11.128274">
        <ele>385.1</ele>
        <time>2026-06-19T13:28:45.314000Z</time>
      </trkpt>
      <trkpt lat="48.735726" lon="11.130601">
        <ele>384.1</ele>
        <time>2026-06-19T13:31:36.592000Z</time>
      </trkpt>
      <trkpt lat="48.734861" lon="11.133327">
        <ele>382.8</ele>
        <time>2026-06-19T13:34:59.034000Z</time>
      </trkpt>
      <trkpt lat="48.734543" lon="11.134406">
        <ele>382.7</ele>
        <time>2026-06-19T13:36:17.086000Z</time>
      </trkpt>
      <trkpt lat="48.734473" lon="11.134644">
        <ele>382.8</ele>
        <time>2026-06-19T13:36:34.424000Z</time>
      </trkpt>
      <trkpt lat="48.734085" lon="11.13608">
        <ele>383.4</ele>
        <time>2026-06-19T13:38:18.894000Z</time>
      </trkpt>
      <trkpt lat="48.733727" lon="11.137637">
        <ele>384.1</ele>
        <time>2026-06-19T13:40:10.288000Z</time>
      </trkpt>
      <trkpt lat="48.733428" lon="11.139196">
        <ele>384.5</ele>
        <time>2026-06-19T13:41:59.185000Z</time>
      </trkpt>
      <trkpt lat="48.733318" lon="11.139893">
        <ele>384.7</ele>
        <time>2026-06-19T13:42:46.975000Z</time>
      </trkpt>
      <trkpt lat="48.733253" lon="11.140596">
        <ele>384.8</ele>
        <time>2026-06-19T13:43:34.319000Z</time>
      </trkpt>
      <trkpt lat="48.733235" lon="11.141325">
        <ele>384.9</ele>
        <time>2026-06-19T13:44:22.869000Z</time>
      </trkpt>
      <trkpt lat="48.733282" lon="11.142523">
        <ele>385</ele>
        <time>2026-06-19T13:45:42.446000Z</time>
      </trkpt>
      <trkpt lat="48.733264" lon="11.142775">
        <ele>385</ele>
        <time>2026-06-19T13:45:59.222000Z</time>
      </trkpt>
      <trkpt lat="48.7331" lon="11.143295">
        <ele>384.9</ele>
        <time>2026-06-19T13:46:37.521000Z</time>
      </trkpt>
      <trkpt lat="48.733228" lon="11.143344">
        <ele>384.8</ele>
        <time>2026-06-19T13:46:50.836000Z</time>
      </trkpt>
      <trkpt lat="48.733325" lon="11.143343">
        <ele>384.8</ele>
        <time>2026-06-19T13:47:00.707000Z</time>
      </trkpt>
      <trkpt lat="48.734317" lon="11.143416">
        <ele>384</ele>
        <time>2026-06-19T13:48:41.687000Z</time>
      </trkpt>
      <trkpt lat="48.734896" lon="11.14346">
        <ele>383.4</ele>
        <time>2026-06-19T13:49:40.918000Z</time>
      </trkpt>
      <trkpt lat="48.734901" lon="11.143299">
        <ele>383.3</ele>
        <time>2026-06-19T13:49:51.719000Z</time>
      </trkpt>
      <trkpt lat="48.735134" lon="11.140837">
        <ele>382.1</ele>
        <time>2026-06-19T13:52:38.343000Z</time>
      </trkpt>
      <trkpt lat="48.7353" lon="11.13967">
        <ele>382</ele>
        <time>2026-06-19T13:53:57.511000Z</time>
      </trkpt>
      <trkpt lat="48.735561" lon="11.138222">
        <ele>382.1</ele>
        <time>2026-06-19T13:55:36.993000Z</time>
      </trkpt>
      <trkpt lat="48.736094" lon="11.136027">
        <ele>382.1</ele>
        <time>2026-06-19T13:58:11.590000Z</time>
      </trkpt>
      <trkpt lat="48.736198" lon="11.135714">
        <ele>382.1</ele>
        <time>2026-06-19T13:58:34.765000Z</time>
      </trkpt>
      <trkpt lat="48.736525" lon="11.134686">
        <ele>382.2</ele>
        <time>2026-06-19T13:59:50.426000Z</time>
      </trkpt>
      <trkpt lat="48.737775" lon="11.130781">
        <ele>382.7</ele>
        <time>2026-06-19T14:04:38.732000Z</time>
      </trkpt>
      <trkpt lat="48.738253" lon="11.129156">
        <ele>382</ele>
        <time>2026-06-19T14:06:37.566000Z</time>
      </trkpt>
      <trkpt lat="48.738371" lon="11.128656">
        <ele>382</ele>
        <time>2026-06-19T14:07:12.787000Z</time>
      </trkpt>
      <trkpt lat="48.738412" lon="11.128392">
        <ele>382</ele>
        <time>2026-06-19T14:07:30.842000Z</time>
      </trkpt>
      <trkpt lat="48.738474" lon="11.12796">
        <ele>382.2</ele>
        <time>2026-06-19T14:08:00.729000Z</time>
      </trkpt>
      <trkpt lat="48.738875" lon="11.126499">
        <ele>383.2</ele>
        <time>2026-06-19T14:09:48.416000Z</time>
      </trkpt>
      <trkpt lat="48.739247" lon="11.125306">
        <ele>383.6</ele>
        <time>2026-06-19T14:11:17.175000Z</time>
      </trkpt>
      <trkpt lat="48.739356" lon="11.1248">
        <ele>383.4</ele>
        <time>2026-06-19T14:11:52.684000Z</time>
      </trkpt>
      <trkpt lat="48.739403" lon="11.124221">
        <ele>383.1</ele>
        <time>2026-06-19T14:12:31.767000Z</time>
      </trkpt>
      <trkpt lat="48.739439" lon="11.122885">
        <ele>382.5</ele>
        <time>2026-06-19T14:14:01.353000Z</time>
      </trkpt>
      <trkpt lat="48.739413" lon="11.121517">
        <ele>382.3</ele>
        <time>2026-06-19T14:15:32.164000Z</time>
      </trkpt>
      <trkpt lat="48.739265" lon="11.120075">
        <ele>382.6</ele>
        <time>2026-06-19T14:17:09.674000Z</time>
      </trkpt>
      <trkpt lat="48.739195" lon="11.119557">
        <ele>382.8</ele>
        <time>2026-06-19T14:17:45.133000Z</time>
      </trkpt>
      <trkpt lat="48.739016" lon="11.118595">
        <ele>382.9</ele>
        <time>2026-06-19T14:18:51.533000Z</time>
      </trkpt>
      <trkpt lat="48.739022" lon="11.118466">
        <ele>382.9</ele>
        <time>2026-06-19T14:19:00.091000Z</time>
      </trkpt>
      <trkpt lat="48.738959" lon="11.118152">
        <ele>382.9</ele>
        <time>2026-06-19T14:19:21.803000Z</time>
      </trkpt>
      <trkpt lat="48.738912" lon="11.118078">
        <ele>382.8</ele>
        <time>2026-06-19T14:19:28.540000Z</time>
      </trkpt>
      <trkpt lat="48.738798" lon="11.117485">
        <ele>382.8</ele>
        <time>2026-06-19T14:20:09.430000Z</time>
      </trkpt>
      <trkpt lat="48.738231" lon="11.114755">
        <ele>382.7</ele>
        <time>2026-06-19T14:23:18.462000Z</time>
      </trkpt>
      <trkpt lat="48.737783" lon="11.112928">
        <ele>382.8</ele>
        <time>2026-06-19T14:25:27.233000Z</time>
      </trkpt>
      <trkpt lat="48.737646" lon="11.111844">
        <ele>382.8</ele>
        <time>2026-06-19T14:26:40.302000Z</time>
      </trkpt>
      <trkpt lat="48.737442" lon="11.111124">
        <ele>382.9</ele>
        <time>2026-06-19T14:27:32.154000Z</time>
      </trkpt>
      <trkpt lat="48.737232" lon="11.110586">
        <ele>382.9</ele>
        <time>2026-06-19T14:28:13.412000Z</time>
      </trkpt>
      <trkpt lat="48.736847" lon="11.109482">
        <ele>382.9</ele>
        <time>2026-06-19T14:29:35.875000Z</time>
      </trkpt>
      <trkpt lat="48.736205" lon="11.107849">
        <ele>382.8</ele>
        <time>2026-06-19T14:31:41.517000Z</time>
      </trkpt>
      <trkpt lat="48.736045" lon="11.107351">
        <ele>382.7</ele>
        <time>2026-06-19T14:32:18.327000Z</time>
      </trkpt>
      <trkpt lat="48.735923" lon="11.107096">
        <ele>382.6</ele>
        <time>2026-06-19T14:32:39.229000Z</time>
      </trkpt>
      <trkpt lat="48.735372" lon="11.105777">
        <ele>382.5</ele>
        <time>2026-06-19T14:34:22.597000Z</time>
      </trkpt>
      <trkpt lat="48.73524" lon="11.105443">
        <ele>382.5</ele>
        <time>2026-06-19T14:34:48.261000Z</time>
      </trkpt>
      <trkpt lat="48.735093" lon="11.105069">
        <ele>382.5</ele>
        <time>2026-06-19T14:35:17.056000Z</time>
      </trkpt>
      <trkpt lat="48.734772" lon="11.104255">
        <ele>382.6</ele>
        <time>2026-06-19T14:36:19.942000Z</time>
      </trkpt>
      <trkpt lat="48.734536" lon="11.103656">
        <ele>382.7</ele>
        <time>2026-06-19T14:37:06.345000Z</time>
      </trkpt>
      <trkpt lat="48.734061" lon="11.102367">
        <ele>382.7</ele>
        <time>2026-06-19T14:38:43.901000Z</time>
      </trkpt>
      <trkpt lat="48.733951" lon="11.102107">
        <ele>382.7</ele>
        <time>2026-06-19T14:39:04.399000Z</time>
      </trkpt>
      <trkpt lat="48.733846" lon="11.101941">
        <ele>382.7</ele>
        <time>2026-06-19T14:39:19.582000Z</time>
      </trkpt>
      <trkpt lat="48.733506" lon="11.101074">
        <ele>382.8</ele>
        <time>2026-06-19T14:40:26.412000Z</time>
      </trkpt>
      <trkpt lat="48.733193" lon="11.100278">
        <ele>382.9</ele>
        <time>2026-06-19T14:41:27.892000Z</time>
      </trkpt>
      <trkpt lat="48.732842" lon="11.099413">
        <ele>382.9</ele>
        <time>2026-06-19T14:42:35.213000Z</time>
      </trkpt>
      <trkpt lat="48.732428" lon="11.098331">
        <ele>383.2</ele>
        <time>2026-06-19T14:43:58.590000Z</time>
      </trkpt>
      <trkpt lat="48.732188" lon="11.097539">
        <ele>383.3</ele>
        <time>2026-06-19T14:44:56.586000Z</time>
      </trkpt>
      <trkpt lat="48.732151" lon="11.097305">
        <ele>383.3</ele>
        <time>2026-06-19T14:45:12.647000Z</time>
      </trkpt>
      <trkpt lat="48.732045" lon="11.096941">
        <ele>383.4</ele>
        <time>2026-06-19T14:45:39.078000Z</time>
      </trkpt>
      <trkpt lat="48.731969" lon="11.096798">
        <ele>383.4</ele>
        <time>2026-06-19T14:45:51.293000Z</time>
      </trkpt>
      <trkpt lat="48.73173" lon="11.095752">
        <ele>383.5</ele>
        <time>2026-06-19T14:47:04.778000Z</time>
      </trkpt>
      <trkpt lat="48.731528" lon="11.094509">
        <ele>383.9</ele>
        <time>2026-06-19T14:48:30.600000Z</time>
      </trkpt>
      <trkpt lat="48.731415" lon="11.093549">
        <ele>384.5</ele>
        <time>2026-06-19T14:49:37.120000Z</time>
      </trkpt>
      <trkpt lat="48.731381" lon="11.092942">
        <ele>384.9</ele>
        <time>2026-06-19T14:50:18.913000Z</time>
      </trkpt>
      <trkpt lat="48.731395" lon="11.092588">
        <ele>385.2</ele>
        <time>2026-06-19T14:50:43.201000Z</time>
      </trkpt>
      <trkpt lat="48.731384" lon="11.092223">
        <ele>385.4</ele>
        <time>2026-06-19T14:51:08.193000Z</time>
      </trkpt>
      <trkpt lat="48.731346" lon="11.091997">
        <ele>385.6</ele>
        <time>2026-06-19T14:51:24.086000Z</time>
      </trkpt>
      <trkpt lat="48.731292" lon="11.089512">
        <ele>386.2</ele>
        <time>2026-06-19T14:54:10.534000Z</time>
      </trkpt>
      <trkpt lat="48.731355" lon="11.088503">
        <ele>386.2</ele>
        <time>2026-06-19T14:55:17.484000Z</time>
      </trkpt>
      <trkpt lat="48.731403" lon="11.088109">
        <ele>386.1</ele>
        <time>2026-06-19T14:55:44.108000Z</time>
      </trkpt>
      <trkpt lat="48.731468" lon="11.087737">
        <ele>386</ele>
        <time>2026-06-19T14:56:09.738000Z</time>
      </trkpt>
      <trkpt lat="48.731643" lon="11.086972">
        <ele>385.8</ele>
        <time>2026-06-19T14:57:03.541000Z</time>
      </trkpt>
      <trkpt lat="48.731811" lon="11.086416">
        <ele>385.7</ele>
        <time>2026-06-19T14:57:44.233000Z</time>
      </trkpt>
      <trkpt lat="48.73196" lon="11.08612">
        <ele>385.6</ele>
        <time>2026-06-19T14:58:08.996000Z</time>
      </trkpt>
      <trkpt lat="48.732057" lon="11.085988">
        <ele>385.5</ele>
        <time>2026-06-19T14:58:22.130000Z</time>
      </trkpt>
      <trkpt lat="48.732146" lon="11.085855">
        <ele>385.5</ele>
        <time>2026-06-19T14:58:34.718000Z</time>
      </trkpt>
      <trkpt lat="48.732609" lon="11.085385">
        <ele>385.2</ele>
        <time>2026-06-19T14:59:31.086000Z</time>
      </trkpt>
      <trkpt lat="48.732748" lon="11.085124">
        <ele>385.1</ele>
        <time>2026-06-19T14:59:53.413000Z</time>
      </trkpt>
      <trkpt lat="48.732864" lon="11.084906">
        <ele>385</ele>
        <time>2026-06-19T15:00:12.088000Z</time>
      </trkpt>
      <trkpt lat="48.732939" lon="11.084765">
        <ele>385</ele>
        <time>2026-06-19T15:00:24.110000Z</time>
      </trkpt>
      <trkpt lat="48.732999" lon="11.084654">
        <ele>385</ele>
        <time>2026-06-19T15:00:33.673000Z</time>
      </trkpt>
      <trkpt lat="48.733211" lon="11.084262">
        <ele>384.9</ele>
        <time>2026-06-19T15:01:07.340000Z</time>
      </trkpt>
      <trkpt lat="48.733271" lon="11.084141">
        <ele>384.8</ele>
        <time>2026-06-19T15:01:17.349000Z</time>
      </trkpt>
      <trkpt lat="48.733346" lon="11.083999">
        <ele>384.8</ele>
        <time>2026-06-19T15:01:29.395000Z</time>
      </trkpt>
      <trkpt lat="48.733773" lon="11.08315">
        <ele>384.9</ele>
        <time>2026-06-19T15:02:39.870000Z</time>
      </trkpt>
      <trkpt lat="48.733975" lon="11.082798">
        <ele>385.1</ele>
        <time>2026-06-19T15:03:11.479000Z</time>
      </trkpt>
      <trkpt lat="48.733645" lon="11.082719">
        <ele>385.4</ele>
        <time>2026-06-19T15:03:46.058000Z</time>
      </trkpt>
      <trkpt lat="48.733764" lon="11.082653">
        <ele>385.5</ele>
        <time>2026-06-19T15:03:59.179000Z</time>
      </trkpt>
      <trkpt lat="48.733867" lon="11.082656">
        <ele>385.6</ele>
        <time>2026-06-19T15:04:09.784000Z</time>
      </trkpt>
      <trkpt lat="48.733997" lon="11.082521">
        <ele>385.7</ele>
        <time>2026-06-19T15:04:26.012000Z</time>
      </trkpt>
      <trkpt lat="48.734131" lon="11.082265">
        <ele>385.8</ele>
        <time>2026-06-19T15:04:48.092000Z</time>
      </trkpt>
      <trkpt lat="48.734166" lon="11.082048">
        <ele>385.9</ele>
        <time>2026-06-19T15:05:03.116000Z</time>
      </trkpt>
      <trkpt lat="48.734256" lon="11.082026">
        <ele>386</ele>
        <time>2026-06-19T15:05:12.408000Z</time>
      </trkpt>
      <trkpt lat="48.734332" lon="11.08196">
        <ele>386</ele>
        <time>2026-06-19T15:05:21.209000Z</time>
      </trkpt>
      <trkpt lat="48.734478" lon="11.081725">
        <ele>386.1</ele>
        <time>2026-06-19T15:05:42.880000Z</time>
      </trkpt>
      <trkpt lat="48.735043" lon="11.080958">
        <ele>386</ele>
        <time>2026-06-19T15:06:58.870000Z</time>
      </trkpt>
      <trkpt lat="48.735059" lon="11.080935">
        <ele>386</ele>
        <time>2026-06-19T15:07:01.126000Z</time>
      </trkpt>
      <trkpt lat="48.735513" lon="11.080384">
        <ele>385.8</ele>
        <time>2026-06-19T15:07:59.740000Z</time>
      </trkpt>
      <trkpt lat="48.735937" lon="11.07993">
        <ele>386.1</ele>
        <time>2026-06-19T15:08:52.685000Z</time>
      </trkpt>
      <trkpt lat="48.736116" lon="11.079646">
        <ele>386.4</ele>
        <time>2026-06-19T15:09:19.719000Z</time>
      </trkpt>
      <trkpt lat="48.736226" lon="11.079421">
        <ele>386.6</ele>
        <time>2026-06-19T15:09:39.087000Z</time>
      </trkpt>
      <trkpt lat="48.736279" lon="11.079198">
        <ele>386.9</ele>
        <time>2026-06-19T15:09:55.473000Z</time>
      </trkpt>
      <trkpt lat="48.736381" lon="11.079083">
        <ele>387</ele>
        <time>2026-06-19T15:10:08.696000Z</time>
      </trkpt>
      <trkpt lat="48.736365" lon="11.07859">
        <ele>387.2</ele>
        <time>2026-06-19T15:10:41.902000Z</time>
      </trkpt>
      <trkpt lat="48.736279" lon="11.07809">
        <ele>387.4</ele>
        <time>2026-06-19T15:11:16.692000Z</time>
      </trkpt>
      <trkpt lat="48.736256" lon="11.07758">
        <ele>387.7</ele>
        <time>2026-06-19T15:11:51.633000Z</time>
      </trkpt>
      <trkpt lat="48.736394" lon="11.077194">
        <ele>388</ele>
        <time>2026-06-19T15:12:21.860000Z</time>
      </trkpt>
      <trkpt lat="48.736563" lon="11.076858">
        <ele>388.2</ele>
        <time>2026-06-19T15:12:50.432000Z</time>
      </trkpt>
      <trkpt lat="48.737139" lon="11.07593">
        <ele>389.2</ele>
        <time>2026-06-19T15:14:17.997000Z</time>
      </trkpt>
      <trkpt lat="48.737499" lon="11.075477">
        <ele>390.4</ele>
        <time>2026-06-19T15:15:09.108000Z</time>
      </trkpt>
      <trkpt lat="48.738395" lon="11.074736">
        <ele>392.1</ele>
        <time>2026-06-19T15:16:57.036000Z</time>
      </trkpt>
      <trkpt lat="48.738757" lon="11.074491">
        <ele>392.4</ele>
        <time>2026-06-19T15:17:37.843000Z</time>
      </trkpt>
      <trkpt lat="48.739313" lon="11.074038">
        <ele>393</ele>
        <time>2026-06-19T15:18:43.283000Z</time>
      </trkpt>
      <trkpt lat="48.739537" lon="11.073904">
        <ele>393.2</ele>
        <time>2026-06-19T15:19:08.181000Z</time>
      </trkpt>
      <trkpt lat="48.739767" lon="11.074026">
        <ele>393.5</ele>
        <time>2026-06-19T15:19:33.661000Z</time>
      </trkpt>
      <trkpt lat="48.740124" lon="11.074316">
        <ele>394.7</ele>
        <time>2026-06-19T15:20:18.230000Z</time>
      </trkpt>
      <trkpt lat="48.740401" lon="11.074374">
        <ele>395.9</ele>
        <time>2026-06-19T15:20:50.279000Z</time>
      </trkpt>
      <trkpt lat="48.740482" lon="11.074443">
        <ele>396.3</ele>
        <time>2026-06-19T15:21:01.068000Z</time>
      </trkpt>
      <trkpt lat="48.740235" lon="11.07452">
        <ele>397.6</ele>
        <time>2026-06-19T15:21:30.966000Z</time>
      </trkpt>
      <trkpt lat="48.740036" lon="11.074526">
        <ele>398.7</ele>
        <time>2026-06-19T15:21:54.664000Z</time>
      </trkpt>
      <trkpt lat="48.739697" lon="11.074639">
        <ele>400.6</ele>
        <time>2026-06-19T15:22:35.905000Z</time>
      </trkpt>
      <trkpt lat="48.739176" lon="11.074997">
        <ele>403.5</ele>
        <time>2026-06-19T15:23:43.298000Z</time>
      </trkpt>
      <trkpt lat="48.738945" lon="11.07518">
        <ele>404.5</ele>
        <time>2026-06-19T15:24:12.866000Z</time>
      </trkpt>
      <trkpt lat="48.738562" lon="11.075483">
        <ele>405.2</ele>
        <time>2026-06-19T15:24:58.399000Z</time>
      </trkpt>
      <trkpt lat="48.738945" lon="11.07518">
        <ele>404.5</ele>
        <time>2026-06-19T15:25:42.975000Z</time>
      </trkpt>
      <trkpt lat="48.739176" lon="11.074997">
        <ele>403.5</ele>
        <time>2026-06-19T15:26:11.094000Z</time>
      </trkpt>
      <trkpt lat="48.739697" lon="11.074639">
        <ele>400.2</ele>
        <time>2026-06-19T15:27:15.029000Z</time>
      </trkpt>
      <trkpt lat="48.740036" lon="11.074526">
        <ele>397.7</ele>
        <time>2026-06-19T15:27:54.786000Z</time>
      </trkpt>
      <trkpt lat="48.740235" lon="11.07452">
        <ele>396.4</ele>
        <time>2026-06-19T15:28:17.276000Z</time>
      </trkpt>
      <trkpt lat="48.740482" lon="11.074443">
        <ele>395.1</ele>
        <time>2026-06-19T15:28:45.206000Z</time>
      </trkpt>
      <trkpt lat="48.740662" lon="11.074398">
        <ele>394.5</ele>
        <time>2026-06-19T15:29:04.812000Z</time>
      </trkpt>
      <trkpt lat="48.740845" lon="11.074275">
        <ele>394.1</ele>
        <time>2026-06-19T15:29:25.460000Z</time>
      </trkpt>
      <trkpt lat="48.74096" lon="11.074123">
        <ele>394.2</ele>
        <time>2026-06-19T15:29:40.995000Z</time>
      </trkpt>
      <trkpt lat="48.741042" lon="11.074076">
        <ele>394.4</ele>
        <time>2026-06-19T15:29:50.238000Z</time>
      </trkpt>
      <trkpt lat="48.741281" lon="11.074031">
        <ele>395</ele>
        <time>2026-06-19T15:30:16.684000Z</time>
      </trkpt>
      <trkpt lat="48.741352" lon="11.074062">
        <ele>395.3</ele>
        <time>2026-06-19T15:30:24.960000Z</time>
      </trkpt>
      <trkpt lat="48.741453" lon="11.074182">
        <ele>395.8</ele>
        <time>2026-06-19T15:30:39.747000Z</time>
      </trkpt>
      <trkpt lat="48.741605" lon="11.074505">
        <ele>397.1</ele>
        <time>2026-06-19T15:31:10.523000Z</time>
      </trkpt>
      <trkpt lat="48.741702" lon="11.074593">
        <ele>397.9</ele>
        <time>2026-06-19T15:31:24.238000Z</time>
      </trkpt>
      <trkpt lat="48.741849" lon="11.074663">
        <ele>398.9</ele>
        <time>2026-06-19T15:31:43.392000Z</time>
      </trkpt>
      <trkpt lat="48.741926" lon="11.07463">
        <ele>399.5</ele>
        <time>2026-06-19T15:31:53.276000Z</time>
      </trkpt>
      <trkpt lat="48.742231" lon="11.074649">
        <ele>401.7</ele>
        <time>2026-06-19T15:32:31.476000Z</time>
      </trkpt>
      <trkpt lat="48.743385" lon="11.074929">
        <ele>406.6</ele>
        <time>2026-06-19T15:34:45.547000Z</time>
      </trkpt>
      <trkpt lat="48.743465" lon="11.074888">
        <ele>406.8</ele>
        <time>2026-06-19T15:34:54.363000Z</time>
      </trkpt>
      <trkpt lat="48.743518" lon="11.073038">
        <ele>405.5</ele>
        <time>2026-06-19T15:36:59.245000Z</time>
      </trkpt>
      <trkpt lat="48.743528" lon="11.072707">
        <ele>404.6</ele>
        <time>2026-06-19T15:37:22.804000Z</time>
      </trkpt>
      <trkpt lat="48.743527" lon="11.072225">
        <ele>403.3</ele>
        <time>2026-06-19T15:37:57.416000Z</time>
      </trkpt>
      <trkpt lat="48.743544" lon="11.071532">
        <ele>400.9</ele>
        <time>2026-06-19T15:38:47.966000Z</time>
      </trkpt>
      <trkpt lat="48.743571" lon="11.070891">
        <ele>398.3</ele>
        <time>2026-06-19T15:39:35.646000Z</time>
      </trkpt>
      <trkpt lat="48.743511" lon="11.070444">
        <ele>396.8</ele>
        <time>2026-06-19T15:40:08.751000Z</time>
      </trkpt>
      <trkpt lat="48.74349" lon="11.070256">
        <ele>396.3</ele>
        <time>2026-06-19T15:40:22.289000Z</time>
      </trkpt>
      <trkpt lat="48.743036" lon="11.07021">
        <ele>395.3</ele>
        <time>2026-06-19T15:41:10.032000Z</time>
      </trkpt>
      <trkpt lat="48.743024" lon="11.069991">
        <ele>395.1</ele>
        <time>2026-06-19T15:41:24.969000Z</time>
      </trkpt>
      <trkpt lat="48.743034" lon="11.069917">
        <ele>395</ele>
        <time>2026-06-19T15:41:30.091000Z</time>
      </trkpt>
      <trkpt lat="48.743024" lon="11.069991">
        <ele>394.9</ele>
        <time>2026-06-19T15:41:35.226000Z</time>
      </trkpt>
      <trkpt lat="48.743036" lon="11.07021">
        <ele>394.8</ele>
        <time>2026-06-19T15:41:50.047000Z</time>
      </trkpt>
      <trkpt lat="48.74349" lon="11.070256">
        <ele>394.2</ele>
        <time>2026-06-19T15:42:36.652000Z</time>
      </trkpt>
      <trkpt lat="48.743858" lon="11.070153">
        <ele>394</ele>
        <time>2026-06-19T15:43:14.763000Z</time>
      </trkpt>
      <trkpt lat="48.74412" lon="11.070217">
        <ele>393.8</ele>
        <time>2026-06-19T15:43:41.663000Z</time>
      </trkpt>
      <trkpt lat="48.744161" lon="11.070227">
        <ele>393.7</ele>
        <time>2026-06-19T15:43:45.899000Z</time>
      </trkpt>
      <trkpt lat="48.74443" lon="11.070376">
        <ele>393.2</ele>
        <time>2026-06-19T15:44:15.801000Z</time>
      </trkpt>
      <trkpt lat="48.744764" lon="11.07056">
        <ele>391.9</ele>
        <time>2026-06-19T15:44:53.827000Z</time>
      </trkpt>
      <trkpt lat="48.744788" lon="11.070536">
        <ele>391.8</ele>
        <time>2026-06-19T15:44:56.936000Z</time>
      </trkpt>
      <trkpt lat="48.745079" lon="11.070247">
        <ele>390.4</ele>
        <time>2026-06-19T15:45:34.736000Z</time>
      </trkpt>
      <trkpt lat="48.745203" lon="11.070356">
        <ele>389.8</ele>
        <time>2026-06-19T15:45:50.125000Z</time>
      </trkpt>
      <trkpt lat="48.745281" lon="11.07032">
        <ele>389.5</ele>
        <time>2026-06-19T15:45:58.930000Z</time>
      </trkpt>
      <trkpt lat="48.745481" lon="11.070088">
        <ele>388.7</ele>
        <time>2026-06-19T15:46:25.783000Z</time>
      </trkpt>
      <trkpt lat="48.745502" lon="11.07003">
        <ele>388.6</ele>
        <time>2026-06-19T15:46:30.421000Z</time>
      </trkpt>
      <trkpt lat="48.745603" lon="11.069759">
        <ele>388</ele>
        <time>2026-06-19T15:46:52.217000Z</time>
      </trkpt>
      <trkpt lat="48.745664" lon="11.069614">
        <ele>387.7</ele>
        <time>2026-06-19T15:47:04.267000Z</time>
      </trkpt>
      <trkpt lat="48.745705" lon="11.069516">
        <ele>387.5</ele>
        <time>2026-06-19T15:47:12.291000Z</time>
      </trkpt>
      <trkpt lat="48.745686" lon="11.069408">
        <ele>387.3</ele>
        <time>2026-06-19T15:47:20.043000Z</time>
      </trkpt>
      <trkpt lat="48.745632" lon="11.069107">
        <ele>386.9</ele>
        <time>2026-06-19T15:47:41.424000Z</time>
      </trkpt>
      <trkpt lat="48.745518" lon="11.068358">
        <ele>386.2</ele>
        <time>2026-06-19T15:48:33.703000Z</time>
      </trkpt>
      <trkpt lat="48.745025" lon="11.065604">
        <ele>385.3</ele>
        <time>2026-06-19T15:51:43.810000Z</time>
      </trkpt>
      <trkpt lat="48.745007" lon="11.065313">
        <ele>385.3</ele>
        <time>2026-06-19T15:52:03.171000Z</time>
      </trkpt>
      <trkpt lat="48.744894" lon="11.063407">
        <ele>385</ele>
        <time>2026-06-19T15:54:09.947000Z</time>
      </trkpt>
      <trkpt lat="48.744721" lon="11.061241">
        <ele>385.2</ele>
        <time>2026-06-19T15:56:34.384000Z</time>
      </trkpt>
      <trkpt lat="48.744518" lon="11.060325">
        <ele>385.4</ele>
        <time>2026-06-19T15:57:38.851000Z</time>
      </trkpt>
      <trkpt lat="48.744377" lon="11.05952">
        <ele>385.4</ele>
        <time>2026-06-19T15:58:34.013000Z</time>
      </trkpt>
      <trkpt lat="48.744386" lon="11.059298">
        <ele>385.4</ele>
        <time>2026-06-19T15:58:48.737000Z</time>
      </trkpt>
      <trkpt lat="48.744431" lon="11.059126">
        <ele>385.4</ele>
        <time>2026-06-19T15:59:00.935000Z</time>
      </trkpt>
      <trkpt lat="48.744628" lon="11.058735">
        <ele>385.4</ele>
        <time>2026-06-19T15:59:33.468000Z</time>
      </trkpt>
      <trkpt lat="48.744947" lon="11.057965">
        <ele>385.2</ele>
        <time>2026-06-19T16:00:33.914000Z</time>
      </trkpt>
      <trkpt lat="48.745077" lon="11.057568">
        <ele>385.1</ele>
        <time>2026-06-19T16:01:03.426000Z</time>
      </trkpt>
      <trkpt lat="48.745276" lon="11.056675">
        <ele>384.9</ele>
        <time>2026-06-19T16:02:05.920000Z</time>
      </trkpt>
      <trkpt lat="48.745288" lon="11.05643">
        <ele>384.9</ele>
        <time>2026-06-19T16:02:22.111000Z</time>
      </trkpt>
      <trkpt lat="48.745257" lon="11.055973">
        <ele>384.9</ele>
        <time>2026-06-19T16:02:52.464000Z</time>
      </trkpt>
      <trkpt lat="48.745139" lon="11.054961">
        <ele>384.8</ele>
        <time>2026-06-19T16:04:00.485000Z</time>
      </trkpt>
      <trkpt lat="48.74514" lon="11.054809">
        <ele>384.8</ele>
        <time>2026-06-19T16:04:10.562000Z</time>
      </trkpt>
      <trkpt lat="48.743825" lon="11.054934">
        <ele>384.5</ele>
        <time>2026-06-19T16:06:22.860000Z</time>
      </trkpt>
      <trkpt lat="48.743057" lon="11.054993">
        <ele>384.5</ele>
        <time>2026-06-19T16:07:39.842000Z</time>
      </trkpt>
      <trkpt lat="48.742571" lon="11.054964">
        <ele>384.5</ele>
        <time>2026-06-19T16:08:28.660000Z</time>
      </trkpt>
      <trkpt lat="48.742376" lon="11.054952">
        <ele>384.5</ele>
        <time>2026-06-19T16:08:48.241000Z</time>
      </trkpt>
      <trkpt lat="48.742317" lon="11.055172">
        <ele>384.5</ele>
        <time>2026-06-19T16:09:03.929000Z</time>
      </trkpt>
      <trkpt lat="48.742352" lon="11.056201">
        <ele>384.5</ele>
        <time>2026-06-19T16:10:12.025000Z</time>
      </trkpt>
      <trkpt lat="48.74229" lon="11.056342">
        <ele>384.5</ele>
        <time>2026-06-19T16:10:23.209000Z</time>
      </trkpt>
      <trkpt lat="48.742158" lon="11.056398">
        <ele>384.5</ele>
        <time>2026-06-19T16:10:36.904000Z</time>
      </trkpt>
      <trkpt lat="48.739882" lon="11.056102">
        <ele>384.5</ele>
        <time>2026-06-19T16:14:25.776000Z</time>
      </trkpt>
      <trkpt lat="48.738279" lon="11.055909">
        <ele>385.1</ele>
        <time>2026-06-19T16:17:08.657000Z</time>
      </trkpt>
      <trkpt lat="48.738245" lon="11.055998">
        <ele>385.1</ele>
        <time>2026-06-19T16:17:15.531000Z</time>
      </trkpt>
      <trkpt lat="48.738114" lon="11.05627">
        <ele>385.2</ele>
        <time>2026-06-19T16:17:37.988000Z</time>
      </trkpt>
      <trkpt lat="48.738043" lon="11.056328">
        <ele>385.2</ele>
        <time>2026-06-19T16:17:46.159000Z</time>
      </trkpt>
      <trkpt lat="48.737968" lon="11.056399">
        <ele>385.2</ele>
        <time>2026-06-19T16:17:55.034000Z</time>
      </trkpt>
      <trkpt lat="48.737656" lon="11.056705">
        <ele>385.2</ele>
        <time>2026-06-19T16:18:32.385000Z</time>
      </trkpt>
      <trkpt lat="48.73752" lon="11.056766">
        <ele>385.3</ele>
        <time>2026-06-19T16:18:46.595000Z</time>
      </trkpt>
      <trkpt lat="48.737416" lon="11.056918">
        <ele>385.2</ele>
        <time>2026-06-19T16:19:01.080000Z</time>
      </trkpt>
      <trkpt lat="48.737345" lon="11.057106">
        <ele>385.2</ele>
        <time>2026-06-19T16:19:15.390000Z</time>
      </trkpt>
      <trkpt lat="48.737259" lon="11.05723">
        <ele>385.2</ele>
        <time>2026-06-19T16:19:27.308000Z</time>
      </trkpt>
      <trkpt lat="48.737212" lon="11.057183">
        <ele>385.2</ele>
        <time>2026-06-19T16:19:32.972000Z</time>
      </trkpt>
      <trkpt lat="48.737153" lon="11.057041">
        <ele>385.2</ele>
        <time>2026-06-19T16:19:44.038000Z</time>
      </trkpt>
      <trkpt lat="48.736247" lon="11.053731">
        <ele>385.3</ele>
        <time>2026-06-19T16:23:40.712000Z</time>
      </trkpt>
      <trkpt lat="48.735789" lon="11.051885">
        <ele>385.4</ele>
        <time>2026-06-19T16:25:51.272000Z</time>
      </trkpt>
      <trkpt lat="48.735613" lon="11.050977">
        <ele>385.3</ele>
        <time>2026-06-19T16:26:53.906000Z</time>
      </trkpt>
      <trkpt lat="48.735355" lon="11.049559">
        <ele>385.3</ele>
        <time>2026-06-19T16:28:30.975000Z</time>
      </trkpt>
      <trkpt lat="48.735085" lon="11.04769">
        <ele>385.6</ele>
        <time>2026-06-19T16:30:38.309000Z</time>
      </trkpt>
      <trkpt lat="48.73496" lon="11.046671">
        <ele>385.8</ele>
        <time>2026-06-19T16:31:47.301000Z</time>
      </trkpt>
      <trkpt lat="48.73483" lon="11.045229">
        <ele>385.9</ele>
        <time>2026-06-19T16:33:23.794000Z</time>
      </trkpt>
      <trkpt lat="48.73474" lon="11.043734">
        <ele>386</ele>
        <time>2026-06-19T16:35:03.235000Z</time>
      </trkpt>
      <trkpt lat="48.734733" lon="11.042608">
        <ele>386</ele>
        <time>2026-06-19T16:36:17.610000Z</time>
      </trkpt>
      <trkpt lat="48.734942" lon="11.037604">
        <ele>386</ele>
        <time>2026-06-19T16:41:48.619000Z</time>
      </trkpt>
      <trkpt lat="48.735231" lon="11.028245">
        <ele>387</ele>
        <time>2026-06-19T16:52:10.436000Z</time>
      </trkpt>
      <trkpt lat="48.735298" lon="11.027136">
        <ele>386.8</ele>
        <time>2026-06-19T16:53:24.254000Z</time>
      </trkpt>
      <trkpt lat="48.735394" lon="11.024911">
        <ele>386.6</ele>
        <time>2026-06-19T16:55:51.927000Z</time>
      </trkpt>
      <trkpt lat="48.735525" lon="11.023939">
        <ele>386.9</ele>
        <time>2026-06-19T16:56:58.668000Z</time>
      </trkpt>
      <trkpt lat="48.73566" lon="11.023281">
        <ele>387.4</ele>
        <time>2026-06-19T16:57:45.850000Z</time>
      </trkpt>
      <trkpt lat="48.735894" lon="11.022627">
        <ele>388.1</ele>
        <time>2026-06-19T16:58:37.231000Z</time>
      </trkpt>
      <trkpt lat="48.736003" lon="11.022188">
        <ele>388.5</ele>
        <time>2026-06-19T16:59:09.723000Z</time>
      </trkpt>
      <trkpt lat="48.736045" lon="11.022121">
        <ele>388.6</ele>
        <time>2026-06-19T16:59:16.205000Z</time>
      </trkpt>
      <trkpt lat="48.736142" lon="11.022059">
        <ele>388.7</ele>
        <time>2026-06-19T16:59:27.286000Z</time>
      </trkpt>
      <trkpt lat="48.736317" lon="11.022045">
        <ele>389</ele>
        <time>2026-06-19T16:59:45.715000Z</time>
      </trkpt>
      <trkpt lat="48.736481" lon="11.022031">
        <ele>389.2</ele>
        <time>2026-06-19T17:00:03.039000Z</time>
      </trkpt>
      <trkpt lat="48.73655" lon="11.021985">
        <ele>389.3</ele>
        <time>2026-06-19T17:00:10.896000Z</time>
      </trkpt>
      <trkpt lat="48.736585" lon="11.02191">
        <ele>389.4</ele>
        <time>2026-06-19T17:00:17.214000Z</time>
      </trkpt>
      <trkpt lat="48.736695" lon="11.021304">
        <ele>389.8</ele>
        <time>2026-06-19T17:01:00.173000Z</time>
      </trkpt>
      <trkpt lat="48.736784" lon="11.021093">
        <ele>390</ele>
        <time>2026-06-19T17:01:17.147000Z</time>
      </trkpt>
      <trkpt lat="48.736895" lon="11.020914">
        <ele>390</ele>
        <time>2026-06-19T17:01:33.628000Z</time>
      </trkpt>
      <trkpt lat="48.737011" lon="11.020705">
        <ele>390</ele>
        <time>2026-06-19T17:01:51.650000Z</time>
      </trkpt>
      <trkpt lat="48.736534" lon="11.020692">
        <ele>390</ele>
        <time>2026-06-19T17:02:39.359000Z</time>
      </trkpt>
      <trkpt lat="48.736321" lon="11.020662">
        <ele>390</ele>
        <time>2026-06-19T17:03:00.861000Z</time>
      </trkpt>
      <trkpt lat="48.736053" lon="11.020567">
        <ele>389.9</ele>
        <time>2026-06-19T17:03:28.516000Z</time>
      </trkpt>
      <trkpt lat="48.735998" lon="11.020547">
        <ele>389.9</ele>
        <time>2026-06-19T17:03:34.203000Z</time>
      </trkpt>
      <trkpt lat="48.734908" lon="11.020378">
        <ele>389.8</ele>
        <time>2026-06-19T17:05:24.229000Z</time>
      </trkpt>
      <trkpt lat="48.734612" lon="11.020332">
        <ele>389.7</ele>
        <time>2026-06-19T17:05:54.047000Z</time>
      </trkpt>
      <trkpt lat="48.734447" lon="11.020361">
        <ele>389.7</ele>
        <time>2026-06-19T17:06:10.765000Z</time>
      </trkpt>
      <trkpt lat="48.734297" lon="11.020342">
        <ele>389.7</ele>
        <time>2026-06-19T17:06:25.843000Z</time>
      </trkpt>
      <trkpt lat="48.734262" lon="11.020977">
        <ele>389.5</ele>
        <time>2026-06-19T17:07:08.211000Z</time>
      </trkpt>
      <trkpt lat="48.7343" lon="11.021245">
        <ele>389.4</ele>
        <time>2026-06-19T17:07:26.502000Z</time>
      </trkpt>
      <trkpt lat="48.734476" lon="11.021823">
        <ele>389.2</ele>
        <time>2026-06-19T17:08:08.986000Z</time>
      </trkpt>
      <trkpt lat="48.734506" lon="11.022733">
        <ele>388.9</ele>
        <time>2026-06-19T17:09:09.769000Z</time>
      </trkpt>
      <trkpt lat="48.734408" lon="11.024904">
        <ele>388.4</ele>
        <time>2026-06-19T17:11:34.456000Z</time>
      </trkpt>
      <trkpt lat="48.734136" lon="11.032578">
        <ele>386.1</ele>
        <time>2026-06-19T17:20:06.448000Z</time>
      </trkpt>
      <trkpt lat="48.734047" lon="11.034224">
        <ele>385.8</ele>
        <time>2026-06-19T17:21:56.253000Z</time>
      </trkpt>
      <trkpt lat="48.734049" lon="11.035058">
        <ele>385.7</ele>
        <time>2026-06-19T17:22:51.532000Z</time>
      </trkpt>
      <trkpt lat="48.733947" lon="11.037066">
        <ele>385.4</ele>
        <time>2026-06-19T17:25:05.034000Z</time>
      </trkpt>
      <trkpt lat="48.733908" lon="11.038453">
        <ele>385.2</ele>
        <time>2026-06-19T17:26:36.994000Z</time>
      </trkpt>
      <trkpt lat="48.733809" lon="11.040588">
        <ele>385.5</ele>
        <time>2026-06-19T17:28:59.412000Z</time>
      </trkpt>
      <trkpt lat="48.733784" lon="11.041624">
        <ele>385.8</ele>
        <time>2026-06-19T17:30:08.774000Z</time>
      </trkpt>
      <trkpt lat="48.733773" lon="11.044173">
        <ele>385.6</ele>
        <time>2026-06-19T17:32:57.412000Z</time>
      </trkpt>
      <trkpt lat="48.733661" lon="11.044401">
        <ele>385.4</ele>
        <time>2026-06-19T17:33:16.416000Z</time>
      </trkpt>
      <trkpt lat="48.733418" lon="11.044761">
        <ele>385.2</ele>
        <time>2026-06-19T17:33:50.952000Z</time>
      </trkpt>
      <trkpt lat="48.733346" lon="11.045134">
        <ele>385</ele>
        <time>2026-06-19T17:34:17.007000Z</time>
      </trkpt>
      <trkpt lat="48.733315" lon="11.045463">
        <ele>384.9</ele>
        <time>2026-06-19T17:34:39.244000Z</time>
      </trkpt>
      <trkpt lat="48.73333" lon="11.04598">
        <ele>384.9</ele>
        <time>2026-06-19T17:35:13.385000Z</time>
      </trkpt>
      <trkpt lat="48.733246" lon="11.046167">
        <ele>384.9</ele>
        <time>2026-06-19T17:35:28.553000Z</time>
      </trkpt>
      <trkpt lat="48.732869" lon="11.046309">
        <ele>385.1</ele>
        <time>2026-06-19T17:36:08.283000Z</time>
      </trkpt>
      <trkpt lat="48.732811" lon="11.046336">
        <ele>385.2</ele>
        <time>2026-06-19T17:36:14.559000Z</time>
      </trkpt>
      <trkpt lat="48.732774" lon="11.046349">
        <ele>385.2</ele>
        <time>2026-06-19T17:36:18.405000Z</time>
      </trkpt>
      <trkpt lat="48.732658" lon="11.046373">
        <ele>385.3</ele>
        <time>2026-06-19T17:36:30.568000Z</time>
      </trkpt>
      <trkpt lat="48.732635" lon="11.046383">
        <ele>385.4</ele>
        <time>2026-06-19T17:36:33.023000Z</time>
      </trkpt>
      <trkpt lat="48.732538" lon="11.046414">
        <ele>385.5</ele>
        <time>2026-06-19T17:36:43.329000Z</time>
      </trkpt>
      <trkpt lat="48.732215" lon="11.046456">
        <ele>385.8</ele>
        <time>2026-06-19T17:37:17.003000Z</time>
      </trkpt>
      <trkpt lat="48.730703" lon="11.046323">
        <ele>387.1</ele>
        <time>2026-06-19T17:39:53.375000Z</time>
      </trkpt>
      <trkpt lat="48.729365" lon="11.046244">
        <ele>387.8</ele>
        <time>2026-06-19T17:42:09.530000Z</time>
      </trkpt>
      <trkpt lat="48.729087" lon="11.046538">
        <ele>387.9</ele>
        <time>2026-06-19T17:42:43.949000Z</time>
      </trkpt>
      <trkpt lat="48.728801" lon="11.04694">
        <ele>388</ele>
        <time>2026-06-19T17:43:23.457000Z</time>
      </trkpt>
      <trkpt lat="48.72861" lon="11.047358">
        <ele>388.2</ele>
        <time>2026-06-19T17:43:57.495000Z</time>
      </trkpt>
      <trkpt lat="48.728534" lon="11.047865">
        <ele>388.2</ele>
        <time>2026-06-19T17:44:31.992000Z</time>
      </trkpt>
      <trkpt lat="48.728662" lon="11.048408">
        <ele>388.1</ele>
        <time>2026-06-19T17:45:10.308000Z</time>
      </trkpt>
      <trkpt lat="48.728806" lon="11.048703">
        <ele>388</ele>
        <time>2026-06-19T17:45:34.692000Z</time>
      </trkpt>
      <trkpt lat="48.728891" lon="11.048976">
        <ele>387.9</ele>
        <time>2026-06-19T17:45:54.859000Z</time>
      </trkpt>
      <trkpt lat="48.728907" lon="11.050812">
        <ele>386.9</ele>
        <time>2026-06-19T17:47:58.204000Z</time>
      </trkpt>
      <trkpt lat="48.728988" lon="11.05108">
        <ele>386.8</ele>
        <time>2026-06-19T17:48:17.918000Z</time>
      </trkpt>
      <trkpt lat="48.729107" lon="11.051339">
        <ele>386.7</ele>
        <time>2026-06-19T17:48:38.938000Z</time>
      </trkpt>
      <trkpt lat="48.729353" lon="11.051694">
        <ele>386.7</ele>
        <time>2026-06-19T17:49:12.921000Z</time>
      </trkpt>
      <trkpt lat="48.729737" lon="11.052051">
        <ele>386.8</ele>
        <time>2026-06-19T17:49:58.404000Z</time>
      </trkpt>
      <trkpt lat="48.730153" lon="11.052281">
        <ele>387</ele>
        <time>2026-06-19T17:50:43.613000Z</time>
      </trkpt>
      <trkpt lat="48.730268" lon="11.052399">
        <ele>387.1</ele>
        <time>2026-06-19T17:50:57.822000Z</time>
      </trkpt>
      <trkpt lat="48.730309" lon="11.052485">
        <ele>387.1</ele>
        <time>2026-06-19T17:51:04.963000Z</time>
      </trkpt>
      <trkpt lat="48.730304" lon="11.052546">
        <ele>387.2</ele>
        <time>2026-06-19T17:51:09.141000Z</time>
      </trkpt>
      <trkpt lat="48.730721" lon="11.053334">
        <ele>387.6</ele>
        <time>2026-06-19T17:52:17.281000Z</time>
      </trkpt>
      <trkpt lat="48.731141" lon="11.05399">
        <ele>387.7</ele>
        <time>2026-06-19T17:53:18.151000Z</time>
      </trkpt>
      <trkpt lat="48.731577" lon="11.054404">
        <ele>387.8</ele>
        <time>2026-06-19T17:54:09.845000Z</time>
      </trkpt>
      <trkpt lat="48.73181" lon="11.054699">
        <ele>387.8</ele>
        <time>2026-06-19T17:54:40.264000Z</time>
      </trkpt>
      <trkpt lat="48.732135" lon="11.055195">
        <ele>387.6</ele>
        <time>2026-06-19T17:55:26.652000Z</time>
      </trkpt>
      <trkpt lat="48.732296" lon="11.055618">
        <ele>387.5</ele>
        <time>2026-06-19T17:55:59.246000Z</time>
      </trkpt>
      <trkpt lat="48.732401" lon="11.055782">
        <ele>387.4</ele>
        <time>2026-06-19T17:56:14.522000Z</time>
      </trkpt>
      <trkpt lat="48.732529" lon="11.056199">
        <ele>387.2</ele>
        <time>2026-06-19T17:56:45.301000Z</time>
      </trkpt>
      <trkpt lat="48.732522" lon="11.056386">
        <ele>387.1</ele>
        <time>2026-06-19T17:56:57.847000Z</time>
      </trkpt>
      <trkpt lat="48.73246" lon="11.056796">
        <ele>386.9</ele>
        <time>2026-06-19T17:57:26.035000Z</time>
      </trkpt>
      <trkpt lat="48.732457" lon="11.056982">
        <ele>386.8</ele>
        <time>2026-06-19T17:57:38.478000Z</time>
      </trkpt>
      <trkpt lat="48.73267" lon="11.057819">
        <ele>386.5</ele>
        <time>2026-06-19T17:58:38.316000Z</time>
      </trkpt>
      <trkpt lat="48.732739" lon="11.057967">
        <ele>386.5</ele>
        <time>2026-06-19T17:58:50.301000Z</time>
      </trkpt>
      <trkpt lat="48.732847" lon="11.058062">
        <ele>386.5</ele>
        <time>2026-06-19T17:59:02.837000Z</time>
      </trkpt>
      <trkpt lat="48.733057" lon="11.058328">
        <ele>386.7</ele>
        <time>2026-06-19T17:59:30.831000Z</time>
      </trkpt>
      <trkpt lat="48.733261" lon="11.058692">
        <ele>387.2</ele>
        <time>2026-06-19T18:00:04.200000Z</time>
      </trkpt>
      <trkpt lat="48.733418" lon="11.059073">
        <ele>387.7</ele>
        <time>2026-06-19T18:00:35.745000Z</time>
      </trkpt>
      <trkpt lat="48.733579" lon="11.05927">
        <ele>388</ele>
        <time>2026-06-19T18:00:57.381000Z</time>
      </trkpt>
      <trkpt lat="48.733625" lon="11.059441">
        <ele>388.1</ele>
        <time>2026-06-19T18:01:10.055000Z</time>
      </trkpt>
      <trkpt lat="48.733622" lon="11.059611">
        <ele>388.2</ele>
        <time>2026-06-19T18:01:21.732000Z</time>
      </trkpt>
      <trkpt lat="48.733628" lon="11.06001">
        <ele>388.4</ele>
        <time>2026-06-19T18:01:48.828000Z</time>
      </trkpt>
      <trkpt lat="48.733727" lon="11.060153">
        <ele>388.6</ele>
        <time>2026-06-19T18:02:02.869000Z</time>
      </trkpt>
      <trkpt lat="48.733908" lon="11.060178">
        <ele>388.7</ele>
        <time>2026-06-19T18:02:21.665000Z</time>
      </trkpt>
      <trkpt lat="48.734131" lon="11.06008">
        <ele>388.9</ele>
        <time>2026-06-19T18:02:45.693000Z</time>
      </trkpt>
      <trkpt lat="48.734722" lon="11.060093">
        <ele>389.8</ele>
        <time>2026-06-19T18:03:48.062000Z</time>
      </trkpt>
      <trkpt lat="48.735192" lon="11.059969">
        <ele>391</ele>
        <time>2026-06-19T18:04:39.996000Z</time>
      </trkpt>
      <trkpt lat="48.735403" lon="11.060099">
        <ele>392</ele>
        <time>2026-06-19T18:05:06.230000Z</time>
      </trkpt>
      <trkpt lat="48.735524" lon="11.060132">
        <ele>392.6</ele>
        <time>2026-06-19T18:05:20.565000Z</time>
      </trkpt>
      <trkpt lat="48.735777" lon="11.06056">
        <ele>394.6</ele>
        <time>2026-06-19T18:06:05.523000Z</time>
      </trkpt>
      <trkpt lat="48.735993" lon="11.061057">
        <ele>396.8</ele>
        <time>2026-06-19T18:06:52.197000Z</time>
      </trkpt>
      <trkpt lat="48.736523" lon="11.061485">
        <ele>399.1</ele>
        <time>2026-06-19T18:08:00.410000Z</time>
      </trkpt>
      <trkpt lat="48.736849" lon="11.062075">
        <ele>399.2</ele>
        <time>2026-06-19T18:08:51.781000Z</time>
      </trkpt>
      <trkpt lat="48.737028" lon="11.062316">
        <ele>398.7</ele>
        <time>2026-06-19T18:09:16.806000Z</time>
      </trkpt>
      <trkpt lat="48.737181" lon="11.062451">
        <ele>398.2</ele>
        <time>2026-06-19T18:09:35.578000Z</time>
      </trkpt>
      <trkpt lat="48.737591" lon="11.062541">
        <ele>396.7</ele>
        <time>2026-06-19T18:10:20.039000Z</time>
      </trkpt>
      <trkpt lat="48.737759" lon="11.062656">
        <ele>396</ele>
        <time>2026-06-19T18:10:39.896000Z</time>
      </trkpt>
      <trkpt lat="48.737952" lon="11.063117">
        <ele>394.7</ele>
        <time>2026-06-19T18:11:18.699000Z</time>
      </trkpt>
      <trkpt lat="48.737933" lon="11.063163">
        <ele>394.6</ele>
        <time>2026-06-19T18:11:22.456000Z</time>
      </trkpt>
      <trkpt lat="48.737882" lon="11.063918">
        <ele>393.2</ele>
        <time>2026-06-19T18:12:15.451000Z</time>
      </trkpt>
      <trkpt lat="48.737761" lon="11.064231">
        <ele>392.8</ele>
        <time>2026-06-19T18:12:40.173000Z</time>
      </trkpt>
      <trkpt lat="48.736761" lon="11.065183">
        <ele>394</ele>
        <time>2026-06-19T18:14:42.774000Z</time>
      </trkpt>
      <trkpt lat="48.736497" lon="11.065203">
        <ele>394.8</ele>
        <time>2026-06-19T18:15:12.021000Z</time>
      </trkpt>
      <trkpt lat="48.736252" lon="11.065222">
        <ele>395.8</ele>
        <time>2026-06-19T18:15:39.910000Z</time>
      </trkpt>
      <trkpt lat="48.735644" lon="11.065395">
        <ele>399</ele>
        <time>2026-06-19T18:16:53.246000Z</time>
      </trkpt>
      <trkpt lat="48.735568" lon="11.065417">
        <ele>399.5</ele>
        <time>2026-06-19T18:17:02.676000Z</time>
      </trkpt>
      <trkpt lat="48.734727" lon="11.065437">
        <ele>404.8</ele>
        <time>2026-06-19T18:18:44.906000Z</time>
      </trkpt>
      <trkpt lat="48.734257" lon="11.065672">
        <ele>407.5</ele>
        <time>2026-06-19T18:19:43.837000Z</time>
      </trkpt>
      <trkpt lat="48.732928" lon="11.065808">
        <ele>412.8</ele>
        <time>2026-06-19T18:22:15.587000Z</time>
      </trkpt>
      <trkpt lat="48.732556" lon="11.065515">
        <ele>413.9</ele>
        <time>2026-06-19T18:23:01.429000Z</time>
      </trkpt>
      <trkpt lat="48.732069" lon="11.065634">
        <ele>414.5</ele>
        <time>2026-06-19T18:23:52.906000Z</time>
      </trkpt>
      <trkpt lat="48.731676" lon="11.06573">
        <ele>414.1</ele>
        <time>2026-06-19T18:24:33.506000Z</time>
      </trkpt>
      <trkpt lat="48.73153" lon="11.065921">
        <ele>413.7</ele>
        <time>2026-06-19T18:24:53.720000Z</time>
      </trkpt>
      <trkpt lat="48.73153" lon="11.06605">
        <ele>413.4</ele>
        <time>2026-06-19T18:25:02.712000Z</time>
      </trkpt>
      <trkpt lat="48.731653" lon="11.066514">
        <ele>412.1</ele>
        <time>2026-06-19T18:25:38.504000Z</time>
      </trkpt>
      <trkpt lat="48.732149" lon="11.067941">
        <ele>405.9</ele>
        <time>2026-06-19T18:27:37.474000Z</time>
      </trkpt>
      <trkpt lat="48.732156" lon="11.06832">
        <ele>404.6</ele>
        <time>2026-06-19T18:28:05.056000Z</time>
      </trkpt>
      <trkpt lat="48.732114" lon="11.068935">
        <ele>403.2</ele>
        <time>2026-06-19T18:28:48.700000Z</time>
      </trkpt>
      <trkpt lat="48.732166" lon="11.069445">
        <ele>402.9</ele>
        <time>2026-06-19T18:29:23.466000Z</time>
      </trkpt>
      <trkpt lat="48.7321" lon="11.069842">
        <ele>403.2</ele>
        <time>2026-06-19T18:29:51.425000Z</time>
      </trkpt>
      <trkpt lat="48.731854" lon="11.070475">
        <ele>404.6</ele>
        <time>2026-06-19T18:30:45.062000Z</time>
      </trkpt>
      <trkpt lat="48.731781" lon="11.070828">
        <ele>405.8</ele>
        <time>2026-06-19T18:31:13.489000Z</time>
      </trkpt>
      <trkpt lat="48.731481" lon="11.073355">
        <ele>416.4</ele>
        <time>2026-06-19T18:34:39.466000Z</time>
      </trkpt>
      <trkpt lat="48.731338" lon="11.075155">
        <ele>424.1</ele>
        <time>2026-06-19T18:37:05.567000Z</time>
      </trkpt>
      <trkpt lat="48.731179" lon="11.075641">
        <ele>426.6</ele>
        <time>2026-06-19T18:37:50.033000Z</time>
      </trkpt>
      <trkpt lat="48.730614" lon="11.076881">
        <ele>432.1</ele>
        <time>2026-06-19T18:39:48.296000Z</time>
      </trkpt>
      <trkpt lat="48.730707" lon="11.077014">
        <ele>432.6</ele>
        <time>2026-06-19T18:40:03.104000Z</time>
      </trkpt>
      <trkpt lat="48.730739" lon="11.077941">
        <ele>435.1</ele>
        <time>2026-06-19T18:41:12.978000Z</time>
      </trkpt>
      <trkpt lat="48.730715" lon="11.078114">
        <ele>435.5</ele>
        <time>2026-06-19T18:41:25.953000Z</time>
      </trkpt>
      <trkpt lat="48.730674" lon="11.07821">
        <ele>435.7</ele>
        <time>2026-06-19T18:41:34.257000Z</time>
      </trkpt>
      <trkpt lat="48.73063" lon="11.078442">
        <ele>436</ele>
        <time>2026-06-19T18:41:51.353000Z</time>
      </trkpt>
      <trkpt lat="48.730536" lon="11.078565">
        <ele>436.2</ele>
        <time>2026-06-19T18:42:04.458000Z</time>
      </trkpt>
      <trkpt lat="48.73021" lon="11.079496">
        <ele>436.5</ele>
        <time>2026-06-19T18:43:15.052000Z</time>
      </trkpt>
      <trkpt lat="48.730106" lon="11.080011">
        <ele>435.5</ele>
        <time>2026-06-19T18:43:52.508000Z</time>
      </trkpt>
      <trkpt lat="48.730039" lon="11.080145">
        <ele>435</ele>
        <time>2026-06-19T18:44:04.736000Z</time>
      </trkpt>
      <trkpt lat="48.729958" lon="11.080478">
        <ele>433.6</ele>
        <time>2026-06-19T18:44:30.949000Z</time>
      </trkpt>
      <trkpt lat="48.72996" lon="11.080669">
        <ele>432.7</ele>
        <time>2026-06-19T18:44:45.479000Z</time>
      </trkpt>
      <trkpt lat="48.729966" lon="11.081252">
        <ele>428.8</ele>
        <time>2026-06-19T18:45:31.657000Z</time>
      </trkpt>
      <trkpt lat="48.729923" lon="11.081463">
        <ele>427.2</ele>
        <time>2026-06-19T18:45:49.436000Z</time>
      </trkpt>
      <trkpt lat="48.729938" lon="11.081791">
        <ele>424.9</ele>
        <time>2026-06-19T18:46:15.610000Z</time>
      </trkpt>
      <trkpt lat="48.729864" lon="11.082056">
        <ele>423.1</ele>
        <time>2026-06-19T18:46:38.194000Z</time>
      </trkpt>
      <trkpt lat="48.729846" lon="11.082277">
        <ele>421.8</ele>
        <time>2026-06-19T18:46:55.498000Z</time>
      </trkpt>
      <trkpt lat="48.729743" lon="11.082713">
        <ele>419.4</ele>
        <time>2026-06-19T18:47:30.804000Z</time>
      </trkpt>
      <trkpt lat="48.729743" lon="11.082828">
        <ele>418.9</ele>
        <time>2026-06-19T18:47:39.423000Z</time>
      </trkpt>
      <trkpt lat="48.729746" lon="11.082906">
        <ele>418.6</ele>
        <time>2026-06-19T18:47:45.218000Z</time>
      </trkpt>
      <trkpt lat="48.729444" lon="11.083021">
        <ele>417.3</ele>
        <time>2026-06-19T18:48:19.016000Z</time>
      </trkpt>
      <trkpt lat="48.729414" lon="11.083088">
        <ele>417.2</ele>
        <time>2026-06-19T18:48:24.629000Z</time>
      </trkpt>
      <trkpt lat="48.729335" lon="11.083028">
        <ele>417.1</ele>
        <time>2026-06-19T18:48:33.629000Z</time>
      </trkpt>
      <trkpt lat="48.729275" lon="11.082915">
        <ele>417</ele>
        <time>2026-06-19T18:48:43.267000Z</time>
      </trkpt>
      <trkpt lat="48.729208" lon="11.08305">
        <ele>417.1</ele>
        <time>2026-06-19T18:48:54.792000Z</time>
      </trkpt>
      <trkpt lat="48.729181" lon="11.083249">
        <ele>417.5</ele>
        <time>2026-06-19T18:49:09.362000Z</time>
      </trkpt>
      <trkpt lat="48.72909" lon="11.083437">
        <ele>418.1</ele>
        <time>2026-06-19T18:49:26.927000Z</time>
      </trkpt>
      <trkpt lat="48.729035" lon="11.083727">
        <ele>419.3</ele>
        <time>2026-06-19T18:49:51.040000Z</time>
      </trkpt>
      <trkpt lat="48.728923" lon="11.083674">
        <ele>420.1</ele>
        <time>2026-06-19T18:50:05.615000Z</time>
      </trkpt>
      <trkpt lat="48.728817" lon="11.083732">
        <ele>420.9</ele>
        <time>2026-06-19T18:50:19.662000Z</time>
      </trkpt>
      <trkpt lat="48.72845" lon="11.084065">
        <ele>424.1</ele>
        <time>2026-06-19T18:51:13.113000Z</time>
      </trkpt>
      <trkpt lat="48.728366" lon="11.084179">
        <ele>424.9</ele>
        <time>2026-06-19T18:51:27.235000Z</time>
      </trkpt>
      <trkpt lat="48.728282" lon="11.084293">
        <ele>425.8</ele>
        <time>2026-06-19T18:51:41.527000Z</time>
      </trkpt>
      <trkpt lat="48.728059" lon="11.084918">
        <ele>429.4</ele>
        <time>2026-06-19T18:52:40.663000Z</time>
      </trkpt>
      <trkpt lat="48.72798" lon="11.085261">
        <ele>430.9</ele>
        <time>2026-06-19T18:53:09.790000Z</time>
      </trkpt>
      <trkpt lat="48.727903" lon="11.085451">
        <ele>431.7</ele>
        <time>2026-06-19T18:53:27.365000Z</time>
      </trkpt>
      <trkpt lat="48.727536" lon="11.085982">
        <ele>433.9</ele>
        <time>2026-06-19T18:54:25.774000Z</time>
      </trkpt>
      <trkpt lat="48.727307" lon="11.086263">
        <ele>434.7</ele>
        <time>2026-06-19T18:54:58.114000Z</time>
      </trkpt>
      <trkpt lat="48.727231" lon="11.086308">
        <ele>434.8</ele>
        <time>2026-06-19T18:55:06.861000Z</time>
      </trkpt>
      <trkpt lat="48.72717" lon="11.086613">
        <ele>435.2</ele>
        <time>2026-06-19T18:55:29.124000Z</time>
      </trkpt>
      <trkpt lat="48.726899" lon="11.087276">
        <ele>436</ele>
        <time>2026-06-19T18:56:23.431000Z</time>
      </trkpt>
      <trkpt lat="48.726771" lon="11.087577">
        <ele>436.3</ele>
        <time>2026-06-19T18:56:48.087000Z</time>
      </trkpt>
      <trkpt lat="48.726717" lon="11.087774">
        <ele>436.4</ele>
        <time>2026-06-19T18:57:02.776000Z</time>
      </trkpt>
      <trkpt lat="48.726693" lon="11.08786">
        <ele>436.5</ele>
        <time>2026-06-19T18:57:09.167000Z</time>
      </trkpt>
      <trkpt lat="48.72679" lon="11.087993">
        <ele>436.7</ele>
        <time>2026-06-19T18:57:22.901000Z</time>
      </trkpt>
      <trkpt lat="48.727028" lon="11.088176">
        <ele>437</ele>
        <time>2026-06-19T18:57:50.899000Z</time>
      </trkpt>
      <trkpt lat="48.727159" lon="11.088505">
        <ele>437.4</ele>
        <time>2026-06-19T18:58:17.656000Z</time>
      </trkpt>
      <trkpt lat="48.727183" lon="11.088693">
        <ele>437.7</ele>
        <time>2026-06-19T18:58:31.172000Z</time>
      </trkpt>
      <trkpt lat="48.727194" lon="11.088956">
        <ele>438.2</ele>
        <time>2026-06-19T18:58:50.192000Z</time>
      </trkpt>
      <trkpt lat="48.727098" lon="11.089766">
        <ele>440.2</ele>
        <time>2026-06-19T18:59:51.602000Z</time>
      </trkpt>
      <trkpt lat="48.727109" lon="11.090162">
        <ele>441.1</ele>
        <time>2026-06-19T19:00:21.121000Z</time>
      </trkpt>
      <trkpt lat="48.72719" lon="11.090457">
        <ele>441.9</ele>
        <time>2026-06-19T19:00:45.109000Z</time>
      </trkpt>
      <trkpt lat="48.727257" lon="11.090916">
        <ele>443.1</ele>
        <time>2026-06-19T19:01:20.257000Z</time>
      </trkpt>
      <trkpt lat="48.727076" lon="11.090874">
        <ele>443.9</ele>
        <time>2026-06-19T19:01:41.303000Z</time>
      </trkpt>
      <trkpt lat="48.726643" lon="11.090941">
        <ele>446.2</ele>
        <time>2026-06-19T19:02:32.706000Z</time>
      </trkpt>
      <trkpt lat="48.726492" lon="11.090983">
        <ele>446.9</ele>
        <time>2026-06-19T19:02:50.649000Z</time>
      </trkpt>
      <trkpt lat="48.726224" lon="11.091125">
        <ele>448</ele>
        <time>2026-06-19T19:03:22.808000Z</time>
      </trkpt>
      <trkpt lat="48.726233" lon="11.091313">
        <ele>448.3</ele>
        <time>2026-06-19T19:03:36.327000Z</time>
      </trkpt>
      <trkpt lat="48.72615" lon="11.092033">
        <ele>449.1</ele>
        <time>2026-06-19T19:04:27.232000Z</time>
      </trkpt>
      <trkpt lat="48.725163" lon="11.093563">
        <ele>447.2</ele>
        <time>2026-06-19T19:06:52.326000Z</time>
      </trkpt>
      <trkpt lat="48.724775" lon="11.093891">
        <ele>446.3</ele>
        <time>2026-06-19T19:07:38.815000Z</time>
      </trkpt>
      <trkpt lat="48.724162" lon="11.094825">
        <ele>442.6</ele>
        <time>2026-06-19T19:09:13.268000Z</time>
      </trkpt>
      <trkpt lat="48.722984" lon="11.094125">
        <ele>430.8</ele>
        <time>2026-06-19T19:11:43.342000Z</time>
      </trkpt>
      <trkpt lat="48.722831" lon="11.093997">
        <ele>428.7</ele>
        <time>2026-06-19T19:12:04.843000Z</time>
      </trkpt>
      <trkpt lat="48.72279" lon="11.09387">
        <ele>427.6</ele>
        <time>2026-06-19T19:12:16.314000Z</time>
      </trkpt>
      <trkpt lat="48.722707" lon="11.093894">
        <ele>426.6</ele>
        <time>2026-06-19T19:12:26.787000Z</time>
      </trkpt>
      <trkpt lat="48.721938" lon="11.093777">
        <ele>418.4</ele>
        <time>2026-06-19T19:14:00.352000Z</time>
      </trkpt>
      <trkpt lat="48.721482" lon="11.093699">
        <ele>415</ele>
        <time>2026-06-19T19:14:53.148000Z</time>
      </trkpt>
      <trkpt lat="48.721163" lon="11.09364">
        <ele>413.1</ele>
        <time>2026-06-19T19:15:29.031000Z</time>
      </trkpt>
      <trkpt lat="48.720932" lon="11.093548">
        <ele>412</ele>
        <time>2026-06-19T19:15:55.153000Z</time>
      </trkpt>
      <trkpt lat="48.720914" lon="11.09345">
        <ele>411.8</ele>
        <time>2026-06-19T19:16:02.390000Z</time>
      </trkpt>
      <trkpt lat="48.720631" lon="11.093421">
        <ele>410.9</ele>
        <time>2026-06-19T19:16:32.555000Z</time>
      </trkpt>
      <trkpt lat="48.720171" lon="11.093416">
        <ele>410.4</ele>
        <time>2026-06-19T19:17:19.677000Z</time>
      </trkpt>
      <trkpt lat="48.720173" lon="11.093528">
        <ele>410.4</ele>
        <time>2026-06-19T19:17:27.141000Z</time>
      </trkpt>
      <trkpt lat="48.720176" lon="11.093651">
        <ele>410.3</ele>
        <time>2026-06-19T19:17:35.367000Z</time>
      </trkpt>
      <trkpt lat="48.72018" lon="11.093858">
        <ele>410.3</ele>
        <time>2026-06-19T19:17:49.059000Z</time>
      </trkpt>
      <trkpt lat="48.720186" lon="11.094134">
        <ele>410.4</ele>
        <time>2026-06-19T19:18:07.520000Z</time>
      </trkpt>
      <trkpt lat="48.720191" lon="11.094362">
        <ele>410.5</ele>
        <time>2026-06-19T19:18:22.860000Z</time>
      </trkpt>
      <trkpt lat="48.720165" lon="11.094442">
        <ele>410.5</ele>
        <time>2026-06-19T19:18:28.951000Z</time>
      </trkpt>
      <trkpt lat="48.720095" lon="11.09466">
        <ele>410.7</ele>
        <time>2026-06-19T19:18:45.349000Z</time>
      </trkpt>
      <trkpt lat="48.720013" lon="11.094562">
        <ele>410.8</ele>
        <time>2026-06-19T19:18:56.204000Z</time>
      </trkpt>
      <trkpt lat="48.719907" lon="11.094494">
        <ele>410.9</ele>
        <time>2026-06-19T19:19:08.308000Z</time>
      </trkpt>
      <trkpt lat="48.719662" lon="11.094426">
        <ele>411.3</ele>
        <time>2026-06-19T19:19:34.640000Z</time>
      </trkpt>
      <trkpt lat="48.719455" lon="11.094396">
        <ele>411.7</ele>
        <time>2026-06-19T19:19:56.666000Z</time>
      </trkpt>
      <trkpt lat="48.71933" lon="11.094379">
        <ele>411.9</ele>
        <time>2026-06-19T19:20:10.025000Z</time>
      </trkpt>
      <trkpt lat="48.719141" lon="11.094285">
        <ele>412.3</ele>
        <time>2026-06-19T19:20:31.353000Z</time>
      </trkpt>
      <trkpt lat="48.719044" lon="11.094203">
        <ele>412.5</ele>
        <time>2026-06-19T19:20:43.241000Z</time>
      </trkpt>
      <trkpt lat="48.718976" lon="11.094116">
        <ele>412.7</ele>
        <time>2026-06-19T19:20:52.789000Z</time>
      </trkpt>
      <trkpt lat="48.718961" lon="11.09409">
        <ele>412.7</ele>
        <time>2026-06-19T19:20:55.216000Z</time>
      </trkpt>
      <trkpt lat="48.718892" lon="11.093862">
        <ele>413.1</ele>
        <time>2026-06-19T19:21:13.069000Z</time>
      </trkpt>
      <trkpt lat="48.718814" lon="11.093348">
        <ele>413.9</ele>
        <time>2026-06-19T19:21:50.686000Z</time>
      </trkpt>
      <trkpt lat="48.718783" lon="11.093253">
        <ele>414</ele>
        <time>2026-06-19T19:21:58.192000Z</time>
      </trkpt>
      <trkpt lat="48.718496" lon="11.092881">
        <ele>414.7</ele>
        <time>2026-06-19T19:22:38.582000Z</time>
      </trkpt>
      <trkpt lat="48.718476" lon="11.092857">
        <ele>414.8</ele>
        <time>2026-06-19T19:22:41.301000Z</time>
      </trkpt>
      <trkpt lat="48.718421" lon="11.093052">
        <ele>415</ele>
        <time>2026-06-19T19:22:56.173000Z</time>
      </trkpt>
      <trkpt lat="48.718332" lon="11.093332">
        <ele>415.4</ele>
        <time>2026-06-19T19:23:17.951000Z</time>
      </trkpt>
      <trkpt lat="48.718265" lon="11.09356">
        <ele>415.6</ele>
        <time>2026-06-19T19:23:35.263000Z</time>
      </trkpt>
      <trkpt lat="48.718122" lon="11.094129">
        <ele>416.2</ele>
        <time>2026-06-19T19:24:17.502000Z</time>
      </trkpt>
      <trkpt lat="48.718116" lon="11.094155">
        <ele>416.2</ele>
        <time>2026-06-19T19:24:19.433000Z</time>
      </trkpt>
      <trkpt lat="48.718071" lon="11.094336">
        <ele>416.4</ele>
        <time>2026-06-19T19:24:32.755000Z</time>
      </trkpt>
      <trkpt lat="48.718001" lon="11.094914">
        <ele>416.8</ele>
        <time>2026-06-19T19:25:13.159000Z</time>
      </trkpt>
      <trkpt lat="48.717891" lon="11.096588">
        <ele>417.7</ele>
        <time>2026-06-19T19:27:07.442000Z</time>
      </trkpt>
      <trkpt lat="48.71784" lon="11.097365">
        <ele>417.9</ele>
        <time>2026-06-19T19:27:59.651000Z</time>
      </trkpt>
      <trkpt lat="48.717759" lon="11.098254">
        <ele>418.1</ele>
        <time>2026-06-19T19:28:59.434000Z</time>
      </trkpt>
      <trkpt lat="48.717568" lon="11.09917">
        <ele>418.3</ele>
        <time>2026-06-19T19:30:03.866000Z</time>
      </trkpt>
      <trkpt lat="48.717302" lon="11.099868">
        <ele>418.5</ele>
        <time>2026-06-19T19:30:57.563000Z</time>
      </trkpt>
      <trkpt lat="48.717138" lon="11.100282">
        <ele>418.5</ele>
        <time>2026-06-19T19:31:29.656000Z</time>
      </trkpt>
      <trkpt lat="48.717097" lon="11.100389">
        <ele>418.6</ele>
        <time>2026-06-19T19:31:37.872000Z</time>
      </trkpt>
      <trkpt lat="48.716903" lon="11.100224">
        <ele>418.6</ele>
        <time>2026-06-19T19:32:00.322000Z</time>
      </trkpt>
      <trkpt lat="48.716892" lon="11.100216">
        <ele>418.6</ele>
        <time>2026-06-19T19:32:01.493000Z</time>
      </trkpt>
      <trkpt lat="48.716881" lon="11.100246">
        <ele>418.6</ele>
        <time>2026-06-19T19:32:03.798000Z</time>
      </trkpt>
      <trkpt lat="48.716871" lon="11.100237">
        <ele>418.6</ele>
        <time>2026-06-19T19:32:04.973000Z</time>
      </trkpt>
      <trkpt lat="48.716848" lon="11.100218">
        <ele>418.6</ele>
        <time>2026-06-19T19:32:07.688000Z</time>
      </trkpt>
      <trkpt lat="48.716816" lon="11.100304">
        <ele>418.6</ele>
        <time>2026-06-19T19:32:14.242000Z</time>
      </trkpt>
    </trkseg>
  </trk>
</gpx>