<?xml version="1.0" encoding="UTF-8"?>
<gpx xmlns="http://www.topografix.com/GPX/1/1" xmlns:xsi="http://www.w3.org/2001/XMLSchema-instance" xsi:schemaLocation="http://www.topografix.com/GPX/1/1 http://www.topografix.com/GPX/1/1/gpx.xsd" version="1.1" creator="Robert Kampf">
  <metadata>
    <name>Rothsee – Hauptsperre Rothsee Runde von Nordwestufer der Rothsee-Hauptsperre</name>
    <desc>Distance: 5.352km, Estimated duration: 1.4h, Elevation up: 40.59484409383782m, Elevation down: 40.594844093837594m, Grade: easy</desc>
    <author>
      <name>Robert Kampf</name>
      <link href="https://www.komoot.de/user/4125295338453">
        <text>View Robert Kampf's Profile on Komoot</text>
      </link>
    </author>
    <link href="https://www.komoot.de/tour/2935128381">
      <text>View tour on Komoot</text>
    </link>
  </metadata>
  <wpt lat="49.208121" lon="11.18799">
    <name>Heuberg Staatsstraße</name>
    <cmt></cmt>
    <desc></desc>
    <src>Komoot</src>
    <type>POI</type>
  </wpt>
  <wpt lat="49.211702" lon="11.187775">
    <ele>380.3</ele>
    <name>Rothsee</name>
    <cmt>https://d2exd72xrrp1s7.cloudfront.net/www/000/1k1/66/668vvujwsd3716zx60q7jpdny2buvtwfd-uhi1669890/0</cmt>
    <desc>Fastcat: Der Rothsee hat echt viel zu bieten: Er hat mehrere Strände, wo man super (sonnen)baden kann – sogar ein eigener Hundestrand ist vorhanden. Surfen, Stand-up-Paddling, Boot fahren – alles ist möglich. Es laden mehrere Spielplätze rund um den See und viele Wege zum Spazierengehen und Radfahren ein. Speis und Trank sind auch geboten. Ein lohnendes Ausflugsziel.
――――――――――
BioMann: Schöner See mit einem schönen Radweg
――――――――――
🌳Tom🌈: Ich habe ihn im Regen und absolut einsam erlebt....werde es nicht vergessen!
――――――――――
Rombea: Sehr schöner See für jeglichen Wassersport oder einfach nur um mal auszuspannen. Schöne Liegewiesen, diverse Gastronomie und ein schöner Weg um den See.
――――――――――
Rombea: Das Seezentrum Heuberg liegt an der Rothsee-Hauptsperre. Hier findet man alles vom Gasthaus Rothsee mit Großterrassen und dem Kiosk, die Umkleiden, die Segelschule, den Bootshafen mit Wasser- und Landliegeplätzen, Fahrrad - und Tretbootverleih und vieles mehr. 650 Parkplätze und Busparkplatz als Ausgangspunkt für die Aktivitäten am See.
――――――――――
Susanne: Der Rothsee ist ein Stausee im Lauf der Kleinen Roth im bayerischen Landkreis Roth. Die Talsperre dient als Zwischenspeicher der Donau-Main-Überleitung.
――――――――――
BioMann: Schönes Wassersportzentrum, gute Einkehrmöglichkeiten.
――――――――――
Peter: Der Rothsee ist mit 2,1 Quadratkilometern Wasserfläche das größte Naturbadegewässer im Landkreis Roth. Er gliedert sich in zwei Teile, eine Vor- und eine Hauptsperre. Die Vorsperre hat eine Größe von 50 ha, davon sind ca. 20 ha Naturschutzgebiet. Die Hauptsperre ist 160 ha groß (davon 10 ha Naturschutzgebiet). Ein schöner Rad- und Wanderweg lädt auf einer Länge von etwa 12 Kilometern zum Umrunden des Rothsees ein. Es stehen viele Freizeit- und Erholungsanlagen rund um den See für die Besucher bereit.
――――――――――
Micha aus Hip: Der Rothsee ist von Hilpoltstein aus mit dem Rad in 5-8 min. und zu Fuß in 20-25 min. zu erreichen. Von Nbg. aus kann man z.B. mit dem Rad direkt am Main-Donau-Kanal entlang fahren bis zur Schleuse Eckersmühlen und dann ist man schon an der Hauptsperre!
Wer lieber bischen abseits sein Bierchen trinken möchte sollte einen Abstecher hoch nach Eichelburg zum Gasthof machen.
――――――――――
Marcus: Sehr schön zum spazieren gehen aber wie ein Tipp hier schreibt das wander und Radlwege getrennt sind stimmt so nicht, Rad und Wanderweg ist nur am großen Rothsee zu einem kurzen Teil getrennt. Ca 3-4km der Rest ist ein gemeinschaftlicher Weg.
――――――――――
Stephan Maxant: War echt überrascht wie schön der See ist. Werd ihn öfter besuchen 🥰
――――――――――
Günther: Der See ist wirklich sehr schön,  vorallem durch seinen Hafen und mehreren Stränden
――――――――――
Michael: Rothsee is allways a nice place to be
――――――――――
Siggi: Schöne Feierabendtour.
――――――――――
Dani: immer wieder eine Reise wert
――――――――――
Thomas: Sehr schöner See mit einem tollen Rundumweg.
――――――――――
Burg-Berg: Von den 3 großen Seen im.frankischen Seenland ist der Rothsee der kleinste. Der Attraktivität schadet dass aber auf keinen Fall .
――――――――――
David Caminhar: Immer wieder schön wie zu sein.
https://www.youtube.com/watch?v=SMrXTsqOaGc
――――――――――
Stadt Roth: Der Rothsee ist ein, im Rahmen der Wasserüberleitung vom wasserreichen Süden in den wasserarmen Norden, entstandener Stausee. Mittlerweile hat er sich sehr schön in die Natur eingefügt und ist wirklich einen Aufenthalt wert. 
Drei Strandhäuser/Seezentren in Birkach, Heuberg und Grashof laden zum Verweilen ein.
――――――――――
Rudi: Schöner See zum Entspannen und Baden.
――――――――――
Peter 🏊🚴🏽‍♂️🏃: Sehr guter Ausgangspunkt für Outdoor-Aktivitäten aller Art rund um den Rothsee. Schöner Badestrand und auch großer Abenteuerspielplatz für die Kinder vorhanden. Infos unter https://www.fraenkisches-seenland.de/poi/rothsee-seezentrum_heuberg-6126/

Ende Juni ist hier Start des "kleinen Bruder" vom Challenge Roth, des Memmert Rothsee Triathlon. Infos unter https://rothsee-triathlon.de/
――――――――――
Matthias 🚴‍♂️: Am bisher heißesten Tag des Jahres um 07:20 Uhr am See. Ruhig und fast alleine. Einfach super.
――――――――――
Darkman: Schöner Rundweg um den See zum Spazieren oder Radfahren mit getrennten Wegen.
――――――――――
Darkman: Schönes Ausflugsziele der Rothsee um ihn herum führt ein gute gebauter Rad und Wanderweg der teilweise die Radfahrer von den Wanderer trennt.</desc>
    <src>Komoot</src>
    <link href="https://www.komoot.de/highlight/105410">
      <text>View POI on Komoot</text>
    </link>
    <type>Highlight</type>
  </wpt>
  <wpt lat="49.212136" lon="11.187648">
    <ele>375.4</ele>
    <name>Winged Bicycle Sculpture at Rothsee</name>
    <cmt>https://d2exd72xrrp1s7.cloudfront.net/www/000/1k4/v7/v7lwuo5dfge0au28bm2et1su3gok1crk-uhi18795468/0</cmt>
    <desc>〽️Markus: Die Skulptur "Geflügeltes Fahrrad" stammt von dem Künstler Axel Friedrich. Axel Friedrich ist freiberuflich und bekannt für seine künstlerischen Tätigkeiten: Bildhauerei, Objektdesign, Spezialmodellbau
――――――――――
Rombea: Die Skulptur "Fliegendes Fahrrad" ist ein Kunstwerk am Rothsee und stammt von dem Künstler Axel Friedrich. Es wird nicht in der Übersicht Kunst an den Seen geführt.
――――――――――
Ute 👣 🥾🚶‍♀️🚲 🐇🍀☀️: Die Fahrradskulptur mit Flügeln ist ein absoluter Hingucker.
――――――――――
Burg-Berg: Kunst liegt immer im Auge des Betrachters...kreativ sind Künstler hingegen immer .
――――――――――
BioMann: Kurioses Kunstwerk am Seezentrum.
――――――――――
Darkman: Sehr schöner Radweg mit guter Beschilderung und tollen Panorama.
――――――――――
Brandl Thomas: Neue Skulptur entdeckt 😅 fliegendesrad
――――――――――
Bernd: Sehr schöne Gegend um den See, gut geeignet für Rad, oder E-bike Touren sehr flaches Gelände, keine Steigungen.
――――――――――
Bastl: Schönes Kunstoptiek.
――――――――――
Darkman: In der nähe von dem Fliegenden Fahrrad gibt es das Gasthaus Rothsee
――――――――――
Darkman: Gleich neben den Bootshafen fliegt das Fahrrad und soll wahrscheinlich die verbeifahrenden Radler Animieren nicht aufzugeben auf ihren weg.
――――――――――
Brandl Thomas: Kunst am Rothsee schön anzuschauen
――――――――――
David Meyer: Interessante, alternative Kunst am Rothsee bei Roth
――――――――――
🌿 Seit1984 ⚒️: Das „Geflügelte Fahrrad“ ist eine faszinierende Skulptur am Rothsee, geschaffen vom Künstler Axel Friedrich. Die Skulptur zeigt ein Fahrrad mit Flügeln und ist ein echter Hingucker am Seeufer. Sie verbindet Kunst und Natur auf eine einzigartige Weise und zieht viele Besucher an, die die Umgebung erkunden oder einfach die kreative Atmosphäre genießen möchten
――――――――――
Stoapfalzb(h)iker: Schönes Kunstwerk am Seeufer
――――――――――
Th🅾️m🅰️s 👣 &amp; M🅰️j🅰️ 🐾: Schön zu jeder Jahreszeit!
――――――――――
Stoapfalzb(h)iker: Schönes Kunstwerk mit stählernen Flügeln
――――――――――
Burg-Berg: Fliegende Kunst am Rothsee ..eines der besonderen Kunstwerke hier
――――――――――
Th🅾️m🅰️s 👣 &amp; M🅰️j🅰️ 🐾: Man kann diese Gegend zu jeder Jahreszeit empfehlen.
――――――――――
〽️Markus: Die Skulptur "Fliegendes Fahrrad" stammt von dem Künstler Axel Friedrich. Axel Friedrich ist freiberuflich und bekannt für seine künstlerischen Tätigkeiten: Bildhauerei, Objektdesign, Spezialmodellbau
――――――――――
UweG: Beim Anblick des Kunstwerkes denke ich sofort an Ikarus.
――――――――――
Thomas 🏃🚵🐸: Lohnt sich schon alleine von der Landschaft her</desc>
    <src>Komoot</src>
    <link href="https://www.komoot.de/highlight/5592950">
      <text>View POI on Komoot</text>
    </link>
    <type>Highlight</type>
  </wpt>
  <wpt lat="49.213765" lon="11.186674">
    <ele>430</ele>
    <name>Sailboat Marina at Brombachsee</name>
    <cmt>https://d2exd72xrrp1s7.cloudfront.net/www/000/1k8/1e/1eqwj532zw6s01qjn9i1t0wp4j55uf7kog-uhi80218918/0</cmt>
    <desc>Rolf aus Stein 👣: Schöner Ort, um den Segelschiffen beim ab- und anlegen zuzusehen.</desc>
    <src>Komoot</src>
    <link href="https://www.komoot.de/highlight/7106316">
      <text>View POI on Komoot</text>
    </link>
    <type>Highlight</type>
  </wpt>
  <wpt lat="49.213772" lon="11.18652">
    <ele>375.5</ele>
    <name>Great Shoulder sculpture at Rothsee</name>
    <cmt>https://d2exd72xrrp1s7.cloudfront.net/www/000/1k1/zo/zon08xvvi0bx7lqpoedsf71u2264cgl8-uhi705342/0</cmt>
    <desc>〽️Markus: Die Skulptur am Rothsee „Große Schulter“ stammt von Gisela Marianne Richter, einer freiberuflichen Künstlerin, Bildhauerin und Malerin. Der Künstlerin hat eine großformatige, vollplastische Skulptur am Standort in der Nähe des Segelhafens Heuberg aufgestellt. Diese soll bei den gegebenen Dimensionen des Geländes auch aus der Ferne wirken können. Die Arbeit steht im bewussten Kontrast zur Natur: „Dinge aus einer anderen Welt, welche aber auch unse- re Welt ist.“ Die Arbeit wurde aus verschiedenen Eisenteilen zusammengeschweißt (Materialdicke etwa 5 bis 6 mm), verzinkt und mit Eisenglimmerfarbe gestrichen.
――――――――――
〽️Markus: Die Skulptur "Fliegendes Fahrrad" stammt von dem Künstler Axel Friedrich. Axel Friedrich ist freiberuflich und bekannt für seine künstlerischen Tätigkeiten: Bildhauerei, Objektdesign, Spezialmodellbau
――――――――――
Mario: Skulptur am Rothsee
――――――――――
Petra: Von Weitem habe ich diese Skulptur für einen Elefanten gehalten, aber sie stellt anscheinend  eine "Große  Schulter " dar 😉
――――――――――
Rosi_1: Das "Fliegende Fahrrad" wurde vom Künstler Axel Friedrich gestaltet.
――――――――――
Burg-Berg: Kunst und Skulpturen an Rothsee ...da gehört auch dieses Nähe des Westufers dazu
――――――――――
🌿 Seit1984 ⚒️: Die „Große Schulter“ ist eine beeindruckende Skulptur am Rothsee, geschaffen von der Künstlerin Gisela Marianne Richter. Sie befindet sich in der Nähe des Segelhafens Heuberg und wurde aus verschiedenen Eisenteilen zusammengeschweißt, verzinkt und mit Eisenglimmerfarbe gestrichen. Die Skulptur steht bewusst im Kontrast zur Natur und soll auch aus der Ferne wirken.

Der Rothsee selbst ist ein beliebtes Ziel für Wanderungen und Freizeitaktivitäten. Rund um den See gibt es gut ausgebaute Wanderwege, die sowohl für Familien als auch für Naturliebhaber geeignet sind.

Quelle: KI
――――――――――
Thomas 🏃🚵🐸: Auf alle Fälle mitnehmen
――――――――――
Th🅾️m🅰️s 👣 &amp; M🅰️j🅰️ 🐾: Sehr interessantes Bauwerk. Man braucht dennoch ein wenig Fantasie!
――――――――――
Stoapfalzb(h)iker: Die grosse Schulter sieht aus wie ein Elefant.
――――――――――
Bastl: Ich finde es sieht aus wie ein Elefant.🤔🤪</desc>
    <src>Komoot</src>
    <link href="https://www.komoot.de/highlight/210634">
      <text>View POI on Komoot</text>
    </link>
    <type>Highlight</type>
  </wpt>
  <wpt lat="49.224038" lon="11.192526">
    <ele>377.5</ele>
    <name>Framing Gate</name>
    <cmt>https://d2exd72xrrp1s7.cloudfront.net/www/000/1k4/1g/1g3z3jlw4joelmlnjpyig23vj3i4kuzjn-uhi21801360/0</cmt>
    <desc>〽️Markus: Am Seeufer in Nähe der Kronmühler Bucht wurde ein das Landschaftspanorama rahmen- des „Tor“ aufgestellt. Durch die Schrägstellung der Natursteinwand zumTorstein wirkt die Arbeit sehr spannungsreich. Die auffallende Bewegungstendenz des schräg aufragenden Winkelstücks gibt der Steinsetzung eine sehr bestimmte, zeichenhafte, in den landschaftlichen Raum wirkende Prägung. Die unterschiedliche Ober ächenausbildung der beiden Naturstein- platten aus Roggensteiner Granit unterstreicht diese spannungsreiche Form. Dabei ist von großer Bedeutung, dass beide Teile aus einer ca. 32 bis 35 cm dicken Steinplatte geschnitten sind und durch deren neue Zuordnung eine starke Räumlichkeit entsteht.
――――――――――
Rombea: Die Skulptur „Rahmendes Tor“befindet sich am Seeufer in Nähe der Kronmühler Bucht wurde ein das Landschaftspanorama rahmen-des „Tor“ aufgestellt. Durch die Schrägstellung der Natursteinwand zum Torstein wirkt die Arbeit sehr spannungsreich.
――――――――――
Stefarnio: schönes Fotomotiv mit See im Hintergrund.
――――――――――
TeamHasepuh: Schöne aber anspruchslose Runde um den See
――――――――――
Nils: Immer wieder kleine Buchten mit schönen Ausblicken.
――――――――――
1Fritz-Marc 🚴🥾🏊🌲: Moderne Kunst am Rother See
――――――――――
Burg-Berg: Kunst und ihr gefallen liegen im Auge des Betrachters ...auf jeden Fall besonders...
――――――――――
Petra: Interessantes Fotomotiv.
――――――――――
Bastl: Einige Sitzbänke laden zum Verweilen ein.
――――――――――
Brandl Thomas: Leicht zu fahren und schöner Schotter
――――――――――
Thomas 🏃🚵🐸: Sehenswert egal welches Wetter mit Ruhebank
――――――――――
Th🅾️m🅰️s 👣 &amp; M🅰️j🅰️ 🐾: Diese Gegend ist einfach traumhaft! Nicht wahr?</desc>
    <src>Komoot</src>
    <link href="https://www.komoot.de/highlight/210648">
      <text>View POI on Komoot</text>
    </link>
    <type>Highlight</type>
  </wpt>
  <wpt lat="49.225107" lon="11.197139">
    <ele>426.4</ele>
    <name>Rothsee Main Dam</name>
    <cmt>https://d2exd72xrrp1s7.cloudfront.net/www/000/1k4/1j/1jdt6py9gigck12rslyqag3ftc3kk06e30-uhi25711432/0</cmt>
    <desc>Andrea_Hofbeck: Eine Runde um den Rothsee ist immer zu empfehlen 
Egal ob man nur den kleinen oder beide umrundet 
Es gibt viele Rastplätze und an den Kiosken kann man sich mit   Kleinen Snacks, Kuchen , Kaffee, Getränke oder Eis versorgen
――――――――――
Mario M.: Eine große Vogelvielfalt ist hier bestaunen, wie z.B. Silberreiher, Braungänse, Knäkenten, Eisvögel, u.v.m. Hab persönlich noch nie so viele Reiher auf einmal gesehen wie hier an diesem See. Einfach herrlich! 
――――――――――
Stoapfalzb(h)iker: Rund und den zweigen viele Rad- und Wanderwege ab
――――――――――
Burg-Berg: Von der Hauptsperre aus, ist so manches tolle Farb- und Lichtspiel zu beobachten.
――――――――――
Susanne und Armin: Leichte Wanderung mit möglicher Abkürzung bei der Hälfte.
――――――――――
Th🅾️m🅰️s 👣 &amp; M🅰️j🅰️ 🐾: Schön zu jeder Jahreszeit!</desc>
    <src>Komoot</src>
    <link href="https://www.komoot.de/highlight/3121347">
      <text>View POI on Komoot</text>
    </link>
    <type>Highlight</type>
  </wpt>
  <wpt lat="49.218907" lon="11.189169">
    <ele>387.8</ele>
    <name>Fish and Aquatic Life Information Boards on the Rothsee Nature Trail</name>
    <cmt>https://d2exd72xrrp1s7.cloudfront.net/www/000/1k7/zm/zm105isklbvh9g2zh751aqhv4k0raxmx-uhi59377449/0</cmt>
    <desc>Stoapfalzb(h)iker: Am Ostufer des Rotsees entlang befinden sich immer wieder Infotafeln zu den einheimischen Fischarten.
――――――――――
Ute 👣 🥾🚶‍♀️🚲 🐇🍀☀️: Auf den Hinweistafeln am Rothsee kann man Näheres über Krebse, Muscheln und Fische lesen, die hier leben.
――――――――――
FelixX: Nicht besonders verwunderlich, da die Tafeln Bestandteil des Wanderwegs HIP Nr. 6 "Fischlehrpfad" sind. Diesen 13 KM-langen Rundweg zu absolvieren ist durchaus interessant.
――――――――――
Th🅾️m🅰️s 👣 &amp; M🅰️j🅰️ 🐾: Interessant, welch Reichtum dort zu finden ist</desc>
    <src>Komoot</src>
    <link href="https://www.komoot.de/highlight/5649342">
      <text>View POI on Komoot</text>
    </link>
    <type>Highlight</type>
  </wpt>
  <wpt lat="49.215698" lon="11.186642">
    <ele>428.9</ele>
    <name>Dog Beach and Sculpture at Lake Brombachsee East Shore</name>
    <cmt>https://d2exd72xrrp1s7.cloudfront.net/www/000/1k8/kg/kgehbz71kuma9um44jst0qpo55uf6m4r-uhi80218910/0</cmt>
    <desc>FelixX: Ein Stück des Ostufers ist für Hunde (mit und ohne Badekappe) freigegeben.</desc>
    <src>Komoot</src>
    <link href="https://www.komoot.de/highlight/7106315">
      <text>View POI on Komoot</text>
    </link>
    <type>Highlight</type>
  </wpt>
  <trk>
    <name>Rothsee – Hauptsperre Rothsee Runde von Nordwestufer der Rothsee-Hauptsperre</name>
    <desc>Distance: 5.352km, Estimated duration: 1.4h, Elevation up: 40.59484409383782m, Elevation down: 40.594844093837594m, Grade: easy</desc>
    <link href="https://www.komoot.de/tour/2935128381">
      <text>View tour on Komoot</text>
    </link>
    <trkseg>
      <trkpt lat="49.20814" lon="11.187947">
        <ele>393.2</ele>
        <time>2026-05-05T15:28:29.798000Z</time>
      </trkpt>
      <trkpt lat="49.208352" lon="11.188158">
        <ele>392.6</ele>
        <time>2026-05-05T15:28:56.326000Z</time>
      </trkpt>
      <trkpt lat="49.208417" lon="11.188194">
        <ele>392.4</ele>
        <time>2026-05-05T15:29:03.632000Z</time>
      </trkpt>
      <trkpt lat="49.208485" lon="11.188175">
        <ele>392.2</ele>
        <time>2026-05-05T15:29:10.874000Z</time>
      </trkpt>
      <trkpt lat="49.208605" lon="11.188042">
        <ele>391.8</ele>
        <time>2026-05-05T15:29:26.557000Z</time>
      </trkpt>
      <trkpt lat="49.208697" lon="11.188055">
        <ele>391.5</ele>
        <time>2026-05-05T15:29:36.389000Z</time>
      </trkpt>
      <trkpt lat="49.208767" lon="11.188059">
        <ele>391.3</ele>
        <time>2026-05-05T15:29:43.804000Z</time>
      </trkpt>
      <trkpt lat="49.208763" lon="11.187416">
        <ele>389.9</ele>
        <time>2026-05-05T15:30:28.663000Z</time>
      </trkpt>
      <trkpt lat="49.208798" lon="11.187219">
        <ele>389.5</ele>
        <time>2026-05-05T15:30:43.027000Z</time>
      </trkpt>
      <trkpt lat="49.208779" lon="11.187122">
        <ele>389.2</ele>
        <time>2026-05-05T15:30:50.050000Z</time>
      </trkpt>
      <trkpt lat="49.20887" lon="11.187144">
        <ele>388.9</ele>
        <time>2026-05-05T15:31:00.033000Z</time>
      </trkpt>
      <trkpt lat="49.208911" lon="11.187158">
        <ele>388.7</ele>
        <time>2026-05-05T15:31:04.565000Z</time>
      </trkpt>
      <trkpt lat="49.209258" lon="11.187278">
        <ele>387.4</ele>
        <time>2026-05-05T15:31:42.932000Z</time>
      </trkpt>
      <trkpt lat="49.209361" lon="11.187313">
        <ele>387</ele>
        <time>2026-05-05T15:31:54.080000Z</time>
      </trkpt>
      <trkpt lat="49.209589" lon="11.187392">
        <ele>386.4</ele>
        <time>2026-05-05T15:32:18.860000Z</time>
      </trkpt>
      <trkpt lat="49.2099" lon="11.187487">
        <ele>385.7</ele>
        <time>2026-05-05T15:32:52.136000Z</time>
      </trkpt>
      <trkpt lat="49.210874" lon="11.187687">
        <ele>383.2</ele>
        <time>2026-05-05T15:34:35.511000Z</time>
      </trkpt>
      <trkpt lat="49.210926" lon="11.187691">
        <ele>383</ele>
        <time>2026-05-05T15:34:41.075000Z</time>
      </trkpt>
      <trkpt lat="49.211091" lon="11.187702">
        <ele>382.4</ele>
        <time>2026-05-05T15:34:58.861000Z</time>
      </trkpt>
      <trkpt lat="49.21134" lon="11.187701">
        <ele>381.4</ele>
        <time>2026-05-05T15:35:25.827000Z</time>
      </trkpt>
      <trkpt lat="49.211696" lon="11.187659">
        <ele>379.9</ele>
        <time>2026-05-05T15:36:04.602000Z</time>
      </trkpt>
      <trkpt lat="49.211778" lon="11.187649">
        <ele>379.6</ele>
        <time>2026-05-05T15:36:13.556000Z</time>
      </trkpt>
      <trkpt lat="49.211966" lon="11.187668">
        <ele>378.8</ele>
        <time>2026-05-05T15:36:33.999000Z</time>
      </trkpt>
      <trkpt lat="49.212136" lon="11.187648">
        <ele>378.2</ele>
        <time>2026-05-05T15:36:52.377000Z</time>
      </trkpt>
      <trkpt lat="49.212578" lon="11.187594">
        <ele>376.5</ele>
        <time>2026-05-05T15:37:40.183000Z</time>
      </trkpt>
      <trkpt lat="49.213044" lon="11.187538">
        <ele>375.3</ele>
        <time>2026-05-05T15:38:29.393000Z</time>
      </trkpt>
      <trkpt lat="49.213162" lon="11.187524">
        <ele>375.1</ele>
        <time>2026-05-05T15:38:41.554000Z</time>
      </trkpt>
      <trkpt lat="49.21346" lon="11.187235">
        <ele>374.8</ele>
        <time>2026-05-05T15:39:17.501000Z</time>
      </trkpt>
      <trkpt lat="49.2136" lon="11.187018">
        <ele>374.8</ele>
        <time>2026-05-05T15:39:37.507000Z</time>
      </trkpt>
      <trkpt lat="49.213727" lon="11.186772">
        <ele>375</ele>
        <time>2026-05-05T15:39:58.451000Z</time>
      </trkpt>
      <trkpt lat="49.213763" lon="11.186672">
        <ele>375</ele>
        <time>2026-05-05T15:40:06.119000Z</time>
      </trkpt>
      <trkpt lat="49.213808" lon="11.186549">
        <ele>375.1</ele>
        <time>2026-05-05T15:40:15.686000Z</time>
      </trkpt>
      <trkpt lat="49.213941" lon="11.186181">
        <ele>375.5</ele>
        <time>2026-05-05T15:40:44.493000Z</time>
      </trkpt>
      <trkpt lat="49.214049" lon="11.186035">
        <ele>375.7</ele>
        <time>2026-05-05T15:40:59.814000Z</time>
      </trkpt>
      <trkpt lat="49.214465" lon="11.185856">
        <ele>376.6</ele>
        <time>2026-05-05T15:41:46.070000Z</time>
      </trkpt>
      <trkpt lat="49.215001" lon="11.185736">
        <ele>377.4</ele>
        <time>2026-05-05T15:42:43.079000Z</time>
      </trkpt>
      <trkpt lat="49.215059" lon="11.185773">
        <ele>377.4</ele>
        <time>2026-05-05T15:42:49.532000Z</time>
      </trkpt>
      <trkpt lat="49.215249" lon="11.186024">
        <ele>377.5</ele>
        <time>2026-05-05T15:43:15.040000Z</time>
      </trkpt>
      <trkpt lat="49.21565" lon="11.186709">
        <ele>377.1</ele>
        <time>2026-05-05T15:44:16.093000Z</time>
      </trkpt>
      <trkpt lat="49.215775" lon="11.186922">
        <ele>376.8</ele>
        <time>2026-05-05T15:44:35.382000Z</time>
      </trkpt>
      <trkpt lat="49.215969" lon="11.187654">
        <ele>375.9</ele>
        <time>2026-05-05T15:45:28.909000Z</time>
      </trkpt>
      <trkpt lat="49.216555" lon="11.188292">
        <ele>375</ele>
        <time>2026-05-05T15:46:42.698000Z</time>
      </trkpt>
      <trkpt lat="49.216717" lon="11.188891">
        <ele>374.8</ele>
        <time>2026-05-05T15:47:25.529000Z</time>
      </trkpt>
      <trkpt lat="49.216816" lon="11.189026">
        <ele>374.8</ele>
        <time>2026-05-05T15:47:38.876000Z</time>
      </trkpt>
      <trkpt lat="49.217215" lon="11.18918">
        <ele>374.6</ele>
        <time>2026-05-05T15:48:20.461000Z</time>
      </trkpt>
      <trkpt lat="49.217335" lon="11.189265">
        <ele>374.5</ele>
        <time>2026-05-05T15:48:33.857000Z</time>
      </trkpt>
      <trkpt lat="49.2175" lon="11.189556">
        <ele>374.3</ele>
        <time>2026-05-05T15:48:59.570000Z</time>
      </trkpt>
      <trkpt lat="49.217786" lon="11.189636">
        <ele>373.7</ele>
        <time>2026-05-05T15:49:29.734000Z</time>
      </trkpt>
      <trkpt lat="49.218008" lon="11.189622">
        <ele>373.2</ele>
        <time>2026-05-05T15:49:53.020000Z</time>
      </trkpt>
      <trkpt lat="49.218137" lon="11.18958">
        <ele>372.8</ele>
        <time>2026-05-05T15:50:06.948000Z</time>
      </trkpt>
      <trkpt lat="49.218389" lon="11.189415">
        <ele>372.3</ele>
        <time>2026-05-05T15:50:35.569000Z</time>
      </trkpt>
      <trkpt lat="49.218537" lon="11.189255">
        <ele>372.1</ele>
        <time>2026-05-05T15:50:54.143000Z</time>
      </trkpt>
      <trkpt lat="49.218656" lon="11.18917">
        <ele>372</ele>
        <time>2026-05-05T15:51:07.496000Z</time>
      </trkpt>
      <trkpt lat="49.218924" lon="11.188994">
        <ele>371.9</ele>
        <time>2026-05-05T15:51:36.773000Z</time>
      </trkpt>
      <trkpt lat="49.219036" lon="11.188771">
        <ele>372</ele>
        <time>2026-05-05T15:51:55.407000Z</time>
      </trkpt>
      <trkpt lat="49.218997" lon="11.189123">
        <ele>372.2</ele>
        <time>2026-05-05T15:52:19.357000Z</time>
      </trkpt>
      <trkpt lat="49.219065" lon="11.189443">
        <ele>372.3</ele>
        <time>2026-05-05T15:52:42.042000Z</time>
      </trkpt>
      <trkpt lat="49.219268" lon="11.190017">
        <ele>373</ele>
        <time>2026-05-05T15:53:26.844000Z</time>
      </trkpt>
      <trkpt lat="49.219376" lon="11.190125">
        <ele>373.2</ele>
        <time>2026-05-05T15:53:40.723000Z</time>
      </trkpt>
      <trkpt lat="49.219531" lon="11.190209">
        <ele>373.6</ele>
        <time>2026-05-05T15:53:58.589000Z</time>
      </trkpt>
      <trkpt lat="49.219743" lon="11.190164">
        <ele>374.1</ele>
        <time>2026-05-05T15:54:21.787000Z</time>
      </trkpt>
      <trkpt lat="49.21992" lon="11.189962">
        <ele>374.5</ele>
        <time>2026-05-05T15:54:45.181000Z</time>
      </trkpt>
      <trkpt lat="49.220025" lon="11.189884">
        <ele>374.7</ele>
        <time>2026-05-05T15:54:57.513000Z</time>
      </trkpt>
      <trkpt lat="49.220197" lon="11.189865">
        <ele>374.9</ele>
        <time>2026-05-05T15:55:15.626000Z</time>
      </trkpt>
      <trkpt lat="49.220588" lon="11.189895">
        <ele>375.3</ele>
        <time>2026-05-05T15:55:56.306000Z</time>
      </trkpt>
      <trkpt lat="49.220856" lon="11.189984">
        <ele>375.5</ele>
        <time>2026-05-05T15:56:24.261000Z</time>
      </trkpt>
      <trkpt lat="49.221179" lon="11.19019">
        <ele>375.7</ele>
        <time>2026-05-05T15:56:59.928000Z</time>
      </trkpt>
      <trkpt lat="49.221385" lon="11.190442">
        <ele>375.7</ele>
        <time>2026-05-05T15:57:26.516000Z</time>
      </trkpt>
      <trkpt lat="49.221602" lon="11.191012">
        <ele>375.5</ele>
        <time>2026-05-05T15:58:10.040000Z</time>
      </trkpt>
      <trkpt lat="49.221722" lon="11.191162">
        <ele>375.4</ele>
        <time>2026-05-05T15:58:25.829000Z</time>
      </trkpt>
      <trkpt lat="49.222127" lon="11.191327">
        <ele>374.8</ele>
        <time>2026-05-05T15:59:09.125000Z</time>
      </trkpt>
      <trkpt lat="49.222332" lon="11.191271">
        <ele>374.3</ele>
        <time>2026-05-05T15:59:30.791000Z</time>
      </trkpt>
      <trkpt lat="49.22264" lon="11.191292">
        <ele>373.7</ele>
        <time>2026-05-05T16:00:03.040000Z</time>
      </trkpt>
      <trkpt lat="49.222788" lon="11.191339">
        <ele>373.4</ele>
        <time>2026-05-05T16:00:18.763000Z</time>
      </trkpt>
      <trkpt lat="49.222898" lon="11.19147">
        <ele>373.1</ele>
        <time>2026-05-05T16:00:33.382000Z</time>
      </trkpt>
      <trkpt lat="49.223067" lon="11.191898">
        <ele>372.4</ele>
        <time>2026-05-05T16:01:07.390000Z</time>
      </trkpt>
      <trkpt lat="49.223148" lon="11.192025">
        <ele>372.2</ele>
        <time>2026-05-05T16:01:19.535000Z</time>
      </trkpt>
      <trkpt lat="49.223532" lon="11.192397">
        <ele>371.4</ele>
        <time>2026-05-05T16:02:06.622000Z</time>
      </trkpt>
      <trkpt lat="49.223756" lon="11.19271">
        <ele>371.4</ele>
        <time>2026-05-05T16:02:37.189000Z</time>
      </trkpt>
      <trkpt lat="49.22395" lon="11.192851">
        <ele>371.7</ele>
        <time>2026-05-05T16:02:59.655000Z</time>
      </trkpt>
      <trkpt lat="49.22403" lon="11.192683">
        <ele>371.9</ele>
        <time>2026-05-05T16:03:14.093000Z</time>
      </trkpt>
      <trkpt lat="49.224047" lon="11.192528">
        <ele>372.1</ele>
        <time>2026-05-05T16:03:24.878000Z</time>
      </trkpt>
      <trkpt lat="49.22403" lon="11.192683">
        <ele>372.3</ele>
        <time>2026-05-05T16:03:35.816000Z</time>
      </trkpt>
      <trkpt lat="49.22395" lon="11.192851">
        <ele>372.5</ele>
        <time>2026-05-05T16:03:50.328000Z</time>
      </trkpt>
      <trkpt lat="49.223961" lon="11.192954">
        <ele>372.6</ele>
        <time>2026-05-05T16:03:57.486000Z</time>
      </trkpt>
      <trkpt lat="49.223919" lon="11.193456">
        <ele>373.2</ele>
        <time>2026-05-05T16:04:32.760000Z</time>
      </trkpt>
      <trkpt lat="49.223921" lon="11.193736">
        <ele>373.6</ele>
        <time>2026-05-05T16:04:52.286000Z</time>
      </trkpt>
      <trkpt lat="49.223978" lon="11.193757">
        <ele>373.6</ele>
        <time>2026-05-05T16:04:58.455000Z</time>
      </trkpt>
      <trkpt lat="49.224044" lon="11.193874">
        <ele>373.9</ele>
        <time>2026-05-05T16:05:09.309000Z</time>
      </trkpt>
      <trkpt lat="49.224164" lon="11.19443">
        <ele>374.9</ele>
        <time>2026-05-05T16:05:51.125000Z</time>
      </trkpt>
      <trkpt lat="49.224331" lon="11.195404">
        <ele>375.9</ele>
        <time>2026-05-05T16:07:00.509000Z</time>
      </trkpt>
      <trkpt lat="49.224404" lon="11.195558">
        <ele>376</ele>
        <time>2026-05-05T16:07:13.425000Z</time>
      </trkpt>
      <trkpt lat="49.224466" lon="11.195814">
        <ele>376.2</ele>
        <time>2026-05-05T16:07:32.172000Z</time>
      </trkpt>
      <trkpt lat="49.224486" lon="11.196127">
        <ele>376.6</ele>
        <time>2026-05-05T16:07:53.940000Z</time>
      </trkpt>
      <trkpt lat="49.224469" lon="11.196388">
        <ele>376.9</ele>
        <time>2026-05-05T16:08:12.318000Z</time>
      </trkpt>
      <trkpt lat="49.224352" lon="11.196954">
        <ele>377.7</ele>
        <time>2026-05-05T16:08:53.648000Z</time>
      </trkpt>
      <trkpt lat="49.224347" lon="11.197061">
        <ele>377.8</ele>
        <time>2026-05-05T16:09:01.095000Z</time>
      </trkpt>
      <trkpt lat="49.224603" lon="11.197601">
        <ele>378.3</ele>
        <time>2026-05-05T16:09:46.551000Z</time>
      </trkpt>
      <trkpt lat="49.224695" lon="11.197799">
        <ele>378.6</ele>
        <time>2026-05-05T16:10:03.388000Z</time>
      </trkpt>
      <trkpt lat="49.224717" lon="11.197847">
        <ele>378.6</ele>
        <time>2026-05-05T16:10:07.455000Z</time>
      </trkpt>
      <trkpt lat="49.224912" lon="11.19773">
        <ele>378.9</ele>
        <time>2026-05-05T16:10:29.442000Z</time>
      </trkpt>
      <trkpt lat="49.224976" lon="11.197632">
        <ele>379</ele>
        <time>2026-05-05T16:10:38.938000Z</time>
      </trkpt>
      <trkpt lat="49.225075" lon="11.197131">
        <ele>379.2</ele>
        <time>2026-05-05T16:11:13.628000Z</time>
      </trkpt>
      <trkpt lat="49.225081" lon="11.197115">
        <ele>379.2</ele>
        <time>2026-05-05T16:11:14.855000Z</time>
      </trkpt>
      <trkpt lat="49.225075" lon="11.197131">
        <ele>379.2</ele>
        <time>2026-05-05T16:11:16.085000Z</time>
      </trkpt>
      <trkpt lat="49.224976" lon="11.197632">
        <ele>379</ele>
        <time>2026-05-05T16:11:50.577000Z</time>
      </trkpt>
      <trkpt lat="49.224912" lon="11.19773">
        <ele>378.9</ele>
        <time>2026-05-05T16:11:59.880000Z</time>
      </trkpt>
      <trkpt lat="49.224717" lon="11.197847">
        <ele>378.6</ele>
        <time>2026-05-05T16:12:21.443000Z</time>
      </trkpt>
      <trkpt lat="49.224695" lon="11.197799">
        <ele>378.6</ele>
        <time>2026-05-05T16:12:25.419000Z</time>
      </trkpt>
      <trkpt lat="49.224603" lon="11.197601">
        <ele>378.3</ele>
        <time>2026-05-05T16:12:41.850000Z</time>
      </trkpt>
      <trkpt lat="49.224347" lon="11.197061">
        <ele>377.8</ele>
        <time>2026-05-05T16:13:26.544000Z</time>
      </trkpt>
      <trkpt lat="49.224352" lon="11.196954">
        <ele>377.7</ele>
        <time>2026-05-05T16:13:33.815000Z</time>
      </trkpt>
      <trkpt lat="49.224469" lon="11.196388">
        <ele>376.9</ele>
        <time>2026-05-05T16:14:14.104000Z</time>
      </trkpt>
      <trkpt lat="49.224486" lon="11.196127">
        <ele>376.6</ele>
        <time>2026-05-05T16:14:31.969000Z</time>
      </trkpt>
      <trkpt lat="49.224466" lon="11.195814">
        <ele>376.2</ele>
        <time>2026-05-05T16:14:53.210000Z</time>
      </trkpt>
      <trkpt lat="49.224404" lon="11.195558">
        <ele>376</ele>
        <time>2026-05-05T16:15:11.596000Z</time>
      </trkpt>
      <trkpt lat="49.224331" lon="11.195404">
        <ele>375.9</ele>
        <time>2026-05-05T16:15:24.294000Z</time>
      </trkpt>
      <trkpt lat="49.224164" lon="11.19443">
        <ele>374.9</ele>
        <time>2026-05-05T16:16:32.198000Z</time>
      </trkpt>
      <trkpt lat="49.224044" lon="11.193874">
        <ele>374.1</ele>
        <time>2026-05-05T16:17:12.022000Z</time>
      </trkpt>
      <trkpt lat="49.223978" lon="11.193757">
        <ele>373.9</ele>
        <time>2026-05-05T16:17:22.488000Z</time>
      </trkpt>
      <trkpt lat="49.223921" lon="11.193736">
        <ele>373.9</ele>
        <time>2026-05-05T16:17:28.513000Z</time>
      </trkpt>
      <trkpt lat="49.223919" lon="11.193456">
        <ele>373.6</ele>
        <time>2026-05-05T16:17:47.378000Z</time>
      </trkpt>
      <trkpt lat="49.223961" lon="11.192954">
        <ele>373.1</ele>
        <time>2026-05-05T16:18:21.458000Z</time>
      </trkpt>
      <trkpt lat="49.22395" lon="11.192851">
        <ele>373</ele>
        <time>2026-05-05T16:18:28.489000Z</time>
      </trkpt>
      <trkpt lat="49.223756" lon="11.19271">
        <ele>372.7</ele>
        <time>2026-05-05T16:18:50.444000Z</time>
      </trkpt>
      <trkpt lat="49.223532" lon="11.192397">
        <ele>372.4</ele>
        <time>2026-05-05T16:19:21.624000Z</time>
      </trkpt>
      <trkpt lat="49.223148" lon="11.192025">
        <ele>372.3</ele>
        <time>2026-05-05T16:20:07.184000Z</time>
      </trkpt>
      <trkpt lat="49.223067" lon="11.191898">
        <ele>372.4</ele>
        <time>2026-05-05T16:20:19.260000Z</time>
      </trkpt>
      <trkpt lat="49.222898" lon="11.19147">
        <ele>373.1</ele>
        <time>2026-05-05T16:20:54.207000Z</time>
      </trkpt>
      <trkpt lat="49.222788" lon="11.191339">
        <ele>373.4</ele>
        <time>2026-05-05T16:21:09.252000Z</time>
      </trkpt>
      <trkpt lat="49.22264" lon="11.191292">
        <ele>373.7</ele>
        <time>2026-05-05T16:21:25.440000Z</time>
      </trkpt>
      <trkpt lat="49.222332" lon="11.191271">
        <ele>374.3</ele>
        <time>2026-05-05T16:21:58.646000Z</time>
      </trkpt>
      <trkpt lat="49.222127" lon="11.191327">
        <ele>374.8</ele>
        <time>2026-05-05T16:22:20.934000Z</time>
      </trkpt>
      <trkpt lat="49.221722" lon="11.191162">
        <ele>375.4</ele>
        <time>2026-05-05T16:23:05.163000Z</time>
      </trkpt>
      <trkpt lat="49.221602" lon="11.191012">
        <ele>375.5</ele>
        <time>2026-05-05T16:23:21.173000Z</time>
      </trkpt>
      <trkpt lat="49.221385" lon="11.190442">
        <ele>375.7</ele>
        <time>2026-05-05T16:24:04.972000Z</time>
      </trkpt>
      <trkpt lat="49.221179" lon="11.19019">
        <ele>375.7</ele>
        <time>2026-05-05T16:24:31.482000Z</time>
      </trkpt>
      <trkpt lat="49.220856" lon="11.189984">
        <ele>375.5</ele>
        <time>2026-05-05T16:25:06.879000Z</time>
      </trkpt>
      <trkpt lat="49.220588" lon="11.189895">
        <ele>375.3</ele>
        <time>2026-05-05T16:25:34.591000Z</time>
      </trkpt>
      <trkpt lat="49.220197" lon="11.189865">
        <ele>374.9</ele>
        <time>2026-05-05T16:26:14.662000Z</time>
      </trkpt>
      <trkpt lat="49.220025" lon="11.189884">
        <ele>374.7</ele>
        <time>2026-05-05T16:26:32.420000Z</time>
      </trkpt>
      <trkpt lat="49.21992" lon="11.189962">
        <ele>374.5</ele>
        <time>2026-05-05T16:26:44.495000Z</time>
      </trkpt>
      <trkpt lat="49.219743" lon="11.190164">
        <ele>374.1</ele>
        <time>2026-05-05T16:27:07.265000Z</time>
      </trkpt>
      <trkpt lat="49.219531" lon="11.190209">
        <ele>373.8</ele>
        <time>2026-05-05T16:27:29.502000Z</time>
      </trkpt>
      <trkpt lat="49.219376" lon="11.190125">
        <ele>373.5</ele>
        <time>2026-05-05T16:27:46.488000Z</time>
      </trkpt>
      <trkpt lat="49.219268" lon="11.190017">
        <ele>373.3</ele>
        <time>2026-05-05T16:27:59.754000Z</time>
      </trkpt>
      <trkpt lat="49.219065" lon="11.189443">
        <ele>373.1</ele>
        <time>2026-05-05T16:28:42.891000Z</time>
      </trkpt>
      <trkpt lat="49.218893" lon="11.18926">
        <ele>373</ele>
        <time>2026-05-05T16:29:04Z</time>
      </trkpt>
      <trkpt lat="49.218656" lon="11.18917">
        <ele>373</ele>
        <time>2026-05-05T16:29:28.503000Z</time>
      </trkpt>
      <trkpt lat="49.218537" lon="11.189255">
        <ele>373</ele>
        <time>2026-05-05T16:29:41.712000Z</time>
      </trkpt>
      <trkpt lat="49.218389" lon="11.189415">
        <ele>373.1</ele>
        <time>2026-05-05T16:30:00.077000Z</time>
      </trkpt>
      <trkpt lat="49.218137" lon="11.18958">
        <ele>373.3</ele>
        <time>2026-05-05T16:30:28.440000Z</time>
      </trkpt>
      <trkpt lat="49.218008" lon="11.189622">
        <ele>373.5</ele>
        <time>2026-05-05T16:30:42.163000Z</time>
      </trkpt>
      <trkpt lat="49.217786" lon="11.189636">
        <ele>373.8</ele>
        <time>2026-05-05T16:31:05.469000Z</time>
      </trkpt>
      <trkpt lat="49.2175" lon="11.189556">
        <ele>374.3</ele>
        <time>2026-05-05T16:31:36.206000Z</time>
      </trkpt>
      <trkpt lat="49.217335" lon="11.189265">
        <ele>374.5</ele>
        <time>2026-05-05T16:32:02.291000Z</time>
      </trkpt>
      <trkpt lat="49.217215" lon="11.18918">
        <ele>374.6</ele>
        <time>2026-05-05T16:32:15.819000Z</time>
      </trkpt>
      <trkpt lat="49.216816" lon="11.189026">
        <ele>374.8</ele>
        <time>2026-05-05T16:32:57.674000Z</time>
      </trkpt>
      <trkpt lat="49.216717" lon="11.188891">
        <ele>374.8</ele>
        <time>2026-05-05T16:33:11.072000Z</time>
      </trkpt>
      <trkpt lat="49.216555" lon="11.188292">
        <ele>375</ele>
        <time>2026-05-05T16:33:54.223000Z</time>
      </trkpt>
      <trkpt lat="49.215969" lon="11.187654">
        <ele>375.9</ele>
        <time>2026-05-05T16:35:09.256000Z</time>
      </trkpt>
      <trkpt lat="49.215775" lon="11.186922">
        <ele>376.8</ele>
        <time>2026-05-05T16:36:04.170000Z</time>
      </trkpt>
      <trkpt lat="49.21565" lon="11.186709">
        <ele>377.1</ele>
        <time>2026-05-05T16:36:23.863000Z</time>
      </trkpt>
      <trkpt lat="49.215249" lon="11.186024">
        <ele>377.5</ele>
        <time>2026-05-05T16:37:25.585000Z</time>
      </trkpt>
      <trkpt lat="49.215059" lon="11.185773">
        <ele>377.4</ele>
        <time>2026-05-05T16:37:50.941000Z</time>
      </trkpt>
      <trkpt lat="49.215001" lon="11.185736">
        <ele>377.4</ele>
        <time>2026-05-05T16:37:57.315000Z</time>
      </trkpt>
      <trkpt lat="49.214465" lon="11.185856">
        <ele>376.6</ele>
        <time>2026-05-05T16:38:53.174000Z</time>
      </trkpt>
      <trkpt lat="49.214049" lon="11.186035">
        <ele>375.7</ele>
        <time>2026-05-05T16:39:38.169000Z</time>
      </trkpt>
      <trkpt lat="49.213941" lon="11.186181">
        <ele>375.5</ele>
        <time>2026-05-05T16:39:53.122000Z</time>
      </trkpt>
      <trkpt lat="49.213808" lon="11.186549">
        <ele>375.1</ele>
        <time>2026-05-05T16:40:21.379000Z</time>
      </trkpt>
      <trkpt lat="49.213763" lon="11.186672">
        <ele>375</ele>
        <time>2026-05-05T16:40:30.800000Z</time>
      </trkpt>
      <trkpt lat="49.213727" lon="11.186772">
        <ele>375</ele>
        <time>2026-05-05T16:40:38.381000Z</time>
      </trkpt>
      <trkpt lat="49.2136" lon="11.187018">
        <ele>374.8</ele>
        <time>2026-05-05T16:40:59.150000Z</time>
      </trkpt>
      <trkpt lat="49.21346" lon="11.187235">
        <ele>374.8</ele>
        <time>2026-05-05T16:41:19.137000Z</time>
      </trkpt>
      <trkpt lat="49.213162" lon="11.187524">
        <ele>375.1</ele>
        <time>2026-05-05T16:41:55.554000Z</time>
      </trkpt>
      <trkpt lat="49.213044" lon="11.187538">
        <ele>375.3</ele>
        <time>2026-05-05T16:42:07.982000Z</time>
      </trkpt>
      <trkpt lat="49.212578" lon="11.187594">
        <ele>376.5</ele>
        <time>2026-05-05T16:42:58.927000Z</time>
      </trkpt>
      <trkpt lat="49.211966" lon="11.187668">
        <ele>378.8</ele>
        <time>2026-05-05T16:44:08.477000Z</time>
      </trkpt>
      <trkpt lat="49.211778" lon="11.187649">
        <ele>379.6</ele>
        <time>2026-05-05T16:44:30.044000Z</time>
      </trkpt>
      <trkpt lat="49.21134" lon="11.187701">
        <ele>381.4</ele>
        <time>2026-05-05T16:45:20.442000Z</time>
      </trkpt>
      <trkpt lat="49.211091" lon="11.187702">
        <ele>382.4</ele>
        <time>2026-05-05T16:45:48.830000Z</time>
      </trkpt>
      <trkpt lat="49.210926" lon="11.187691">
        <ele>383</ele>
        <time>2026-05-05T16:46:07.493000Z</time>
      </trkpt>
      <trkpt lat="49.210874" lon="11.187687">
        <ele>383.2</ele>
        <time>2026-05-05T16:46:13.323000Z</time>
      </trkpt>
      <trkpt lat="49.2099" lon="11.187487">
        <ele>385.7</ele>
        <time>2026-05-05T16:48:00.288000Z</time>
      </trkpt>
      <trkpt lat="49.209589" lon="11.187392">
        <ele>386.4</ele>
        <time>2026-05-05T16:48:34.642000Z</time>
      </trkpt>
      <trkpt lat="49.209361" lon="11.187313">
        <ele>387</ele>
        <time>2026-05-05T16:49:00.381000Z</time>
      </trkpt>
      <trkpt lat="49.209258" lon="11.187278">
        <ele>387.4</ele>
        <time>2026-05-05T16:49:12Z</time>
      </trkpt>
      <trkpt lat="49.208911" lon="11.187158">
        <ele>388.7</ele>
        <time>2026-05-05T16:49:52.335000Z</time>
      </trkpt>
      <trkpt lat="49.20887" lon="11.187144">
        <ele>388.9</ele>
        <time>2026-05-05T16:49:57.091000Z</time>
      </trkpt>
      <trkpt lat="49.208779" lon="11.187122">
        <ele>389.2</ele>
        <time>2026-05-05T16:50:07.602000Z</time>
      </trkpt>
      <trkpt lat="49.208798" lon="11.187219">
        <ele>389.5</ele>
        <time>2026-05-05T16:50:14.945000Z</time>
      </trkpt>
      <trkpt lat="49.208763" lon="11.187416">
        <ele>389.9</ele>
        <time>2026-05-05T16:50:29.998000Z</time>
      </trkpt>
      <trkpt lat="49.208767" lon="11.188059">
        <ele>391.3</ele>
        <time>2026-05-05T16:51:16.884000Z</time>
      </trkpt>
      <trkpt lat="49.208697" lon="11.188055">
        <ele>391.5</ele>
        <time>2026-05-05T16:51:24.579000Z</time>
      </trkpt>
      <trkpt lat="49.208605" lon="11.188042">
        <ele>391.8</ele>
        <time>2026-05-05T16:51:34.820000Z</time>
      </trkpt>
      <trkpt lat="49.208485" lon="11.188175">
        <ele>392.2</ele>
        <time>2026-05-05T16:51:51.114000Z</time>
      </trkpt>
      <trkpt lat="49.208417" lon="11.188194">
        <ele>392.4</ele>
        <time>2026-05-05T16:51:58.611000Z</time>
      </trkpt>
      <trkpt lat="49.208352" lon="11.188158">
        <ele>392.6</ele>
        <time>2026-05-05T16:52:06.210000Z</time>
      </trkpt>
      <trkpt lat="49.20814" lon="11.187947">
        <ele>393.2</ele>
        <time>2026-05-05T16:52:33.588000Z</time>
      </trkpt>
    </trkseg>
  </trk>
</gpx>