<?xml version="1.0" encoding="UTF-8"?>
<gpx xmlns="http://www.topografix.com/GPX/1/1" xmlns:xsi="http://www.w3.org/2001/XMLSchema-instance" xsi:schemaLocation="http://www.topografix.com/GPX/1/1 http://www.topografix.com/GPX/1/1/gpx.xsd" version="1.1" creator="Robert Kampf">
  <metadata>
    <name>Salzweiher Autenried – Waldweiher bei Zusmarshausen Runde von Biberberg</name>
    <desc>Distance: 4.295km, Estimated duration: 1.11h, Elevation up: 23.756378094880063m, Elevation down: 23.756378094880233m, Grade: easy</desc>
    <author>
      <name>Robert Kampf</name>
      <link href="https://www.komoot.de/user/4125295338453">
        <text>View Robert Kampf's Profile on Komoot</text>
      </link>
    </author>
    <link href="https://www.komoot.de/tour/2556408163">
      <text>View tour on Komoot</text>
    </link>
  </metadata>
  <wpt lat="48.348896" lon="10.24584">
    <name>Parking</name>
    <cmt></cmt>
    <desc></desc>
    <src>Komoot</src>
    <type>POI</type>
  </wpt>
  <wpt lat="48.35042" lon="10.258282">
    <ele>524</ele>
    <name>Autenried Salt Pond</name>
    <cmt>https://d2exd72xrrp1s7.cloudfront.net/www/000/1k4/18/185s974qx7ibl1dcv97pwxz3ox3dso41et-uhi13676366/0</cmt>
    <desc>Manu: Hier gibt es auch eine kleine Picknick Hütte</desc>
    <src>Komoot</src>
    <link href="https://www.komoot.de/highlight/177324">
      <text>View POI on Komoot</text>
    </link>
    <type>Highlight</type>
  </wpt>
  <wpt lat="48.351111" lon="10.259604">
    <ele>549.5</ele>
    <name>Wooden Cabin and Pond Rest Area</name>
    <cmt>https://d2exd72xrrp1s7.cloudfront.net/www/000/1k4/d4/d4pwgnrhfywe1jhzuwf84pqr03f2fcb0d-uhi15776379/0</cmt>
    <desc>Anna: Enjoy the view during your pause, ducks come to get a treat :) But it's not recommended to feed them bread
――――――――――
Germando: Sehr gepflegter Entspannungsplatz, für alle nutzbar, bitte pflegen und sauber verlassen.
――――――――――
Chris Zäpfle: Sehr gepflegte Hütte</desc>
    <src>Komoot</src>
    <link href="https://www.komoot.de/highlight/1636335">
      <text>View POI on Komoot</text>
    </link>
    <type>Highlight</type>
  </wpt>
  <wpt lat="48.35109" lon="10.260166">
    <ele>552.1</ele>
    <name>Serene Forest Lake</name>
    <cmt>https://d2exd72xrrp1s7.cloudfront.net/www/000/1k4/41/4187c28h0yfrqv1hbzzy93pe3dso4lgm-uhi13676424/0</cmt>
    <desc></desc>
    <src>Komoot</src>
    <link href="https://www.komoot.de/highlight/1253288">
      <text>View POI on Komoot</text>
    </link>
    <type>Highlight</type>
  </wpt>
  <wpt lat="48.35109" lon="10.260166">
    <ele>552.1</ele>
    <name>Wooden owl</name>
    <cmt>https://d2exd72xrrp1s7.cloudfront.net/www/000/1k4/jy/jynx2mhtjfclefi18l66jwzg3dso4ezi-uhi13676404/0</cmt>
    <desc>Karlheinz: Schöne geschnitzte Holzeule, kunstvoll gemacht.</desc>
    <src>Komoot</src>
    <link href="https://www.komoot.de/highlight/1253273">
      <text>View POI on Komoot</text>
    </link>
    <type>Highlight</type>
  </wpt>
  <wpt lat="48.349554" lon="10.260723">
    <ele>493.3</ele>
    <name>Salzweiher</name>
    <cmt>https://d2exd72xrrp1s7.cloudfront.net/www/000/1k2/6r/6r10enyvhtf8q4euw08nb8r42o5b8k9q-uhi3384839/0</cmt>
    <desc>Leon: Durch den Wald ab dem Silbersee zum Teil sehr anspruchsvolle trails quer durch rückegassen mit viel Match, Wasser und steile Abfahrten.
――――――――――
Benny Scheiffele: Ja es lohnt sich für so einen Abstecher ist eine schöne Gegend
――――――――――
Benny Scheiffele: Kann ich empfehlen weil es eine schöne Gegend ist
――――――――――
Moa-Alexandra: Wunderschöner Waldsee mit einer sehr nett hergerichteten Hütte. Dort hat es Tische, die schön dekoriert sind, Aschenbecher und Sitzkissen stehen zur Verfügung. Auf den Bänken kann man in der Sonne schön Rast machen und den Enten beim flirten zugucken. Absolut empfehlenswert!
――――――――――
Benny Scheiffele: Ist eine Schöne Gegend
――――――――――
NETTL: Das " Glitzer" heisst Salzweiher. Ein wunderschöner Ort. Sehr gepflegt  und beliebt.
――――――――――
! Achim🇩🇪🚵🥾🤿🇭🇷: Wenn das Wetter mitspielt tolle Landschaft.
――――――――――
JukeFahrer: Schöner Weiher mitten im Wald - Natur pur
――――――――――
Christian: Idyllisch gelegener Weiher. Ein wunderschöner Ort zum verweilen.
――――――――――
Marcus: wenn man die Stille sucht dann ist hier ein Ort dafür
――――――――――
Angelika🚲🥾🤿: Es gibt so viele schöne Weiher und Seen.
――――――――――
Karlheinz: Ein überaus idyllischer Weiher
――――――――――
Brigitte Tina ☮️🟢🔵🔴🟠: Wunderbar - Entspannung pur!
――――――――――
Jan-Dirk: Sehr schön wenn im Herbst der Nebel auf dem Wasser steht 😍👍</desc>
    <src>Komoot</src>
    <link href="https://www.komoot.de/highlight/323987">
      <text>View POI on Komoot</text>
    </link>
    <type>Highlight</type>
  </wpt>
  <wpt lat="48.349818" lon="10.262899">
    <ele>553.8</ele>
    <name>Griasdi Bear Sculpture at Salzweiher</name>
    <cmt>https://d2exd72xrrp1s7.cloudfront.net/www/000/1k5/10/10vrte0rfjdp8hu54u84qidfo3ueagzbl-uhi37435682/0</cmt>
    <desc>Brigitte Tina ☮️🟢🔵🔴🟠: Nett gemacht als Begrüßung zum Salzweiher und den anderen Holskulpturen in der Nähe :)
――――――――――
Chris Zäpfle: An dem wäre ich fast achtlos vorbei gelaufen</desc>
    <src>Komoot</src>
    <link href="https://www.komoot.de/highlight/3476484">
      <text>View POI on Komoot</text>
    </link>
    <type>Highlight</type>
  </wpt>
  <wpt lat="48.349135" lon="10.260521">
    <ele>500.6</ele>
    <name>Forest pond near Autenried</name>
    <cmt>https://d2exd72xrrp1s7.cloudfront.net/www/000/1k5/1q/1qy2y3xaj7t4rw1nzspgxdb313s4p78wr-uhi33815810/0</cmt>
    <desc></desc>
    <src>Komoot</src>
    <link href="https://www.komoot.de/highlight/3267095">
      <text>View POI on Komoot</text>
    </link>
    <type>Highlight</type>
  </wpt>
  <trk>
    <name>Salzweiher Autenried – Waldweiher bei Zusmarshausen Runde von Biberberg</name>
    <desc>Distance: 4.295km, Estimated duration: 1.11h, Elevation up: 23.756378094880063m, Elevation down: 23.756378094880233m, Grade: easy</desc>
    <link href="https://www.komoot.de/tour/2556408163">
      <text>View tour on Komoot</text>
    </link>
    <trkseg>
      <trkpt lat="48.348893" lon="10.245877">
        <ele>506.9</ele>
        <time>2025-09-06T12:31:02.231000Z</time>
      </trkpt>
      <trkpt lat="48.349098" lon="10.24591">
        <ele>506.9</ele>
        <time>2025-09-06T12:31:22.954000Z</time>
      </trkpt>
      <trkpt lat="48.349566" lon="10.246138">
        <ele>506.9</ele>
        <time>2025-09-06T12:32:12.204000Z</time>
      </trkpt>
      <trkpt lat="48.349286" lon="10.247903">
        <ele>506.3</ele>
        <time>2025-09-06T12:34:14.097000Z</time>
      </trkpt>
      <trkpt lat="48.348671" lon="10.251403">
        <ele>503.7</ele>
        <time>2025-09-06T12:38:20.317000Z</time>
      </trkpt>
      <trkpt lat="48.349659" lon="10.253924">
        <ele>500.5</ele>
        <time>2025-09-06T12:41:41.686000Z</time>
      </trkpt>
      <trkpt lat="48.350493" lon="10.256056">
        <ele>497.2</ele>
        <time>2025-09-06T12:44:33.044000Z</time>
      </trkpt>
      <trkpt lat="48.350503" lon="10.256194">
        <ele>497</ele>
        <time>2025-09-06T12:44:42.697000Z</time>
      </trkpt>
      <trkpt lat="48.35037" lon="10.257008">
        <ele>496</ele>
        <time>2025-09-06T12:45:40.545000Z</time>
      </trkpt>
      <trkpt lat="48.350379" lon="10.257512">
        <ele>495.5</ele>
        <time>2025-09-06T12:46:15.176000Z</time>
      </trkpt>
      <trkpt lat="48.350441" lon="10.258138">
        <ele>495.1</ele>
        <time>2025-09-06T12:46:58.153000Z</time>
      </trkpt>
      <trkpt lat="48.350477" lon="10.258234">
        <ele>495</ele>
        <time>2025-09-06T12:47:05.484000Z</time>
      </trkpt>
      <trkpt lat="48.3505" lon="10.258297">
        <ele>495</ele>
        <time>2025-09-06T12:47:10.272000Z</time>
      </trkpt>
      <trkpt lat="48.350676" lon="10.25838">
        <ele>494.9</ele>
        <time>2025-09-06T12:47:28.934000Z</time>
      </trkpt>
      <trkpt lat="48.351217" lon="10.258724">
        <ele>494.6</ele>
        <time>2025-09-06T12:48:28.481000Z</time>
      </trkpt>
      <trkpt lat="48.351363" lon="10.258798">
        <ele>494.5</ele>
        <time>2025-09-06T12:48:44.075000Z</time>
      </trkpt>
      <trkpt lat="48.351417" lon="10.258863">
        <ele>494.5</ele>
        <time>2025-09-06T12:48:51.041000Z</time>
      </trkpt>
      <trkpt lat="48.351426" lon="10.259004">
        <ele>494.4</ele>
        <time>2025-09-06T12:49:00.543000Z</time>
      </trkpt>
      <trkpt lat="48.351391" lon="10.259118">
        <ele>494.4</ele>
        <time>2025-09-06T12:49:08.959000Z</time>
      </trkpt>
      <trkpt lat="48.351352" lon="10.2592">
        <ele>494.3</ele>
        <time>2025-09-06T12:49:15.760000Z</time>
      </trkpt>
      <trkpt lat="48.351166" lon="10.259415">
        <ele>494.2</ele>
        <time>2025-09-06T12:49:39.469000Z</time>
      </trkpt>
      <trkpt lat="48.351144" lon="10.259483">
        <ele>494.2</ele>
        <time>2025-09-06T12:49:44.596000Z</time>
      </trkpt>
      <trkpt lat="48.351131" lon="10.259609">
        <ele>494.2</ele>
        <time>2025-09-06T12:49:53.095000Z</time>
      </trkpt>
      <trkpt lat="48.35112" lon="10.259709">
        <ele>494.1</ele>
        <time>2025-09-06T12:49:59.962000Z</time>
      </trkpt>
      <trkpt lat="48.351163" lon="10.26015">
        <ele>494</ele>
        <time>2025-09-06T12:50:29.841000Z</time>
      </trkpt>
      <trkpt lat="48.35117" lon="10.260218">
        <ele>494</ele>
        <time>2025-09-06T12:50:34.484000Z</time>
      </trkpt>
      <trkpt lat="48.351063" lon="10.260544">
        <ele>493.8</ele>
        <time>2025-09-06T12:50:59.007000Z</time>
      </trkpt>
      <trkpt lat="48.350938" lon="10.261184">
        <ele>493.9</ele>
        <time>2025-09-06T12:51:43.546000Z</time>
      </trkpt>
      <trkpt lat="48.350873" lon="10.261388">
        <ele>494</ele>
        <time>2025-09-06T12:51:59.159000Z</time>
      </trkpt>
      <trkpt lat="48.350697" lon="10.261697">
        <ele>494.4</ele>
        <time>2025-09-06T12:52:27.588000Z</time>
      </trkpt>
      <trkpt lat="48.350123" lon="10.262244">
        <ele>495.8</ele>
        <time>2025-09-06T12:53:40.718000Z</time>
      </trkpt>
      <trkpt lat="48.349836" lon="10.262916">
        <ele>496.7</ele>
        <time>2025-09-06T12:54:36.945000Z</time>
      </trkpt>
      <trkpt lat="48.349626" lon="10.263405">
        <ele>496.8</ele>
        <time>2025-09-06T12:55:15.908000Z</time>
      </trkpt>
      <trkpt lat="48.349564" lon="10.26323">
        <ele>496.7</ele>
        <time>2025-09-06T12:55:29.371000Z</time>
      </trkpt>
      <trkpt lat="48.349552" lon="10.262767">
        <ele>496.1</ele>
        <time>2025-09-06T12:56:01.331000Z</time>
      </trkpt>
      <trkpt lat="48.349533" lon="10.261082">
        <ele>493.1</ele>
        <time>2025-09-06T12:57:59.661000Z</time>
      </trkpt>
      <trkpt lat="48.349529" lon="10.260784">
        <ele>492.6</ele>
        <time>2025-09-06T12:58:20.481000Z</time>
      </trkpt>
      <trkpt lat="48.349522" lon="10.260422">
        <ele>492.2</ele>
        <time>2025-09-06T12:58:45.417000Z</time>
      </trkpt>
      <trkpt lat="48.349136" lon="10.260415">
        <ele>491.8</ele>
        <time>2025-09-06T12:59:24.820000Z</time>
      </trkpt>
      <trkpt lat="48.347971" lon="10.260394">
        <ele>492.2</ele>
        <time>2025-09-06T13:01:22.793000Z</time>
      </trkpt>
      <trkpt lat="48.347044" lon="10.25965">
        <ele>494.1</ele>
        <time>2025-09-06T13:03:14.849000Z</time>
      </trkpt>
      <trkpt lat="48.346593" lon="10.259012">
        <ele>496.5</ele>
        <time>2025-09-06T13:04:25.223000Z</time>
      </trkpt>
      <trkpt lat="48.346331" lon="10.258699">
        <ele>498</ele>
        <time>2025-09-06T13:05:03.915000Z</time>
      </trkpt>
      <trkpt lat="48.346124" lon="10.258377">
        <ele>499.4</ele>
        <time>2025-09-06T13:05:38.550000Z</time>
      </trkpt>
      <trkpt lat="48.345885" lon="10.257933">
        <ele>501.1</ele>
        <time>2025-09-06T13:06:22.314000Z</time>
      </trkpt>
      <trkpt lat="48.345377" lon="10.257198">
        <ele>503.3</ele>
        <time>2025-09-06T13:07:40.762000Z</time>
      </trkpt>
      <trkpt lat="48.344701" lon="10.256696">
        <ele>504.4</ele>
        <time>2025-09-06T13:09:00.095000Z</time>
      </trkpt>
      <trkpt lat="48.344234" lon="10.255319">
        <ele>504.9</ele>
        <time>2025-09-06T13:10:44.485000Z</time>
      </trkpt>
      <trkpt lat="48.343929" lon="10.254251">
        <ele>504.8</ele>
        <time>2025-09-06T13:12:01.889000Z</time>
      </trkpt>
      <trkpt lat="48.343856" lon="10.253993">
        <ele>504.8</ele>
        <time>2025-09-06T13:12:20.655000Z</time>
      </trkpt>
      <trkpt lat="48.347183" lon="10.25438">
        <ele>502.8</ele>
        <time>2025-09-06T13:17:58.793000Z</time>
      </trkpt>
      <trkpt lat="48.347457" lon="10.254536">
        <ele>502.7</ele>
        <time>2025-09-06T13:18:28.421000Z</time>
      </trkpt>
      <trkpt lat="48.347585" lon="10.254673">
        <ele>502.6</ele>
        <time>2025-09-06T13:18:44.269000Z</time>
      </trkpt>
      <trkpt lat="48.348094" lon="10.255452">
        <ele>501.9</ele>
        <time>2025-09-06T13:19:58.471000Z</time>
      </trkpt>
      <trkpt lat="48.34872" lon="10.256462">
        <ele>500.7</ele>
        <time>2025-09-06T13:21:32.667000Z</time>
      </trkpt>
      <trkpt lat="48.349147" lon="10.257132">
        <ele>499.7</ele>
        <time>2025-09-06T13:22:36.604000Z</time>
      </trkpt>
      <trkpt lat="48.349285" lon="10.25728">
        <ele>499.5</ele>
        <time>2025-09-06T13:22:53.849000Z</time>
      </trkpt>
      <trkpt lat="48.349438" lon="10.257131">
        <ele>499.4</ele>
        <time>2025-09-06T13:23:12.423000Z</time>
      </trkpt>
      <trkpt lat="48.349453" lon="10.256628">
        <ele>499.3</ele>
        <time>2025-09-06T13:23:46.127000Z</time>
      </trkpt>
      <trkpt lat="48.349687" lon="10.254276">
        <ele>500.4</ele>
        <time>2025-09-06T13:26:28.468000Z</time>
      </trkpt>
      <trkpt lat="48.349659" lon="10.253924">
        <ele>500.8</ele>
        <time>2025-09-06T13:26:53.263000Z</time>
      </trkpt>
      <trkpt lat="48.348671" lon="10.251403">
        <ele>503.7</ele>
        <time>2025-09-06T13:30:18.486000Z</time>
      </trkpt>
      <trkpt lat="48.348841" lon="10.250433">
        <ele>504.6</ele>
        <time>2025-09-06T13:31:28.171000Z</time>
      </trkpt>
      <trkpt lat="48.349286" lon="10.247903">
        <ele>506.3</ele>
        <time>2025-09-06T13:34:28.593000Z</time>
      </trkpt>
      <trkpt lat="48.349566" lon="10.246138">
        <ele>506.9</ele>
        <time>2025-09-06T13:36:31.349000Z</time>
      </trkpt>
      <trkpt lat="48.349098" lon="10.24591">
        <ele>506.9</ele>
        <time>2025-09-06T13:37:20.586000Z</time>
      </trkpt>
      <trkpt lat="48.348893" lon="10.245877">
        <ele>506.9</ele>
        <time>2025-09-06T13:37:41.258000Z</time>
      </trkpt>
    </trkseg>
  </trk>
</gpx>