<?xml version="1.0" encoding="UTF-8"?>
<gpx xmlns="http://www.topografix.com/GPX/1/1" xmlns:xsi="http://www.w3.org/2001/XMLSchema-instance" xsi:schemaLocation="http://www.topografix.com/GPX/1/1 http://www.topografix.com/GPX/1/1/gpx.xsd" version="1.1" creator="Robert Kampf">
  <metadata>
    <name>Seerosenteich bei Blindheim – Natürliches Kneippbad Gremheim Runde von Schwenningen</name>
    <desc>Distance: 16.771km, Estimated duration: 4.24h, Elevation up: 29.429351694688535m, Elevation down: 29.429351694688535m, Grade: moderate</desc>
    <author>
      <name>Robert Kampf</name>
      <link href="https://www.komoot.de/user/4125295338453">
        <text>View Robert Kampf's Profile on Komoot</text>
      </link>
    </author>
    <link href="https://www.komoot.de/tour/3057567243">
      <text>View tour on Komoot</text>
    </link>
  </metadata>
  <wpt lat="48.636717" lon="10.645958">
    <name>Gremheim</name>
    <cmt></cmt>
    <desc>Accessible</desc>
    <src>Komoot</src>
    <type>POI</type>
  </wpt>
  <wpt lat="48.631549" lon="10.650528">
    <ele>465.1</ele>
    <name>Old Wooden Danube Bridge Memorial and Information Boards</name>
    <cmt>https://d2exd72xrrp1s7.cloudfront.net/www/000/1k5/1g/1g60tqt7tb3zip58d8wbcbryl3w8jtgh8-uhi40428302/0</cmt>
    <desc>Old Man Bikeboy: Erst in den 80'er Jahren wurde die Brücke modernisiert, d.h. in Beton errichtet. Einem Holzelement der alten Brücke wurde als Erinnerungsstücke und Werkzeug ein 2. Leben gegönnt
――――――――――
Günther🦎: Gut gemacht
――――――――――
Juliane: Erst 1983 wurde die neue Brücke gebaut. Einen Rest und Schaubilder der alten Version sind hier zu sehen.</desc>
    <src>Komoot</src>
    <link href="https://www.komoot.de/highlight/3133585">
      <text>View POI on Komoot</text>
    </link>
    <type>Highlight</type>
  </wpt>
  <wpt lat="48.613476" lon="10.614379">
    <ele>414.2</ele>
    <name>Lily pond near Blindheim</name>
    <cmt>https://d2exd72xrrp1s7.cloudfront.net/www/000/1k6/b0/b0iufn6b181s1mezaeh4nrjg34arz5150-uhi54050356/0</cmt>
    <desc>Walter: Ich beobachte gerade einen großen Schwarm junger Rotfedern.
――――――――――
🦣 𝕸𝖆𝖒𝖒𝖚𝖙 𝕱𝖗𝖆𝖓𝖐 🏒🥅👨🏼‍🚒🚒: Seerosen -  Seenlandschaft 🌊 - Herbstlandschaft🍁🍂 - Verwaltungsgemeinde Höchstädt - Blindheim - LKR. Dillingen an der Donau</desc>
    <src>Komoot</src>
    <link href="https://www.komoot.de/highlight/4951466">
      <text>View POI on Komoot</text>
    </link>
    <type>Highlight</type>
  </wpt>
  <wpt lat="48.606328" lon="10.580454">
    <ele>467.3</ele>
    <name>Suspension Bridge on the Herzogin-Anna Loop Trail</name>
    <cmt>https://d2exd72xrrp1s7.cloudfront.net/www/000/1k5/1e/1eq6fra1bp9fz5c0tusy0qokb3ww2dcdw-uhi41588678/0</cmt>
    <desc>🦣 𝕸𝖆𝖒𝖒𝖚𝖙 𝕱𝖗𝖆𝖓𝖐 🏒🥅👨🏼‍🚒🚒: Hängebrücke - Herzogin-Anna-Rundweg - Auwald 🌳🌲 - Wörth Mitte 414 m. ü.N.N. -  Höchstädt an der Donau - LKR. Dillingen an der Donau
――――――――――
Juliane: Netter Gag im Wald. Toll für Kinder.
――――――――――
Alexander: Echtes Hängebrückenfeeling zwar kurz aber toll
――――――――――
Michael: Mini Hängebrücke</desc>
    <src>Komoot</src>
    <link href="https://www.komoot.de/highlight/3793894">
      <text>View POI on Komoot</text>
    </link>
    <type>Highlight</type>
  </wpt>
  <wpt lat="48.606251" lon="10.580892">
    <ele>444</ele>
    <name>Wooden Boardwalk Through the Auwald Forest</name>
    <cmt>https://d2exd72xrrp1s7.cloudfront.net/www/000/1k6/6j/6j3bqe6sp86c4upia7zc1c1143tzjlle-uhi47600504/0</cmt>
    <desc>Alexander: Sehr schöner Weg mit Suchspiel im Wald
――――――――――
Chris Zäpfle: Dieser Weg ist absolut sehenswert
――――――――――
🦣 𝕸𝖆𝖒𝖒𝖚𝖙 𝕱𝖗𝖆𝖓𝖐 🏒🥅👨🏼‍🚒🚒: Holzbohlenweg 🏞 - Herzogin-Anna-Rundweg - Auwald 🌳🌲 - Wörth Mitte 414 m. ü.N.N. -  Höchstädt an der Donau - LKR. Dillingen an der Donau</desc>
    <src>Komoot</src>
    <link href="https://www.komoot.de/highlight/3809250">
      <text>View POI on Komoot</text>
    </link>
    <type>Highlight</type>
  </wpt>
  <wpt lat="48.605919" lon="10.58144">
    <ele>414</ele>
    <name>Boardwalk Through the Forest by the Danube</name>
    <cmt>https://d2exd72xrrp1s7.cloudfront.net/www/000/1k9/rk/rkpr2kzh3o7s1ir2ke28469u75ie5ftw0-uhi93540800/0</cmt>
    <desc>einfach draußen: Sehr idyllischer Wanderweg ohne sandige Schuhe. Wir haben ihn sehr genossen!</desc>
    <src>Komoot</src>
    <link href="https://www.komoot.de/highlight/7867805">
      <text>View POI on Komoot</text>
    </link>
    <type>Highlight</type>
  </wpt>
  <wpt lat="48.602356" lon="10.582984">
    <ele>463.4</ele>
    <name>Danube Lock and Hydroelectric Power Plant at Hochstadt</name>
    <cmt>https://d2exd72xrrp1s7.cloudfront.net/www/000/1k4/hc/hcdvif7ykz8frcwctcfn1xtl3ghplw0b-uhi18431462/0</cmt>
    <desc>Walkleader  &amp; Uschi 🌻: die Staustufe ist eine Übergangsstelle und Flusswasserkraftwerk an der Donau
――――――――――
Chris Zäpfle: Interessante Technik
――――――――――
Sandra Fiala: Von der Brücke bei der Staustufe hat man einen tollen Vlick über die Donau.</desc>
    <src>Komoot</src>
    <link href="https://www.komoot.de/highlight/842871">
      <text>View POI on Komoot</text>
    </link>
    <type>Highlight</type>
  </wpt>
  <wpt lat="48.630414" lon="10.655245">
    <ele>411.4</ele>
    <name>Natural Kneipp Bath Gremheim</name>
    <cmt>https://d2exd72xrrp1s7.cloudfront.net/www/000/1k5/jn/jn62svf62uc73b46op7a1zjn3nokljwo-uhi28374042/0</cmt>
    <desc>Siggi: Hier kann man sich nach einer langen Wanderung super erfrischen und die müden Beine können sich bei einer kleinen Kneipp-Kur erholen.
――――――――――
Dodo: Very refreshing a safe and clean set up the water is so clear. It makes the legs and whole body feel wonderful. </desc>
    <src>Komoot</src>
    <link href="https://www.komoot.de/highlight/2077224">
      <text>View POI on Komoot</text>
    </link>
    <type>Highlight</type>
  </wpt>
  <wpt lat="48.631058" lon="10.649836">
    <ele>457</ele>
    <name>Information board: Apfelwörth Nature Reserve</name>
    <cmt>https://d2exd72xrrp1s7.cloudfront.net/www/000/1k6/aw/aw7x40c438zxfxp57oxzatnz43ogg8ws-uhi47468310/0</cmt>
    <desc>Madti 🚴: Ein vegetatives Stillgewässer, der ehemals wild fließenden Donau. 
Auch der DonAUwald Wanderweg  verläuft hier durch...</desc>
    <src>Komoot</src>
    <link href="https://www.komoot.de/highlight/4191442">
      <text>View POI on Komoot</text>
    </link>
    <type>Highlight</type>
  </wpt>
  <trk>
    <name>Seerosenteich bei Blindheim – Natürliches Kneippbad Gremheim Runde von Schwenningen</name>
    <desc>Distance: 16.771km, Estimated duration: 4.24h, Elevation up: 29.429351694688535m, Elevation down: 29.429351694688535m, Grade: moderate</desc>
    <link href="https://www.komoot.de/tour/3057567243">
      <text>View tour on Komoot</text>
    </link>
    <trkseg>
      <trkpt lat="48.636708" lon="10.645876">
        <ele>414.8</ele>
        <time>2026-06-22T16:47:26.261000Z</time>
      </trkpt>
      <trkpt lat="48.63682" lon="10.645846">
        <ele>414.7</ele>
        <time>2026-06-22T16:47:37.687000Z</time>
      </trkpt>
      <trkpt lat="48.636884" lon="10.645837">
        <ele>414.7</ele>
        <time>2026-06-22T16:47:44.222000Z</time>
      </trkpt>
      <trkpt lat="48.637017" lon="10.647211">
        <ele>414.5</ele>
        <time>2026-06-22T16:49:16.499000Z</time>
      </trkpt>
      <trkpt lat="48.637025" lon="10.647289">
        <ele>414.5</ele>
        <time>2026-06-22T16:49:21.717000Z</time>
      </trkpt>
      <trkpt lat="48.636699" lon="10.647379">
        <ele>414.5</ele>
        <time>2026-06-22T16:49:54.883000Z</time>
      </trkpt>
      <trkpt lat="48.635946" lon="10.647627">
        <ele>414.6</ele>
        <time>2026-06-22T16:51:12.431000Z</time>
      </trkpt>
      <trkpt lat="48.635977" lon="10.64788">
        <ele>414.6</ele>
        <time>2026-06-22T16:51:29.494000Z</time>
      </trkpt>
      <trkpt lat="48.635826" lon="10.647906">
        <ele>414.6</ele>
        <time>2026-06-22T16:51:44.713000Z</time>
      </trkpt>
      <trkpt lat="48.635811" lon="10.647908">
        <ele>414.6</ele>
        <time>2026-06-22T16:51:46.222000Z</time>
      </trkpt>
      <trkpt lat="48.635616" lon="10.647905">
        <ele>414.5</ele>
        <time>2026-06-22T16:52:05.971000Z</time>
      </trkpt>
      <trkpt lat="48.635602" lon="10.648912">
        <ele>413.7</ele>
        <time>2026-06-22T16:53:14.242000Z</time>
      </trkpt>
      <trkpt lat="48.635564" lon="10.648919">
        <ele>413.7</ele>
        <time>2026-06-22T16:53:18.184000Z</time>
      </trkpt>
      <trkpt lat="48.635576" lon="10.649043">
        <ele>413.5</ele>
        <time>2026-06-22T16:53:26.767000Z</time>
      </trkpt>
      <trkpt lat="48.635578" lon="10.649078">
        <ele>413.5</ele>
        <time>2026-06-22T16:53:29.150000Z</time>
      </trkpt>
      <trkpt lat="48.635604" lon="10.649362">
        <ele>413.2</ele>
        <time>2026-06-22T16:53:48.814000Z</time>
      </trkpt>
      <trkpt lat="48.635618" lon="10.649525">
        <ele>412.9</ele>
        <time>2026-06-22T16:54:00.121000Z</time>
      </trkpt>
      <trkpt lat="48.635645" lon="10.649821">
        <ele>412.6</ele>
        <time>2026-06-22T16:54:20.657000Z</time>
      </trkpt>
      <trkpt lat="48.635628" lon="10.64999">
        <ele>412.3</ele>
        <time>2026-06-22T16:54:32.416000Z</time>
      </trkpt>
      <trkpt lat="48.635601" lon="10.650087">
        <ele>412.2</ele>
        <time>2026-06-22T16:54:39.639000Z</time>
      </trkpt>
      <trkpt lat="48.635541" lon="10.650195">
        <ele>412</ele>
        <time>2026-06-22T16:54:49.353000Z</time>
      </trkpt>
      <trkpt lat="48.635445" lon="10.650299">
        <ele>411.8</ele>
        <time>2026-06-22T16:55:01.594000Z</time>
      </trkpt>
      <trkpt lat="48.635324" lon="10.650345">
        <ele>411.6</ele>
        <time>2026-06-22T16:55:14.433000Z</time>
      </trkpt>
      <trkpt lat="48.6352" lon="10.650486">
        <ele>411.4</ele>
        <time>2026-06-22T16:55:30.598000Z</time>
      </trkpt>
      <trkpt lat="48.634635" lon="10.650778">
        <ele>410.6</ele>
        <time>2026-06-22T16:56:31.820000Z</time>
      </trkpt>
      <trkpt lat="48.634372" lon="10.650876">
        <ele>410.4</ele>
        <time>2026-06-22T16:56:59.319000Z</time>
      </trkpt>
      <trkpt lat="48.634324" lon="10.650811">
        <ele>410.4</ele>
        <time>2026-06-22T16:57:05.814000Z</time>
      </trkpt>
      <trkpt lat="48.634173" lon="10.650717">
        <ele>410.4</ele>
        <time>2026-06-22T16:57:22.274000Z</time>
      </trkpt>
      <trkpt lat="48.634082" lon="10.650626">
        <ele>410.3</ele>
        <time>2026-06-22T16:57:33.271000Z</time>
      </trkpt>
      <trkpt lat="48.633882" lon="10.650431">
        <ele>410.3</ele>
        <time>2026-06-22T16:57:57.167000Z</time>
      </trkpt>
      <trkpt lat="48.633766" lon="10.650334">
        <ele>410.2</ele>
        <time>2026-06-22T16:58:10.517000Z</time>
      </trkpt>
      <trkpt lat="48.633364" lon="10.650114">
        <ele>410.1</ele>
        <time>2026-06-22T16:58:53.534000Z</time>
      </trkpt>
      <trkpt lat="48.633211" lon="10.649998">
        <ele>410.1</ele>
        <time>2026-06-22T16:59:10.809000Z</time>
      </trkpt>
      <trkpt lat="48.633141" lon="10.649953">
        <ele>410</ele>
        <time>2026-06-22T16:59:18.498000Z</time>
      </trkpt>
      <trkpt lat="48.633118" lon="10.650009">
        <ele>410</ele>
        <time>2026-06-22T16:59:22.876000Z</time>
      </trkpt>
      <trkpt lat="48.632997" lon="10.649947">
        <ele>410</ele>
        <time>2026-06-22T16:59:35.704000Z</time>
      </trkpt>
      <trkpt lat="48.632866" lon="10.649825">
        <ele>409.9</ele>
        <time>2026-06-22T16:59:51.215000Z</time>
      </trkpt>
      <trkpt lat="48.632729" lon="10.649645">
        <ele>409.9</ele>
        <time>2026-06-22T17:00:09.448000Z</time>
      </trkpt>
      <trkpt lat="48.632545" lon="10.649322">
        <ele>409.8</ele>
        <time>2026-06-22T17:00:37.730000Z</time>
      </trkpt>
      <trkpt lat="48.632432" lon="10.649436">
        <ele>409.8</ele>
        <time>2026-06-22T17:00:51.358000Z</time>
      </trkpt>
      <trkpt lat="48.632199" lon="10.649522">
        <ele>409.7</ele>
        <time>2026-06-22T17:01:15.654000Z</time>
      </trkpt>
      <trkpt lat="48.632042" lon="10.649669">
        <ele>409.5</ele>
        <time>2026-06-22T17:01:34.489000Z</time>
      </trkpt>
      <trkpt lat="48.631934" lon="10.649861">
        <ele>409.3</ele>
        <time>2026-06-22T17:01:51.539000Z</time>
      </trkpt>
      <trkpt lat="48.631842" lon="10.650023">
        <ele>409.2</ele>
        <time>2026-06-22T17:02:05.983000Z</time>
      </trkpt>
      <trkpt lat="48.631595" lon="10.650457">
        <ele>408.9</ele>
        <time>2026-06-22T17:02:44.507000Z</time>
      </trkpt>
      <trkpt lat="48.631556" lon="10.650536">
        <ele>408.8</ele>
        <time>2026-06-22T17:02:51.175000Z</time>
      </trkpt>
      <trkpt lat="48.631506" lon="10.650637">
        <ele>408.8</ele>
        <time>2026-06-22T17:02:59.654000Z</time>
      </trkpt>
      <trkpt lat="48.631445" lon="10.65066">
        <ele>408.7</ele>
        <time>2026-06-22T17:03:05.997000Z</time>
      </trkpt>
      <trkpt lat="48.631243" lon="10.650539">
        <ele>408.5</ele>
        <time>2026-06-22T17:03:28.090000Z</time>
      </trkpt>
      <trkpt lat="48.631221" lon="10.650607">
        <ele>408.5</ele>
        <time>2026-06-22T17:03:33.166000Z</time>
      </trkpt>
      <trkpt lat="48.631174" lon="10.650651">
        <ele>408.5</ele>
        <time>2026-06-22T17:03:38.823000Z</time>
      </trkpt>
      <trkpt lat="48.631148" lon="10.650664">
        <ele>408.4</ele>
        <time>2026-06-22T17:03:41.627000Z</time>
      </trkpt>
      <trkpt lat="48.630945" lon="10.650474">
        <ele>408.3</ele>
        <time>2026-06-22T17:04:05.836000Z</time>
      </trkpt>
      <trkpt lat="48.630969" lon="10.65038">
        <ele>408.2</ele>
        <time>2026-06-22T17:04:12.627000Z</time>
      </trkpt>
      <trkpt lat="48.630992" lon="10.650273">
        <ele>408.1</ele>
        <time>2026-06-22T17:04:20.182000Z</time>
      </trkpt>
      <trkpt lat="48.630948" lon="10.650284">
        <ele>408.1</ele>
        <time>2026-06-22T17:04:24.772000Z</time>
      </trkpt>
      <trkpt lat="48.630878" lon="10.650239">
        <ele>408</ele>
        <time>2026-06-22T17:04:32.493000Z</time>
      </trkpt>
      <trkpt lat="48.629918" lon="10.649056">
        <ele>407.8</ele>
        <time>2026-06-22T17:06:36.801000Z</time>
      </trkpt>
      <trkpt lat="48.629473" lon="10.648406">
        <ele>407.9</ele>
        <time>2026-06-22T17:07:39.154000Z</time>
      </trkpt>
      <trkpt lat="48.628341" lon="10.646323">
        <ele>409</ele>
        <time>2026-06-22T17:10:41.152000Z</time>
      </trkpt>
      <trkpt lat="48.627674" lon="10.645171">
        <ele>409.4</ele>
        <time>2026-06-22T17:12:24.007000Z</time>
      </trkpt>
      <trkpt lat="48.62678" lon="10.643785">
        <ele>409.2</ele>
        <time>2026-06-22T17:14:32.517000Z</time>
      </trkpt>
      <trkpt lat="48.626469" lon="10.64339">
        <ele>409</ele>
        <time>2026-06-22T17:15:13.495000Z</time>
      </trkpt>
      <trkpt lat="48.626027" lon="10.643007">
        <ele>408.8</ele>
        <time>2026-06-22T17:16:04.826000Z</time>
      </trkpt>
      <trkpt lat="48.625242" lon="10.642441">
        <ele>408.7</ele>
        <time>2026-06-22T17:17:32.204000Z</time>
      </trkpt>
      <trkpt lat="48.625061" lon="10.642281">
        <ele>408.7</ele>
        <time>2026-06-22T17:17:53.245000Z</time>
      </trkpt>
      <trkpt lat="48.624703" lon="10.641873">
        <ele>408.6</ele>
        <time>2026-06-22T17:18:38.197000Z</time>
      </trkpt>
      <trkpt lat="48.624493" lon="10.641968">
        <ele>408.6</ele>
        <time>2026-06-22T17:19:00.208000Z</time>
      </trkpt>
      <trkpt lat="48.623925" lon="10.641174">
        <ele>408.5</ele>
        <time>2026-06-22T17:20:17.694000Z</time>
      </trkpt>
      <trkpt lat="48.622667" lon="10.639152">
        <ele>408.7</ele>
        <time>2026-06-22T17:23:22.072000Z</time>
      </trkpt>
      <trkpt lat="48.621729" lon="10.637514">
        <ele>409.5</ele>
        <time>2026-06-22T17:25:48.358000Z</time>
      </trkpt>
      <trkpt lat="48.621389" lon="10.636988">
        <ele>409.6</ele>
        <time>2026-06-22T17:26:37.213000Z</time>
      </trkpt>
      <trkpt lat="48.620886" lon="10.636059">
        <ele>409.8</ele>
        <time>2026-06-22T17:27:57.356000Z</time>
      </trkpt>
      <trkpt lat="48.621034" lon="10.635791">
        <ele>409.9</ele>
        <time>2026-06-22T17:28:20.855000Z</time>
      </trkpt>
      <trkpt lat="48.619306" lon="10.632491">
        <ele>411.4</ele>
        <time>2026-06-22T17:33:04.865000Z</time>
      </trkpt>
      <trkpt lat="48.618978" lon="10.631775">
        <ele>411.1</ele>
        <time>2026-06-22T17:34:03.101000Z</time>
      </trkpt>
      <trkpt lat="48.618941" lon="10.631701">
        <ele>411</ele>
        <time>2026-06-22T17:34:09.355000Z</time>
      </trkpt>
      <trkpt lat="48.618894" lon="10.631622">
        <ele>411</ele>
        <time>2026-06-22T17:34:16.457000Z</time>
      </trkpt>
      <trkpt lat="48.618768" lon="10.631378">
        <ele>410.9</ele>
        <time>2026-06-22T17:34:37.201000Z</time>
      </trkpt>
      <trkpt lat="48.617333" lon="10.628217">
        <ele>410.3</ele>
        <time>2026-06-22T17:38:52.088000Z</time>
      </trkpt>
      <trkpt lat="48.616742" lon="10.626862">
        <ele>409.5</ele>
        <time>2026-06-22T17:40:41.223000Z</time>
      </trkpt>
      <trkpt lat="48.616535" lon="10.626421">
        <ele>409.2</ele>
        <time>2026-06-22T17:41:17.594000Z</time>
      </trkpt>
      <trkpt lat="48.616023" lon="10.625504">
        <ele>409</ele>
        <time>2026-06-22T17:42:37.408000Z</time>
      </trkpt>
      <trkpt lat="48.615746" lon="10.62491">
        <ele>409.1</ele>
        <time>2026-06-22T17:43:25.845000Z</time>
      </trkpt>
      <trkpt lat="48.614038" lon="10.620595">
        <ele>410.3</ele>
        <time>2026-06-22T17:49:02.877000Z</time>
      </trkpt>
      <trkpt lat="48.614023" lon="10.620551">
        <ele>410.3</ele>
        <time>2026-06-22T17:49:06.212000Z</time>
      </trkpt>
      <trkpt lat="48.613894" lon="10.620161">
        <ele>410.4</ele>
        <time>2026-06-22T17:49:35.390000Z</time>
      </trkpt>
      <trkpt lat="48.613174" lon="10.617559">
        <ele>410.8</ele>
        <time>2026-06-22T17:52:43.519000Z</time>
      </trkpt>
      <trkpt lat="48.613278" lon="10.617619">
        <ele>410.8</ele>
        <time>2026-06-22T17:52:54.681000Z</time>
      </trkpt>
      <trkpt lat="48.613006" lon="10.616773">
        <ele>411</ele>
        <time>2026-06-22T17:53:57.494000Z</time>
      </trkpt>
      <trkpt lat="48.613029" lon="10.616266">
        <ele>411.1</ele>
        <time>2026-06-22T17:54:31.535000Z</time>
      </trkpt>
      <trkpt lat="48.613078" lon="10.616181">
        <ele>411.1</ele>
        <time>2026-06-22T17:54:39.057000Z</time>
      </trkpt>
      <trkpt lat="48.613138" lon="10.616097">
        <ele>411.2</ele>
        <time>2026-06-22T17:54:47.374000Z</time>
      </trkpt>
      <trkpt lat="48.613199" lon="10.615945">
        <ele>411.2</ele>
        <time>2026-06-22T17:54:59.207000Z</time>
      </trkpt>
      <trkpt lat="48.613386" lon="10.614787">
        <ele>411.5</ele>
        <time>2026-06-22T17:56:19.187000Z</time>
      </trkpt>
      <trkpt lat="48.613545" lon="10.614454">
        <ele>411.5</ele>
        <time>2026-06-22T17:56:46.476000Z</time>
      </trkpt>
      <trkpt lat="48.613653" lon="10.614227">
        <ele>411.5</ele>
        <time>2026-06-22T17:57:05.044000Z</time>
      </trkpt>
      <trkpt lat="48.613621" lon="10.613959">
        <ele>411.5</ele>
        <time>2026-06-22T17:57:23.124000Z</time>
      </trkpt>
      <trkpt lat="48.613499" lon="10.613746">
        <ele>411.4</ele>
        <time>2026-06-22T17:57:41.882000Z</time>
      </trkpt>
      <trkpt lat="48.613443" lon="10.613496">
        <ele>411.3</ele>
        <time>2026-06-22T17:57:59.521000Z</time>
      </trkpt>
      <trkpt lat="48.613167" lon="10.613052">
        <ele>411.1</ele>
        <time>2026-06-22T17:58:40.270000Z</time>
      </trkpt>
      <trkpt lat="48.61307" lon="10.612974">
        <ele>411.1</ele>
        <time>2026-06-22T17:58:51.427000Z</time>
      </trkpt>
      <trkpt lat="48.612216" lon="10.612746">
        <ele>410.6</ele>
        <time>2026-06-22T18:00:19.020000Z</time>
      </trkpt>
      <trkpt lat="48.612" lon="10.61262">
        <ele>410.6</ele>
        <time>2026-06-22T18:00:42.353000Z</time>
      </trkpt>
      <trkpt lat="48.61182" lon="10.612562">
        <ele>410.6</ele>
        <time>2026-06-22T18:01:00.735000Z</time>
      </trkpt>
      <trkpt lat="48.611663" lon="10.611991">
        <ele>410.6</ele>
        <time>2026-06-22T18:01:41.671000Z</time>
      </trkpt>
      <trkpt lat="48.609874" lon="10.605521">
        <ele>412.1</ele>
        <time>2026-06-22T18:09:31.306000Z</time>
      </trkpt>
      <trkpt lat="48.609838" lon="10.605553">
        <ele>412.2</ele>
        <time>2026-06-22T18:09:35.544000Z</time>
      </trkpt>
      <trkpt lat="48.607257" lon="10.59612">
        <ele>412.8</ele>
        <time>2026-06-22T18:20:53.480000Z</time>
      </trkpt>
      <trkpt lat="48.607209" lon="10.596262">
        <ele>412.7</ele>
        <time>2026-06-22T18:21:04.233000Z</time>
      </trkpt>
      <trkpt lat="48.60715" lon="10.596335">
        <ele>412.7</ele>
        <time>2026-06-22T18:21:11.962000Z</time>
      </trkpt>
      <trkpt lat="48.606998" lon="10.596414">
        <ele>412.5</ele>
        <time>2026-06-22T18:21:28.388000Z</time>
      </trkpt>
      <trkpt lat="48.605011" lon="10.589232">
        <ele>411.6</ele>
        <time>2026-06-22T18:30:05.488000Z</time>
      </trkpt>
      <trkpt lat="48.605011" lon="10.588916">
        <ele>411.8</ele>
        <time>2026-06-22T18:30:27.266000Z</time>
      </trkpt>
      <trkpt lat="48.604939" lon="10.58882">
        <ele>412</ele>
        <time>2026-06-22T18:30:37.290000Z</time>
      </trkpt>
      <trkpt lat="48.604757" lon="10.588256">
        <ele>412.6</ele>
        <time>2026-06-22T18:31:21.197000Z</time>
      </trkpt>
      <trkpt lat="48.604663" lon="10.587966">
        <ele>413</ele>
        <time>2026-06-22T18:31:43.730000Z</time>
      </trkpt>
      <trkpt lat="48.604865" lon="10.587793">
        <ele>413.4</ele>
        <time>2026-06-22T18:32:08.400000Z</time>
      </trkpt>
      <trkpt lat="48.604965" lon="10.587785">
        <ele>413.6</ele>
        <time>2026-06-22T18:32:19.006000Z</time>
      </trkpt>
      <trkpt lat="48.60502" lon="10.587822">
        <ele>413.7</ele>
        <time>2026-06-22T18:32:25.513000Z</time>
      </trkpt>
      <trkpt lat="48.605141" lon="10.587882">
        <ele>413.9</ele>
        <time>2026-06-22T18:32:39.201000Z</time>
      </trkpt>
      <trkpt lat="48.605203" lon="10.587919">
        <ele>414.1</ele>
        <time>2026-06-22T18:32:46.290000Z</time>
      </trkpt>
      <trkpt lat="48.605805" lon="10.587405">
        <ele>415.1</ele>
        <time>2026-06-22T18:33:59.222000Z</time>
      </trkpt>
      <trkpt lat="48.606026" lon="10.587158">
        <ele>415.3</ele>
        <time>2026-06-22T18:34:27.190000Z</time>
      </trkpt>
      <trkpt lat="48.60624" lon="10.586843">
        <ele>415.2</ele>
        <time>2026-06-22T18:34:57.264000Z</time>
      </trkpt>
      <trkpt lat="48.606364" lon="10.586661">
        <ele>415.1</ele>
        <time>2026-06-22T18:35:14.718000Z</time>
      </trkpt>
      <trkpt lat="48.606622" lon="10.585726">
        <ele>414.5</ele>
        <time>2026-06-22T18:36:22.987000Z</time>
      </trkpt>
      <trkpt lat="48.606861" lon="10.584963">
        <ele>413.7</ele>
        <time>2026-06-22T18:37:20.571000Z</time>
      </trkpt>
      <trkpt lat="48.606891" lon="10.584645">
        <ele>413.5</ele>
        <time>2026-06-22T18:37:42.270000Z</time>
      </trkpt>
      <trkpt lat="48.607009" lon="10.584068">
        <ele>413.3</ele>
        <time>2026-06-22T18:38:22.744000Z</time>
      </trkpt>
      <trkpt lat="48.607125" lon="10.583507">
        <ele>413.3</ele>
        <time>2026-06-22T18:39:01.678000Z</time>
      </trkpt>
      <trkpt lat="48.607286" lon="10.582007">
        <ele>414</ele>
        <time>2026-06-22T18:40:44.713000Z</time>
      </trkpt>
      <trkpt lat="48.607276" lon="10.581945">
        <ele>414</ele>
        <time>2026-06-22T18:40:49.040000Z</time>
      </trkpt>
      <trkpt lat="48.607228" lon="10.581846">
        <ele>414.1</ele>
        <time>2026-06-22T18:40:57.461000Z</time>
      </trkpt>
      <trkpt lat="48.606636" lon="10.580688">
        <ele>414.4</ele>
        <time>2026-06-22T18:42:35.495000Z</time>
      </trkpt>
      <trkpt lat="48.606353" lon="10.580397">
        <ele>414.3</ele>
        <time>2026-06-22T18:43:09.942000Z</time>
      </trkpt>
      <trkpt lat="48.606312" lon="10.580354">
        <ele>414.3</ele>
        <time>2026-06-22T18:43:14.994000Z</time>
      </trkpt>
      <trkpt lat="48.606239" lon="10.580412">
        <ele>414.3</ele>
        <time>2026-06-22T18:43:23.305000Z</time>
      </trkpt>
      <trkpt lat="48.606217" lon="10.580467">
        <ele>414.2</ele>
        <time>2026-06-22T18:43:27.510000Z</time>
      </trkpt>
      <trkpt lat="48.606212" lon="10.580519">
        <ele>414.2</ele>
        <time>2026-06-22T18:43:31.027000Z</time>
      </trkpt>
      <trkpt lat="48.606134" lon="10.580601">
        <ele>414.2</ele>
        <time>2026-06-22T18:43:40.639000Z</time>
      </trkpt>
      <trkpt lat="48.606167" lon="10.580781">
        <ele>414.1</ele>
        <time>2026-06-22T18:43:53.133000Z</time>
      </trkpt>
      <trkpt lat="48.606173" lon="10.580901">
        <ele>414.1</ele>
        <time>2026-06-22T18:44:01.137000Z</time>
      </trkpt>
      <trkpt lat="48.606186" lon="10.58113">
        <ele>414</ele>
        <time>2026-06-22T18:44:16.472000Z</time>
      </trkpt>
      <trkpt lat="48.606137" lon="10.581339">
        <ele>414</ele>
        <time>2026-06-22T18:44:31.227000Z</time>
      </trkpt>
      <trkpt lat="48.606053" lon="10.581441">
        <ele>414</ele>
        <time>2026-06-22T18:44:42.064000Z</time>
      </trkpt>
      <trkpt lat="48.60593" lon="10.581475">
        <ele>413.9</ele>
        <time>2026-06-22T18:44:54.696000Z</time>
      </trkpt>
      <trkpt lat="48.605912" lon="10.581459">
        <ele>413.9</ele>
        <time>2026-06-22T18:44:56.784000Z</time>
      </trkpt>
      <trkpt lat="48.605826" lon="10.581383">
        <ele>413.9</ele>
        <time>2026-06-22T18:45:06.791000Z</time>
      </trkpt>
      <trkpt lat="48.60573" lon="10.581511">
        <ele>413.8</ele>
        <time>2026-06-22T18:45:19.761000Z</time>
      </trkpt>
      <trkpt lat="48.605694" lon="10.581837">
        <ele>413.7</ele>
        <time>2026-06-22T18:45:41.834000Z</time>
      </trkpt>
      <trkpt lat="48.605882" lon="10.581835">
        <ele>413.6</ele>
        <time>2026-06-22T18:46:00.914000Z</time>
      </trkpt>
      <trkpt lat="48.605988" lon="10.581753">
        <ele>413.5</ele>
        <time>2026-06-22T18:46:12.997000Z</time>
      </trkpt>
      <trkpt lat="48.606099" lon="10.581744">
        <ele>413.4</ele>
        <time>2026-06-22T18:46:24.214000Z</time>
      </trkpt>
      <trkpt lat="48.606191" lon="10.581828">
        <ele>413.4</ele>
        <time>2026-06-22T18:46:35.194000Z</time>
      </trkpt>
      <trkpt lat="48.606239" lon="10.582061">
        <ele>413.2</ele>
        <time>2026-06-22T18:46:51.520000Z</time>
      </trkpt>
      <trkpt lat="48.606251" lon="10.582567">
        <ele>413.1</ele>
        <time>2026-06-22T18:47:25.379000Z</time>
      </trkpt>
      <trkpt lat="48.606301" lon="10.58282">
        <ele>413.1</ele>
        <time>2026-06-22T18:47:42.918000Z</time>
      </trkpt>
      <trkpt lat="48.606262" lon="10.583089">
        <ele>413</ele>
        <time>2026-06-22T18:48:01.151000Z</time>
      </trkpt>
      <trkpt lat="48.606094" lon="10.583534">
        <ele>413.1</ele>
        <time>2026-06-22T18:48:35.118000Z</time>
      </trkpt>
      <trkpt lat="48.605407" lon="10.583451">
        <ele>413.4</ele>
        <time>2026-06-22T18:49:45.324000Z</time>
      </trkpt>
      <trkpt lat="48.605024" lon="10.583348">
        <ele>413.8</ele>
        <time>2026-06-22T18:50:25.618000Z</time>
      </trkpt>
      <trkpt lat="48.604954" lon="10.583329">
        <ele>413.9</ele>
        <time>2026-06-22T18:50:33.054000Z</time>
      </trkpt>
      <trkpt lat="48.60444" lon="10.583001">
        <ele>414.3</ele>
        <time>2026-06-22T18:51:30.338000Z</time>
      </trkpt>
      <trkpt lat="48.604278" lon="10.582826">
        <ele>414.3</ele>
        <time>2026-06-22T18:51:50.567000Z</time>
      </trkpt>
      <trkpt lat="48.604128" lon="10.582516">
        <ele>414.4</ele>
        <time>2026-06-22T18:52:16.186000Z</time>
      </trkpt>
      <trkpt lat="48.604081" lon="10.582486">
        <ele>414.4</ele>
        <time>2026-06-22T18:52:21.320000Z</time>
      </trkpt>
      <trkpt lat="48.60402" lon="10.582446">
        <ele>414.4</ele>
        <time>2026-06-22T18:52:27.966000Z</time>
      </trkpt>
      <trkpt lat="48.603774" lon="10.582369">
        <ele>414.4</ele>
        <time>2026-06-22T18:52:53.210000Z</time>
      </trkpt>
      <trkpt lat="48.603657" lon="10.582392">
        <ele>414.4</ele>
        <time>2026-06-22T18:53:04.984000Z</time>
      </trkpt>
      <trkpt lat="48.603527" lon="10.58226">
        <ele>414.4</ele>
        <time>2026-06-22T18:53:20.708000Z</time>
      </trkpt>
      <trkpt lat="48.603473" lon="10.582292">
        <ele>414.4</ele>
        <time>2026-06-22T18:53:26.525000Z</time>
      </trkpt>
      <trkpt lat="48.602377" lon="10.582986">
        <ele>413.8</ele>
        <time>2026-06-22T18:55:26.666000Z</time>
      </trkpt>
      <trkpt lat="48.602331" lon="10.583014">
        <ele>413.8</ele>
        <time>2026-06-22T18:55:31.715000Z</time>
      </trkpt>
      <trkpt lat="48.602274" lon="10.583148">
        <ele>413.7</ele>
        <time>2026-06-22T18:55:42.352000Z</time>
      </trkpt>
      <trkpt lat="48.60227" lon="10.583374">
        <ele>413.7</ele>
        <time>2026-06-22T18:55:57.445000Z</time>
      </trkpt>
      <trkpt lat="48.602387" lon="10.583763">
        <ele>413.5</ele>
        <time>2026-06-22T18:56:26.059000Z</time>
      </trkpt>
      <trkpt lat="48.602948" lon="10.585357">
        <ele>413</ele>
        <time>2026-06-22T18:58:26.675000Z</time>
      </trkpt>
      <trkpt lat="48.603067" lon="10.585777">
        <ele>412.9</ele>
        <time>2026-06-22T18:58:56.994000Z</time>
      </trkpt>
      <trkpt lat="48.603073" lon="10.586101">
        <ele>412.9</ele>
        <time>2026-06-22T18:59:18.560000Z</time>
      </trkpt>
      <trkpt lat="48.602933" lon="10.58685">
        <ele>412.9</ele>
        <time>2026-06-22T19:00:10.191000Z</time>
      </trkpt>
      <trkpt lat="48.602889" lon="10.5872">
        <ele>413</ele>
        <time>2026-06-22T19:00:34.075000Z</time>
      </trkpt>
      <trkpt lat="48.602919" lon="10.587489">
        <ele>413.1</ele>
        <time>2026-06-22T19:00:53.772000Z</time>
      </trkpt>
      <trkpt lat="48.60307" lon="10.588211">
        <ele>413.5</ele>
        <time>2026-06-22T19:01:45.372000Z</time>
      </trkpt>
      <trkpt lat="48.603232" lon="10.588856">
        <ele>413.8</ele>
        <time>2026-06-22T19:02:32.036000Z</time>
      </trkpt>
      <trkpt lat="48.603434" lon="10.589345">
        <ele>414.1</ele>
        <time>2026-06-22T19:03:11.290000Z</time>
      </trkpt>
      <trkpt lat="48.603452" lon="10.58947">
        <ele>414.2</ele>
        <time>2026-06-22T19:03:19.957000Z</time>
      </trkpt>
      <trkpt lat="48.603425" lon="10.589623">
        <ele>414.2</ele>
        <time>2026-06-22T19:03:30.682000Z</time>
      </trkpt>
      <trkpt lat="48.603363" lon="10.58976">
        <ele>414.3</ele>
        <time>2026-06-22T19:03:41.960000Z</time>
      </trkpt>
      <trkpt lat="48.60317" lon="10.590036">
        <ele>414.4</ele>
        <time>2026-06-22T19:04:08.969000Z</time>
      </trkpt>
      <trkpt lat="48.603128" lon="10.590115">
        <ele>414.4</ele>
        <time>2026-06-22T19:04:15.649000Z</time>
      </trkpt>
      <trkpt lat="48.603127" lon="10.590169">
        <ele>414.4</ele>
        <time>2026-06-22T19:04:19.233000Z</time>
      </trkpt>
      <trkpt lat="48.603179" lon="10.590226">
        <ele>414.5</ele>
        <time>2026-06-22T19:04:25.727000Z</time>
      </trkpt>
      <trkpt lat="48.603243" lon="10.590276">
        <ele>414.4</ele>
        <time>2026-06-22T19:04:33.009000Z</time>
      </trkpt>
      <trkpt lat="48.603358" lon="10.590392">
        <ele>414.4</ele>
        <time>2026-06-22T19:04:46.909000Z</time>
      </trkpt>
      <trkpt lat="48.603468" lon="10.590099">
        <ele>414.3</ele>
        <time>2026-06-22T19:05:09.344000Z</time>
      </trkpt>
      <trkpt lat="48.603555" lon="10.589937">
        <ele>414.2</ele>
        <time>2026-06-22T19:05:23.376000Z</time>
      </trkpt>
      <trkpt lat="48.603634" lon="10.589907">
        <ele>414.2</ele>
        <time>2026-06-22T19:05:31.640000Z</time>
      </trkpt>
      <trkpt lat="48.603683" lon="10.589951">
        <ele>414.1</ele>
        <time>2026-06-22T19:05:37.426000Z</time>
      </trkpt>
      <trkpt lat="48.604018" lon="10.591086">
        <ele>413.7</ele>
        <time>2026-06-22T19:07:00.594000Z</time>
      </trkpt>
      <trkpt lat="48.604749" lon="10.593773">
        <ele>413.1</ele>
        <time>2026-06-22T19:10:14.094000Z</time>
      </trkpt>
      <trkpt lat="48.605576" lon="10.596691">
        <ele>413.2</ele>
        <time>2026-06-22T19:13:44.545000Z</time>
      </trkpt>
      <trkpt lat="48.605573" lon="10.597029">
        <ele>413.2</ele>
        <time>2026-06-22T19:14:06.984000Z</time>
      </trkpt>
      <trkpt lat="48.605766" lon="10.597354">
        <ele>413.1</ele>
        <time>2026-06-22T19:14:35.967000Z</time>
      </trkpt>
      <trkpt lat="48.606578" lon="10.600326">
        <ele>412.1</ele>
        <time>2026-06-22T19:18:10.864000Z</time>
      </trkpt>
      <trkpt lat="48.606743" lon="10.600943">
        <ele>411.8</ele>
        <time>2026-06-22T19:18:55.649000Z</time>
      </trkpt>
      <trkpt lat="48.60964" lon="10.611453">
        <ele>411.7</ele>
        <time>2026-06-22T19:31:29.320000Z</time>
      </trkpt>
      <trkpt lat="48.609742" lon="10.611752">
        <ele>411.6</ele>
        <time>2026-06-22T19:31:51.734000Z</time>
      </trkpt>
      <trkpt lat="48.609826" lon="10.611848">
        <ele>411.5</ele>
        <time>2026-06-22T19:32:02.363000Z</time>
      </trkpt>
      <trkpt lat="48.611672" lon="10.618572">
        <ele>408.6</ele>
        <time>2026-06-22T19:40:10.223000Z</time>
      </trkpt>
      <trkpt lat="48.611799" lon="10.618794">
        <ele>408.7</ele>
        <time>2026-06-22T19:40:29.768000Z</time>
      </trkpt>
      <trkpt lat="48.611878" lon="10.620028">
        <ele>409.4</ele>
        <time>2026-06-22T19:41:54.492000Z</time>
      </trkpt>
      <trkpt lat="48.611875" lon="10.6203">
        <ele>409.6</ele>
        <time>2026-06-22T19:42:13.316000Z</time>
      </trkpt>
      <trkpt lat="48.611774" lon="10.620768">
        <ele>410.1</ele>
        <time>2026-06-22T19:42:47.374000Z</time>
      </trkpt>
      <trkpt lat="48.611771" lon="10.620882">
        <ele>410.2</ele>
        <time>2026-06-22T19:42:55.299000Z</time>
      </trkpt>
      <trkpt lat="48.611774" lon="10.621169">
        <ele>410.4</ele>
        <time>2026-06-22T19:43:15.111000Z</time>
      </trkpt>
      <trkpt lat="48.611782" lon="10.621607">
        <ele>410.7</ele>
        <time>2026-06-22T19:43:45.228000Z</time>
      </trkpt>
      <trkpt lat="48.611856" lon="10.621798">
        <ele>410.8</ele>
        <time>2026-06-22T19:44:00.361000Z</time>
      </trkpt>
      <trkpt lat="48.612152" lon="10.62226">
        <ele>411.1</ele>
        <time>2026-06-22T19:44:43.969000Z</time>
      </trkpt>
      <trkpt lat="48.612286" lon="10.622527">
        <ele>411.2</ele>
        <time>2026-06-22T19:45:06.398000Z</time>
      </trkpt>
      <trkpt lat="48.612451" lon="10.622939">
        <ele>411.2</ele>
        <time>2026-06-22T19:45:38.374000Z</time>
      </trkpt>
      <trkpt lat="48.612724" lon="10.623796">
        <ele>411.4</ele>
        <time>2026-06-22T19:46:41.779000Z</time>
      </trkpt>
      <trkpt lat="48.612845" lon="10.624069">
        <ele>411.4</ele>
        <time>2026-06-22T19:47:03.703000Z</time>
      </trkpt>
      <trkpt lat="48.613456" lon="10.625281">
        <ele>411.6</ele>
        <time>2026-06-22T19:48:45.305000Z</time>
      </trkpt>
      <trkpt lat="48.613645" lon="10.625606">
        <ele>411.7</ele>
        <time>2026-06-22T19:49:14.118000Z</time>
      </trkpt>
      <trkpt lat="48.614507" lon="10.627271">
        <ele>411.5</ele>
        <time>2026-06-22T19:51:34.290000Z</time>
      </trkpt>
      <trkpt lat="48.61463" lon="10.627508">
        <ele>411.5</ele>
        <time>2026-06-22T19:51:54.253000Z</time>
      </trkpt>
      <trkpt lat="48.615334" lon="10.628619">
        <ele>411.4</ele>
        <time>2026-06-22T19:53:36.257000Z</time>
      </trkpt>
      <trkpt lat="48.6163" lon="10.630727">
        <ele>411.4</ele>
        <time>2026-06-22T19:56:26.080000Z</time>
      </trkpt>
      <trkpt lat="48.617473" lon="10.632912">
        <ele>411.8</ele>
        <time>2026-06-22T19:59:33.880000Z</time>
      </trkpt>
      <trkpt lat="48.618545" lon="10.635178">
        <ele>412.2</ele>
        <time>2026-06-22T20:02:39.804000Z</time>
      </trkpt>
      <trkpt lat="48.619379" lon="10.636828">
        <ele>412.3</ele>
        <time>2026-06-22T20:04:57.308000Z</time>
      </trkpt>
      <trkpt lat="48.62028" lon="10.638438">
        <ele>411.9</ele>
        <time>2026-06-22T20:07:17.681000Z</time>
      </trkpt>
      <trkpt lat="48.621507" lon="10.640477">
        <ele>411.1</ele>
        <time>2026-06-22T20:10:21.838000Z</time>
      </trkpt>
      <trkpt lat="48.623267" lon="10.643255">
        <ele>410.6</ele>
        <time>2026-06-22T20:14:37.440000Z</time>
      </trkpt>
      <trkpt lat="48.623616" lon="10.643776">
        <ele>410.6</ele>
        <time>2026-06-22T20:15:26.584000Z</time>
      </trkpt>
      <trkpt lat="48.625277" lon="10.646101">
        <ele>411</ele>
        <time>2026-06-22T20:19:14.321000Z</time>
      </trkpt>
      <trkpt lat="48.626151" lon="10.647433">
        <ele>410.4</ele>
        <time>2026-06-22T20:21:19.672000Z</time>
      </trkpt>
      <trkpt lat="48.626787" lon="10.648748">
        <ele>410</ele>
        <time>2026-06-22T20:23:08.328000Z</time>
      </trkpt>
      <trkpt lat="48.627201" lon="10.649545">
        <ele>409.8</ele>
        <time>2026-06-22T20:24:15.761000Z</time>
      </trkpt>
      <trkpt lat="48.627552" lon="10.650064">
        <ele>409.6</ele>
        <time>2026-06-22T20:25:05.201000Z</time>
      </trkpt>
      <trkpt lat="48.628269" lon="10.65057">
        <ele>409.5</ele>
        <time>2026-06-22T20:26:24.679000Z</time>
      </trkpt>
      <trkpt lat="48.628708" lon="10.650853">
        <ele>409.4</ele>
        <time>2026-06-22T20:27:12.638000Z</time>
      </trkpt>
      <trkpt lat="48.629148" lon="10.651136">
        <ele>409.3</ele>
        <time>2026-06-22T20:28:00.777000Z</time>
      </trkpt>
      <trkpt lat="48.630332" lon="10.652022">
        <ele>409.1</ele>
        <time>2026-06-22T20:30:13.228000Z</time>
      </trkpt>
      <trkpt lat="48.630201" lon="10.652654">
        <ele>409.3</ele>
        <time>2026-06-22T20:30:57.553000Z</time>
      </trkpt>
      <trkpt lat="48.629627" lon="10.65392">
        <ele>409.9</ele>
        <time>2026-06-22T20:32:41.373000Z</time>
      </trkpt>
      <trkpt lat="48.629469" lon="10.654092">
        <ele>410</ele>
        <time>2026-06-22T20:33:01.168000Z</time>
      </trkpt>
      <trkpt lat="48.629372" lon="10.654119">
        <ele>410</ele>
        <time>2026-06-22T20:33:11.159000Z</time>
      </trkpt>
      <trkpt lat="48.629557" lon="10.654367">
        <ele>410</ele>
        <time>2026-06-22T20:33:36.087000Z</time>
      </trkpt>
      <trkpt lat="48.629739" lon="10.654483">
        <ele>410.1</ele>
        <time>2026-06-22T20:33:55.894000Z</time>
      </trkpt>
      <trkpt lat="48.630364" lon="10.65533">
        <ele>410.2</ele>
        <time>2026-06-22T20:35:20.271000Z</time>
      </trkpt>
      <trkpt lat="48.629739" lon="10.654483">
        <ele>410.2</ele>
        <time>2026-06-22T20:36:44.459000Z</time>
      </trkpt>
      <trkpt lat="48.629791" lon="10.654439">
        <ele>410.3</ele>
        <time>2026-06-22T20:36:50.456000Z</time>
      </trkpt>
      <trkpt lat="48.629854" lon="10.65411">
        <ele>410.3</ele>
        <time>2026-06-22T20:37:13.208000Z</time>
      </trkpt>
      <trkpt lat="48.629925" lon="10.653922">
        <ele>410.3</ele>
        <time>2026-06-22T20:37:27.553000Z</time>
      </trkpt>
      <trkpt lat="48.630249" lon="10.653221">
        <ele>410.1</ele>
        <time>2026-06-22T20:38:24.542000Z</time>
      </trkpt>
      <trkpt lat="48.630555" lon="10.652306">
        <ele>409.5</ele>
        <time>2026-06-22T20:39:33.591000Z</time>
      </trkpt>
      <trkpt lat="48.630859" lon="10.651362">
        <ele>408.9</ele>
        <time>2026-06-22T20:40:44.222000Z</time>
      </trkpt>
      <trkpt lat="48.631096" lon="10.650523">
        <ele>408.4</ele>
        <time>2026-06-22T20:41:45.718000Z</time>
      </trkpt>
      <trkpt lat="48.631195" lon="10.650101">
        <ele>408.4</ele>
        <time>2026-06-22T20:42:15.381000Z</time>
      </trkpt>
      <trkpt lat="48.63123" lon="10.650107">
        <ele>408.4</ele>
        <time>2026-06-22T20:42:18.983000Z</time>
      </trkpt>
      <trkpt lat="48.631246" lon="10.650146">
        <ele>408.4</ele>
        <time>2026-06-22T20:42:22.132000Z</time>
      </trkpt>
      <trkpt lat="48.631211" lon="10.650465">
        <ele>408.5</ele>
        <time>2026-06-22T20:42:43.753000Z</time>
      </trkpt>
      <trkpt lat="48.631243" lon="10.650539">
        <ele>408.5</ele>
        <time>2026-06-22T20:42:49.650000Z</time>
      </trkpt>
      <trkpt lat="48.631221" lon="10.650607">
        <ele>408.5</ele>
        <time>2026-06-22T20:42:54.694000Z</time>
      </trkpt>
      <trkpt lat="48.631174" lon="10.650651">
        <ele>408.4</ele>
        <time>2026-06-22T20:43:00.295000Z</time>
      </trkpt>
      <trkpt lat="48.631148" lon="10.650664">
        <ele>408.4</ele>
        <time>2026-06-22T20:43:03.110000Z</time>
      </trkpt>
      <trkpt lat="48.630945" lon="10.650474">
        <ele>408.4</ele>
        <time>2026-06-22T20:43:26.996000Z</time>
      </trkpt>
      <trkpt lat="48.630969" lon="10.65038">
        <ele>408.4</ele>
        <time>2026-06-22T20:43:33.723000Z</time>
      </trkpt>
      <trkpt lat="48.630992" lon="10.650273">
        <ele>408.4</ele>
        <time>2026-06-22T20:43:41.234000Z</time>
      </trkpt>
      <trkpt lat="48.631083" lon="10.649819">
        <ele>408.4</ele>
        <time>2026-06-22T20:44:12.633000Z</time>
      </trkpt>
      <trkpt lat="48.630992" lon="10.650273">
        <ele>408.5</ele>
        <time>2026-06-22T20:44:44.396000Z</time>
      </trkpt>
      <trkpt lat="48.630969" lon="10.65038">
        <ele>408.5</ele>
        <time>2026-06-22T20:44:52.044000Z</time>
      </trkpt>
      <trkpt lat="48.630945" lon="10.650474">
        <ele>408.6</ele>
        <time>2026-06-22T20:44:58.971000Z</time>
      </trkpt>
      <trkpt lat="48.631148" lon="10.650664">
        <ele>408.8</ele>
        <time>2026-06-22T20:45:23.512000Z</time>
      </trkpt>
      <trkpt lat="48.631174" lon="10.650651">
        <ele>408.8</ele>
        <time>2026-06-22T20:45:26.376000Z</time>
      </trkpt>
      <trkpt lat="48.631221" lon="10.650607">
        <ele>408.9</ele>
        <time>2026-06-22T20:45:32.103000Z</time>
      </trkpt>
      <trkpt lat="48.631243" lon="10.650539">
        <ele>408.9</ele>
        <time>2026-06-22T20:45:37.225000Z</time>
      </trkpt>
      <trkpt lat="48.631445" lon="10.65066">
        <ele>409</ele>
        <time>2026-06-22T20:45:59.277000Z</time>
      </trkpt>
      <trkpt lat="48.631506" lon="10.650637">
        <ele>409</ele>
        <time>2026-06-22T20:46:05.509000Z</time>
      </trkpt>
      <trkpt lat="48.631595" lon="10.650457">
        <ele>409</ele>
        <time>2026-06-22T20:46:20.471000Z</time>
      </trkpt>
      <trkpt lat="48.631842" lon="10.650023">
        <ele>409.2</ele>
        <time>2026-06-22T20:46:59.215000Z</time>
      </trkpt>
      <trkpt lat="48.631934" lon="10.649861">
        <ele>409.3</ele>
        <time>2026-06-22T20:47:13.870000Z</time>
      </trkpt>
      <trkpt lat="48.632042" lon="10.649669">
        <ele>409.5</ele>
        <time>2026-06-22T20:47:31.176000Z</time>
      </trkpt>
      <trkpt lat="48.632199" lon="10.649522">
        <ele>409.7</ele>
        <time>2026-06-22T20:47:50.268000Z</time>
      </trkpt>
      <trkpt lat="48.632432" lon="10.649436">
        <ele>409.8</ele>
        <time>2026-06-22T20:48:14.772000Z</time>
      </trkpt>
      <trkpt lat="48.632545" lon="10.649322">
        <ele>409.8</ele>
        <time>2026-06-22T20:48:28.429000Z</time>
      </trkpt>
      <trkpt lat="48.632729" lon="10.649645">
        <ele>409.9</ele>
        <time>2026-06-22T20:48:56.773000Z</time>
      </trkpt>
      <trkpt lat="48.632866" lon="10.649825">
        <ele>409.9</ele>
        <time>2026-06-22T20:49:15.052000Z</time>
      </trkpt>
      <trkpt lat="48.632997" lon="10.649947">
        <ele>410</ele>
        <time>2026-06-22T20:49:30.635000Z</time>
      </trkpt>
      <trkpt lat="48.633118" lon="10.650009">
        <ele>410</ele>
        <time>2026-06-22T20:49:43.533000Z</time>
      </trkpt>
      <trkpt lat="48.633141" lon="10.649953">
        <ele>410</ele>
        <time>2026-06-22T20:49:47.929000Z</time>
      </trkpt>
      <trkpt lat="48.633211" lon="10.649998">
        <ele>410.1</ele>
        <time>2026-06-22T20:49:55.674000Z</time>
      </trkpt>
      <trkpt lat="48.633364" lon="10.650114">
        <ele>410.1</ele>
        <time>2026-06-22T20:50:13.049000Z</time>
      </trkpt>
      <trkpt lat="48.633766" lon="10.650334">
        <ele>410.2</ele>
        <time>2026-06-22T20:50:56.242000Z</time>
      </trkpt>
      <trkpt lat="48.633882" lon="10.650431">
        <ele>410.3</ele>
        <time>2026-06-22T20:51:09.639000Z</time>
      </trkpt>
      <trkpt lat="48.634082" lon="10.650626">
        <ele>410.3</ele>
        <time>2026-06-22T20:51:33.625000Z</time>
      </trkpt>
      <trkpt lat="48.634173" lon="10.650717">
        <ele>410.4</ele>
        <time>2026-06-22T20:51:44.671000Z</time>
      </trkpt>
      <trkpt lat="48.634324" lon="10.650811">
        <ele>410.4</ele>
        <time>2026-06-22T20:52:01.206000Z</time>
      </trkpt>
      <trkpt lat="48.634372" lon="10.650876">
        <ele>410.4</ele>
        <time>2026-06-22T20:52:07.744000Z</time>
      </trkpt>
      <trkpt lat="48.634635" lon="10.650778">
        <ele>410.6</ele>
        <time>2026-06-22T20:52:35.509000Z</time>
      </trkpt>
      <trkpt lat="48.6352" lon="10.650486">
        <ele>411.4</ele>
        <time>2026-06-22T20:53:37.810000Z</time>
      </trkpt>
      <trkpt lat="48.635324" lon="10.650345">
        <ele>411.6</ele>
        <time>2026-06-22T20:53:54.378000Z</time>
      </trkpt>
      <trkpt lat="48.635445" lon="10.650299">
        <ele>411.8</ele>
        <time>2026-06-22T20:54:07.521000Z</time>
      </trkpt>
      <trkpt lat="48.635541" lon="10.650195">
        <ele>412</ele>
        <time>2026-06-22T20:54:20.075000Z</time>
      </trkpt>
      <trkpt lat="48.635601" lon="10.650087">
        <ele>412.2</ele>
        <time>2026-06-22T20:54:30.048000Z</time>
      </trkpt>
      <trkpt lat="48.635628" lon="10.64999">
        <ele>412.3</ele>
        <time>2026-06-22T20:54:37.459000Z</time>
      </trkpt>
      <trkpt lat="48.635645" lon="10.649821">
        <ele>412.6</ele>
        <time>2026-06-22T20:54:49.546000Z</time>
      </trkpt>
      <trkpt lat="48.635618" lon="10.649525">
        <ele>412.9</ele>
        <time>2026-06-22T20:55:10.637000Z</time>
      </trkpt>
      <trkpt lat="48.635604" lon="10.649362">
        <ele>413.2</ele>
        <time>2026-06-22T20:55:22.251000Z</time>
      </trkpt>
      <trkpt lat="48.635578" lon="10.649078">
        <ele>413.5</ele>
        <time>2026-06-22T20:55:42.400000Z</time>
      </trkpt>
      <trkpt lat="48.635576" lon="10.649043">
        <ele>413.5</ele>
        <time>2026-06-22T20:55:44.840000Z</time>
      </trkpt>
      <trkpt lat="48.635564" lon="10.648919">
        <ele>413.7</ele>
        <time>2026-06-22T20:55:53.630000Z</time>
      </trkpt>
      <trkpt lat="48.635602" lon="10.648912">
        <ele>413.7</ele>
        <time>2026-06-22T20:55:57.655000Z</time>
      </trkpt>
      <trkpt lat="48.635616" lon="10.647905">
        <ele>414.5</ele>
        <time>2026-06-22T20:57:07.134000Z</time>
      </trkpt>
      <trkpt lat="48.635811" lon="10.647908">
        <ele>414.6</ele>
        <time>2026-06-22T20:57:27.020000Z</time>
      </trkpt>
      <trkpt lat="48.635826" lon="10.647906">
        <ele>414.6</ele>
        <time>2026-06-22T20:57:28.535000Z</time>
      </trkpt>
      <trkpt lat="48.635977" lon="10.64788">
        <ele>414.6</ele>
        <time>2026-06-22T20:57:43.758000Z</time>
      </trkpt>
      <trkpt lat="48.635946" lon="10.647627">
        <ele>414.6</ele>
        <time>2026-06-22T20:58:00.797000Z</time>
      </trkpt>
      <trkpt lat="48.636699" lon="10.647379">
        <ele>414.5</ele>
        <time>2026-06-22T20:59:18.183000Z</time>
      </trkpt>
      <trkpt lat="48.637025" lon="10.647289">
        <ele>414.5</ele>
        <time>2026-06-22T20:59:51.359000Z</time>
      </trkpt>
      <trkpt lat="48.637017" lon="10.647211">
        <ele>414.5</ele>
        <time>2026-06-22T20:59:56.581000Z</time>
      </trkpt>
      <trkpt lat="48.636884" lon="10.645837">
        <ele>414.7</ele>
        <time>2026-06-22T21:01:29.153000Z</time>
      </trkpt>
      <trkpt lat="48.63682" lon="10.645846">
        <ele>414.7</ele>
        <time>2026-06-22T21:01:35.725000Z</time>
      </trkpt>
      <trkpt lat="48.636708" lon="10.645876">
        <ele>414.8</ele>
        <time>2026-06-22T21:01:47.198000Z</time>
      </trkpt>
    </trkseg>
  </trk>
</gpx>