<?xml version="1.0" encoding="UTF-8"?>
<gpx xmlns="http://www.topografix.com/GPX/1/1" xmlns:xsi="http://www.w3.org/2001/XMLSchema-instance" xsi:schemaLocation="http://www.topografix.com/GPX/1/1 http://www.topografix.com/GPX/1/1/gpx.xsd" version="1.1" creator="Robert Kampf">
  <metadata>
    <name>Spielplatz am Tapfheimer See – Picknickplatz am Tapfheimer See Runde von Tapfheim</name>
    <desc>Distance: 4.553km, Estimated duration: 1.16h, Elevation up: 11.044883542309151m, Elevation down: 11.044883542309321m, Grade: easy</desc>
    <author>
      <name>Robert Kampf</name>
      <link href="https://www.komoot.de/user/4125295338453">
        <text>View Robert Kampf's Profile on Komoot</text>
      </link>
    </author>
    <link href="https://www.komoot.de/tour/3057571019">
      <text>View tour on Komoot</text>
    </link>
  </metadata>
  <wpt lat="48.668561" lon="10.699407">
    <ele>453.2</ele>
    <name>Playground at Tapfheim Lake</name>
    <cmt>https://d2exd72xrrp1s7.cloudfront.net/www/000/1k5/uj/ujyk3neguqqc1lhwkvavtmt7z3qytf3dk-uhi32025803/0</cmt>
    <desc></desc>
    <src>Komoot</src>
    <link href="https://www.komoot.de/highlight/3133327">
      <text>View POI on Komoot</text>
    </link>
    <type>Highlight</type>
  </wpt>
  <wpt lat="48.663961" lon="10.70261">
    <ele>439</ele>
    <name>View of Tapfheim</name>
    <cmt>https://d2exd72xrrp1s7.cloudfront.net/www/000/1k9/j6/j6nl0yd5lbz3aypaq5krzbab5lz5442d-uhi96795110/0</cmt>
    <desc></desc>
    <src>Komoot</src>
    <link href="https://www.komoot.de/highlight/8155943">
      <text>View POI on Komoot</text>
    </link>
    <type>Highlight</type>
  </wpt>
  <wpt lat="48.660186" lon="10.702162">
    <ele>408.7</ele>
    <name>Beaver Activity at Tapfheimer Lakes</name>
    <cmt>https://d2exd72xrrp1s7.cloudfront.net/www/000/1k5/kv/kv46fsxd5m5g2twllxrekv9p3n8th0xe-uhi28102093/0</cmt>
    <desc></desc>
    <src>Komoot</src>
    <link href="https://www.komoot.de/highlight/2077215">
      <text>View POI on Komoot</text>
    </link>
    <type>Highlight</type>
  </wpt>
  <wpt lat="48.656196" lon="10.702488">
    <ele>450</ele>
    <name>Swimming Spot at Geopark Ries</name>
    <cmt>https://d2exd72xrrp1s7.cloudfront.net/www/000/1k6/tg/tgtmgww3bfsa1fu1i0w8ic2v64atbqujr-uhi54104948/0</cmt>
    <desc>Walter: klares Wasser, perfekt zum Schwimmen.</desc>
    <src>Komoot</src>
    <link href="https://www.komoot.de/highlight/4956843">
      <text>View POI on Komoot</text>
    </link>
    <type>Highlight</type>
  </wpt>
  <wpt lat="48.65409" lon="10.700035">
    <ele>450</ele>
    <name>Donauauen Information Board at Tapfheimer See</name>
    <cmt>https://d2exd72xrrp1s7.cloudfront.net/www/000/1k5/hx/hxct2pssy723lez6960cna3r3r22cwdw-uhi32230328/0</cmt>
    <desc>Walter: Sehr schöne Info für meinen weiteren Weg nach Donauwörth.</desc>
    <src>Komoot</src>
    <link href="https://www.komoot.de/highlight/3146566">
      <text>View POI on Komoot</text>
    </link>
    <type>Highlight</type>
  </wpt>
  <wpt lat="48.658638" lon="10.700259">
    <ele>452.6</ele>
    <name>Picnic Spot by the Lake in Geopark Ries</name>
    <cmt>https://d2exd72xrrp1s7.cloudfront.net/www/000/1k5/1k/1khjdkrz5hv1i1tn9mjsxtn0ck3qyuqzi7-uhi32026790/0</cmt>
    <desc></desc>
    <src>Komoot</src>
    <link href="https://www.komoot.de/highlight/3133380">
      <text>View POI on Komoot</text>
    </link>
    <type>Highlight</type>
  </wpt>
  <wpt lat="48.65908" lon="10.699727">
    <ele>445</ele>
    <name>Picnic Area at Tapfheimer See</name>
    <cmt>https://d2exd72xrrp1s7.cloudfront.net/www/000/1k5/y9/y9ki95h918b1jd9hnq160zgc3r22fm74-uhi32230733/0</cmt>
    <desc>Anton Brenner: Toll</desc>
    <src>Komoot</src>
    <link href="https://www.komoot.de/highlight/3146592">
      <text>View POI on Komoot</text>
    </link>
    <type>Highlight</type>
  </wpt>
  <wpt lat="48.660452" lon="10.698342">
    <ele>451.6</ele>
    <name>Small Bridge in Geopark Ries</name>
    <cmt>https://d2exd72xrrp1s7.cloudfront.net/www/000/1k5/bz/bz3bagu87aexkk2sawd9ze2q3qyulufy-uhi32026659/0</cmt>
    <desc></desc>
    <src>Komoot</src>
    <link href="https://www.komoot.de/highlight/3133373">
      <text>View POI on Komoot</text>
    </link>
    <type>Highlight</type>
  </wpt>
  <trk>
    <name>Spielplatz am Tapfheimer See – Picknickplatz am Tapfheimer See Runde von Tapfheim</name>
    <desc>Distance: 4.553km, Estimated duration: 1.16h, Elevation up: 11.044883542309151m, Elevation down: 11.044883542309321m, Grade: easy</desc>
    <link href="https://www.komoot.de/tour/3057571019">
      <text>View tour on Komoot</text>
    </link>
    <trkseg>
      <trkpt lat="48.670018" lon="10.696891">
        <ele>405.9</ele>
        <time>2026-06-22T16:48:55.969000Z</time>
      </trkpt>
      <trkpt lat="48.669837" lon="10.697031">
        <ele>405.8</ele>
        <time>2026-06-22T16:49:16.438000Z</time>
      </trkpt>
      <trkpt lat="48.669634" lon="10.697235">
        <ele>405.7</ele>
        <time>2026-06-22T16:49:41.168000Z</time>
      </trkpt>
      <trkpt lat="48.669405" lon="10.69764">
        <ele>405.5</ele>
        <time>2026-06-22T16:50:16.835000Z</time>
      </trkpt>
      <trkpt lat="48.669065" lon="10.698433">
        <ele>404.9</ele>
        <time>2026-06-22T16:51:20.541000Z</time>
      </trkpt>
      <trkpt lat="48.668573" lon="10.699407">
        <ele>403.6</ele>
        <time>2026-06-22T16:52:44.194000Z</time>
      </trkpt>
      <trkpt lat="48.66857" lon="10.699414">
        <ele>403.6</ele>
        <time>2026-06-22T16:52:44.751000Z</time>
      </trkpt>
      <trkpt lat="48.668478" lon="10.699701">
        <ele>403.3</ele>
        <time>2026-06-22T16:53:06.532000Z</time>
      </trkpt>
      <trkpt lat="48.668439" lon="10.699858">
        <ele>403.1</ele>
        <time>2026-06-22T16:53:17.964000Z</time>
      </trkpt>
      <trkpt lat="48.668269" lon="10.700054">
        <ele>402.8</ele>
        <time>2026-06-22T16:53:39.970000Z</time>
      </trkpt>
      <trkpt lat="48.668091" lon="10.700194">
        <ele>402.5</ele>
        <time>2026-06-22T16:54:00.676000Z</time>
      </trkpt>
      <trkpt lat="48.667313" lon="10.700301">
        <ele>401.7</ele>
        <time>2026-06-22T16:55:20.670000Z</time>
      </trkpt>
      <trkpt lat="48.666846" lon="10.700442">
        <ele>401.6</ele>
        <time>2026-06-22T16:56:08.520000Z</time>
      </trkpt>
      <trkpt lat="48.666168" lon="10.70073">
        <ele>401.8</ele>
        <time>2026-06-22T16:57:19.818000Z</time>
      </trkpt>
      <trkpt lat="48.665752" lon="10.700959">
        <ele>402.1</ele>
        <time>2026-06-22T16:58:05.011000Z</time>
      </trkpt>
      <trkpt lat="48.665351" lon="10.701243">
        <ele>402.4</ele>
        <time>2026-06-22T16:58:50.481000Z</time>
      </trkpt>
      <trkpt lat="48.664847" lon="10.701678">
        <ele>402.8</ele>
        <time>2026-06-22T16:59:50.142000Z</time>
      </trkpt>
      <trkpt lat="48.663966" lon="10.70262">
        <ele>403.5</ele>
        <time>2026-06-22T17:01:40.569000Z</time>
      </trkpt>
      <trkpt lat="48.663582" lon="10.703031">
        <ele>403.6</ele>
        <time>2026-06-22T17:02:27.954000Z</time>
      </trkpt>
      <trkpt lat="48.663497" lon="10.703087">
        <ele>403.6</ele>
        <time>2026-06-22T17:02:37.275000Z</time>
      </trkpt>
      <trkpt lat="48.663422" lon="10.702926">
        <ele>403.6</ele>
        <time>2026-06-22T17:02:50.387000Z</time>
      </trkpt>
      <trkpt lat="48.663358" lon="10.70299">
        <ele>403.6</ele>
        <time>2026-06-22T17:02:58.106000Z</time>
      </trkpt>
      <trkpt lat="48.663187" lon="10.703287">
        <ele>403.4</ele>
        <time>2026-06-22T17:03:24.468000Z</time>
      </trkpt>
      <trkpt lat="48.662618" lon="10.703648">
        <ele>402.8</ele>
        <time>2026-06-22T17:04:27.486000Z</time>
      </trkpt>
      <trkpt lat="48.662559" lon="10.703638">
        <ele>402.7</ele>
        <time>2026-06-22T17:04:33.674000Z</time>
      </trkpt>
      <trkpt lat="48.662486" lon="10.703527">
        <ele>402.6</ele>
        <time>2026-06-22T17:04:44.282000Z</time>
      </trkpt>
      <trkpt lat="48.662314" lon="10.702825">
        <ele>402</ele>
        <time>2026-06-22T17:05:34.907000Z</time>
      </trkpt>
      <trkpt lat="48.66217" lon="10.702407">
        <ele>401.7</ele>
        <time>2026-06-22T17:06:06.702000Z</time>
      </trkpt>
      <trkpt lat="48.662079" lon="10.702237">
        <ele>401.6</ele>
        <time>2026-06-22T17:06:21.422000Z</time>
      </trkpt>
      <trkpt lat="48.661516" lon="10.701803">
        <ele>401.3</ele>
        <time>2026-06-22T17:07:25.336000Z</time>
      </trkpt>
      <trkpt lat="48.661333" lon="10.701693">
        <ele>401.2</ele>
        <time>2026-06-22T17:07:45.168000Z</time>
      </trkpt>
      <trkpt lat="48.661039" lon="10.701692">
        <ele>401.2</ele>
        <time>2026-06-22T17:08:14.549000Z</time>
      </trkpt>
      <trkpt lat="48.660863" lon="10.701724">
        <ele>401.2</ele>
        <time>2026-06-22T17:08:32.300000Z</time>
      </trkpt>
      <trkpt lat="48.66065" lon="10.701814">
        <ele>401.2</ele>
        <time>2026-06-22T17:08:54.513000Z</time>
      </trkpt>
      <trkpt lat="48.660177" lon="10.702132">
        <ele>401.2</ele>
        <time>2026-06-22T17:09:46.365000Z</time>
      </trkpt>
      <trkpt lat="48.660166" lon="10.702139">
        <ele>401.2</ele>
        <time>2026-06-22T17:09:47.588000Z</time>
      </trkpt>
      <trkpt lat="48.659689" lon="10.702577">
        <ele>401.2</ele>
        <time>2026-06-22T17:10:43.462000Z</time>
      </trkpt>
      <trkpt lat="48.65949" lon="10.702666">
        <ele>401.2</ele>
        <time>2026-06-22T17:11:04.314000Z</time>
      </trkpt>
      <trkpt lat="48.658806" lon="10.702698">
        <ele>401.1</ele>
        <time>2026-06-22T17:12:12.787000Z</time>
      </trkpt>
      <trkpt lat="48.6585" lon="10.702634">
        <ele>401.2</ele>
        <time>2026-06-22T17:12:43.960000Z</time>
      </trkpt>
      <trkpt lat="48.658385" lon="10.702731">
        <ele>401.2</ele>
        <time>2026-06-22T17:12:57.230000Z</time>
      </trkpt>
      <trkpt lat="48.658091" lon="10.703322">
        <ele>401.5</ele>
        <time>2026-06-22T17:13:47.172000Z</time>
      </trkpt>
      <trkpt lat="48.657768" lon="10.703614">
        <ele>401.8</ele>
        <time>2026-06-22T17:14:25.967000Z</time>
      </trkpt>
      <trkpt lat="48.657601" lon="10.703707">
        <ele>402</ele>
        <time>2026-06-22T17:14:44.403000Z</time>
      </trkpt>
      <trkpt lat="48.657196" lon="10.703531">
        <ele>402.4</ele>
        <time>2026-06-22T17:15:28.090000Z</time>
      </trkpt>
      <trkpt lat="48.656405" lon="10.703054">
        <ele>403.3</ele>
        <time>2026-06-22T17:16:56.251000Z</time>
      </trkpt>
      <trkpt lat="48.656087" lon="10.702795">
        <ele>403.5</ele>
        <time>2026-06-22T17:17:33.196000Z</time>
      </trkpt>
      <trkpt lat="48.655755" lon="10.702524">
        <ele>403.6</ele>
        <time>2026-06-22T17:18:11.501000Z</time>
      </trkpt>
      <trkpt lat="48.655355" lon="10.702134">
        <ele>403.7</ele>
        <time>2026-06-22T17:18:59.267000Z</time>
      </trkpt>
      <trkpt lat="48.655066" lon="10.7018">
        <ele>403.7</ele>
        <time>2026-06-22T17:19:35.661000Z</time>
      </trkpt>
      <trkpt lat="48.654547" lon="10.701166">
        <ele>403.6</ele>
        <time>2026-06-22T17:20:42.537000Z</time>
      </trkpt>
      <trkpt lat="48.654327" lon="10.700833">
        <ele>403.6</ele>
        <time>2026-06-22T17:21:13.756000Z</time>
      </trkpt>
      <trkpt lat="48.654208" lon="10.700558">
        <ele>403.6</ele>
        <time>2026-06-22T17:21:35.528000Z</time>
      </trkpt>
      <trkpt lat="48.654197" lon="10.70039">
        <ele>403.6</ele>
        <time>2026-06-22T17:21:46.737000Z</time>
      </trkpt>
      <trkpt lat="48.654233" lon="10.700158">
        <ele>403.6</ele>
        <time>2026-06-22T17:22:02.544000Z</time>
      </trkpt>
      <trkpt lat="48.654321" lon="10.699845">
        <ele>403.5</ele>
        <time>2026-06-22T17:22:25.082000Z</time>
      </trkpt>
      <trkpt lat="48.65421" lon="10.699877">
        <ele>403.5</ele>
        <time>2026-06-22T17:22:36.446000Z</time>
      </trkpt>
      <trkpt lat="48.654072" lon="10.69998">
        <ele>403.5</ele>
        <time>2026-06-22T17:22:51.871000Z</time>
      </trkpt>
      <trkpt lat="48.65421" lon="10.699877">
        <ele>403.5</ele>
        <time>2026-06-22T17:23:07.295000Z</time>
      </trkpt>
      <trkpt lat="48.654321" lon="10.699845">
        <ele>403.5</ele>
        <time>2026-06-22T17:23:18.659000Z</time>
      </trkpt>
      <trkpt lat="48.654632" lon="10.699661">
        <ele>403.4</ele>
        <time>2026-06-22T17:23:52.061000Z</time>
      </trkpt>
      <trkpt lat="48.655049" lon="10.699505">
        <ele>403.4</ele>
        <time>2026-06-22T17:24:35.255000Z</time>
      </trkpt>
      <trkpt lat="48.65544" lon="10.699288">
        <ele>403.3</ele>
        <time>2026-06-22T17:25:17.065000Z</time>
      </trkpt>
      <trkpt lat="48.656152" lon="10.698626">
        <ele>403.5</ele>
        <time>2026-06-22T17:26:41.629000Z</time>
      </trkpt>
      <trkpt lat="48.656318" lon="10.698394">
        <ele>403.6</ele>
        <time>2026-06-22T17:27:04.506000Z</time>
      </trkpt>
      <trkpt lat="48.656465" lon="10.698116">
        <ele>403.7</ele>
        <time>2026-06-22T17:27:28.437000Z</time>
      </trkpt>
      <trkpt lat="48.656912" lon="10.698706">
        <ele>403.9</ele>
        <time>2026-06-22T17:28:28.645000Z</time>
      </trkpt>
      <trkpt lat="48.658464" lon="10.700166">
        <ele>404.1</ele>
        <time>2026-06-22T17:31:32.230000Z</time>
      </trkpt>
      <trkpt lat="48.658637" lon="10.700162">
        <ele>404.2</ele>
        <time>2026-06-22T17:31:49.538000Z</time>
      </trkpt>
      <trkpt lat="48.658643" lon="10.700162">
        <ele>404.2</ele>
        <time>2026-06-22T17:31:50.189000Z</time>
      </trkpt>
      <trkpt lat="48.65904" lon="10.699656">
        <ele>404.2</ele>
        <time>2026-06-22T17:32:42.279000Z</time>
      </trkpt>
      <trkpt lat="48.659264" lon="10.699371">
        <ele>404.3</ele>
        <time>2026-06-22T17:33:11.802000Z</time>
      </trkpt>
      <trkpt lat="48.659655" lon="10.698929">
        <ele>404.4</ele>
        <time>2026-06-22T17:34:01.148000Z</time>
      </trkpt>
      <trkpt lat="48.660141" lon="10.698601">
        <ele>404.5</ele>
        <time>2026-06-22T17:34:54.775000Z</time>
      </trkpt>
      <trkpt lat="48.660472" lon="10.698434">
        <ele>404.6</ele>
        <time>2026-06-22T17:35:29.901000Z</time>
      </trkpt>
      <trkpt lat="48.660605" lon="10.698367">
        <ele>404.6</ele>
        <time>2026-06-22T17:35:43.978000Z</time>
      </trkpt>
      <trkpt lat="48.660705" lon="10.698465">
        <ele>404.6</ele>
        <time>2026-06-22T17:35:55.938000Z</time>
      </trkpt>
      <trkpt lat="48.660952" lon="10.6982">
        <ele>404.5</ele>
        <time>2026-06-22T17:36:26.318000Z</time>
      </trkpt>
      <trkpt lat="48.661108" lon="10.698101">
        <ele>404.5</ele>
        <time>2026-06-22T17:36:43.377000Z</time>
      </trkpt>
      <trkpt lat="48.661352" lon="10.69808">
        <ele>404.4</ele>
        <time>2026-06-22T17:37:08.063000Z</time>
      </trkpt>
      <trkpt lat="48.661595" lon="10.698151">
        <ele>404.2</ele>
        <time>2026-06-22T17:37:33.174000Z</time>
      </trkpt>
      <trkpt lat="48.661799" lon="10.698267">
        <ele>404</ele>
        <time>2026-06-22T17:37:55.366000Z</time>
      </trkpt>
      <trkpt lat="48.661953" lon="10.698428">
        <ele>403.9</ele>
        <time>2026-06-22T17:38:14.340000Z</time>
      </trkpt>
      <trkpt lat="48.662033" lon="10.69867">
        <ele>403.7</ele>
        <time>2026-06-22T17:38:32.553000Z</time>
      </trkpt>
      <trkpt lat="48.662009" lon="10.699079">
        <ele>403.5</ele>
        <time>2026-06-22T17:39:00.187000Z</time>
      </trkpt>
      <trkpt lat="48.662103" lon="10.699269">
        <ele>403.4</ele>
        <time>2026-06-22T17:39:16.125000Z</time>
      </trkpt>
      <trkpt lat="48.663494" lon="10.700104">
        <ele>402.2</ele>
        <time>2026-06-22T17:41:48.335000Z</time>
      </trkpt>
      <trkpt lat="48.663658" lon="10.700044">
        <ele>402.2</ele>
        <time>2026-06-22T17:42:05.354000Z</time>
      </trkpt>
      <trkpt lat="48.663936" lon="10.6997">
        <ele>402.2</ele>
        <time>2026-06-22T17:42:41.283000Z</time>
      </trkpt>
      <trkpt lat="48.66427" lon="10.699193">
        <ele>402.3</ele>
        <time>2026-06-22T17:43:29.080000Z</time>
      </trkpt>
      <trkpt lat="48.66482" lon="10.697802">
        <ele>402.8</ele>
        <time>2026-06-22T17:45:18.214000Z</time>
      </trkpt>
      <trkpt lat="48.665092" lon="10.697923">
        <ele>402.9</ele>
        <time>2026-06-22T17:45:46.921000Z</time>
      </trkpt>
      <trkpt lat="48.665256" lon="10.697802">
        <ele>403</ele>
        <time>2026-06-22T17:46:05.331000Z</time>
      </trkpt>
      <trkpt lat="48.665704" lon="10.698266">
        <ele>403</ele>
        <time>2026-06-22T17:46:59.671000Z</time>
      </trkpt>
      <trkpt lat="48.666" lon="10.698634">
        <ele>402.9</ele>
        <time>2026-06-22T17:47:38.265000Z</time>
      </trkpt>
      <trkpt lat="48.66653" lon="10.699521">
        <ele>402.3</ele>
        <time>2026-06-22T17:48:58.511000Z</time>
      </trkpt>
      <trkpt lat="48.666632" lon="10.699762">
        <ele>402.2</ele>
        <time>2026-06-22T17:49:17.684000Z</time>
      </trkpt>
      <trkpt lat="48.666615" lon="10.700088">
        <ele>402</ele>
        <time>2026-06-22T17:49:39.620000Z</time>
      </trkpt>
      <trkpt lat="48.666409" lon="10.700551">
        <ele>401.8</ele>
        <time>2026-06-22T17:50:17.004000Z</time>
      </trkpt>
      <trkpt lat="48.666672" lon="10.700438">
        <ele>401.6</ele>
        <time>2026-06-22T17:50:44.651000Z</time>
      </trkpt>
      <trkpt lat="48.667384" lon="10.700218">
        <ele>401.7</ele>
        <time>2026-06-22T17:51:57.686000Z</time>
      </trkpt>
      <trkpt lat="48.668028" lon="10.70014">
        <ele>402.5</ele>
        <time>2026-06-22T17:53:05.130000Z</time>
      </trkpt>
      <trkpt lat="48.668273" lon="10.699954">
        <ele>402.9</ele>
        <time>2026-06-22T17:53:33.916000Z</time>
      </trkpt>
      <trkpt lat="48.668478" lon="10.699701">
        <ele>403.3</ele>
        <time>2026-06-22T17:54:01.739000Z</time>
      </trkpt>
      <trkpt lat="48.66857" lon="10.699414">
        <ele>403.6</ele>
        <time>2026-06-22T17:54:24.023000Z</time>
      </trkpt>
      <trkpt lat="48.668573" lon="10.699407">
        <ele>403.6</ele>
        <time>2026-06-22T17:54:24.595000Z</time>
      </trkpt>
      <trkpt lat="48.669065" lon="10.698433">
        <ele>404.9</ele>
        <time>2026-06-22T17:55:50.148000Z</time>
      </trkpt>
      <trkpt lat="48.669405" lon="10.69764">
        <ele>405.5</ele>
        <time>2026-06-22T17:56:54.707000Z</time>
      </trkpt>
      <trkpt lat="48.669634" lon="10.697235">
        <ele>405.7</ele>
        <time>2026-06-22T17:57:30.703000Z</time>
      </trkpt>
      <trkpt lat="48.669837" lon="10.697031">
        <ele>405.8</ele>
        <time>2026-06-22T17:57:55.632000Z</time>
      </trkpt>
      <trkpt lat="48.670018" lon="10.696891">
        <ele>405.9</ele>
        <time>2026-06-22T17:58:16.229000Z</time>
      </trkpt>
    </trkseg>
  </trk>
</gpx>