<?xml version="1.0" encoding="UTF-8"?>
<gpx xmlns="http://www.topografix.com/GPX/1/1" xmlns:xsi="http://www.w3.org/2001/XMLSchema-instance" xsi:schemaLocation="http://www.topografix.com/GPX/1/1 http://www.topografix.com/GPX/1/1/gpx.xsd" version="1.1" creator="Robert Kampf">
  <metadata>
    <name>The Two Schanzen in Westenholz – Informationstafel zur Jungsteinzeit Runde von Kolonie Hurlach</name>
    <desc>Distance: 7.079km, Estimated duration: 1.84h, Elevation up: 43.37745497065828m, Elevation down: 45.46561695420871m, Grade: easy</desc>
    <author>
      <name>Robert Kampf</name>
      <link href="https://www.komoot.de/user/4125295338453">
        <text>View Robert Kampf's Profile on Komoot</text>
      </link>
    </author>
    <link href="https://www.komoot.de/tour/2749842156">
      <text>View tour on Komoot</text>
    </link>
  </metadata>
  <wpt lat="48.136007" lon="10.872077">
    <name>Parkplatz Weiler Weg</name>
    <cmt></cmt>
    <desc>Free</desc>
    <src>Komoot</src>
    <type>POI</type>
  </wpt>
  <wpt lat="48.135937" lon="10.872483">
    <ele>638.8</ele>
    <name>Parking Area Burgruine Haltenberg</name>
    <cmt>https://d2exd72xrrp1s7.cloudfront.net/www/000/1k6/hd/hdajb6jhdzq18tkjrtpcr1ju4198rr6n-uhi45762044/0</cmt>
    <desc>Michael: Hier sind einige Parkplätze vorhanden und eigentlich immer etwas frei!
――――――――――
Joschi: Den Parkplatz findet man im Internet
Eingabe in das Navi: Parkplatz Burgruine Haltenberg</desc>
    <src>Komoot</src>
    <link href="https://www.komoot.de/highlight/4045612">
      <text>View POI on Komoot</text>
    </link>
    <type>Highlight</type>
  </wpt>
  <wpt lat="48.135061" lon="10.875539">
    <ele>603.8</ele>
    <name>Nature Listening Horn</name>
    <cmt>https://d2exd72xrrp1s7.cloudfront.net/www/000/1k7/jk/jks4dkps6kw1k4n7n9rae1zq4hj6whrb-uhi57839299/0</cmt>
    <desc>Horst Appold: Herbst 2024: nicht mehr auffindbar?
――――――――――
Wolfgang Stößlein: Wird immer mal wieder an anderen Orten aufgestellt. </desc>
    <src>Komoot</src>
    <link href="https://www.komoot.de/highlight/5476097">
      <text>View POI on Komoot</text>
    </link>
    <type>Highlight</type>
  </wpt>
  <wpt lat="48.131496" lon="10.880312">
    <name>Westerholz</name>
    <cmt></cmt>
    <desc></desc>
    <src>Komoot</src>
    <type>POI</type>
  </wpt>
  <wpt lat="48.123011" lon="10.861022">
    <ele>592.5</ele>
    <name>The Two Earthworks in Westerholz</name>
    <cmt>https://d2exd72xrrp1s7.cloudfront.net/www/000/1k8/rg/rg2g1baz3o151uhiug9ky6moz51ep58wl-uhi74731170/0</cmt>
    <desc>Joschi: Zwei Schanzen im Westerholz
Kleine Schanze:  
Scherbenfunde aus der Bronzezeit (1800-1250 vor Chr.) und Scherben aus der Latènezeit (500-15 vor Chr.) haben sich im Laufe der Zeit an dieser Stelle angesammelt.

Große Schanze: 
Ein Schüttungswall und ein Graben setzen am Kopf der Erosionsrinne an und ziehen in einem weiten Bogen zunächst östlich, dann südlich und schließlich in westlicher Richtung zur Hangkante.
Es wurden an der Wall-Anlage auch römische Keramikstücke gefunden.
――――――――――
Sommi: Hinweisschild zur ehemaligen Burg</desc>
    <src>Komoot</src>
    <link href="https://www.komoot.de/highlight/6772336">
      <text>View POI on Komoot</text>
    </link>
    <type>Highlight</type>
  </wpt>
  <wpt lat="48.130381" lon="10.862431">
    <ele>581.2</ele>
    <name>Tornado Crash Memorial at Lagerlechfeld</name>
    <cmt>https://d2exd72xrrp1s7.cloudfront.net/www/000/1k5/td/td33l4lmkm2c1g39nsmgn6le93v0uxn0n-uhi38453210/0</cmt>
    <desc>Siggi: Ein schöner Gedenkstein für einen Fliegerkameraden.
――――――――――
Michael (Wasi): Das Tornado-Absturzdenkmal bei Lagerlechfeld erinnert an den Unfall vom 9. Dezember 2004, bei dem zwei Bundeswehrpiloten ums Leben kamen 🕊️
――――――――――
Michael: Südöstlich von Lagerlechfeld stürzte am 09.12.2004 ein Tornado kurz nach dem Start ab.
――――――――――
Lisa im Ländle: Gedenkstein verunglückter Fliegerkameraden aus dem Jahr 2004
――――――――――
RITTER MARTON 🐑 🐿: An dieser Stelle ist am 09.12.2004 ein Tornado abgestürzt
――――――――――
Monal: Gedenken an eine schrecklichen Absturz
――――――――――
Sommi: Fliegerdenkmal
――――――――――
Joschi: Am 9..12.2004 stürzte ein Tornado ECR an dieser Stelle ab. Der 31 Jahre alte Pilot, Hauptmann Eik von Zehmen und sein 40-jähriger Waffensystemoffizier, Major Konrad Huf kamen bei dem Absturz ums Leben. Der Tornado zerschellte nur 3,5 km südöstlich von seinem Heimatflugplatz Lagerlechfeld, von dem er zuvor gestartet war. Die Ursache für den Absturz konnte nicht ermittelt werden.
――――――――――
Michael: Tornado Absturzstelle
――――――――――
Naturfreunde Klosterlechfeld e.V.: Der Gedenkstein markiert die Absturzstelle eines Tornadojagdfliegers am 9.12.2004. Bei dem Absturz kamen die beiden Piloten ums Leben. Es besteht die Möglich kurz innezuhalten.</desc>
    <src>Komoot</src>
    <link href="https://www.komoot.de/highlight/3537817">
      <text>View POI on Komoot</text>
    </link>
    <type>Highlight</type>
  </wpt>
  <wpt lat="48.132753" lon="10.862753">
    <ele>641.3</ele>
    <name>Neolithic Information Panel</name>
    <cmt>https://d2exd72xrrp1s7.cloudfront.net/www/000/1k5/1s/1sx0y0oi6yg5exd9a8whzdo4c3pnsn5qr-uhi30317875/0</cmt>
    <desc>Lisa im Ländle: Kleine Schautafel über die Jungsteinzeit
――――――――――
Michael: Infotafel über die Jungsteinzeit 
――――――――――
Michael: Hier erfährt man einiges über die Jungsteinzeit</desc>
    <src>Komoot</src>
    <link href="https://www.komoot.de/highlight/3032315">
      <text>View POI on Komoot</text>
    </link>
    <type>Highlight</type>
  </wpt>
  <wpt lat="48.135666" lon="10.865882">
    <ele>607.2</ele>
    <name>Oskar-Weinert Hut (Klosterlechfeld Friends of Nature House)</name>
    <cmt>https://d2exd72xrrp1s7.cloudfront.net/www/000/1k2/y0/y0nt13x0qizi1x8h1ka1gyojm2l6tvgwt-uhi2704172/0</cmt>
    <desc>Holger: Die Hütte liegt in ruhiger, abgelegener Randlage des Landschaftsschutzgebietes Westerholz am Ostufer des Lech. Der Lechhöhenweg zwischen Riedhof und Scheuring führt direkt daran vorbei.
Samstag, Sonntag und Feiertags ist die Hütte bewirtschaftet und lädt zu einer kurzen Rast bei sehr humanen Preisen ein. 
https://www.naturfreunde-klosterlechfeld.de
――――――――――
Anne FFB: Hütte mitten in der Natur.
――――――――――
annelie: Samstag,Sonntag und Feiertags geöffnet
――――――――――
Carsten (📍FFB): Für eine Rast in Ordnung.
――――――――――
Didier: Schön gelegen, in schöner Natur, steht das Naturfreundehaus.
――――――――――
Enrico: Das Naturfreundehaus oder auch Oskar Weinert Haus diente uns als sehr schöner ruhiger Rastplatz. Nicht weit weg vom "Hauptweg" und sehr idyllisch. Ab und an hat es auch geöffnet und es werden Speisen und Getränke angeboten. Bei unserem Besuch war es leider geschlossen. Trotzdem hat sich der kleine Abstecher gelohnt.
――――――――――
SW: Liebenswerte Einkehrmöglichkeit, super Kuchen und ein sehr entspannter Hund des Hauses: eine Freude, ihm zu begegnen und sein unaufgeregtes Wesen zu erleben. :)
――――――――――
Michael: Es lohnt sich immer auf ein Stück Kuchen &amp; ein Kaffee !
――――――――――
Heiko: Das Naturfreundehaus Oskar-Weinert-Haus liegt idyllisch am Ostufer des Lechs im Landschaftsschutzgebiet Westerholz und dient als Zentrum für vielfältige Aktivitäten der Naturfreunde Klosterlechfeld.

Lage und Umgebung:
Die Hütte befindet sich in ruhiger, abgelegener Randlage des Landschaftsschutzgebietes Westerholz am Ostufer des Lechs. Diese Lage macht sie zum idealen Ausgangspunkt für Wanderungen, Radtouren und Naturerkundungen entlang des Lechs und in den umliegenden Wäldern. 

Ausstattung und Angebote:
Das Oskar-Weinert-Haus bietet Übernachtungsmöglichkeiten und ist teilbewirtschaftet, mit Getränken, Würstchen, Kaffee und Kuchen. Es verfügt über Schlafplätze und eine Selbstkocherküche, die es Gruppen ermöglicht, eigenständig zu verpflegen. Zudem gibt es einen Kinderspielplatz und in der Nähe Sportmöglichkeiten wie Freibäder und Hallenbäder. 

Ein Besuch des Oskar-Weinert-Hauses bietet die Möglichkeit, die Natur zu genießen, sich zu erholen und an vielfältigen Aktivitäten teilzunehmen.
――――――――――
Holger: für Bio-Akku-Laden ein gern genutzer Aufenthalt
――――――――――
David: Nur Kuchen, Kaffee und Getränke aber reicht für ne kurze Pause
――――――――――
Michael: https://www.naturfreunde-klosterlechfeld.de

Kaffee &amp; Kuchen geht immer  👍

Oder das 3 Gänge Menü Wienerle, Brot &amp; Senf 👍
――――――――――
Heiko: Die Oskar-Weinert-Hütte ist ein Naturfreundehaus, das idyllisch am Ostufer des Lechs im Landschaftsschutzgebiet Westerholz liegt. Es dient als Zentrum für vielfältige Aktivitäten der Naturfreunde Klosterlechfeld und bietet Besuchern einen Ort der Erholung und Gemeinschaft.

Lage und Umgebung:
Die Hütte befindet sich in ruhiger, abgelegener Randlage des Landschaftsschutzgebietes Westerholz am Ostufer des Lechs. Diese Lage macht sie zum idealen Ausgangspunkt für Wanderungen, Radtouren und Naturerkundungen entlang des Lechs und in den umliegenden Wäldern. 

Ausstattung und Angebote:
Die Oskar-Weinert-Hütte verfügt über Schlafplätze und eine Selbstkocherküche, die es Gruppen ermöglicht, eigenständig zu verpflegen. Zudem gibt es einen Kinderspielplatz und in der Nähe Sportmöglichkeiten wie Freibäder und Hallenbäder. Die Hütte ist teilbewirtschaftet und bietet Getränke an. 

Aktivitäten:
Die Naturfreunde Klosterlechfeld organisieren regelmäßig Veranstaltungen wie Familienwochenenden, Wanderungen und Wassersportaktivitäten. Die Hütte dient dabei als zentraler Treffpunkt und Ausgangspunkt für diese Aktivitäten.
――――――――――
Michel: Zum Schutze der Trinkwasser Quelle ist das Parken um das Naturfreundehaus Verboten. Parkplatz am Westerholz wurde extra erweitert.
Gruß und viel Spaß bei den Touren
――――――――――
Richard: Hier geht auch schnell ein kleiner Imbiss mit Getränken
――――――――――
Michael: https://www.naturfreunde-klosterlechfeld.de

familienfreundliche Preise 4,50€ für selbstgemachte Kuchen mit Kaffee
――――――――――
Michael (Wasi): Das Naturfreundehaus Klosterlechfeld (Oskar-Weinert-Haus) liegt idyllisch am Lech bei Scheuring 🌿. Es ist von April bis Oktober an Wochenenden geöffnet und bietet Getränke, Snacks und gemütliche Atmosphäre – ideal für Wanderer, Familien und Naturfreunde.
――――――――――
Michael: https://www.naturfreunde-klosterlechfeld.de

Naturfreunde Klosterlechfeld
Anfang April bis Ende Oktober 
Sonntag/Feiertag 10:00 bis 18:00Uhr
――――――――――
GERRY: Sehr schön gelegen
――――――――――
Mike Fox: Ideal für eine kleine Pause mit lecker Kuchen
――――――――――
Michael: https://www.naturfreunde-klosterlechfeld.de

Hier einkehren ist mein Pflichtprogramm, wenn ich am Lech unterwegs bin.

Guter Kaffee &amp; leckere Kuchen
――――――――――
tschuess: Sehr als Raststätte für Wanderer und Radler zu empfehlen.</desc>
    <src>Komoot</src>
    <link href="https://www.komoot.de/highlight/231917">
      <text>View POI on Komoot</text>
    </link>
    <type>Highlight</type>
  </wpt>
  <trk>
    <name>The Two Schanzen in Westenholz – Informationstafel zur Jungsteinzeit Runde von Kolonie Hurlach</name>
    <desc>Distance: 7.079km, Estimated duration: 1.84h, Elevation up: 43.37745497065828m, Elevation down: 45.46561695420871m, Grade: easy</desc>
    <link href="https://www.komoot.de/tour/2749842156">
      <text>View tour on Komoot</text>
    </link>
    <trkseg>
      <trkpt lat="48.135994" lon="10.871808">
        <ele>591.7</ele>
        <time>2026-01-14T12:55:43.010000Z</time>
      </trkpt>
      <trkpt lat="48.135866" lon="10.872452">
        <ele>592</ele>
        <time>2026-01-14T12:56:29.207000Z</time>
      </trkpt>
      <trkpt lat="48.135725" lon="10.873164">
        <ele>592.4</ele>
        <time>2026-01-14T12:57:20.316000Z</time>
      </trkpt>
      <trkpt lat="48.135643" lon="10.873294">
        <ele>592.5</ele>
        <time>2026-01-14T12:57:32.526000Z</time>
      </trkpt>
      <trkpt lat="48.135446" lon="10.873955">
        <ele>592.8</ele>
        <time>2026-01-14T12:58:21.899000Z</time>
      </trkpt>
      <trkpt lat="48.134949" lon="10.875456">
        <ele>593.2</ele>
        <time>2026-01-14T13:00:15.163000Z</time>
      </trkpt>
      <trkpt lat="48.134879" lon="10.875668">
        <ele>593.3</ele>
        <time>2026-01-14T13:00:31.461000Z</time>
      </trkpt>
      <trkpt lat="48.134589" lon="10.876406">
        <ele>594.1</ele>
        <time>2026-01-14T13:01:31.538000Z</time>
      </trkpt>
      <trkpt lat="48.134358" lon="10.876864">
        <ele>594.8</ele>
        <time>2026-01-14T13:02:12.283000Z</time>
      </trkpt>
      <trkpt lat="48.133935" lon="10.877685">
        <ele>596.1</ele>
        <time>2026-01-14T13:03:26.196000Z</time>
      </trkpt>
      <trkpt lat="48.133254" lon="10.878898">
        <ele>597.2</ele>
        <time>2026-01-14T13:05:15.831000Z</time>
      </trkpt>
      <trkpt lat="48.132979" lon="10.87945">
        <ele>597.1</ele>
        <time>2026-01-14T13:06:01.858000Z</time>
      </trkpt>
      <trkpt lat="48.131823" lon="10.881279">
        <ele>595.8</ele>
        <time>2026-01-14T13:08:52.937000Z</time>
      </trkpt>
      <trkpt lat="48.131334" lon="10.881033">
        <ele>595.6</ele>
        <time>2026-01-14T13:09:45.027000Z</time>
      </trkpt>
      <trkpt lat="48.131298" lon="10.881015">
        <ele>595.6</ele>
        <time>2026-01-14T13:09:48.799000Z</time>
      </trkpt>
      <trkpt lat="48.129371" lon="10.880809">
        <ele>596.9</ele>
        <time>2026-01-14T13:13:07.066000Z</time>
      </trkpt>
      <trkpt lat="48.128715" lon="10.880664">
        <ele>596.8</ele>
        <time>2026-01-14T13:14:13.639000Z</time>
      </trkpt>
      <trkpt lat="48.12789" lon="10.880424">
        <ele>596.4</ele>
        <time>2026-01-14T13:15:38.644000Z</time>
      </trkpt>
      <trkpt lat="48.127348" lon="10.880344">
        <ele>596.2</ele>
        <time>2026-01-14T13:16:33.536000Z</time>
      </trkpt>
      <trkpt lat="48.126601" lon="10.88031">
        <ele>596</ele>
        <time>2026-01-14T13:17:48.833000Z</time>
      </trkpt>
      <trkpt lat="48.125648" lon="10.880468">
        <ele>595.3</ele>
        <time>2026-01-14T13:19:26.131000Z</time>
      </trkpt>
      <trkpt lat="48.12472" lon="10.880437">
        <ele>594.3</ele>
        <time>2026-01-14T13:21:01.173000Z</time>
      </trkpt>
      <trkpt lat="48.124485" lon="10.880299">
        <ele>594.1</ele>
        <time>2026-01-14T13:21:26.947000Z</time>
      </trkpt>
      <trkpt lat="48.124281" lon="10.880085">
        <ele>593.8</ele>
        <time>2026-01-14T13:21:52.333000Z</time>
      </trkpt>
      <trkpt lat="48.124161" lon="10.879818">
        <ele>593.7</ele>
        <time>2026-01-14T13:22:14.195000Z</time>
      </trkpt>
      <trkpt lat="48.123029" lon="10.879705">
        <ele>593.6</ele>
        <time>2026-01-14T13:24:07.880000Z</time>
      </trkpt>
      <trkpt lat="48.122073" lon="10.880004">
        <ele>595</ele>
        <time>2026-01-14T13:25:50.628000Z</time>
      </trkpt>
      <trkpt lat="48.121648" lon="10.880333">
        <ele>595.9</ele>
        <time>2026-01-14T13:26:41.667000Z</time>
      </trkpt>
      <trkpt lat="48.119773" lon="10.880278">
        <ele>597.2</ele>
        <time>2026-01-14T13:29:54.034000Z</time>
      </trkpt>
      <trkpt lat="48.120557" lon="10.8781">
        <ele>595</ele>
        <time>2026-01-14T13:32:43.947000Z</time>
      </trkpt>
      <trkpt lat="48.121019" lon="10.875096">
        <ele>594.2</ele>
        <time>2026-01-14T13:36:11.645000Z</time>
      </trkpt>
      <trkpt lat="48.121163" lon="10.87442">
        <ele>594.5</ele>
        <time>2026-01-14T13:37:00.322000Z</time>
      </trkpt>
      <trkpt lat="48.121333" lon="10.872946">
        <ele>595.5</ele>
        <time>2026-01-14T13:38:43.613000Z</time>
      </trkpt>
      <trkpt lat="48.121445" lon="10.870908">
        <ele>595.6</ele>
        <time>2026-01-14T13:41:00.920000Z</time>
      </trkpt>
      <trkpt lat="48.121574" lon="10.869466">
        <ele>595.4</ele>
        <time>2026-01-14T13:42:38.606000Z</time>
      </trkpt>
      <trkpt lat="48.121493" lon="10.868449">
        <ele>595.2</ele>
        <time>2026-01-14T13:43:47.485000Z</time>
      </trkpt>
      <trkpt lat="48.121446" lon="10.867867">
        <ele>595</ele>
        <time>2026-01-14T13:44:26.957000Z</time>
      </trkpt>
      <trkpt lat="48.121406" lon="10.867035">
        <ele>594.9</ele>
        <time>2026-01-14T13:45:22.957000Z</time>
      </trkpt>
      <trkpt lat="48.12141" lon="10.866253">
        <ele>594.9</ele>
        <time>2026-01-14T13:46:15.304000Z</time>
      </trkpt>
      <trkpt lat="48.121207" lon="10.865953">
        <ele>595</ele>
        <time>2026-01-14T13:46:44.137000Z</time>
      </trkpt>
      <trkpt lat="48.120872" lon="10.865701">
        <ele>595.2</ele>
        <time>2026-01-14T13:47:22.221000Z</time>
      </trkpt>
      <trkpt lat="48.120484" lon="10.865605">
        <ele>595.4</ele>
        <time>2026-01-14T13:48:02.233000Z</time>
      </trkpt>
      <trkpt lat="48.12015" lon="10.865615">
        <ele>595.6</ele>
        <time>2026-01-14T13:48:36.371000Z</time>
      </trkpt>
      <trkpt lat="48.119126" lon="10.865863">
        <ele>595.7</ele>
        <time>2026-01-14T13:50:20.742000Z</time>
      </trkpt>
      <trkpt lat="48.117891" lon="10.866029">
        <ele>595.2</ele>
        <time>2026-01-14T13:52:25.888000Z</time>
      </trkpt>
      <trkpt lat="48.117402" lon="10.866233">
        <ele>594.9</ele>
        <time>2026-01-14T13:53:17.198000Z</time>
      </trkpt>
      <trkpt lat="48.11665" lon="10.866371">
        <ele>594</ele>
        <time>2026-01-14T13:54:35.109000Z</time>
      </trkpt>
      <trkpt lat="48.116422" lon="10.866342">
        <ele>593.2</ele>
        <time>2026-01-14T13:54:59.563000Z</time>
      </trkpt>
      <trkpt lat="48.116325" lon="10.866292">
        <ele>592.8</ele>
        <time>2026-01-14T13:55:10.608000Z</time>
      </trkpt>
      <trkpt lat="48.11636" lon="10.866129">
        <ele>592.4</ele>
        <time>2026-01-14T13:55:22.967000Z</time>
      </trkpt>
      <trkpt lat="48.117032" lon="10.864665">
        <ele>586</ele>
        <time>2026-01-14T13:57:34.610000Z</time>
      </trkpt>
      <trkpt lat="48.117309" lon="10.864292">
        <ele>584.1</ele>
        <time>2026-01-14T13:58:15.698000Z</time>
      </trkpt>
      <trkpt lat="48.118663" lon="10.863249">
        <ele>580.9</ele>
        <time>2026-01-14T14:00:54.800000Z</time>
      </trkpt>
      <trkpt lat="48.119115" lon="10.862791">
        <ele>580.3</ele>
        <time>2026-01-14T14:01:50.615000Z</time>
      </trkpt>
      <trkpt lat="48.119945" lon="10.861738">
        <ele>579.4</ele>
        <time>2026-01-14T14:03:41.201000Z</time>
      </trkpt>
      <trkpt lat="48.120228" lon="10.86079">
        <ele>579.1</ele>
        <time>2026-01-14T14:04:51.192000Z</time>
      </trkpt>
      <trkpt lat="48.120603" lon="10.859967">
        <ele>579.5</ele>
        <time>2026-01-14T14:05:59.137000Z</time>
      </trkpt>
      <trkpt lat="48.120839" lon="10.859694">
        <ele>580.2</ele>
        <time>2026-01-14T14:06:31.379000Z</time>
      </trkpt>
      <trkpt lat="48.121077" lon="10.859648">
        <ele>580.9</ele>
        <time>2026-01-14T14:06:58.102000Z</time>
      </trkpt>
      <trkpt lat="48.121333" lon="10.859654">
        <ele>582</ele>
        <time>2026-01-14T14:07:27.333000Z</time>
      </trkpt>
      <trkpt lat="48.121885" lon="10.859991">
        <ele>585.4</ele>
        <time>2026-01-14T14:08:38.677000Z</time>
      </trkpt>
      <trkpt lat="48.122672" lon="10.860817">
        <ele>590.1</ele>
        <time>2026-01-14T14:10:31.119000Z</time>
      </trkpt>
      <trkpt lat="48.122942" lon="10.860962">
        <ele>590.6</ele>
        <time>2026-01-14T14:11:01.715000Z</time>
      </trkpt>
      <trkpt lat="48.123016" lon="10.860986">
        <ele>590.6</ele>
        <time>2026-01-14T14:11:09.427000Z</time>
      </trkpt>
      <trkpt lat="48.123188" lon="10.86104">
        <ele>590.6</ele>
        <time>2026-01-14T14:11:27.134000Z</time>
      </trkpt>
      <trkpt lat="48.123515" lon="10.861033">
        <ele>589.9</ele>
        <time>2026-01-14T14:12:01.284000Z</time>
      </trkpt>
      <trkpt lat="48.123601" lon="10.860997">
        <ele>589.6</ele>
        <time>2026-01-14T14:12:10.868000Z</time>
      </trkpt>
      <trkpt lat="48.123902" lon="10.860862">
        <ele>588.1</ele>
        <time>2026-01-14T14:12:45.437000Z</time>
      </trkpt>
      <trkpt lat="48.124726" lon="10.86005">
        <ele>582.1</ele>
        <time>2026-01-14T14:14:36.121000Z</time>
      </trkpt>
      <trkpt lat="48.125134" lon="10.860033">
        <ele>579.9</ele>
        <time>2026-01-14T14:15:21.427000Z</time>
      </trkpt>
      <trkpt lat="48.126365" lon="10.860414">
        <ele>576.9</ele>
        <time>2026-01-14T14:17:33.290000Z</time>
      </trkpt>
      <trkpt lat="48.126685" lon="10.860707">
        <ele>576.9</ele>
        <time>2026-01-14T14:18:10.893000Z</time>
      </trkpt>
      <trkpt lat="48.128076" lon="10.861631">
        <ele>577.9</ele>
        <time>2026-01-14T14:20:46.745000Z</time>
      </trkpt>
      <trkpt lat="48.129302" lon="10.862119">
        <ele>578.9</ele>
        <time>2026-01-14T14:22:57.337000Z</time>
      </trkpt>
      <trkpt lat="48.130383" lon="10.862415">
        <ele>579</ele>
        <time>2026-01-14T14:24:47.345000Z</time>
      </trkpt>
      <trkpt lat="48.130409" lon="10.862422">
        <ele>578.9</ele>
        <time>2026-01-14T14:24:49.953000Z</time>
      </trkpt>
      <trkpt lat="48.130782" lon="10.862458">
        <ele>578.7</ele>
        <time>2026-01-14T14:25:27.885000Z</time>
      </trkpt>
      <trkpt lat="48.131828" lon="10.862514">
        <ele>578.1</ele>
        <time>2026-01-14T14:27:14Z</time>
      </trkpt>
      <trkpt lat="48.132754" lon="10.862742">
        <ele>578.2</ele>
        <time>2026-01-14T14:28:48.419000Z</time>
      </trkpt>
      <trkpt lat="48.133661" lon="10.862965">
        <ele>579</ele>
        <time>2026-01-14T14:30:23.227000Z</time>
      </trkpt>
      <trkpt lat="48.134888" lon="10.863308">
        <ele>580.3</ele>
        <time>2026-01-14T14:32:33.004000Z</time>
      </trkpt>
      <trkpt lat="48.135049" lon="10.863393">
        <ele>580.4</ele>
        <time>2026-01-14T14:32:50.369000Z</time>
      </trkpt>
      <trkpt lat="48.13518" lon="10.863543">
        <ele>580.5</ele>
        <time>2026-01-14T14:33:07.157000Z</time>
      </trkpt>
      <trkpt lat="48.135277" lon="10.863744">
        <ele>580.5</ele>
        <time>2026-01-14T14:33:23.751000Z</time>
      </trkpt>
      <trkpt lat="48.135526" lon="10.864666">
        <ele>580</ele>
        <time>2026-01-14T14:34:31.272000Z</time>
      </trkpt>
      <trkpt lat="48.135576" lon="10.865064">
        <ele>579.5</ele>
        <time>2026-01-14T14:34:59.259000Z</time>
      </trkpt>
      <trkpt lat="48.135506" lon="10.865122">
        <ele>579.3</ele>
        <time>2026-01-14T14:35:07.648000Z</time>
      </trkpt>
      <trkpt lat="48.135536" lon="10.865814">
        <ele>577.9</ele>
        <time>2026-01-14T14:35:56.942000Z</time>
      </trkpt>
      <trkpt lat="48.135608" lon="10.865961">
        <ele>577.5</ele>
        <time>2026-01-14T14:36:09.922000Z</time>
      </trkpt>
      <trkpt lat="48.135605" lon="10.865877">
        <ele>577.3</ele>
        <time>2026-01-14T14:36:15.888000Z</time>
      </trkpt>
      <trkpt lat="48.135663" lon="10.865877">
        <ele>577.1</ele>
        <time>2026-01-14T14:36:22.091000Z</time>
      </trkpt>
      <trkpt lat="48.135666" lon="10.865882">
        <ele>577.1</ele>
        <time>2026-01-14T14:36:22.582000Z</time>
      </trkpt>
      <trkpt lat="48.135663" lon="10.865877">
        <ele>577.1</ele>
        <time>2026-01-14T14:36:23.065000Z</time>
      </trkpt>
      <trkpt lat="48.135605" lon="10.865877">
        <ele>576.9</ele>
        <time>2026-01-14T14:36:29.183000Z</time>
      </trkpt>
      <trkpt lat="48.135608" lon="10.865961">
        <ele>576.7</ele>
        <time>2026-01-14T14:36:35.181000Z</time>
      </trkpt>
      <trkpt lat="48.135622" lon="10.866138">
        <ele>576.4</ele>
        <time>2026-01-14T14:36:47.826000Z</time>
      </trkpt>
      <trkpt lat="48.135602" lon="10.866353">
        <ele>576</ele>
        <time>2026-01-14T14:37:03.095000Z</time>
      </trkpt>
      <trkpt lat="48.135497" lon="10.86666">
        <ele>575.5</ele>
        <time>2026-01-14T14:37:27.182000Z</time>
      </trkpt>
      <trkpt lat="48.135248" lon="10.867143">
        <ele>575</ele>
        <time>2026-01-14T14:38:08.967000Z</time>
      </trkpt>
      <trkpt lat="48.135245" lon="10.867274">
        <ele>575</ele>
        <time>2026-01-14T14:38:17.809000Z</time>
      </trkpt>
      <trkpt lat="48.135269" lon="10.867366">
        <ele>575</ele>
        <time>2026-01-14T14:38:24.448000Z</time>
      </trkpt>
      <trkpt lat="48.136035" lon="10.868438">
        <ele>577.1</ele>
        <time>2026-01-14T14:40:16.918000Z</time>
      </trkpt>
      <trkpt lat="48.136583" lon="10.868746">
        <ele>579.4</ele>
        <time>2026-01-14T14:41:23.626000Z</time>
      </trkpt>
      <trkpt lat="48.136794" lon="10.868924">
        <ele>580.4</ele>
        <time>2026-01-14T14:41:51.243000Z</time>
      </trkpt>
      <trkpt lat="48.136584" lon="10.869352">
        <ele>581.8</ele>
        <time>2026-01-14T14:42:31.719000Z</time>
      </trkpt>
      <trkpt lat="48.136326" lon="10.870753">
        <ele>586.5</ele>
        <time>2026-01-14T14:44:25.059000Z</time>
      </trkpt>
      <trkpt lat="48.136145" lon="10.871436">
        <ele>588.4</ele>
        <time>2026-01-14T14:45:20.910000Z</time>
      </trkpt>
      <trkpt lat="48.136071" lon="10.871419">
        <ele>588.7</ele>
        <time>2026-01-14T14:45:29.295000Z</time>
      </trkpt>
      <trkpt lat="48.135994" lon="10.871808">
        <ele>589.6</ele>
        <time>2026-01-14T14:45:59.410000Z</time>
      </trkpt>
    </trkseg>
  </trk>
</gpx>