<?xml version="1.0" encoding="UTF-8"?>
<gpx xmlns="http://www.topografix.com/GPX/1/1" xmlns:xsi="http://www.w3.org/2001/XMLSchema-instance" xsi:schemaLocation="http://www.topografix.com/GPX/1/1 http://www.topografix.com/GPX/1/1/gpx.xsd" version="1.1" creator="Robert Kampf">
  <metadata>
    <name>Vogelschutzgebiet Thierhaupten Runde von Ellgau</name>
    <desc>Distance: 5.096km, Estimated duration: 1.29h, Elevation up: 9.788607234009078m, Elevation down: 9.788607234009078m, Grade: easy</desc>
    <author>
      <name>Robert Kampf</name>
      <link href="https://www.komoot.de/user/4125295338453">
        <text>View Robert Kampf's Profile on Komoot</text>
      </link>
    </author>
    <link href="https://www.komoot.de/tour/2758052964">
      <text>View tour on Komoot</text>
    </link>
  </metadata>
  <wpt lat="48.583799" lon="10.874732">
    <ele>10.9</ele>
    <name>Thierhaupten Bird Sanctuary</name>
    <cmt>https://d2exd72xrrp1s7.cloudfront.net/www/000/1k4/ro/rowtwfekypp6amjvkzqn561q3cg2zhvr-uhi11798221/0</cmt>
    <desc>Siggi: Besonders im späten Frühjahr kann man hier den Nachwuchs der verschiedenen Wasservögel beobachten.
――――――――――
Norbert aus A: Landschaftlich ein sehr schöner Radweg. Natur pur!</desc>
    <src>Komoot</src>
    <link href="https://www.komoot.de/highlight/746776">
      <text>View POI on Komoot</text>
    </link>
    <type>Highlight</type>
  </wpt>
  <wpt lat="48.581152" lon="10.876725">
    <name>Lechauen bei Thierhaupten</name>
    <cmt></cmt>
    <desc></desc>
    <src>Komoot</src>
    <type>POI</type>
  </wpt>
  <wpt lat="48.597118" lon="10.878574">
    <ele>492.2</ele>
    <name>Information Board: History of Rafting on the Lech River</name>
    <cmt>https://d2exd72xrrp1s7.cloudfront.net/www/000/1k6/vg/vgcn0et7mejz5lhz0lmlc4v1461030mx-uhi49518466/0</cmt>
    <desc>🇪🇺Raubach🇺🇦: Hier waren früher die Flößer unterwegs 😊
――――――――――
Moenlehi: Schöne Natur</desc>
    <src>Komoot</src>
    <link href="https://www.komoot.de/highlight/3178907">
      <text>View POI on Komoot</text>
    </link>
    <type>Highlight</type>
  </wpt>
  <trk>
    <name>Vogelschutzgebiet Thierhaupten Runde von Ellgau</name>
    <desc>Distance: 5.096km, Estimated duration: 1.29h, Elevation up: 9.788607234009078m, Elevation down: 9.788607234009078m, Grade: easy</desc>
    <link href="https://www.komoot.de/tour/2758052964">
      <text>View tour on Komoot</text>
    </link>
    <trkseg>
      <trkpt lat="48.597896" lon="10.876075">
        <ele>418.3</ele>
        <time>2026-01-21T12:58:32.033000Z</time>
      </trkpt>
      <trkpt lat="48.59788" lon="10.87616">
        <ele>418.4</ele>
        <time>2026-01-21T12:58:37.946000Z</time>
      </trkpt>
      <trkpt lat="48.597756" lon="10.87678">
        <ele>418.7</ele>
        <time>2026-01-21T12:59:22.082000Z</time>
      </trkpt>
      <trkpt lat="48.597679" lon="10.877083">
        <ele>419</ele>
        <time>2026-01-21T12:59:44.530000Z</time>
      </trkpt>
      <trkpt lat="48.597422" lon="10.877437">
        <ele>419.4</ele>
        <time>2026-01-21T13:00:20.782000Z</time>
      </trkpt>
      <trkpt lat="48.596967" lon="10.877816">
        <ele>419.8</ele>
        <time>2026-01-21T13:01:14.343000Z</time>
      </trkpt>
      <trkpt lat="48.596915" lon="10.877942">
        <ele>419.9</ele>
        <time>2026-01-21T13:01:24.348000Z</time>
      </trkpt>
      <trkpt lat="48.596897" lon="10.878251">
        <ele>420</ele>
        <time>2026-01-21T13:01:45.166000Z</time>
      </trkpt>
      <trkpt lat="48.596996" lon="10.878413">
        <ele>420</ele>
        <time>2026-01-21T13:01:59.855000Z</time>
      </trkpt>
      <trkpt lat="48.59694" lon="10.878666">
        <ele>420</ele>
        <time>2026-01-21T13:02:17.562000Z</time>
      </trkpt>
      <trkpt lat="48.596921" lon="10.878753">
        <ele>420</ele>
        <time>2026-01-21T13:02:23.663000Z</time>
      </trkpt>
      <trkpt lat="48.596868" lon="10.878729">
        <ele>420</ele>
        <time>2026-01-21T13:02:29.271000Z</time>
      </trkpt>
      <trkpt lat="48.596788" lon="10.879101">
        <ele>419.7</ele>
        <time>2026-01-21T13:02:55.625000Z</time>
      </trkpt>
      <trkpt lat="48.596863" lon="10.879136">
        <ele>419.6</ele>
        <time>2026-01-21T13:03:03.700000Z</time>
      </trkpt>
      <trkpt lat="48.596668" lon="10.880126">
        <ele>418.7</ele>
        <time>2026-01-21T13:04:14.059000Z</time>
      </trkpt>
      <trkpt lat="48.596554" lon="10.880063">
        <ele>418.5</ele>
        <time>2026-01-21T13:04:26.554000Z</time>
      </trkpt>
      <trkpt lat="48.596539" lon="10.880254">
        <ele>418.4</ele>
        <time>2026-01-21T13:04:39.627000Z</time>
      </trkpt>
      <trkpt lat="48.588897" lon="10.876644">
        <ele>417.7</ele>
        <time>2026-01-21T13:18:02.395000Z</time>
      </trkpt>
      <trkpt lat="48.586467" lon="10.875616">
        <ele>419.3</ele>
        <time>2026-01-21T13:22:20.701000Z</time>
      </trkpt>
      <trkpt lat="48.584824" lon="10.87487">
        <ele>419.8</ele>
        <time>2026-01-21T13:25:14.095000Z</time>
      </trkpt>
      <trkpt lat="48.584542" lon="10.874833">
        <ele>419.7</ele>
        <time>2026-01-21T13:25:42.679000Z</time>
      </trkpt>
      <trkpt lat="48.583959" lon="10.874724">
        <ele>419.3</ele>
        <time>2026-01-21T13:26:42.106000Z</time>
      </trkpt>
      <trkpt lat="48.583799" lon="10.874721">
        <ele>419.2</ele>
        <time>2026-01-21T13:26:58.401000Z</time>
      </trkpt>
      <trkpt lat="48.583425" lon="10.874715">
        <ele>418.9</ele>
        <time>2026-01-21T13:27:36.565000Z</time>
      </trkpt>
      <trkpt lat="48.582278" lon="10.874923">
        <ele>418.3</ele>
        <time>2026-01-21T13:29:33.300000Z</time>
      </trkpt>
      <trkpt lat="48.581524" lon="10.875128">
        <ele>418.7</ele>
        <time>2026-01-21T13:30:51.115000Z</time>
      </trkpt>
      <trkpt lat="48.581023" lon="10.875214">
        <ele>419.2</ele>
        <time>2026-01-21T13:31:43.470000Z</time>
      </trkpt>
      <trkpt lat="48.579493" lon="10.875215">
        <ele>420.3</ele>
        <time>2026-01-21T13:34:20.762000Z</time>
      </trkpt>
      <trkpt lat="48.579791" lon="10.875388">
        <ele>420.3</ele>
        <time>2026-01-21T13:34:52.842000Z</time>
      </trkpt>
      <trkpt lat="48.581242" lon="10.875983">
        <ele>418.8</ele>
        <time>2026-01-21T13:37:26.365000Z</time>
      </trkpt>
      <trkpt lat="48.581293" lon="10.876006">
        <ele>418.8</ele>
        <time>2026-01-21T13:37:31.786000Z</time>
      </trkpt>
      <trkpt lat="48.582514" lon="10.876553">
        <ele>417.6</ele>
        <time>2026-01-21T13:39:41.748000Z</time>
      </trkpt>
      <trkpt lat="48.589107" lon="10.879611">
        <ele>417.6</ele>
        <time>2026-01-21T13:51:12.063000Z</time>
      </trkpt>
      <trkpt lat="48.594505" lon="10.882134">
        <ele>418.8</ele>
        <time>2026-01-21T14:00:41.810000Z</time>
      </trkpt>
      <trkpt lat="48.596179" lon="10.882916">
        <ele>419</ele>
        <time>2026-01-21T14:03:37.748000Z</time>
      </trkpt>
      <trkpt lat="48.596379" lon="10.882971">
        <ele>418.9</ele>
        <time>2026-01-21T14:03:58.267000Z</time>
      </trkpt>
      <trkpt lat="48.596623" lon="10.882994">
        <ele>418.7</ele>
        <time>2026-01-21T14:04:23.089000Z</time>
      </trkpt>
      <trkpt lat="48.596812" lon="10.882848">
        <ele>418.6</ele>
        <time>2026-01-21T14:04:44.698000Z</time>
      </trkpt>
      <trkpt lat="48.597339" lon="10.88159">
        <ele>417.8</ele>
        <time>2026-01-21T14:06:24.797000Z</time>
      </trkpt>
      <trkpt lat="48.597423" lon="10.880884">
        <ele>417.6</ele>
        <time>2026-01-21T14:07:12.659000Z</time>
      </trkpt>
      <trkpt lat="48.597435" lon="10.880521">
        <ele>417.6</ele>
        <time>2026-01-21T14:07:36.716000Z</time>
      </trkpt>
      <trkpt lat="48.597219" lon="10.880466">
        <ele>417.7</ele>
        <time>2026-01-21T14:07:58.850000Z</time>
      </trkpt>
      <trkpt lat="48.597172" lon="10.880458">
        <ele>417.7</ele>
        <time>2026-01-21T14:08:03.703000Z</time>
      </trkpt>
      <trkpt lat="48.596972" lon="10.88042">
        <ele>417.9</ele>
        <time>2026-01-21T14:08:24.355000Z</time>
      </trkpt>
      <trkpt lat="48.596794" lon="10.880401">
        <ele>418</ele>
        <time>2026-01-21T14:08:42.814000Z</time>
      </trkpt>
      <trkpt lat="48.5966" lon="10.880332">
        <ele>418.3</ele>
        <time>2026-01-21T14:09:03.559000Z</time>
      </trkpt>
      <trkpt lat="48.596539" lon="10.880254">
        <ele>418.4</ele>
        <time>2026-01-21T14:09:11.913000Z</time>
      </trkpt>
      <trkpt lat="48.596554" lon="10.880063">
        <ele>418.6</ele>
        <time>2026-01-21T14:09:25.314000Z</time>
      </trkpt>
      <trkpt lat="48.596668" lon="10.880126">
        <ele>418.7</ele>
        <time>2026-01-21T14:09:38.090000Z</time>
      </trkpt>
      <trkpt lat="48.596863" lon="10.879136">
        <ele>419.6</ele>
        <time>2026-01-21T14:10:49.531000Z</time>
      </trkpt>
      <trkpt lat="48.596788" lon="10.879101">
        <ele>419.7</ele>
        <time>2026-01-21T14:10:57.825000Z</time>
      </trkpt>
      <trkpt lat="48.596868" lon="10.878729">
        <ele>420</ele>
        <time>2026-01-21T14:11:24.932000Z</time>
      </trkpt>
      <trkpt lat="48.596921" lon="10.878753">
        <ele>420.1</ele>
        <time>2026-01-21T14:11:30.676000Z</time>
      </trkpt>
      <trkpt lat="48.59694" lon="10.878666">
        <ele>420.1</ele>
        <time>2026-01-21T14:11:36.898000Z</time>
      </trkpt>
      <trkpt lat="48.596996" lon="10.878413">
        <ele>420.2</ele>
        <time>2026-01-21T14:11:54.918000Z</time>
      </trkpt>
      <trkpt lat="48.597118" lon="10.878582">
        <ele>420.2</ele>
        <time>2026-01-21T14:12:11.569000Z</time>
      </trkpt>
      <trkpt lat="48.596996" lon="10.878413">
        <ele>420.2</ele>
        <time>2026-01-21T14:12:28.188000Z</time>
      </trkpt>
      <trkpt lat="48.596897" lon="10.878251">
        <ele>420.2</ele>
        <time>2026-01-21T14:12:42.909000Z</time>
      </trkpt>
      <trkpt lat="48.596915" lon="10.877942">
        <ele>420</ele>
        <time>2026-01-21T14:13:03.774000Z</time>
      </trkpt>
      <trkpt lat="48.596967" lon="10.877816">
        <ele>419.9</ele>
        <time>2026-01-21T14:13:13.734000Z</time>
      </trkpt>
      <trkpt lat="48.597422" lon="10.877437">
        <ele>419.4</ele>
        <time>2026-01-21T14:14:06.825000Z</time>
      </trkpt>
      <trkpt lat="48.597679" lon="10.877083">
        <ele>419</ele>
        <time>2026-01-21T14:14:42.464000Z</time>
      </trkpt>
      <trkpt lat="48.597756" lon="10.87678">
        <ele>418.7</ele>
        <time>2026-01-21T14:15:04.515000Z</time>
      </trkpt>
      <trkpt lat="48.59788" lon="10.87616">
        <ele>418.4</ele>
        <time>2026-01-21T14:15:48.129000Z</time>
      </trkpt>
      <trkpt lat="48.597896" lon="10.876075">
        <ele>418.3</ele>
        <time>2026-01-21T14:15:54.004000Z</time>
      </trkpt>
    </trkseg>
  </trk>
</gpx>