<?xml version="1.0" encoding="UTF-8"?>
<gpx xmlns="http://www.topografix.com/GPX/1/1" xmlns:xsi="http://www.w3.org/2001/XMLSchema-instance" xsi:schemaLocation="http://www.topografix.com/GPX/1/1 http://www.topografix.com/GPX/1/1/gpx.xsd" version="1.1" creator="Robert Kampf">
  <metadata>
    <name>Amperschlucht – Wasserkraftwerk Schöngeising Runde von Grafrath</name>
    <desc>Distance: 8.975km, Estimated duration: 2.37h, Elevation up: 79.94721041749392m, Elevation down: 79.94721041749392m, Grade: moderate</desc>
    <author>
      <name>Robert Kampf</name>
      <link href="https://www.komoot.de/user/4125295338453">
        <text>View Robert Kampf's Profile on Komoot</text>
      </link>
    </author>
    <link href="https://www.komoot.de/tour/2306880108">
      <text>View tour on Komoot</text>
    </link>
  </metadata>
  <wpt lat="48.122925" lon="11.173853">
    <name>Grafrath, Brandweg</name>
    <cmt></cmt>
    <desc></desc>
    <src>Komoot</src>
    <type>POI</type>
  </wpt>
  <wpt lat="48.123409" lon="11.181951">
    <ele>567.8</ele>
    <name>Amperschlucht Gorge</name>
    <cmt>https://d2exd72xrrp1s7.cloudfront.net/www/000/1k3/xa/xaz5d1as3nxnx5bjr0d889xa2znuen75-uhi6019851/0</cmt>
    <desc>Carsten (📍FFB): Rücksicht ist hier ein Gebot.
Der Weg ist schmal und der Abhang nicht ohne.
――――――――――
LandLiebe: Die Amperschlucht läßt sich wunderbar in Touren einbinden. Sehr beliebt bei Bikern und Läufern/ Wanderern. ABER bitte sehr aufmerksam und rücksichtsvoll sein - die Trails sind schmal und es geht meist steil zur Amper runter. Ein Fehltritt und man geht baden ...
Ein Besuch lohnt sich aber immer, man kann hier auch die Hunde gut ins Wasser lassen.
――――――――――
Walter: Schöner schattiger Weg besonders bei Hitze, bei nassem Wetter eher nicht gut
――――――――――
petra schmid: Hier hat sich die Amper durch die Moränenhügel gegraben, hier ist die schmalste Stelle des Durchbruchs.
――――――――――
SabineK: Alle Mountainbiker, die wir getroffen haben (wir mit Hunden) waren recht rücksichtsvoll! Aber wir auch...
――――――――――
RITTER MARTON 🐑 🐿: blick richtung bella martha
――――――――――
RITTER MARTON 🐑 🐿: ein sehr schöner wanderweg
――――――――――
RITTER MARTON 🐑 🐿: sehr schöne toteislandschaft
――――――――――
Franzl: Tolle Landschaft und schöner Blick zur Amper
――――――――――
RITTER MARTON 🐑 🐿: die toteislandschaft zieht sich über das ganze gebiet
――――――――――
RITTER MARTON 🐑 🐿: Sehr schöne Stelle
――――――――――
Cordula: Vorsicht! Die Amperschlucht ist wegen einer Baustelle an der Kläranlage gesperrt. Es geht ein schmaler, rutschiger Trampelpfad um den Bauzaun rum. Nicht in die Amper fallen 😉
――――――――――
Rita: Eine sehr schöne Wanderung am Fluss, allerdings liegen auf dem Hinweg irgewann so viele Bäume auf dem Weg, dass man steil im Wald hoch und runter kraxeln muss, um diese Hindernisse zu umgehen. Nach den Häusern am Fluss geht irgendwann eine Treppe rechts hoch, diese würde ich beim nächsten mal nehmen und den Weg oben im Wald fort setzen. Das Café ist sehr nett, liegt ruhig und es gibt leckeren Kuchen. 
Beim Rückweg wurden wir von Komoot am Klärwerk vorbei gelotst. Dort ist jedoch eine Baustelle, und das Klärwerk wurde über den Wanderweg verbreitert, so dass es nur noch einen kleinen schlecht zu laufenden Pfad entlang des Bauzaunes gibt. Dort muss man wieder über umgestürzte Bäume klettern, und außerdem stinkt es dort ordentlich. Um das zu vermeiden, würde ich noch eine Straße weiter hoch gehen, und dann erst nach links in den Wald hinein. Bis auf den Abschnitt an der Kläranlage war der Rückweg ebenfalls sehr schön.
――――――――――
Franziska Erdle: Der Anfang der Wanderung bei dem Klärwerk ist gesperrt wegen Baustelle!!!
――――――――――
Erich: Schöner Wanderung, aber es ist unbedingt Trittsicherheit erforderlich.
――――――――――
Natourfreund: Durch einen Hangrutsch ist der Ostuferweg der Amperschlucht nördlich der Kläranlage insbesondere bei Nässe nur mit besonderer Vorsicht zu begehen. Die kritische Stelle ist nur wenige Meter lang. Desweiteren ist die Begehung des Weges durch einige umgestürzte Bäume erschwert.</desc>
    <src>Komoot</src>
    <link href="https://www.komoot.de/highlight/516472">
      <text>View POI on Komoot</text>
    </link>
    <type>Highlight</type>
  </wpt>
  <wpt lat="48.126938" lon="11.193445">
    <ele>610</ele>
    <name>Sunderburg Castle Site</name>
    <cmt>https://d2exd72xrrp1s7.cloudfront.net/www/000/1k0/4l/4l30ft0l2vr24jwovzo9x1ac1wumoev8-uhi533341/0</cmt>
    <desc>LandLiebe: Von ehemaligen Burgen oder Wohngebäuden ist hier natürlich nichts mehr zu finden, aber der "Schlossberg" an sich ist wirklich beeindruckend - die Landschaftsformation zu begehen und zu entdecken macht einfach Spaß ... nicht nur Wanderern. An den Fahrspuren sieht man, daß Biker es hier auch spannend finden ;-)
――――――――――
RITTER MARTON 🐑 🐿: ein sagenumworbener platz kann man in wikipedia nachlesen
――――――――――
RITTER MARTON 🐑 🐿: der burgstall der sunderburg
――――――――――
RITTER MARTON 🐑 🐿: schöner platz mit vielen geschichten und sagen
――――――――――
RITTER MARTON 🐑 🐿: ich bin nicht sicher sieht aber aus wie ein burggraben
――――――――――
RITTER MARTON 🐑 🐿: Man kann sich sehr gut vorstellen das hier mal eine Burg war. Auf Wikipedia kann man die Sage um die Sunderburg lesen.
――――――――――
Thomas Nordgerling: Toller Blick runter in die Amperschlucht.
――――――――――
〽️Chris〽️: Blick von der Sunderburg auf die Amper. Perfekt zum rasten!
――――――――――
〽️Chris〽️: Super zum rasten und Pause machen!
――――――――――
Knersi (📍Maisach): Viel Geschichte an diesen Platz</desc>
    <src>Komoot</src>
    <link href="https://www.komoot.de/highlight/187200">
      <text>View POI on Komoot</text>
    </link>
    <type>Highlight</type>
  </wpt>
  <wpt lat="48.134295" lon="11.2008">
    <ele>581</ele>
    <name>Wooden Wayside Cross</name>
    <cmt>https://d2exd72xrrp1s7.cloudfront.net/www/000/1k7/18/180ikgazelpdh1qh70t9dqfr8t4lkn88z1-uhi60883728/0</cmt>
    <desc>RITTER MARTON 🐑 🐿: schönes Wegkreuz
――――――――――
Knersi (📍Maisach): Noch nicht so lange hier das Kreuz</desc>
    <src>Komoot</src>
    <link href="https://www.komoot.de/highlight/5764376">
      <text>View POI on Komoot</text>
    </link>
    <type>Highlight</type>
  </wpt>
  <wpt lat="48.135295" lon="11.198809">
    <ele>581</ele>
    <name>Amper Riverside</name>
    <cmt>https://d2exd72xrrp1s7.cloudfront.net/www/000/1k7/gc/gckrtcthi5utrramo854i424lfca3kz-uhi60748104/0</cmt>
    <desc>RITTER MARTON 🐑 🐿: Sehr schön
――――――――――
Knersi (📍Maisach): An der Amper entlang ist doch immer schön</desc>
    <src>Komoot</src>
    <link href="https://www.komoot.de/highlight/5764383">
      <text>View POI on Komoot</text>
    </link>
    <type>Highlight</type>
  </wpt>
  <wpt lat="48.136614" lon="11.208929">
    <ele>526.2</ele>
    <name>View of the Amperkraftwerk Schöngeising</name>
    <cmt>https://d2exd72xrrp1s7.cloudfront.net/www/000/1k2/g0/g0tihnsifzhn6do1c1o323fp2kmkhp8d-uhi2578751/0</cmt>
    <desc>MonacoTrail: Laufwasserkraftwerk von 1892, erbaut vom Technikpionier Oskar von Miller. Es ist das älteste Drehstromkraftwerk, das in Deutschland betrieben wird. Die drei im Kraftwerk eingesetzten Francisturbinen wurden im Zuge einer 1910/12 durchgeführten Modernisierung eingebaut und sind noch heute betriebstüchtig. Von der kleinen Grünanlage an der Amperbrücke hat man einen schönen Blick auf die Gesamtanlage.
――――――――――
LandLiebe: Das alte Amperkraftwerk ist ein wirklich schönes Gebäude - topp gepflegt. Die Mini-Parkanlage nebendran lädt zum Verweilen ein, 2 Bänke und Schatten und eine schöne Aussicht - was will man mehr :-)
――――――――――
RITTER MARTON 🐑 🐿: sehr schönes haus
――――――――――
Knersi (📍Maisach): Im Sommer auch eine schöne Abkühlung</desc>
    <src>Komoot</src>
    <link href="https://www.komoot.de/highlight/432316">
      <text>View POI on Komoot</text>
    </link>
    <type>Highlight</type>
  </wpt>
  <wpt lat="48.137455" lon="11.207755">
    <ele>537.3</ele>
    <name>Run-of-river power plant Schöngeising</name>
    <cmt>https://d2exd72xrrp1s7.cloudfront.net/www/000/1k4/1h/1h2g5ksx6ytcaf3l3k6ex01j63es8o5km-uhi15287323/0</cmt>
    <desc>Anne FFB: Kurz anschauen.
――――――――――
🅰️H🍀: Stadtwerke Fürstenfeldbruck (Wasserkraftwerk Schöngeising, 2025-07-06): 
https://www.stadtwerke-ffb.de/de/erzeugung/wasserkraft 

Wikipedia (Liste der Baudenkmäler in Schöngeising, 2022-10-11): 
https://de.m.wikipedia.org/wiki/Liste_der_Baudenkmäler_in_Schöngeising#D-1-79-147-17 
“Elektrizitätswerk … Amperkraftwerk (Elektrizitätswerk) bei der Nadelinsel, Verwaltungs- und Maschinengebäude mit Wehranlage, spätklassizistischer Putzbau mit Sattel- und Walmdach, nach Planung von Oskar von Miller, bezeichnet „Betonbau für Thormann &amp; Stiefel, Augsburg 1891“, 1892 in Betrieb genommen, 1911 zu Überlandkraftwerk ausgebaut … D-1-79-147-17” 

Wikipedia (Laufwasserkraftwerk, 2022-10-11): 
https://de.m.wikipedia.org/wiki/Laufwasserkraftwerk
――――――――――
Carsten (📍FFB): Ja, wenn wenn man vorkommt in Ordnung.
――――――――――
HorstAP: Über dem Turbinenauslass steht „Betonbau von 1891 … Augsburg“. Der Betonbau hält anscheinend noch immer, im Gegensatz zu unseren Betonbrücken. Vielleicht hätte man Mal in Augsburg bei den Erbauern vorher nachfragen sollen ;)
――――――――――
TomB: Und wer genauer hinschauen möchte:

Das erste Wasserkraftwerk Deutschlands bei Schöngeising ⊙
Historische Bedeutung .....  1891/92 in Schöngeising das erste Wasserkraft-Elektrizitätswerk Bayerns von Oskar von Miller erbaut.
(Quelle: https://de.wikipedia.org/wiki/Amper)
――――――――――
Niddi 🏃‍♀️🚴‍♀️⛷: Schönes Plätzchen für einen kleinen Hinkucker
――――――――――
scaurum: 1891/92 Errichtung Kraftwerk Schöngeising (von Oskar von Miller entwickelt und erbaut)
1892 Inbetriebnahme von zwei Knop-Turbinen mit 120 PS, Versorgung der Straßenbeleuchtung in Fürstenfeldbruck über eine 7 km lange Leitung
1896 Einbau einer dritten Turbine
1906 Eine Knop-Turbine wird durch eine leistungsfähigere Francis-Turbine ersetzt
1911/12 Andere Knop-Turbinen durch Francis-Turbinen ersetzt, Wechselstromgeneratoren durch Drehstromgeneratoren ersetzt
1937 Generalüberholung und Einbau eines Wülfel-Getriebes
1983 Installation einer automatischen Rechenanlage, dadurch wird die permanente Besetzung des Kraftwerks überflüssig
2010 Revision der zwei älteren Turbinen und Getriebe
2015 Einbau einer modernen Steuerungsanlage Das Laufwasserkraftwerk Schöngeising ist das zweitälteste seiner Art in Deutschland, dessen Turbinen seit über 100 Jahren ihren Dienst verrichten.

Quelle: https://www.stadtwerke-ffb.de/de/unternehmen/erzeugung/wasserkraft
――――――――――
N.H.71: Das zweit älteste Elektrizitätswerk in Deutschland
――――――――――
Thomas: Landschaftlich sehr schön. Kann man durchaus in eine Runde einplanen. Extra hinfahren würde ich aber nicht.
――――――――――
TomB: Immerhin, wer genauer hinschauen möchte:

Das erste Wasserkraftwerk Deutschlands bei Schöngeising ⊙
Historische Bedeutung .....  1891/92 in Schöngeising das erste Wasserkraft-Elektrizitätswerk Bayerns von Oskar von Miller erbaut.
(Quelle: https://de.wikipedia.org/wiki/Amper)
――――――――――
Carsten (📍FFB): Ein sehr schöner Platz für eine Pause. Auch ein Abkühlung ist hier möglich. Biergarten ums Eck. Also das volle Programm.👍
――――――――――
Knersi (📍Maisach): https://de.m.wikipedia.org/wiki/Laufwasserkraftwerk
――――――――――
Monal: Idyllischer Ort und schönes Kraftwerk
――――――――――
Julian🚴🏼🏃🏼‍♂️: Obwohl schon so alt (1892 in Betrieb genommen), immer noch aktiv!
――――――――――
sibhow: Unbedingt einen Blick durch die Fenster zur Straße neben der Tür werfen, die alten nostalgischen Anzeige-Instrumente sind sehenswert 🤓. 
――――――――――
Michael: 1891/92 Errichtung Kraftwerk Schöngeising von Oskar von Miller entwickelt und erbaut
――――――――――
Michael: 1891 bis 1892 erbaut und erstes Wasserkraftwerk Deutschlands </desc>
    <src>Komoot</src>
    <link href="https://www.komoot.de/highlight/706168">
      <text>View POI on Komoot</text>
    </link>
    <type>Highlight</type>
  </wpt>
  <wpt lat="48.129303" lon="11.194248">
    <ele>532.5</ele>
    <name>Amper Riverside Trail</name>
    <cmt>https://d2exd72xrrp1s7.cloudfront.net/www/000/1k2/1e/1eb0bdwbdmv7o2z6o1rmjpt0g2o4212wx-uhi3370889/0</cmt>
    <desc>Carsten (📍FFB): Auf dem Weg lauern auch ein paar Wurzelstöcke.
Nicht stolpern.
Mir war da zu viel Urwald.😉
――――――――――
SabineK: Wir waren am 1. Mai und da war der Weg sehr gut zu begehen
――――――――――
Jana: Die kleinen privaten Stege bitte nicht betreten!

Der Abschnitt vom Bahnhof Schöngeising außen herum an der Amper entlang bietet alles von breiten Wegen bis schmalen Pfaden. Auch der Biber hat hier und da seine Spuren hinterlassen.
――――――――――
Anderl: wenig besucht, einsam, abenteuerpfad, nichts für Kinderwagen aber feste Schuhe.
――――――――――
Georg: Bäume quer im Weg. Nur schwerlich durchzukommen
――――――――――
LandLiebe: Von Grafrath (Brucker Straße) bis Schöngeising verläuft ein wunderschöner Wanderweg immer an der Amper entlang. Schmaler SingleTrail, Trail und befestigterer Pfad wechseln sich ab, bis man an einen Abschnitt durch ein Biotop (ca. 800m) kommt, der im Sommer extrem zugewachsen ist. Hier handelt es sich auch nur noch um einen SingleTrail. Man kann sich durchkämpfen, aber leider nicht ohne Blessuren. Daher empfehle ich diesen Wanderweg hauptsächlich ab Herbst bis Frühsommer. In der Zeit der vollen Vegetation nur für ganz Unempfindliche oder Leute mit Machete ;-)))
――――――――――
〽️Chris〽️: Super Blick auf die Amper!
――――――――――
peatchii: Auf diesem Abschnitt ist der Weg extrem zugewachsen, nicht fahrbar, am besten wäre eine Machete !
――――――――――
Wadelkrampfler: Bieberbaum
――――――――――
sibhow: Naturbelassene Pfade im Landschafts-Schutzgebiet. 
――――――――――
Anderl: Schöner einsamer Waldpfad mit Flussblick
――――――――――
RITTER MARTON 🐑 🐿: sehr schöner weg, im sommer ziemlich zugewachsen
――――――――――
kathrinh108: Schöner Blick
――――――――――
petra schmid: Wallanlage bei der Sunderburg
――――――――――
Knersi (📍Maisach): Es gibt schöne Wege entlang der Amper
――――――――――
F3ttmull: Nach dem starken Wintereinbruch Anfang Dezember 2023 leider überall dicke Baumstämme, die den Pfad säumen, somit keine Chance fürs Durchkommen :( Gilt östlich des Perlenvorhangs ab dem bewaldeten Abschnitt bis zu den privaten Bootsanliegerstegen.
――――――――――
jimknopf: Rast an der Amper - idyllisch am Flussufer</desc>
    <src>Komoot</src>
    <link href="https://www.komoot.de/highlight/516497">
      <text>View POI on Komoot</text>
    </link>
    <type>Highlight</type>
  </wpt>
  <trk>
    <name>Amperschlucht – Wasserkraftwerk Schöngeising Runde von Grafrath</name>
    <desc>Distance: 8.975km, Estimated duration: 2.37h, Elevation up: 79.94721041749392m, Elevation down: 79.94721041749392m, Grade: moderate</desc>
    <link href="https://www.komoot.de/tour/2306880108">
      <text>View tour on Komoot</text>
    </link>
    <trkseg>
      <trkpt lat="48.122893" lon="11.173789">
        <ele>554</ele>
        <time>2025-06-08T12:31:32.411000Z</time>
      </trkpt>
      <trkpt lat="48.123526" lon="11.173063">
        <ele>550.3</ele>
        <time>2025-06-08T12:32:59.795000Z</time>
      </trkpt>
      <trkpt lat="48.123742" lon="11.172129">
        <ele>547.2</ele>
        <time>2025-06-08T12:34:12.209000Z</time>
      </trkpt>
      <trkpt lat="48.123857" lon="11.17187">
        <ele>546.1</ele>
        <time>2025-06-08T12:34:35.101000Z</time>
      </trkpt>
      <trkpt lat="48.123946" lon="11.172258">
        <ele>545</ele>
        <time>2025-06-08T12:35:04.810000Z</time>
      </trkpt>
      <trkpt lat="48.124039" lon="11.172681">
        <ele>544.1</ele>
        <time>2025-06-08T12:35:36.516000Z</time>
      </trkpt>
      <trkpt lat="48.12409" lon="11.172913">
        <ele>543.6</ele>
        <time>2025-06-08T12:35:53.720000Z</time>
      </trkpt>
      <trkpt lat="48.12413" lon="11.173094">
        <ele>543.4</ele>
        <time>2025-06-08T12:36:07.074000Z</time>
      </trkpt>
      <trkpt lat="48.124154" lon="11.173213">
        <ele>543.2</ele>
        <time>2025-06-08T12:36:15.672000Z</time>
      </trkpt>
      <trkpt lat="48.124362" lon="11.17451">
        <ele>542.3</ele>
        <time>2025-06-08T12:37:46.660000Z</time>
      </trkpt>
      <trkpt lat="48.12439" lon="11.174878">
        <ele>542.2</ele>
        <time>2025-06-08T12:38:11.642000Z</time>
      </trkpt>
      <trkpt lat="48.124358" lon="11.175443">
        <ele>542.4</ele>
        <time>2025-06-08T12:38:50.187000Z</time>
      </trkpt>
      <trkpt lat="48.124233" lon="11.176925">
        <ele>543.9</ele>
        <time>2025-06-08T12:40:35.513000Z</time>
      </trkpt>
      <trkpt lat="48.124166" lon="11.176946">
        <ele>544.1</ele>
        <time>2025-06-08T12:40:42.995000Z</time>
      </trkpt>
      <trkpt lat="48.124153" lon="11.176984">
        <ele>544.2</ele>
        <time>2025-06-08T12:40:46.079000Z</time>
      </trkpt>
      <trkpt lat="48.124163" lon="11.177151">
        <ele>544.4</ele>
        <time>2025-06-08T12:40:58.154000Z</time>
      </trkpt>
      <trkpt lat="48.123987" lon="11.179253">
        <ele>548</ele>
        <time>2025-06-08T12:43:32.474000Z</time>
      </trkpt>
      <trkpt lat="48.123924" lon="11.179702">
        <ele>548.5</ele>
        <time>2025-06-08T12:44:04.863000Z</time>
      </trkpt>
      <trkpt lat="48.123928" lon="11.180735">
        <ele>550</ele>
        <time>2025-06-08T12:45:19.190000Z</time>
      </trkpt>
      <trkpt lat="48.123962" lon="11.181043">
        <ele>550.6</ele>
        <time>2025-06-08T12:45:42.160000Z</time>
      </trkpt>
      <trkpt lat="48.123972" lon="11.181384">
        <ele>551</ele>
        <time>2025-06-08T12:46:06.410000Z</time>
      </trkpt>
      <trkpt lat="48.123956" lon="11.18148">
        <ele>551.1</ele>
        <time>2025-06-08T12:46:13.292000Z</time>
      </trkpt>
      <trkpt lat="48.123899" lon="11.181555">
        <ele>551.2</ele>
        <time>2025-06-08T12:46:21.156000Z</time>
      </trkpt>
      <trkpt lat="48.1236" lon="11.181746">
        <ele>551.2</ele>
        <time>2025-06-08T12:46:53.826000Z</time>
      </trkpt>
      <trkpt lat="48.123538" lon="11.181748">
        <ele>551.2</ele>
        <time>2025-06-08T12:47:00.162000Z</time>
      </trkpt>
      <trkpt lat="48.12345" lon="11.181752">
        <ele>551.1</ele>
        <time>2025-06-08T12:47:09.142000Z</time>
      </trkpt>
      <trkpt lat="48.123395" lon="11.181829">
        <ele>551</ele>
        <time>2025-06-08T12:47:16.914000Z</time>
      </trkpt>
      <trkpt lat="48.123392" lon="11.18192">
        <ele>550.9</ele>
        <time>2025-06-08T12:47:23.198000Z</time>
      </trkpt>
      <trkpt lat="48.123727" lon="11.182201">
        <ele>550.1</ele>
        <time>2025-06-08T12:48:03.224000Z</time>
      </trkpt>
      <trkpt lat="48.123731" lon="11.182201">
        <ele>550.1</ele>
        <time>2025-06-08T12:48:03.676000Z</time>
      </trkpt>
      <trkpt lat="48.124142" lon="11.182182">
        <ele>548.9</ele>
        <time>2025-06-08T12:48:47.352000Z</time>
      </trkpt>
      <trkpt lat="48.12435" lon="11.182358">
        <ele>547.5</ele>
        <time>2025-06-08T12:49:13.956000Z</time>
      </trkpt>
      <trkpt lat="48.12451" lon="11.182708">
        <ele>545.7</ele>
        <time>2025-06-08T12:49:45.915000Z</time>
      </trkpt>
      <trkpt lat="48.12463" lon="11.183067">
        <ele>544.2</ele>
        <time>2025-06-08T12:50:15.899000Z</time>
      </trkpt>
      <trkpt lat="48.124787" lon="11.183686">
        <ele>542</ele>
        <time>2025-06-08T12:51:04.568000Z</time>
      </trkpt>
      <trkpt lat="48.124816" lon="11.183905">
        <ele>541.5</ele>
        <time>2025-06-08T12:51:20.515000Z</time>
      </trkpt>
      <trkpt lat="48.124771" lon="11.184196">
        <ele>541</ele>
        <time>2025-06-08T12:51:41.462000Z</time>
      </trkpt>
      <trkpt lat="48.124987" lon="11.184893">
        <ele>541.3</ele>
        <time>2025-06-08T12:52:33.647000Z</time>
      </trkpt>
      <trkpt lat="48.125013" lon="11.185104">
        <ele>541.6</ele>
        <time>2025-06-08T12:52:49.035000Z</time>
      </trkpt>
      <trkpt lat="48.124966" lon="11.185265">
        <ele>541.9</ele>
        <time>2025-06-08T12:53:01.969000Z</time>
      </trkpt>
      <trkpt lat="48.124884" lon="11.185296">
        <ele>542.2</ele>
        <time>2025-06-08T12:53:11.444000Z</time>
      </trkpt>
      <trkpt lat="48.124868" lon="11.185544">
        <ele>542.8</ele>
        <time>2025-06-08T12:53:30.311000Z</time>
      </trkpt>
      <trkpt lat="48.125023" lon="11.185805">
        <ele>544</ele>
        <time>2025-06-08T12:53:57.777000Z</time>
      </trkpt>
      <trkpt lat="48.125063" lon="11.185864">
        <ele>544.4</ele>
        <time>2025-06-08T12:54:04.558000Z</time>
      </trkpt>
      <trkpt lat="48.125377" lon="11.186751">
        <ele>549.6</ele>
        <time>2025-06-08T12:55:29.426000Z</time>
      </trkpt>
      <trkpt lat="48.125434" lon="11.187222">
        <ele>552.2</ele>
        <time>2025-06-08T12:56:10.373000Z</time>
      </trkpt>
      <trkpt lat="48.125507" lon="11.187556">
        <ele>553.9</ele>
        <time>2025-06-08T12:56:39.389000Z</time>
      </trkpt>
      <trkpt lat="48.125331" lon="11.187823">
        <ele>555.6</ele>
        <time>2025-06-08T12:57:10.276000Z</time>
      </trkpt>
      <trkpt lat="48.125366" lon="11.188393">
        <ele>557.9</ele>
        <time>2025-06-08T12:57:56.645000Z</time>
      </trkpt>
      <trkpt lat="48.125339" lon="11.188846">
        <ele>559.6</ele>
        <time>2025-06-08T12:58:32.746000Z</time>
      </trkpt>
      <trkpt lat="48.125396" lon="11.189247">
        <ele>560.9</ele>
        <time>2025-06-08T12:59:04.807000Z</time>
      </trkpt>
      <trkpt lat="48.125461" lon="11.189531">
        <ele>561.7</ele>
        <time>2025-06-08T12:59:27.669000Z</time>
      </trkpt>
      <trkpt lat="48.125492" lon="11.18966">
        <ele>562</ele>
        <time>2025-06-08T12:59:37.775000Z</time>
      </trkpt>
      <trkpt lat="48.125753" lon="11.190912">
        <ele>563.7</ele>
        <time>2025-06-08T13:01:11.245000Z</time>
      </trkpt>
      <trkpt lat="48.12616" lon="11.191459">
        <ele>563.8</ele>
        <time>2025-06-08T13:02:06.284000Z</time>
      </trkpt>
      <trkpt lat="48.126374" lon="11.192097">
        <ele>563.4</ele>
        <time>2025-06-08T13:02:54.800000Z</time>
      </trkpt>
      <trkpt lat="48.126461" lon="11.192535">
        <ele>562.8</ele>
        <time>2025-06-08T13:03:26.424000Z</time>
      </trkpt>
      <trkpt lat="48.126528" lon="11.19287">
        <ele>562.4</ele>
        <time>2025-06-08T13:03:50.732000Z</time>
      </trkpt>
      <trkpt lat="48.126634" lon="11.19307">
        <ele>561.9</ele>
        <time>2025-06-08T13:04:08.723000Z</time>
      </trkpt>
      <trkpt lat="48.126752" lon="11.193385">
        <ele>561.1</ele>
        <time>2025-06-08T13:04:34.555000Z</time>
      </trkpt>
      <trkpt lat="48.126917" lon="11.193507">
        <ele>560.4</ele>
        <time>2025-06-08T13:04:54.482000Z</time>
      </trkpt>
      <trkpt lat="48.127196" lon="11.193714">
        <ele>558.8</ele>
        <time>2025-06-08T13:05:28.852000Z</time>
      </trkpt>
      <trkpt lat="48.127315" lon="11.193915">
        <ele>557.6</ele>
        <time>2025-06-08T13:05:49.233000Z</time>
      </trkpt>
      <trkpt lat="48.127513" lon="11.194215">
        <ele>555.1</ele>
        <time>2025-06-08T13:06:22.406000Z</time>
      </trkpt>
      <trkpt lat="48.127598" lon="11.194293">
        <ele>554.1</ele>
        <time>2025-06-08T13:06:34.317000Z</time>
      </trkpt>
      <trkpt lat="48.127716" lon="11.194325">
        <ele>552.8</ele>
        <time>2025-06-08T13:06:48.771000Z</time>
      </trkpt>
      <trkpt lat="48.128122" lon="11.194328">
        <ele>548.4</ele>
        <time>2025-06-08T13:07:38.033000Z</time>
      </trkpt>
      <trkpt lat="48.128309" lon="11.194365">
        <ele>546.4</ele>
        <time>2025-06-08T13:08:00.889000Z</time>
      </trkpt>
      <trkpt lat="48.12857" lon="11.194756">
        <ele>542.8</ele>
        <time>2025-06-08T13:08:44.890000Z</time>
      </trkpt>
      <trkpt lat="48.128781" lon="11.195326">
        <ele>539.3</ele>
        <time>2025-06-08T13:09:35.352000Z</time>
      </trkpt>
      <trkpt lat="48.128978" lon="11.195728">
        <ele>537.3</ele>
        <time>2025-06-08T13:10:12.806000Z</time>
      </trkpt>
      <trkpt lat="48.129185" lon="11.195841">
        <ele>536.5</ele>
        <time>2025-06-08T13:10:36.502000Z</time>
      </trkpt>
      <trkpt lat="48.129526" lon="11.196122">
        <ele>536.3</ele>
        <time>2025-06-08T13:11:15.747000Z</time>
      </trkpt>
      <trkpt lat="48.129825" lon="11.196482">
        <ele>536.8</ele>
        <time>2025-06-08T13:11:55.997000Z</time>
      </trkpt>
      <trkpt lat="48.129925" lon="11.196822">
        <ele>537.2</ele>
        <time>2025-06-08T13:12:22.152000Z</time>
      </trkpt>
      <trkpt lat="48.12995" lon="11.19701">
        <ele>537.4</ele>
        <time>2025-06-08T13:12:35.528000Z</time>
      </trkpt>
      <trkpt lat="48.129968" lon="11.197198">
        <ele>537.5</ele>
        <time>2025-06-08T13:12:48.773000Z</time>
      </trkpt>
      <trkpt lat="48.130029" lon="11.19745">
        <ele>537.7</ele>
        <time>2025-06-08T13:13:07.420000Z</time>
      </trkpt>
      <trkpt lat="48.130109" lon="11.197528">
        <ele>537.9</ele>
        <time>2025-06-08T13:13:17.396000Z</time>
      </trkpt>
      <trkpt lat="48.130109" lon="11.197528">
        <ele>537.9</ele>
        <time>2025-06-08T13:13:17.419000Z</time>
      </trkpt>
      <trkpt lat="48.130484" lon="11.197628">
        <ele>538.2</ele>
        <time>2025-06-08T13:13:56.723000Z</time>
      </trkpt>
      <trkpt lat="48.130647" lon="11.197655">
        <ele>538.3</ele>
        <time>2025-06-08T13:14:13.352000Z</time>
      </trkpt>
      <trkpt lat="48.130876" lon="11.197811">
        <ele>538.2</ele>
        <time>2025-06-08T13:14:38.594000Z</time>
      </trkpt>
      <trkpt lat="48.132677" lon="11.198844">
        <ele>533.5</ele>
        <time>2025-06-08T13:18:01.397000Z</time>
      </trkpt>
      <trkpt lat="48.132743" lon="11.198877">
        <ele>533.3</ele>
        <time>2025-06-08T13:18:08.662000Z</time>
      </trkpt>
      <trkpt lat="48.133085" lon="11.199044">
        <ele>532.6</ele>
        <time>2025-06-08T13:18:46.212000Z</time>
      </trkpt>
      <trkpt lat="48.133216" lon="11.199179">
        <ele>532.3</ele>
        <time>2025-06-08T13:19:02.761000Z</time>
      </trkpt>
      <trkpt lat="48.134226" lon="11.200653">
        <ele>530.8</ele>
        <time>2025-06-08T13:21:26.942000Z</time>
      </trkpt>
      <trkpt lat="48.134279" lon="11.200812">
        <ele>530.7</ele>
        <time>2025-06-08T13:21:38.952000Z</time>
      </trkpt>
      <trkpt lat="48.134293" lon="11.200853">
        <ele>530.7</ele>
        <time>2025-06-08T13:21:42.062000Z</time>
      </trkpt>
      <trkpt lat="48.134315" lon="11.201037">
        <ele>530.6</ele>
        <time>2025-06-08T13:21:54.669000Z</time>
      </trkpt>
      <trkpt lat="48.134536" lon="11.198984">
        <ele>529.8</ele>
        <time>2025-06-08T13:24:15.368000Z</time>
      </trkpt>
      <trkpt lat="48.134571" lon="11.198877">
        <ele>529.7</ele>
        <time>2025-06-08T13:24:23.461000Z</time>
      </trkpt>
      <trkpt lat="48.135294" lon="11.198788">
        <ele>529.2</ele>
        <time>2025-06-08T13:25:37.196000Z</time>
      </trkpt>
      <trkpt lat="48.136232" lon="11.198673">
        <ele>528.7</ele>
        <time>2025-06-08T13:27:12.276000Z</time>
      </trkpt>
      <trkpt lat="48.136501" lon="11.19868">
        <ele>528.7</ele>
        <time>2025-06-08T13:27:39.178000Z</time>
      </trkpt>
      <trkpt lat="48.137192" lon="11.198793">
        <ele>528.9</ele>
        <time>2025-06-08T13:28:49.228000Z</time>
      </trkpt>
      <trkpt lat="48.1374" lon="11.198871">
        <ele>528.9</ele>
        <time>2025-06-08T13:29:10.916000Z</time>
      </trkpt>
      <trkpt lat="48.137658" lon="11.199069">
        <ele>529</ele>
        <time>2025-06-08T13:29:40.304000Z</time>
      </trkpt>
      <trkpt lat="48.137901" lon="11.199379">
        <ele>529.1</ele>
        <time>2025-06-08T13:30:12.680000Z</time>
      </trkpt>
      <trkpt lat="48.138151" lon="11.199817">
        <ele>529.2</ele>
        <time>2025-06-08T13:30:51.413000Z</time>
      </trkpt>
      <trkpt lat="48.138277" lon="11.200143">
        <ele>529.2</ele>
        <time>2025-06-08T13:31:16.643000Z</time>
      </trkpt>
      <trkpt lat="48.138361" lon="11.200516">
        <ele>529.2</ele>
        <time>2025-06-08T13:31:42.957000Z</time>
      </trkpt>
      <trkpt lat="48.138486" lon="11.201703">
        <ele>529.1</ele>
        <time>2025-06-08T13:33:03.457000Z</time>
      </trkpt>
      <trkpt lat="48.138438" lon="11.201944">
        <ele>529.1</ele>
        <time>2025-06-08T13:33:20.271000Z</time>
      </trkpt>
      <trkpt lat="48.138302" lon="11.202273">
        <ele>529</ele>
        <time>2025-06-08T13:33:46.273000Z</time>
      </trkpt>
      <trkpt lat="48.137947" lon="11.203363">
        <ele>528.9</ele>
        <time>2025-06-08T13:35:07.571000Z</time>
      </trkpt>
      <trkpt lat="48.137834" lon="11.204108">
        <ele>528.9</ele>
        <time>2025-06-08T13:35:58.700000Z</time>
      </trkpt>
      <trkpt lat="48.137792" lon="11.204384">
        <ele>528.9</ele>
        <time>2025-06-08T13:36:17.623000Z</time>
      </trkpt>
      <trkpt lat="48.136564" lon="11.206708">
        <ele>529</ele>
        <time>2025-06-08T13:39:36.039000Z</time>
      </trkpt>
      <trkpt lat="48.136257" lon="11.20737">
        <ele>529</ele>
        <time>2025-06-08T13:40:29.908000Z</time>
      </trkpt>
      <trkpt lat="48.13581" lon="11.208457">
        <ele>529.1</ele>
        <time>2025-06-08T13:41:55.538000Z</time>
      </trkpt>
      <trkpt lat="48.13566" lon="11.208771">
        <ele>529.1</ele>
        <time>2025-06-08T13:42:21.491000Z</time>
      </trkpt>
      <trkpt lat="48.135681" lon="11.208772">
        <ele>529.1</ele>
        <time>2025-06-08T13:42:23.650000Z</time>
      </trkpt>
      <trkpt lat="48.135964" lon="11.208825">
        <ele>529.2</ele>
        <time>2025-06-08T13:42:52.232000Z</time>
      </trkpt>
      <trkpt lat="48.136058" lon="11.208861">
        <ele>529.2</ele>
        <time>2025-06-08T13:43:02.053000Z</time>
      </trkpt>
      <trkpt lat="48.136162" lon="11.208894">
        <ele>529.2</ele>
        <time>2025-06-08T13:43:12.758000Z</time>
      </trkpt>
      <trkpt lat="48.136419" lon="11.209023">
        <ele>529.2</ele>
        <time>2025-06-08T13:43:39.879000Z</time>
      </trkpt>
      <trkpt lat="48.136524" lon="11.208975">
        <ele>529.1</ele>
        <time>2025-06-08T13:43:50.954000Z</time>
      </trkpt>
      <trkpt lat="48.136607" lon="11.208909">
        <ele>529.1</ele>
        <time>2025-06-08T13:44:00.399000Z</time>
      </trkpt>
      <trkpt lat="48.136766" lon="11.208783">
        <ele>529.1</ele>
        <time>2025-06-08T13:44:18.498000Z</time>
      </trkpt>
      <trkpt lat="48.136886" lon="11.208789">
        <ele>529.1</ele>
        <time>2025-06-08T13:44:30.534000Z</time>
      </trkpt>
      <trkpt lat="48.137077" lon="11.208557">
        <ele>529.1</ele>
        <time>2025-06-08T13:44:55.196000Z</time>
      </trkpt>
      <trkpt lat="48.137152" lon="11.208465">
        <ele>529.1</ele>
        <time>2025-06-08T13:45:04.931000Z</time>
      </trkpt>
      <trkpt lat="48.137373" lon="11.207984">
        <ele>529.2</ele>
        <time>2025-06-08T13:45:44.270000Z</time>
      </trkpt>
      <trkpt lat="48.137409" lon="11.207901">
        <ele>529.2</ele>
        <time>2025-06-08T13:45:51.028000Z</time>
      </trkpt>
      <trkpt lat="48.137581" lon="11.207516">
        <ele>529.5</ele>
        <time>2025-06-08T13:46:22.872000Z</time>
      </trkpt>
      <trkpt lat="48.137772" lon="11.207241">
        <ele>529.8</ele>
        <time>2025-06-08T13:46:50.558000Z</time>
      </trkpt>
      <trkpt lat="48.137922" lon="11.207112">
        <ele>530.1</ele>
        <time>2025-06-08T13:47:08.725000Z</time>
      </trkpt>
      <trkpt lat="48.138201" lon="11.206874">
        <ele>530.5</ele>
        <time>2025-06-08T13:47:42.308000Z</time>
      </trkpt>
      <trkpt lat="48.138749" lon="11.206276">
        <ele>531</ele>
        <time>2025-06-08T13:48:52.141000Z</time>
      </trkpt>
      <trkpt lat="48.138736" lon="11.205969">
        <ele>531</ele>
        <time>2025-06-08T13:49:12.821000Z</time>
      </trkpt>
      <trkpt lat="48.138821" lon="11.20542">
        <ele>531</ele>
        <time>2025-06-08T13:49:50.501000Z</time>
      </trkpt>
      <trkpt lat="48.138755" lon="11.205342">
        <ele>531</ele>
        <time>2025-06-08T13:49:58.960000Z</time>
      </trkpt>
      <trkpt lat="48.138783" lon="11.205168">
        <ele>530.9</ele>
        <time>2025-06-08T13:50:11.047000Z</time>
      </trkpt>
      <trkpt lat="48.138813" lon="11.204985">
        <ele>530.8</ele>
        <time>2025-06-08T13:50:23.846000Z</time>
      </trkpt>
      <trkpt lat="48.138839" lon="11.204407">
        <ele>530.3</ele>
        <time>2025-06-08T13:51:03.531000Z</time>
      </trkpt>
      <trkpt lat="48.13883" lon="11.203309">
        <ele>529.8</ele>
        <time>2025-06-08T13:52:17.878000Z</time>
      </trkpt>
      <trkpt lat="48.138854" lon="11.202893">
        <ele>529.7</ele>
        <time>2025-06-08T13:52:45.925000Z</time>
      </trkpt>
      <trkpt lat="48.138851" lon="11.202095">
        <ele>529.6</ele>
        <time>2025-06-08T13:53:39.493000Z</time>
      </trkpt>
      <trkpt lat="48.138803" lon="11.201267">
        <ele>529.5</ele>
        <time>2025-06-08T13:54:35.171000Z</time>
      </trkpt>
      <trkpt lat="48.138706" lon="11.200278">
        <ele>529.5</ele>
        <time>2025-06-08T13:55:41.989000Z</time>
      </trkpt>
      <trkpt lat="48.138607" lon="11.199898">
        <ele>529.5</ele>
        <time>2025-06-08T13:56:09.273000Z</time>
      </trkpt>
      <trkpt lat="48.138495" lon="11.199606">
        <ele>529.5</ele>
        <time>2025-06-08T13:56:31.805000Z</time>
      </trkpt>
      <trkpt lat="48.138163" lon="11.199044">
        <ele>529.4</ele>
        <time>2025-06-08T13:57:22.010000Z</time>
      </trkpt>
      <trkpt lat="48.137766" lon="11.198535">
        <ele>529.3</ele>
        <time>2025-06-08T13:58:14.602000Z</time>
      </trkpt>
      <trkpt lat="48.137556" lon="11.198371">
        <ele>529.2</ele>
        <time>2025-06-08T13:58:38.516000Z</time>
      </trkpt>
      <trkpt lat="48.137237" lon="11.198227">
        <ele>529.1</ele>
        <time>2025-06-08T13:59:12.106000Z</time>
      </trkpt>
      <trkpt lat="48.136703" lon="11.198103">
        <ele>528.8</ele>
        <time>2025-06-08T14:00:06.655000Z</time>
      </trkpt>
      <trkpt lat="48.135751" lon="11.198079">
        <ele>528.7</ele>
        <time>2025-06-08T14:01:42.261000Z</time>
      </trkpt>
      <trkpt lat="48.134346" lon="11.198232">
        <ele>529.3</ele>
        <time>2025-06-08T14:04:05.622000Z</time>
      </trkpt>
      <trkpt lat="48.133473" lon="11.198064">
        <ele>529.9</ele>
        <time>2025-06-08T14:05:35.677000Z</time>
      </trkpt>
      <trkpt lat="48.132711" lon="11.197736">
        <ele>530.1</ele>
        <time>2025-06-08T14:06:55.647000Z</time>
      </trkpt>
      <trkpt lat="48.132306" lon="11.1975">
        <ele>529.8</ele>
        <time>2025-06-08T14:07:39.778000Z</time>
      </trkpt>
      <trkpt lat="48.132077" lon="11.197321">
        <ele>529.5</ele>
        <time>2025-06-08T14:08:06.286000Z</time>
      </trkpt>
      <trkpt lat="48.131164" lon="11.196317">
        <ele>528</ele>
        <time>2025-06-08T14:10:02.750000Z</time>
      </trkpt>
      <trkpt lat="48.131046" lon="11.196188">
        <ele>527.8</ele>
        <time>2025-06-08T14:10:17.729000Z</time>
      </trkpt>
      <trkpt lat="48.130034" lon="11.195081">
        <ele>528.7</ele>
        <time>2025-06-08T14:12:26.078000Z</time>
      </trkpt>
      <trkpt lat="48.129935" lon="11.194908">
        <ele>529.1</ele>
        <time>2025-06-08T14:12:42.727000Z</time>
      </trkpt>
      <trkpt lat="48.129598" lon="11.194615">
        <ele>530.4</ele>
        <time>2025-06-08T14:13:26.293000Z</time>
      </trkpt>
      <trkpt lat="48.129329" lon="11.194255">
        <ele>531.9</ele>
        <time>2025-06-08T14:14:07.721000Z</time>
      </trkpt>
      <trkpt lat="48.129162" lon="11.194094">
        <ele>532.8</ele>
        <time>2025-06-08T14:14:30.785000Z</time>
      </trkpt>
      <trkpt lat="48.129073" lon="11.193933">
        <ele>533.4</ele>
        <time>2025-06-08T14:14:46.695000Z</time>
      </trkpt>
      <trkpt lat="48.128646" lon="11.193464">
        <ele>534.8</ele>
        <time>2025-06-08T14:15:44.639000Z</time>
      </trkpt>
      <trkpt lat="48.12851" lon="11.193084">
        <ele>534.9</ele>
        <time>2025-06-08T14:16:13.773000Z</time>
      </trkpt>
      <trkpt lat="48.128434" lon="11.192982">
        <ele>534.8</ele>
        <time>2025-06-08T14:16:24.081000Z</time>
      </trkpt>
      <trkpt lat="48.12843" lon="11.192895">
        <ele>534.8</ele>
        <time>2025-06-08T14:16:29.983000Z</time>
      </trkpt>
      <trkpt lat="48.128372" lon="11.19279">
        <ele>534.7</ele>
        <time>2025-06-08T14:16:39.288000Z</time>
      </trkpt>
      <trkpt lat="48.128374" lon="11.192686">
        <ele>534.6</ele>
        <time>2025-06-08T14:16:46.444000Z</time>
      </trkpt>
      <trkpt lat="48.128267" lon="11.192298">
        <ele>534.1</ele>
        <time>2025-06-08T14:17:15.647000Z</time>
      </trkpt>
      <trkpt lat="48.128271" lon="11.192183">
        <ele>533.8</ele>
        <time>2025-06-08T14:17:23.776000Z</time>
      </trkpt>
      <trkpt lat="48.128168" lon="11.191631">
        <ele>532.7</ele>
        <time>2025-06-08T14:18:04.409000Z</time>
      </trkpt>
      <trkpt lat="48.128151" lon="11.191619">
        <ele>532.6</ele>
        <time>2025-06-08T14:18:06.454000Z</time>
      </trkpt>
      <trkpt lat="48.128159" lon="11.191414">
        <ele>532.2</ele>
        <time>2025-06-08T14:18:21.192000Z</time>
      </trkpt>
      <trkpt lat="48.128174" lon="11.191018">
        <ele>531.4</ele>
        <time>2025-06-08T14:18:49.291000Z</time>
      </trkpt>
      <trkpt lat="48.128195" lon="11.190596">
        <ele>530.8</ele>
        <time>2025-06-08T14:19:18.745000Z</time>
      </trkpt>
      <trkpt lat="48.128223" lon="11.190124">
        <ele>530.6</ele>
        <time>2025-06-08T14:19:50.797000Z</time>
      </trkpt>
      <trkpt lat="48.128237" lon="11.188954">
        <ele>531.1</ele>
        <time>2025-06-08T14:21:10.633000Z</time>
      </trkpt>
      <trkpt lat="48.128197" lon="11.188643">
        <ele>531.3</ele>
        <time>2025-06-08T14:21:32.555000Z</time>
      </trkpt>
      <trkpt lat="48.128044" lon="11.187876">
        <ele>531.9</ele>
        <time>2025-06-08T14:22:28.313000Z</time>
      </trkpt>
      <trkpt lat="48.128033" lon="11.187775">
        <ele>532</ele>
        <time>2025-06-08T14:22:35.468000Z</time>
      </trkpt>
      <trkpt lat="48.128054" lon="11.187642">
        <ele>532.1</ele>
        <time>2025-06-08T14:22:45.022000Z</time>
      </trkpt>
      <trkpt lat="48.128032" lon="11.1875">
        <ele>532.3</ele>
        <time>2025-06-08T14:22:55.240000Z</time>
      </trkpt>
      <trkpt lat="48.127997" lon="11.18737">
        <ele>532.4</ele>
        <time>2025-06-08T14:23:05.087000Z</time>
      </trkpt>
      <trkpt lat="48.127898" lon="11.187197">
        <ele>532.6</ele>
        <time>2025-06-08T14:23:21.094000Z</time>
      </trkpt>
      <trkpt lat="48.12784" lon="11.18704">
        <ele>532.8</ele>
        <time>2025-06-08T14:23:33.635000Z</time>
      </trkpt>
      <trkpt lat="48.12769" lon="11.186404">
        <ele>533.3</ele>
        <time>2025-06-08T14:24:20.580000Z</time>
      </trkpt>
      <trkpt lat="48.127589" lon="11.186233">
        <ele>533.5</ele>
        <time>2025-06-08T14:24:36.616000Z</time>
      </trkpt>
      <trkpt lat="48.127424" lon="11.18581">
        <ele>534.1</ele>
        <time>2025-06-08T14:25:11.214000Z</time>
      </trkpt>
      <trkpt lat="48.12713" lon="11.185241">
        <ele>534.5</ele>
        <time>2025-06-08T14:26:00.998000Z</time>
      </trkpt>
      <trkpt lat="48.126938" lon="11.184806">
        <ele>534.6</ele>
        <time>2025-06-08T14:26:35.960000Z</time>
      </trkpt>
      <trkpt lat="48.126836" lon="11.184482">
        <ele>534.4</ele>
        <time>2025-06-08T14:27:00.230000Z</time>
      </trkpt>
      <trkpt lat="48.126361" lon="11.183667">
        <ele>533.7</ele>
        <time>2025-06-08T14:28:14.048000Z</time>
      </trkpt>
      <trkpt lat="48.126292" lon="11.183453">
        <ele>533.5</ele>
        <time>2025-06-08T14:28:30.250000Z</time>
      </trkpt>
      <trkpt lat="48.126106" lon="11.182645">
        <ele>533.2</ele>
        <time>2025-06-08T14:29:28.046000Z</time>
      </trkpt>
      <trkpt lat="48.126005" lon="11.182267">
        <ele>533.3</ele>
        <time>2025-06-08T14:29:55.583000Z</time>
      </trkpt>
      <trkpt lat="48.125746" lon="11.181295">
        <ele>534.2</ele>
        <time>2025-06-08T14:31:08.941000Z</time>
      </trkpt>
      <trkpt lat="48.125704" lon="11.180979">
        <ele>534.7</ele>
        <time>2025-06-08T14:31:32.154000Z</time>
      </trkpt>
      <trkpt lat="48.12565" lon="11.17988">
        <ele>536.6</ele>
        <time>2025-06-08T14:32:52.379000Z</time>
      </trkpt>
      <trkpt lat="48.125601" lon="11.178971">
        <ele>539.5</ele>
        <time>2025-06-08T14:34:03.484000Z</time>
      </trkpt>
      <trkpt lat="48.125639" lon="11.178822">
        <ele>540.2</ele>
        <time>2025-06-08T14:34:16.268000Z</time>
      </trkpt>
      <trkpt lat="48.125743" lon="11.178721">
        <ele>540.8</ele>
        <time>2025-06-08T14:34:30.980000Z</time>
      </trkpt>
      <trkpt lat="48.125829" lon="11.178713">
        <ele>541.2</ele>
        <time>2025-06-08T14:34:41.082000Z</time>
      </trkpt>
      <trkpt lat="48.126299" lon="11.17887">
        <ele>543.5</ele>
        <time>2025-06-08T14:35:36.937000Z</time>
      </trkpt>
      <trkpt lat="48.126364" lon="11.178843">
        <ele>543.8</ele>
        <time>2025-06-08T14:35:44.775000Z</time>
      </trkpt>
      <trkpt lat="48.126479" lon="11.178697">
        <ele>544.3</ele>
        <time>2025-06-08T14:36:01.915000Z</time>
      </trkpt>
      <trkpt lat="48.126086" lon="11.177442">
        <ele>546.3</ele>
        <time>2025-06-08T14:37:41.539000Z</time>
      </trkpt>
      <trkpt lat="48.125931" lon="11.177086">
        <ele>545.9</ele>
        <time>2025-06-08T14:38:10.841000Z</time>
      </trkpt>
      <trkpt lat="48.125821" lon="11.176641">
        <ele>545.2</ele>
        <time>2025-06-08T14:38:44.058000Z</time>
      </trkpt>
      <trkpt lat="48.12579" lon="11.176332">
        <ele>544.7</ele>
        <time>2025-06-08T14:39:05.903000Z</time>
      </trkpt>
      <trkpt lat="48.125735" lon="11.174482">
        <ele>542.5</ele>
        <time>2025-06-08T14:41:14.159000Z</time>
      </trkpt>
      <trkpt lat="48.125731" lon="11.174327">
        <ele>542.3</ele>
        <time>2025-06-08T14:41:24.829000Z</time>
      </trkpt>
      <trkpt lat="48.125771" lon="11.17352">
        <ele>541.3</ele>
        <time>2025-06-08T14:42:21.126000Z</time>
      </trkpt>
      <trkpt lat="48.125755" lon="11.173238">
        <ele>540.8</ele>
        <time>2025-06-08T14:42:40.952000Z</time>
      </trkpt>
      <trkpt lat="48.125699" lon="11.17294">
        <ele>540.3</ele>
        <time>2025-06-08T14:43:02.649000Z</time>
      </trkpt>
      <trkpt lat="48.125577" lon="11.172562">
        <ele>539.6</ele>
        <time>2025-06-08T14:43:32.073000Z</time>
      </trkpt>
      <trkpt lat="48.125441" lon="11.17195">
        <ele>538.6</ele>
        <time>2025-06-08T14:44:17.416000Z</time>
      </trkpt>
      <trkpt lat="48.125167" lon="11.171075">
        <ele>536.9</ele>
        <time>2025-06-08T14:45:25.499000Z</time>
      </trkpt>
      <trkpt lat="48.124912" lon="11.170518">
        <ele>536.2</ele>
        <time>2025-06-08T14:46:11.926000Z</time>
      </trkpt>
      <trkpt lat="48.124744" lon="11.170372">
        <ele>536.3</ele>
        <time>2025-06-08T14:46:31.612000Z</time>
      </trkpt>
      <trkpt lat="48.1246" lon="11.170203">
        <ele>536.5</ele>
        <time>2025-06-08T14:46:50.798000Z</time>
      </trkpt>
      <trkpt lat="48.124427" lon="11.169908">
        <ele>537.2</ele>
        <time>2025-06-08T14:47:19.353000Z</time>
      </trkpt>
      <trkpt lat="48.124416" lon="11.169932">
        <ele>537.3</ele>
        <time>2025-06-08T14:47:21.467000Z</time>
      </trkpt>
      <trkpt lat="48.124336" lon="11.170116">
        <ele>537.7</ele>
        <time>2025-06-08T14:47:37.758000Z</time>
      </trkpt>
      <trkpt lat="48.124236" lon="11.17037">
        <ele>538.4</ele>
        <time>2025-06-08T14:47:59.926000Z</time>
      </trkpt>
      <trkpt lat="48.124136" lon="11.170749">
        <ele>539.5</ele>
        <time>2025-06-08T14:48:31.066000Z</time>
      </trkpt>
      <trkpt lat="48.124116" lon="11.170887">
        <ele>540</ele>
        <time>2025-06-08T14:48:42.165000Z</time>
      </trkpt>
      <trkpt lat="48.124099" lon="11.171027">
        <ele>540.5</ele>
        <time>2025-06-08T14:48:53.333000Z</time>
      </trkpt>
      <trkpt lat="48.124071" lon="11.171247">
        <ele>541.4</ele>
        <time>2025-06-08T14:49:11.235000Z</time>
      </trkpt>
      <trkpt lat="48.12405" lon="11.171407">
        <ele>542</ele>
        <time>2025-06-08T14:49:24.352000Z</time>
      </trkpt>
      <trkpt lat="48.123959" lon="11.171661">
        <ele>543.2</ele>
        <time>2025-06-08T14:49:47.906000Z</time>
      </trkpt>
      <trkpt lat="48.123857" lon="11.17187">
        <ele>544.4</ele>
        <time>2025-06-08T14:50:09.224000Z</time>
      </trkpt>
      <trkpt lat="48.123742" lon="11.172129">
        <ele>545.9</ele>
        <time>2025-06-08T14:50:35.053000Z</time>
      </trkpt>
      <trkpt lat="48.123526" lon="11.173063">
        <ele>550.2</ele>
        <time>2025-06-08T14:51:55.784000Z</time>
      </trkpt>
      <trkpt lat="48.122893" lon="11.173789">
        <ele>554</ele>
        <time>2025-06-08T14:53:28.862000Z</time>
      </trkpt>
    </trkseg>
  </trk>
</gpx>