<?xml version="1.0" encoding="UTF-8"?>
<gpx xmlns="http://www.topografix.com/GPX/1/1" xmlns:xsi="http://www.w3.org/2001/XMLSchema-instance" xsi:schemaLocation="http://www.topografix.com/GPX/1/1 http://www.topografix.com/GPX/1/1/gpx.xsd" version="1.1" creator="Robert Kampf">
  <metadata>
    <name>Bank mit Blick auf den Lech – Blick auf den Lech Runde von Toteiskessel</name>
    <desc>Distance: 9.888km, Estimated duration: 2.64h, Elevation up: 109.46134231889778m, Elevation down: 109.46134231889778m, Grade: moderate</desc>
    <author>
      <name>Robert Kampf</name>
      <link href="https://www.komoot.de/user/4125295338453">
        <text>View Robert Kampf's Profile on Komoot</text>
      </link>
    </author>
    <link href="https://www.komoot.de/tour/2853529742">
      <text>View tour on Komoot</text>
    </link>
  </metadata>
  <wpt lat="47.980207" lon="10.902718">
    <name>Frauenwies</name>
    <cmt></cmt>
    <desc>Not accessible</desc>
    <src>Komoot</src>
    <type>POI</type>
  </wpt>
  <wpt lat="47.977119" lon="10.882629">
    <ele>671.8</ele>
    <name>Forest Road by Lech River Dam</name>
    <cmt>https://d2exd72xrrp1s7.cloudfront.net/www/000/1k7/1p/1pfus22agcaddabo5m0tozsui4isz62h2-uhi58493483/0</cmt>
    <desc></desc>
    <src>Komoot</src>
    <link href="https://www.komoot.de/highlight/5579994">
      <text>View POI on Komoot</text>
    </link>
    <type>Highlight</type>
  </wpt>
  <wpt lat="47.972977" lon="10.880729">
    <ele>653.1</ele>
    <name>Lechtal-Süd Riverside Trail</name>
    <cmt>https://d2exd72xrrp1s7.cloudfront.net/www/000/1k7/1s/1sgwaixs2pm5s1hpig4j26uqlj4isz5ob1-uhi58493473/0</cmt>
    <desc></desc>
    <src>Komoot</src>
    <link href="https://www.komoot.de/highlight/5579991">
      <text>View POI on Komoot</text>
    </link>
    <type>Highlight</type>
  </wpt>
  <wpt lat="47.969629" lon="10.881302">
    <ele>669.3</ele>
    <name>Rope Swing Over Lech Lake</name>
    <cmt>https://d2exd72xrrp1s7.cloudfront.net/www/000/1k4/1i/1ierknc8t4hbm10jlvxuy59f6q3iei47i4-uhi22469712/0</cmt>
    <desc>ubahnsurfer: Hier kann man in den Lech schaukeln und sich erfrischen.</desc>
    <src>Komoot</src>
    <link href="https://www.komoot.de/highlight/2651292">
      <text>View POI on Komoot</text>
    </link>
    <type>Highlight</type>
  </wpt>
  <wpt lat="47.964924" lon="10.884185">
    <ele>730.5</ele>
    <name>Bench with a View of the Lech</name>
    <cmt>https://d2exd72xrrp1s7.cloudfront.net/www/000/1k4/rg/rgo7k26csuuo15vvkxypsnhqg3k2mq7fh-uhi25054048/0</cmt>
    <desc>Marco Schicker: fantastischer Blick
――――――――――
PfalzGraveller: Toller Fernblick über das Lech Tal
――――――――――
PfalzGraveller: Toller Blick auf die Lech.
――――――――――
Michael M.: Bin die Tour heute gefahren. Bis auf den Abschnitt, bei dem man definitiv mit einem Gravelbike schieben muss, eine schöne Tour. Super Ausblick!</desc>
    <src>Komoot</src>
    <link href="https://www.komoot.de/highlight/3004736">
      <text>View POI on Komoot</text>
    </link>
    <type>Highlight</type>
  </wpt>
  <wpt lat="47.964622" lon="10.884421">
    <ele>718.3</ele>
    <name>View of the Lech River</name>
    <cmt>https://d2exd72xrrp1s7.cloudfront.net/www/000/1k0/1n/1n9825l2r917zv1ffmjpx1xr91s9owfix-uhi352366/0</cmt>
    <desc>⚡Hma⚡(📍MIL  🇩🇪 ): Ob mit Fahrrad oder zu Fuß, diesen Ausblick sollte man sich nicht entgehen lassen.
――――――――――
Michael: Sehr schöner Trail von Mundraching bis Pitzling (und noch weiter). Tolle Aussicht auf die Lechschleifen. Einkehrmöglichkeit in die Teufelsküche kurz nach Pitzling.
――――――――――
Carsten (📍FFB): Zeit für eine Pause.
Bank ist da und die Blicke in die Ferne richten 😉
――――――――――
Manfred: Schöne Aussicht über Mundraching Seestall bis ins Fuchstal
――――――――――
Benjamin Leyer: Schöner knackiger Trail mit super Aussichten auf dem Lech :-)
――――――――――
msateam: Super schöne Ecke mit Ausblick und tolle Wurzelstrecke.
――――――――――
Raphael: Mega Aussicht. Und eine Bank zum sitzen und entspannen gibts auch.
――――――――――
Holger: einfach mal eine kleine Pause einlegen und den Blick sowie die Ruhe geniessen
――――――――――
Reiner L: Ein richtig toller Ausblick über den Lech und die Vorfreude auf einen tollen und anspruchsvollen Trail.
――――――――――
⚡Hma⚡(📍MIL  🇩🇪 ): Toller Platz zum Verweilen und Träumen.
――――――――――
Loady: Schöne Strecke, aber auch sehr anspruchsvoll (viel Wurzelwerk)
――――――――――
Holger: anhalten, die Bank zur Pause nutzen und Blick sowie die Ruhe geniessen
――――――――――
Hardi: Herlicher Platz zum schauen und genießen
――――――――――
Di Rienzo S.: Sehr schöner Anblick und Aussicht.
――――――――――
Manfred: schöne Aussicht über Seestall
――――――――――
Tobi: Mittlerweile ist man dort als Biker leider nicht mehr so gern gesehen, so gut wie alle Wege blockiert und zusätzlich teilweise Verbotsschilder
――――――――――
Boris 🚴 🏃🐾🐕‍🦺: Dieser Abschnitt der Tour ist sehr schwer, die Wurzeln ragen weit nach oben und der Weg ist steil. Fahrt nicht zu schnell, die Sicht ist sooo schön.
――――――――――
Dome: Immer wieder schön, den Ausblick auf der Bank zu genießen.
――――――――――
Michael: Am Lech gibt's zahlreiche Trails &amp; Radwege
――――――――――
Timo. 📍Stapel ]: Grandiose Aussicht auf den Lech..
――――――――――
Tom War: tiefer Abhang mit Ausblick aus dem Wald auf den Lech
――――――――――
Michael: Rastplatz mit Panorama
――――――――――
Anita/Awa🐕 Und Bianca: wirklich zu empfehlen... auch wenn der Weg etwas anstrengend ist</desc>
    <src>Komoot</src>
    <link href="https://www.komoot.de/highlight/1008659">
      <text>View POI on Komoot</text>
    </link>
    <type>Highlight</type>
  </wpt>
  <wpt lat="47.962007" lon="10.884001">
    <ele>734</ele>
    <name>View of Lechauen and lakes near Lechtal-Süd</name>
    <cmt>https://d2exd72xrrp1s7.cloudfront.net/www/000/1k8/18/18py1fp6ctlvo16neka14yfof4wq8ij0q-uhi69731762/0</cmt>
    <desc></desc>
    <src>Komoot</src>
    <link href="https://www.komoot.de/highlight/6463849">
      <text>View POI on Komoot</text>
    </link>
    <type>Highlight</type>
  </wpt>
  <wpt lat="47.96128" lon="10.883279">
    <ele>731</ele>
    <name>View of the Lech</name>
    <cmt>https://d2exd72xrrp1s7.cloudfront.net/www/000/1k9/1n/1nhozfxhkar4h10o0tej434uo75ckda8jk-uhi85492249/0</cmt>
    <desc>Timo. 📍Stapel ]: Tolle Leistung dort Oben eine Pausenbank zu Spenden ( Markus und Christoph ) 
Der Blick ist Genial ..</desc>
    <src>Komoot</src>
    <link href="https://www.komoot.de/highlight/7396578">
      <text>View POI on Komoot</text>
    </link>
    <type>Highlight</type>
  </wpt>
  <wpt lat="47.979891" lon="10.891392">
    <ele>725.2</ele>
    <name>Picnic Shelter</name>
    <cmt>https://d2exd72xrrp1s7.cloudfront.net/www/000/1k5/1i/1i7j44auf0v41gdcnk4aik37f3p2fhtsc-uhi29757271/0</cmt>
    <desc></desc>
    <src>Komoot</src>
    <link href="https://www.komoot.de/highlight/3004999">
      <text>View POI on Komoot</text>
    </link>
    <type>Highlight</type>
  </wpt>
  <trk>
    <name>Bank mit Blick auf den Lech – Blick auf den Lech Runde von Toteiskessel</name>
    <desc>Distance: 9.888km, Estimated duration: 2.64h, Elevation up: 109.46134231889778m, Elevation down: 109.46134231889778m, Grade: moderate</desc>
    <link href="https://www.komoot.de/tour/2853529742">
      <text>View tour on Komoot</text>
    </link>
    <trkseg>
      <trkpt lat="47.980208" lon="10.902755">
        <ele>675.3</ele>
        <time>2026-03-30T12:11:55.440000Z</time>
      </trkpt>
      <trkpt lat="47.980167" lon="10.902751">
        <ele>675.3</ele>
        <time>2026-03-30T12:11:59.661000Z</time>
      </trkpt>
      <trkpt lat="47.98022" lon="10.900788">
        <ele>675.3</ele>
        <time>2026-03-30T12:14:11.409000Z</time>
      </trkpt>
      <trkpt lat="47.980235" lon="10.899903">
        <ele>674.8</ele>
        <time>2026-03-30T12:15:11.808000Z</time>
      </trkpt>
      <trkpt lat="47.980226" lon="10.89674">
        <ele>672.3</ele>
        <time>2026-03-30T12:18:48.938000Z</time>
      </trkpt>
      <trkpt lat="47.980191" lon="10.893974">
        <ele>672.2</ele>
        <time>2026-03-30T12:21:54.518000Z</time>
      </trkpt>
      <trkpt lat="47.980241" lon="10.89244">
        <ele>669.9</ele>
        <time>2026-03-30T12:23:42.049000Z</time>
      </trkpt>
      <trkpt lat="47.980229" lon="10.892338">
        <ele>669.8</ele>
        <time>2026-03-30T12:23:49.348000Z</time>
      </trkpt>
      <trkpt lat="47.980005" lon="10.891642">
        <ele>668.5</ele>
        <time>2026-03-30T12:24:43.567000Z</time>
      </trkpt>
      <trkpt lat="47.980755" lon="10.890902">
        <ele>666.6</ele>
        <time>2026-03-30T12:26:17.542000Z</time>
      </trkpt>
      <trkpt lat="47.98125" lon="10.890522">
        <ele>665.3</ele>
        <time>2026-03-30T12:27:15.935000Z</time>
      </trkpt>
      <trkpt lat="47.983145" lon="10.888705">
        <ele>655.8</ele>
        <time>2026-03-30T12:31:20.622000Z</time>
      </trkpt>
      <trkpt lat="47.983261" lon="10.888648">
        <ele>655.4</ele>
        <time>2026-03-30T12:31:33.749000Z</time>
      </trkpt>
      <trkpt lat="47.983394" lon="10.888644">
        <ele>655</ele>
        <time>2026-03-30T12:31:47.910000Z</time>
      </trkpt>
      <trkpt lat="47.983714" lon="10.888789">
        <ele>654</ele>
        <time>2026-03-30T12:32:23.456000Z</time>
      </trkpt>
      <trkpt lat="47.983907" lon="10.888842">
        <ele>653.4</ele>
        <time>2026-03-30T12:32:44.295000Z</time>
      </trkpt>
      <trkpt lat="47.983998" lon="10.889076">
        <ele>652.8</ele>
        <time>2026-03-30T12:33:03.490000Z</time>
      </trkpt>
      <trkpt lat="47.98402" lon="10.88925">
        <ele>652.5</ele>
        <time>2026-03-30T12:33:16.101000Z</time>
      </trkpt>
      <trkpt lat="47.984015" lon="10.889423">
        <ele>652.2</ele>
        <time>2026-03-30T12:33:28.330000Z</time>
      </trkpt>
      <trkpt lat="47.983987" lon="10.889539">
        <ele>652</ele>
        <time>2026-03-30T12:33:36.973000Z</time>
      </trkpt>
      <trkpt lat="47.984035" lon="10.889556">
        <ele>651.9</ele>
        <time>2026-03-30T12:33:42.178000Z</time>
      </trkpt>
      <trkpt lat="47.984418" lon="10.889415">
        <ele>651</ele>
        <time>2026-03-30T12:34:23.304000Z</time>
      </trkpt>
      <trkpt lat="47.984628" lon="10.88926">
        <ele>650.8</ele>
        <time>2026-03-30T12:34:47.328000Z</time>
      </trkpt>
      <trkpt lat="47.985204" lon="10.888727">
        <ele>649.7</ele>
        <time>2026-03-30T12:35:57.387000Z</time>
      </trkpt>
      <trkpt lat="47.985667" lon="10.888366">
        <ele>649</ele>
        <time>2026-03-30T12:36:51.036000Z</time>
      </trkpt>
      <trkpt lat="47.985824" lon="10.888182">
        <ele>648.9</ele>
        <time>2026-03-30T12:37:11.181000Z</time>
      </trkpt>
      <trkpt lat="47.985967" lon="10.887884">
        <ele>648.8</ele>
        <time>2026-03-30T12:37:35.914000Z</time>
      </trkpt>
      <trkpt lat="47.986199" lon="10.887149">
        <ele>648.7</ele>
        <time>2026-03-30T12:38:30.538000Z</time>
      </trkpt>
      <trkpt lat="47.986356" lon="10.886449">
        <ele>648.5</ele>
        <time>2026-03-30T12:39:20.520000Z</time>
      </trkpt>
      <trkpt lat="47.98615" lon="10.886278">
        <ele>648.4</ele>
        <time>2026-03-30T12:39:44.384000Z</time>
      </trkpt>
      <trkpt lat="47.98607" lon="10.886113">
        <ele>648.3</ele>
        <time>2026-03-30T12:39:58.124000Z</time>
      </trkpt>
      <trkpt lat="47.985892" lon="10.885461">
        <ele>648.2</ele>
        <time>2026-03-30T12:40:45.599000Z</time>
      </trkpt>
      <trkpt lat="47.98581" lon="10.885346">
        <ele>648.2</ele>
        <time>2026-03-30T12:40:56.851000Z</time>
      </trkpt>
      <trkpt lat="47.985709" lon="10.88522">
        <ele>648.1</ele>
        <time>2026-03-30T12:41:10.157000Z</time>
      </trkpt>
      <trkpt lat="47.985477" lon="10.885084">
        <ele>648</ele>
        <time>2026-03-30T12:41:35.432000Z</time>
      </trkpt>
      <trkpt lat="47.985067" lon="10.884739">
        <ele>647.8</ele>
        <time>2026-03-30T12:42:22.792000Z</time>
      </trkpt>
      <trkpt lat="47.984861" lon="10.884494">
        <ele>647.9</ele>
        <time>2026-03-30T12:42:49.492000Z</time>
      </trkpt>
      <trkpt lat="47.984733" lon="10.88422">
        <ele>648</ele>
        <time>2026-03-30T12:43:12.282000Z</time>
      </trkpt>
      <trkpt lat="47.984367" lon="10.883918">
        <ele>648.3</ele>
        <time>2026-03-30T12:43:55.159000Z</time>
      </trkpt>
      <trkpt lat="47.98352" lon="10.883911">
        <ele>648.9</ele>
        <time>2026-03-30T12:45:22.207000Z</time>
      </trkpt>
      <trkpt lat="47.982968" lon="10.883842">
        <ele>649.7</ele>
        <time>2026-03-30T12:46:20.422000Z</time>
      </trkpt>
      <trkpt lat="47.982524" lon="10.883826">
        <ele>650.4</ele>
        <time>2026-03-30T12:47:07.321000Z</time>
      </trkpt>
      <trkpt lat="47.981318" lon="10.883581">
        <ele>651.9</ele>
        <time>2026-03-30T12:49:14.504000Z</time>
      </trkpt>
      <trkpt lat="47.980556" lon="10.883597">
        <ele>650.9</ele>
        <time>2026-03-30T12:50:32.918000Z</time>
      </trkpt>
      <trkpt lat="47.979866" lon="10.883585">
        <ele>643.8</ele>
        <time>2026-03-30T12:51:55.917000Z</time>
      </trkpt>
      <trkpt lat="47.979787" lon="10.883509">
        <ele>642.7</ele>
        <time>2026-03-30T12:52:07.515000Z</time>
      </trkpt>
      <trkpt lat="47.979538" lon="10.882881">
        <ele>637.2</ele>
        <time>2026-03-30T12:53:07.195000Z</time>
      </trkpt>
      <trkpt lat="47.979467" lon="10.882811">
        <ele>636.2</ele>
        <time>2026-03-30T12:53:17.690000Z</time>
      </trkpt>
      <trkpt lat="47.979312" lon="10.88279">
        <ele>634.4</ele>
        <time>2026-03-30T12:53:36.673000Z</time>
      </trkpt>
      <trkpt lat="47.978448" lon="10.882987">
        <ele>626.5</ele>
        <time>2026-03-30T12:55:19.800000Z</time>
      </trkpt>
      <trkpt lat="47.977743" lon="10.882877">
        <ele>625.4</ele>
        <time>2026-03-30T12:56:33.197000Z</time>
      </trkpt>
      <trkpt lat="47.977126" lon="10.882596">
        <ele>624.2</ele>
        <time>2026-03-30T12:57:40.065000Z</time>
      </trkpt>
      <trkpt lat="47.977105" lon="10.882587">
        <ele>624.2</ele>
        <time>2026-03-30T12:57:42.247000Z</time>
      </trkpt>
      <trkpt lat="47.976749" lon="10.882214">
        <ele>623.7</ele>
        <time>2026-03-30T12:58:26.966000Z</time>
      </trkpt>
      <trkpt lat="47.976637" lon="10.882167">
        <ele>623.4</ele>
        <time>2026-03-30T12:58:39.115000Z</time>
      </trkpt>
      <trkpt lat="47.976268" lon="10.882361">
        <ele>622.4</ele>
        <time>2026-03-30T12:59:20.453000Z</time>
      </trkpt>
      <trkpt lat="47.975999" lon="10.882366">
        <ele>621.3</ele>
        <time>2026-03-30T12:59:49.391000Z</time>
      </trkpt>
      <trkpt lat="47.975513" lon="10.882067">
        <ele>619.9</ele>
        <time>2026-03-30T13:00:45.083000Z</time>
      </trkpt>
      <trkpt lat="47.975203" lon="10.881842">
        <ele>618.8</ele>
        <time>2026-03-30T13:01:21.749000Z</time>
      </trkpt>
      <trkpt lat="47.974476" lon="10.881543">
        <ele>617</ele>
        <time>2026-03-30T13:02:40.883000Z</time>
      </trkpt>
      <trkpt lat="47.974037" lon="10.881428">
        <ele>617.6</ele>
        <time>2026-03-30T13:03:27.528000Z</time>
      </trkpt>
      <trkpt lat="47.973591" lon="10.881561">
        <ele>617</ele>
        <time>2026-03-30T13:04:14.177000Z</time>
      </trkpt>
      <trkpt lat="47.973512" lon="10.88155">
        <ele>616.8</ele>
        <time>2026-03-30T13:04:22.625000Z</time>
      </trkpt>
      <trkpt lat="47.973264" lon="10.881635">
        <ele>616.2</ele>
        <time>2026-03-30T13:04:49.360000Z</time>
      </trkpt>
      <trkpt lat="47.973197" lon="10.881654">
        <ele>616</ele>
        <time>2026-03-30T13:04:56.561000Z</time>
      </trkpt>
      <trkpt lat="47.972998" lon="10.8816">
        <ele>615.6</ele>
        <time>2026-03-30T13:05:17.643000Z</time>
      </trkpt>
      <trkpt lat="47.97305" lon="10.881222">
        <ele>615.1</ele>
        <time>2026-03-30T13:05:44.571000Z</time>
      </trkpt>
      <trkpt lat="47.97301" lon="10.880986">
        <ele>614.7</ele>
        <time>2026-03-30T13:06:01.642000Z</time>
      </trkpt>
      <trkpt lat="47.972836" lon="10.88074">
        <ele>614.1</ele>
        <time>2026-03-30T13:06:26.973000Z</time>
      </trkpt>
      <trkpt lat="47.972977" lon="10.880742">
        <ele>613.6</ele>
        <time>2026-03-30T13:06:42.037000Z</time>
      </trkpt>
      <trkpt lat="47.972836" lon="10.88074">
        <ele>613</ele>
        <time>2026-03-30T13:06:57.463000Z</time>
      </trkpt>
      <trkpt lat="47.972525" lon="10.88066">
        <ele>611.6</ele>
        <time>2026-03-30T13:07:31.822000Z</time>
      </trkpt>
      <trkpt lat="47.972372" lon="10.880505">
        <ele>611.3</ele>
        <time>2026-03-30T13:07:50.936000Z</time>
      </trkpt>
      <trkpt lat="47.972164" lon="10.880511">
        <ele>611.3</ele>
        <time>2026-03-30T13:08:11.722000Z</time>
      </trkpt>
      <trkpt lat="47.971968" lon="10.880577">
        <ele>611.4</ele>
        <time>2026-03-30T13:08:32.337000Z</time>
      </trkpt>
      <trkpt lat="47.971907" lon="10.880531">
        <ele>611.5</ele>
        <time>2026-03-30T13:08:39.380000Z</time>
      </trkpt>
      <trkpt lat="47.971853" lon="10.880455">
        <ele>611.5</ele>
        <time>2026-03-30T13:08:47.030000Z</time>
      </trkpt>
      <trkpt lat="47.971734" lon="10.880392">
        <ele>611.7</ele>
        <time>2026-03-30T13:09:00.052000Z</time>
      </trkpt>
      <trkpt lat="47.971585" lon="10.880398">
        <ele>611.8</ele>
        <time>2026-03-30T13:09:15.468000Z</time>
      </trkpt>
      <trkpt lat="47.971461" lon="10.880555">
        <ele>611.9</ele>
        <time>2026-03-30T13:09:32.151000Z</time>
      </trkpt>
      <trkpt lat="47.971352" lon="10.88048">
        <ele>612</ele>
        <time>2026-03-30T13:09:44.390000Z</time>
      </trkpt>
      <trkpt lat="47.971253" lon="10.88038">
        <ele>612</ele>
        <time>2026-03-30T13:09:56.540000Z</time>
      </trkpt>
      <trkpt lat="47.97116" lon="10.880408">
        <ele>612.1</ele>
        <time>2026-03-30T13:10:06.163000Z</time>
      </trkpt>
      <trkpt lat="47.971041" lon="10.88064">
        <ele>612.1</ele>
        <time>2026-03-30T13:10:26.029000Z</time>
      </trkpt>
      <trkpt lat="47.970216" lon="10.881084">
        <ele>613.6</ele>
        <time>2026-03-30T13:11:59.088000Z</time>
      </trkpt>
      <trkpt lat="47.969665" lon="10.881429">
        <ele>615.4</ele>
        <time>2026-03-30T13:13:05.088000Z</time>
      </trkpt>
      <trkpt lat="47.969662" lon="10.881431">
        <ele>615.4</ele>
        <time>2026-03-30T13:13:05.417000Z</time>
      </trkpt>
      <trkpt lat="47.969374" lon="10.881668">
        <ele>616.4</ele>
        <time>2026-03-30T13:13:41.837000Z</time>
      </trkpt>
      <trkpt lat="47.968925" lon="10.881897">
        <ele>619.2</ele>
        <time>2026-03-30T13:14:38.955000Z</time>
      </trkpt>
      <trkpt lat="47.968623" lon="10.881991">
        <ele>620.5</ele>
        <time>2026-03-30T13:15:14.390000Z</time>
      </trkpt>
      <trkpt lat="47.968446" lon="10.882117">
        <ele>621.2</ele>
        <time>2026-03-30T13:15:36.481000Z</time>
      </trkpt>
      <trkpt lat="47.968364" lon="10.882214">
        <ele>621.7</ele>
        <time>2026-03-30T13:15:48.660000Z</time>
      </trkpt>
      <trkpt lat="47.968375" lon="10.88228">
        <ele>622</ele>
        <time>2026-03-30T13:15:54.172000Z</time>
      </trkpt>
      <trkpt lat="47.968559" lon="10.882603">
        <ele>624.8</ele>
        <time>2026-03-30T13:16:31.953000Z</time>
      </trkpt>
      <trkpt lat="47.968131" lon="10.882692">
        <ele>631.2</ele>
        <time>2026-03-30T13:17:42.996000Z</time>
      </trkpt>
      <trkpt lat="47.968017" lon="10.882732">
        <ele>633.2</ele>
        <time>2026-03-30T13:18:03.845000Z</time>
      </trkpt>
      <trkpt lat="47.967856" lon="10.882831">
        <ele>636.5</ele>
        <time>2026-03-30T13:18:36.866000Z</time>
      </trkpt>
      <trkpt lat="47.967789" lon="10.882924">
        <ele>638.2</ele>
        <time>2026-03-30T13:18:54.037000Z</time>
      </trkpt>
      <trkpt lat="47.967742" lon="10.883064">
        <ele>640.1</ele>
        <time>2026-03-30T13:19:13.949000Z</time>
      </trkpt>
      <trkpt lat="47.967624" lon="10.883462">
        <ele>644.1</ele>
        <time>2026-03-30T13:19:58.929000Z</time>
      </trkpt>
      <trkpt lat="47.967518" lon="10.883888">
        <ele>647.7</ele>
        <time>2026-03-30T13:20:42.227000Z</time>
      </trkpt>
      <trkpt lat="47.967388" lon="10.884192">
        <ele>650.8</ele>
        <time>2026-03-30T13:21:18.134000Z</time>
      </trkpt>
      <trkpt lat="47.967168" lon="10.884341">
        <ele>653.5</ele>
        <time>2026-03-30T13:21:51.756000Z</time>
      </trkpt>
      <trkpt lat="47.967205" lon="10.884105">
        <ele>654.6</ele>
        <time>2026-03-30T13:22:11.841000Z</time>
      </trkpt>
      <trkpt lat="47.967187" lon="10.883688">
        <ele>655.1</ele>
        <time>2026-03-30T13:22:41.578000Z</time>
      </trkpt>
      <trkpt lat="47.966982" lon="10.883653">
        <ele>654.9</ele>
        <time>2026-03-30T13:23:02.563000Z</time>
      </trkpt>
      <trkpt lat="47.966737" lon="10.883678">
        <ele>654.6</ele>
        <time>2026-03-30T13:23:27.819000Z</time>
      </trkpt>
      <trkpt lat="47.966692" lon="10.883729">
        <ele>654.5</ele>
        <time>2026-03-30T13:23:33.633000Z</time>
      </trkpt>
      <trkpt lat="47.966241" lon="10.883821">
        <ele>654.4</ele>
        <time>2026-03-30T13:24:19.574000Z</time>
      </trkpt>
      <trkpt lat="47.966012" lon="10.883821">
        <ele>654.6</ele>
        <time>2026-03-30T13:24:43.316000Z</time>
      </trkpt>
      <trkpt lat="47.96585" lon="10.883914">
        <ele>654.9</ele>
        <time>2026-03-30T13:25:01.800000Z</time>
      </trkpt>
      <trkpt lat="47.965755" lon="10.884078">
        <ele>655.3</ele>
        <time>2026-03-30T13:25:17.615000Z</time>
      </trkpt>
      <trkpt lat="47.965258" lon="10.884323">
        <ele>656</ele>
        <time>2026-03-30T13:26:12.580000Z</time>
      </trkpt>
      <trkpt lat="47.965107" lon="10.884208">
        <ele>655.9</ele>
        <time>2026-03-30T13:26:29.675000Z</time>
      </trkpt>
      <trkpt lat="47.964984" lon="10.884199">
        <ele>655.8</ele>
        <time>2026-03-30T13:26:42.252000Z</time>
      </trkpt>
      <trkpt lat="47.964907" lon="10.884242">
        <ele>655.6</ele>
        <time>2026-03-30T13:26:50.851000Z</time>
      </trkpt>
      <trkpt lat="47.964705" lon="10.884402">
        <ele>654.9</ele>
        <time>2026-03-30T13:27:15.104000Z</time>
      </trkpt>
      <trkpt lat="47.964627" lon="10.884444">
        <ele>654.5</ele>
        <time>2026-03-30T13:27:24.231000Z</time>
      </trkpt>
      <trkpt lat="47.96455" lon="10.884484">
        <ele>654.2</ele>
        <time>2026-03-30T13:27:33.078000Z</time>
      </trkpt>
      <trkpt lat="47.964248" lon="10.884339">
        <ele>653</ele>
        <time>2026-03-30T13:28:07.170000Z</time>
      </trkpt>
      <trkpt lat="47.96385" lon="10.884272">
        <ele>653</ele>
        <time>2026-03-30T13:28:47.396000Z</time>
      </trkpt>
      <trkpt lat="47.963652" lon="10.884194">
        <ele>653.5</ele>
        <time>2026-03-30T13:29:09.717000Z</time>
      </trkpt>
      <trkpt lat="47.963566" lon="10.884212">
        <ele>653.7</ele>
        <time>2026-03-30T13:29:19.128000Z</time>
      </trkpt>
      <trkpt lat="47.96339" lon="10.884165">
        <ele>654.3</ele>
        <time>2026-03-30T13:29:38.959000Z</time>
      </trkpt>
      <trkpt lat="47.963153" lon="10.884252">
        <ele>655.4</ele>
        <time>2026-03-30T13:30:07.132000Z</time>
      </trkpt>
      <trkpt lat="47.96295" lon="10.884455">
        <ele>656.9</ele>
        <time>2026-03-30T13:30:37.018000Z</time>
      </trkpt>
      <trkpt lat="47.962654" lon="10.884809">
        <ele>660.5</ele>
        <time>2026-03-30T13:31:26.938000Z</time>
      </trkpt>
      <trkpt lat="47.962425" lon="10.88431">
        <ele>664.6</ele>
        <time>2026-03-30T13:32:21.269000Z</time>
      </trkpt>
      <trkpt lat="47.962095" lon="10.884086">
        <ele>667.3</ele>
        <time>2026-03-30T13:33:06.531000Z</time>
      </trkpt>
      <trkpt lat="47.962004" lon="10.884008">
        <ele>667.8</ele>
        <time>2026-03-30T13:33:18.942000Z</time>
      </trkpt>
      <trkpt lat="47.961851" lon="10.883876">
        <ele>668.6</ele>
        <time>2026-03-30T13:33:39.324000Z</time>
      </trkpt>
      <trkpt lat="47.961757" lon="10.883904">
        <ele>668.9</ele>
        <time>2026-03-30T13:33:50.017000Z</time>
      </trkpt>
      <trkpt lat="47.961609" lon="10.883622">
        <ele>669.6</ele>
        <time>2026-03-30T13:34:16.468000Z</time>
      </trkpt>
      <trkpt lat="47.961466" lon="10.883473">
        <ele>670.1</ele>
        <time>2026-03-30T13:34:35.664000Z</time>
      </trkpt>
      <trkpt lat="47.96137" lon="10.883432">
        <ele>670.4</ele>
        <time>2026-03-30T13:34:46.659000Z</time>
      </trkpt>
      <trkpt lat="47.961321" lon="10.883347">
        <ele>670.6</ele>
        <time>2026-03-30T13:34:54.847000Z</time>
      </trkpt>
      <trkpt lat="47.961297" lon="10.883267">
        <ele>670.7</ele>
        <time>2026-03-30T13:35:01.164000Z</time>
      </trkpt>
      <trkpt lat="47.961271" lon="10.883183">
        <ele>670.8</ele>
        <time>2026-03-30T13:35:07.810000Z</time>
      </trkpt>
      <trkpt lat="47.961264" lon="10.882967">
        <ele>671.1</ele>
        <time>2026-03-30T13:35:23.209000Z</time>
      </trkpt>
      <trkpt lat="47.961065" lon="10.882731">
        <ele>671.3</ele>
        <time>2026-03-30T13:35:49.482000Z</time>
      </trkpt>
      <trkpt lat="47.960915" lon="10.882379">
        <ele>671.4</ele>
        <time>2026-03-30T13:36:17.944000Z</time>
      </trkpt>
      <trkpt lat="47.960832" lon="10.882296">
        <ele>671.5</ele>
        <time>2026-03-30T13:36:28.012000Z</time>
      </trkpt>
      <trkpt lat="47.960747" lon="10.88234">
        <ele>671.5</ele>
        <time>2026-03-30T13:36:37.190000Z</time>
      </trkpt>
      <trkpt lat="47.960704" lon="10.88224">
        <ele>671.6</ele>
        <time>2026-03-30T13:36:45.314000Z</time>
      </trkpt>
      <trkpt lat="47.960552" lon="10.882323">
        <ele>671.6</ele>
        <time>2026-03-30T13:37:01.756000Z</time>
      </trkpt>
      <trkpt lat="47.960475" lon="10.882273">
        <ele>671.7</ele>
        <time>2026-03-30T13:37:10.368000Z</time>
      </trkpt>
      <trkpt lat="47.960462" lon="10.882138">
        <ele>671.7</ele>
        <time>2026-03-30T13:37:19.721000Z</time>
      </trkpt>
      <trkpt lat="47.960355" lon="10.881989">
        <ele>671.9</ele>
        <time>2026-03-30T13:37:34.851000Z</time>
      </trkpt>
      <trkpt lat="47.960178" lon="10.882075">
        <ele>672.3</ele>
        <time>2026-03-30T13:37:54.910000Z</time>
      </trkpt>
      <trkpt lat="47.959963" lon="10.88225">
        <ele>673.1</ele>
        <time>2026-03-30T13:38:22.133000Z</time>
      </trkpt>
      <trkpt lat="47.95989" lon="10.88225">
        <ele>673.4</ele>
        <time>2026-03-30T13:38:30.536000Z</time>
      </trkpt>
      <trkpt lat="47.959617" lon="10.882736">
        <ele>675.6</ele>
        <time>2026-03-30T13:39:20.756000Z</time>
      </trkpt>
      <trkpt lat="47.959561" lon="10.882903">
        <ele>676.4</ele>
        <time>2026-03-30T13:39:35.975000Z</time>
      </trkpt>
      <trkpt lat="47.959538" lon="10.883134">
        <ele>677.4</ele>
        <time>2026-03-30T13:39:55.066000Z</time>
      </trkpt>
      <trkpt lat="47.959511" lon="10.883282">
        <ele>678</ele>
        <time>2026-03-30T13:40:07.603000Z</time>
      </trkpt>
      <trkpt lat="47.95944" lon="10.883429">
        <ele>678.8</ele>
        <time>2026-03-30T13:40:22.313000Z</time>
      </trkpt>
      <trkpt lat="47.959489" lon="10.883756">
        <ele>680.2</ele>
        <time>2026-03-30T13:40:49.707000Z</time>
      </trkpt>
      <trkpt lat="47.95953" lon="10.884339">
        <ele>682.7</ele>
        <time>2026-03-30T13:41:37.321000Z</time>
      </trkpt>
      <trkpt lat="47.959395" lon="10.88459">
        <ele>683.9</ele>
        <time>2026-03-30T13:42:03.033000Z</time>
      </trkpt>
      <trkpt lat="47.959245" lon="10.884759">
        <ele>684.7</ele>
        <time>2026-03-30T13:42:24.779000Z</time>
      </trkpt>
      <trkpt lat="47.959304" lon="10.885114">
        <ele>685.6</ele>
        <time>2026-03-30T13:42:52.317000Z</time>
      </trkpt>
      <trkpt lat="47.959673" lon="10.885472">
        <ele>686.4</ele>
        <time>2026-03-30T13:43:39.347000Z</time>
      </trkpt>
      <trkpt lat="47.960107" lon="10.88584">
        <ele>686.6</ele>
        <time>2026-03-30T13:44:29.909000Z</time>
      </trkpt>
      <trkpt lat="47.96023" lon="10.88598">
        <ele>686.6</ele>
        <time>2026-03-30T13:44:45.434000Z</time>
      </trkpt>
      <trkpt lat="47.960305" lon="10.886133">
        <ele>686.5</ele>
        <time>2026-03-30T13:44:58.203000Z</time>
      </trkpt>
      <trkpt lat="47.960358" lon="10.886315">
        <ele>686.5</ele>
        <time>2026-03-30T13:45:11.612000Z</time>
      </trkpt>
      <trkpt lat="47.960381" lon="10.886542">
        <ele>686.5</ele>
        <time>2026-03-30T13:45:27.098000Z</time>
      </trkpt>
      <trkpt lat="47.960365" lon="10.886729">
        <ele>686.4</ele>
        <time>2026-03-30T13:45:39.860000Z</time>
      </trkpt>
      <trkpt lat="47.96014" lon="10.88807">
        <ele>685.9</ele>
        <time>2026-03-30T13:47:13.628000Z</time>
      </trkpt>
      <trkpt lat="47.96009" lon="10.88878">
        <ele>685.9</ele>
        <time>2026-03-30T13:48:01.810000Z</time>
      </trkpt>
      <trkpt lat="47.960067" lon="10.889501">
        <ele>686.5</ele>
        <time>2026-03-30T13:48:51.974000Z</time>
      </trkpt>
      <trkpt lat="47.960075" lon="10.88988">
        <ele>686.9</ele>
        <time>2026-03-30T13:49:18.879000Z</time>
      </trkpt>
      <trkpt lat="47.960092" lon="10.89065">
        <ele>687.9</ele>
        <time>2026-03-30T13:50:14.188000Z</time>
      </trkpt>
      <trkpt lat="47.960217" lon="10.891686">
        <ele>689.7</ele>
        <time>2026-03-30T13:51:30.932000Z</time>
      </trkpt>
      <trkpt lat="47.96023" lon="10.891797">
        <ele>689.8</ele>
        <time>2026-03-30T13:51:39.021000Z</time>
      </trkpt>
      <trkpt lat="47.960443" lon="10.892414">
        <ele>690.5</ele>
        <time>2026-03-30T13:52:28.151000Z</time>
      </trkpt>
      <trkpt lat="47.960803" lon="10.893205">
        <ele>691</ele>
        <time>2026-03-30T13:53:33.986000Z</time>
      </trkpt>
      <trkpt lat="47.961364" lon="10.893972">
        <ele>690.9</ele>
        <time>2026-03-30T13:54:50.378000Z</time>
      </trkpt>
      <trkpt lat="47.961621" lon="10.894672">
        <ele>690.4</ele>
        <time>2026-03-30T13:55:44.901000Z</time>
      </trkpt>
      <trkpt lat="47.961765" lon="10.894945">
        <ele>690.1</ele>
        <time>2026-03-30T13:56:08.849000Z</time>
      </trkpt>
      <trkpt lat="47.962143" lon="10.895506">
        <ele>689.4</ele>
        <time>2026-03-30T13:57:03.736000Z</time>
      </trkpt>
      <trkpt lat="47.962214" lon="10.895673">
        <ele>689.2</ele>
        <time>2026-03-30T13:57:17.363000Z</time>
      </trkpt>
      <trkpt lat="47.962431" lon="10.89637">
        <ele>688.6</ele>
        <time>2026-03-30T13:58:10.034000Z</time>
      </trkpt>
      <trkpt lat="47.962857" lon="10.897154">
        <ele>688.2</ele>
        <time>2026-03-30T13:59:18.473000Z</time>
      </trkpt>
      <trkpt lat="47.962917" lon="10.897372">
        <ele>688.1</ele>
        <time>2026-03-30T13:59:34.537000Z</time>
      </trkpt>
      <trkpt lat="47.962969" lon="10.89787">
        <ele>687.8</ele>
        <time>2026-03-30T14:00:08.933000Z</time>
      </trkpt>
      <trkpt lat="47.962927" lon="10.898321">
        <ele>687.5</ele>
        <time>2026-03-30T14:00:40.178000Z</time>
      </trkpt>
      <trkpt lat="47.963536" lon="10.898027">
        <ele>686.5</ele>
        <time>2026-03-30T14:01:46.347000Z</time>
      </trkpt>
      <trkpt lat="47.963827" lon="10.89793">
        <ele>685.8</ele>
        <time>2026-03-30T14:02:17.549000Z</time>
      </trkpt>
      <trkpt lat="47.963898" lon="10.897869">
        <ele>685.6</ele>
        <time>2026-03-30T14:02:26.258000Z</time>
      </trkpt>
      <trkpt lat="47.964447" lon="10.896719">
        <ele>682.3</ele>
        <time>2026-03-30T14:04:07.598000Z</time>
      </trkpt>
      <trkpt lat="47.964419" lon="10.897426">
        <ele>679.6</ele>
        <time>2026-03-30T14:05:00.547000Z</time>
      </trkpt>
      <trkpt lat="47.964319" lon="10.898057">
        <ele>676.9</ele>
        <time>2026-03-30T14:05:49.440000Z</time>
      </trkpt>
      <trkpt lat="47.964325" lon="10.898223">
        <ele>676.1</ele>
        <time>2026-03-30T14:06:02.069000Z</time>
      </trkpt>
      <trkpt lat="47.964486" lon="10.898551">
        <ele>674.3</ele>
        <time>2026-03-30T14:06:32.938000Z</time>
      </trkpt>
      <trkpt lat="47.964906" lon="10.899317">
        <ele>670.5</ele>
        <time>2026-03-30T14:07:47.078000Z</time>
      </trkpt>
      <trkpt lat="47.964986" lon="10.899228">
        <ele>669.9</ele>
        <time>2026-03-30T14:07:58.238000Z</time>
      </trkpt>
      <trkpt lat="47.966951" lon="10.896957">
        <ele>664.3</ele>
        <time>2026-03-30T14:12:18.453000Z</time>
      </trkpt>
      <trkpt lat="47.967119" lon="10.896817">
        <ele>664.1</ele>
        <time>2026-03-30T14:12:37.956000Z</time>
      </trkpt>
      <trkpt lat="47.967297" lon="10.896721">
        <ele>664</ele>
        <time>2026-03-30T14:12:57.183000Z</time>
      </trkpt>
      <trkpt lat="47.967734" lon="10.89655">
        <ele>663.8</ele>
        <time>2026-03-30T14:13:42.835000Z</time>
      </trkpt>
      <trkpt lat="47.968464" lon="10.895688">
        <ele>664.2</ele>
        <time>2026-03-30T14:15:17.444000Z</time>
      </trkpt>
      <trkpt lat="47.969221" lon="10.894786">
        <ele>665.6</ele>
        <time>2026-03-30T14:16:59.167000Z</time>
      </trkpt>
      <trkpt lat="47.969349" lon="10.894685">
        <ele>665.9</ele>
        <time>2026-03-30T14:17:14.659000Z</time>
      </trkpt>
      <trkpt lat="47.969743" lon="10.894374">
        <ele>666.8</ele>
        <time>2026-03-30T14:18:02.679000Z</time>
      </trkpt>
      <trkpt lat="47.970296" lon="10.894037">
        <ele>668.2</ele>
        <time>2026-03-30T14:19:07.168000Z</time>
      </trkpt>
      <trkpt lat="47.970647" lon="10.893965">
        <ele>669</ele>
        <time>2026-03-30T14:19:45.439000Z</time>
      </trkpt>
      <trkpt lat="47.972374" lon="10.893744">
        <ele>672.6</ele>
        <time>2026-03-30T14:22:51.629000Z</time>
      </trkpt>
      <trkpt lat="47.974749" lon="10.891682">
        <ele>678.5</ele>
        <time>2026-03-30T14:27:47.491000Z</time>
      </trkpt>
      <trkpt lat="47.974979" lon="10.891473">
        <ele>678.7</ele>
        <time>2026-03-30T14:28:15.353000Z</time>
      </trkpt>
      <trkpt lat="47.975532" lon="10.891067">
        <ele>678.5</ele>
        <time>2026-03-30T14:29:17.427000Z</time>
      </trkpt>
      <trkpt lat="47.97593" lon="10.890893">
        <ele>677.8</ele>
        <time>2026-03-30T14:30:00.471000Z</time>
      </trkpt>
      <trkpt lat="47.976353" lon="10.890865">
        <ele>676.8</ele>
        <time>2026-03-30T14:30:44.896000Z</time>
      </trkpt>
      <trkpt lat="47.977123" lon="10.890627">
        <ele>674.4</ele>
        <time>2026-03-30T14:32:08.364000Z</time>
      </trkpt>
      <trkpt lat="47.977636" lon="10.890623">
        <ele>673.4</ele>
        <time>2026-03-30T14:33:01.897000Z</time>
      </trkpt>
      <trkpt lat="47.977841" lon="10.890683">
        <ele>673.1</ele>
        <time>2026-03-30T14:33:23.479000Z</time>
      </trkpt>
      <trkpt lat="47.978298" lon="10.890749">
        <ele>672.5</ele>
        <time>2026-03-30T14:34:10.634000Z</time>
      </trkpt>
      <trkpt lat="47.979065" lon="10.890837">
        <ele>671.3</ele>
        <time>2026-03-30T14:35:30.080000Z</time>
      </trkpt>
      <trkpt lat="47.979358" lon="10.890818">
        <ele>670.7</ele>
        <time>2026-03-30T14:36:00.743000Z</time>
      </trkpt>
      <trkpt lat="47.979743" lon="10.890857">
        <ele>670.1</ele>
        <time>2026-03-30T14:36:40.664000Z</time>
      </trkpt>
      <trkpt lat="47.979804" lon="10.890931">
        <ele>670</ele>
        <time>2026-03-30T14:36:48.686000Z</time>
      </trkpt>
      <trkpt lat="47.979851" lon="10.89105">
        <ele>669.9</ele>
        <time>2026-03-30T14:36:58.136000Z</time>
      </trkpt>
      <trkpt lat="47.979934" lon="10.891367">
        <ele>669.8</ele>
        <time>2026-03-30T14:37:21.204000Z</time>
      </trkpt>
      <trkpt lat="47.980005" lon="10.891642">
        <ele>669.7</ele>
        <time>2026-03-30T14:37:41.067000Z</time>
      </trkpt>
      <trkpt lat="47.980229" lon="10.892338">
        <ele>670.1</ele>
        <time>2026-03-30T14:38:34.237000Z</time>
      </trkpt>
      <trkpt lat="47.980241" lon="10.89244">
        <ele>670.2</ele>
        <time>2026-03-30T14:38:41.516000Z</time>
      </trkpt>
      <trkpt lat="47.980191" lon="10.893974">
        <ele>672.2</ele>
        <time>2026-03-30T14:40:31.308000Z</time>
      </trkpt>
      <trkpt lat="47.980226" lon="10.89674">
        <ele>672.3</ele>
        <time>2026-03-30T14:43:37.062000Z</time>
      </trkpt>
      <trkpt lat="47.980235" lon="10.899903">
        <ele>674.8</ele>
        <time>2026-03-30T14:47:17.927000Z</time>
      </trkpt>
      <trkpt lat="47.98022" lon="10.900788">
        <ele>675.3</ele>
        <time>2026-03-30T14:48:19.121000Z</time>
      </trkpt>
      <trkpt lat="47.980167" lon="10.902751">
        <ele>675.3</ele>
        <time>2026-03-30T14:50:30.821000Z</time>
      </trkpt>
      <trkpt lat="47.980208" lon="10.902755">
        <ele>675.3</ele>
        <time>2026-03-30T14:50:35.005000Z</time>
      </trkpt>
    </trkseg>
  </trk>
</gpx>