<?xml version="1.0" encoding="UTF-8"?>
<gpx xmlns="http://www.topografix.com/GPX/1/1" xmlns:xsi="http://www.w3.org/2001/XMLSchema-instance" xsi:schemaLocation="http://www.topografix.com/GPX/1/1 http://www.topografix.com/GPX/1/1/gpx.xsd" version="1.1" creator="Robert Kampf">
  <metadata>
    <name>Blick auf den Irsinger Stausee – Frankenhofener See Runde von Irsingen</name>
    <desc>Distance: 28.349km, Estimated duration: 7.2h, Elevation up: 73.4715056244429m, Elevation down: 73.47150562444267m, Grade: difficult</desc>
    <author>
      <name>Robert Kampf</name>
      <link href="https://www.komoot.de/user/4125295338453">
        <text>View Robert Kampf's Profile on Komoot</text>
      </link>
    </author>
    <link href="https://www.komoot.de/tour/2878796104">
      <text>View tour on Komoot</text>
    </link>
  </metadata>
  <wpt lat="48.0233" lon="10.65093">
    <name>Parking</name>
    <cmt></cmt>
    <desc>Free</desc>
    <src>Komoot</src>
    <type>POI</type>
  </wpt>
  <wpt lat="48.018969" lon="10.649225">
    <ele>613.3</ele>
    <name>View of Irsinger Reservoir</name>
    <cmt>https://d2exd72xrrp1s7.cloudfront.net/www/000/1k6/pa/pacaq7p7v0z18awsllzx6zzy48fireyb-uhi51800374/0</cmt>
    <desc>Annette: Zu jeder Jahreszeit schön den Stausee zu umrunden. Ca. 5km. Zu Fuß 🦶, wie mit dem Fahrrad 🚲. Am Rand des Stausees, wie am Rand der Wertach blühen viele Blumen jetzt im Juli.</desc>
    <src>Komoot</src>
    <link href="https://www.komoot.de/highlight/4635292">
      <text>View POI on Komoot</text>
    </link>
    <type>Highlight</type>
  </wpt>
  <wpt lat="48.017497" lon="10.650747">
    <ele>670.9</ele>
    <name>Eco Island Bad Wörishofen</name>
    <cmt>https://d2exd72xrrp1s7.cloudfront.net/www/000/1k6/po/po3u1981e5wp13x90qu1rxb0u41hmhc8c-uhi45909415/0</cmt>
    <desc></desc>
    <src>Komoot</src>
    <link href="https://www.komoot.de/highlight/4056045">
      <text>View POI on Komoot</text>
    </link>
    <type>Highlight</type>
  </wpt>
  <wpt lat="48.004054" lon="10.648777">
    <ele>669.9</ele>
    <name>Wertach Nature Trail Information Board</name>
    <cmt>https://d2exd72xrrp1s7.cloudfront.net/www/000/1k7/14/145lp4uh708es1qgrg11tmq1hj4l28bnp4-uhi60315860/0</cmt>
    <desc></desc>
    <src>Komoot</src>
    <link href="https://www.komoot.de/highlight/4056024">
      <text>View POI on Komoot</text>
    </link>
    <type>Highlight</type>
  </wpt>
  <wpt lat="47.987937" lon="10.64778">
    <name>Bingstetter See</name>
    <cmt></cmt>
    <desc></desc>
    <src>Komoot</src>
    <type>POI</type>
  </wpt>
  <wpt lat="47.982995" lon="10.645886">
    <ele>676.8</ele>
    <name>Bench with a view of the Wertach River</name>
    <cmt>https://d2exd72xrrp1s7.cloudfront.net/www/000/1k6/1e/1ezh5mt86mab2ci3ga5hlo3la41hk38fn-uhi45908365/0</cmt>
    <desc>Loockes: Hier finden Sie im Sommer sehr viele Wasservögel
――――――――――
Heike: Sehr schöne Tour an der Wertach entlang
――――――――――
Mike Fox: Auf dieser Bank kann man die Ruhe und die Aussicht genießen, ideal zum entspannen.
――――――――――
SpeedyRosi🫶: An der Wertach entlang lässt es sich wunderbar radeln.</desc>
    <src>Komoot</src>
    <link href="https://www.komoot.de/highlight/4953116">
      <text>View POI on Komoot</text>
    </link>
    <type>Highlight</type>
  </wpt>
  <wpt lat="47.98246" lon="10.644401">
    <ele>686.7</ele>
    <name>Old Steel Bridge Over the Wertach</name>
    <cmt>https://d2exd72xrrp1s7.cloudfront.net/www/000/1k4/1a/1aaerlhds1ybv1tp17iwnl0ykd3cdhb03d-uhi11746669/0</cmt>
    <desc>msateam: Gut für einen Seitenwechsel an der Wertach.
――――――――――
Loockes: Alte Stahlbrücke über die Wertach
――――――――――
AS: Schön über die alte Brücke zu fahren
――――――――――
Sanson Charles: Solide Konstruktion. Kurze Verschnaufpause wert.
――――――――――
Michael: ÖPNV im 21. Jahrhundert 
DIY 🚴‍♀️
――――――――――
Mike Fox: Schöne Stahlbogenbrücke über die Wertach
――――――――――
Jörg: Schöne, alte Stahlbrücke mit Wintersonne</desc>
    <src>Komoot</src>
    <link href="https://www.komoot.de/highlight/1256789">
      <text>View POI on Komoot</text>
    </link>
    <type>Highlight</type>
  </wpt>
  <wpt lat="47.978449" lon="10.641445">
    <ele>681.8</ele>
    <name>Rest Area at Rottachsee</name>
    <cmt>https://d2exd72xrrp1s7.cloudfront.net/www/000/1k5/hb/hbzz2822u80rm26n79t2o8jj3muhs6ab-uhi27737468/0</cmt>
    <desc>Otti Vpunkt: richtig gut hier ist sogar eine Steckdose zum Laden vom Handy</desc>
    <src>Komoot</src>
    <link href="https://www.komoot.de/highlight/2843933">
      <text>View POI on Komoot</text>
    </link>
    <type>Highlight</type>
  </wpt>
  <wpt lat="47.97471" lon="10.637403">
    <ele>683</ele>
    <name>Frankenhofener Lake</name>
    <cmt>https://d2exd72xrrp1s7.cloudfront.net/www/000/1k1/28/28umu205qy1113s8niuow3qit23hrol2e-uhi760119/0</cmt>
    <desc>Martin  👣: Der Frankenhofener See bei Bad Wörishofen ist ein Stausee der Wertach. Das Ufer ist überwiegend dicht bewachsen. Der See ist bei Schwänen und Anglern sehr beliebt. 
Wer gerne Schwäne beobachtet oder fotografiert, hat am Frankenhofener See reichlich Gelegenheit dazu. 
Mit viel Glück ist hier auch mal ein Bieber zu beobachten.
――――――――――
breddy: Ein schöner Platz mit Aussicht
――――――――――
Dare2Bike: Für eine Abkühlung immer gut
――――――――――
msateam: Überraschend ein relativ großer See mit vielen Vögeln,etc...
――――――――――
Johannes: Super schöne Seite dess Sees
――――――――――
AS: Sehr idyllisch gelegener See
――――――――――
AS: Ein wahres Vogelparadies ist der Frankenhofener See
――――――――――
Wolfgang Reh (Hirschi): ein Stausee / See ist immer schön für eine Pause
――――――――――
Mike Fox: Schöner See für eine Runde in den Wertachauen
――――――――――
Kev_Kf_Allgäu: schön zum radeln dort. viele bänke am Ufer entlang</desc>
    <src>Komoot</src>
    <link href="https://www.komoot.de/highlight/218222">
      <text>View POI on Komoot</text>
    </link>
    <type>Highlight</type>
  </wpt>
  <wpt lat="47.970548" lon="10.633113">
    <ele>681.5</ele>
    <name>Wertach Weir</name>
    <cmt>https://d2exd72xrrp1s7.cloudfront.net/www/000/1k5/hl/hlc6xwg7mwzunfsl9hr0vqo23tjyg1xv-uhi36252800/0</cmt>
    <desc>Chris: rauschendes Wasser lädt zum Rasten ein
――――――――――
Mike Fox: Eine kleine Staustufe oder besser Stolperstein für die Wertach.
――――――――――
Michael: Überlaufwehr</desc>
    <src>Komoot</src>
    <link href="https://www.komoot.de/highlight/3234065">
      <text>View POI on Komoot</text>
    </link>
    <type>Highlight</type>
  </wpt>
  <trk>
    <name>Blick auf den Irsinger Stausee – Frankenhofener See Runde von Irsingen</name>
    <desc>Distance: 28.349km, Estimated duration: 7.2h, Elevation up: 73.4715056244429m, Elevation down: 73.47150562444267m, Grade: difficult</desc>
    <link href="https://www.komoot.de/tour/2878796104">
      <text>View tour on Komoot</text>
    </link>
    <trkseg>
      <trkpt lat="48.023318" lon="10.650856">
        <ele>611.5</ele>
        <time>2026-04-11T12:01:48.609000Z</time>
      </trkpt>
      <trkpt lat="48.023211" lon="10.650798">
        <ele>611.5</ele>
        <time>2026-04-11T12:02:00.098000Z</time>
      </trkpt>
      <trkpt lat="48.022678" lon="10.650424">
        <ele>611.7</ele>
        <time>2026-04-11T12:02:59.873000Z</time>
      </trkpt>
      <trkpt lat="48.022563" lon="10.650305">
        <ele>611.8</ele>
        <time>2026-04-11T12:03:13.991000Z</time>
      </trkpt>
      <trkpt lat="48.022353" lon="10.65005">
        <ele>611.9</ele>
        <time>2026-04-11T12:03:41.608000Z</time>
      </trkpt>
      <trkpt lat="48.021702" lon="10.649472">
        <ele>612.4</ele>
        <time>2026-04-11T12:04:59.117000Z</time>
      </trkpt>
      <trkpt lat="48.021245" lon="10.649199">
        <ele>612.8</ele>
        <time>2026-04-11T12:05:49.676000Z</time>
      </trkpt>
      <trkpt lat="48.020723" lon="10.648986">
        <ele>613.4</ele>
        <time>2026-04-11T12:06:45.872000Z</time>
      </trkpt>
      <trkpt lat="48.020335" lon="10.648926">
        <ele>613.8</ele>
        <time>2026-04-11T12:07:26.487000Z</time>
      </trkpt>
      <trkpt lat="48.019966" lon="10.648921">
        <ele>614.1</ele>
        <time>2026-04-11T12:08:04.633000Z</time>
      </trkpt>
      <trkpt lat="48.019685" lon="10.648961">
        <ele>614.3</ele>
        <time>2026-04-11T12:08:33.642000Z</time>
      </trkpt>
      <trkpt lat="48.01902" lon="10.649213">
        <ele>614.6</ele>
        <time>2026-04-11T12:09:43.260000Z</time>
      </trkpt>
      <trkpt lat="48.018975" lon="10.649244">
        <ele>614.6</ele>
        <time>2026-04-11T12:09:48.245000Z</time>
      </trkpt>
      <trkpt lat="48.01852" lon="10.649561">
        <ele>614.7</ele>
        <time>2026-04-11T12:10:38.581000Z</time>
      </trkpt>
      <trkpt lat="48.017863" lon="10.650251">
        <ele>614.3</ele>
        <time>2026-04-11T12:11:59.687000Z</time>
      </trkpt>
      <trkpt lat="48.017476" lon="10.650708">
        <ele>613.8</ele>
        <time>2026-04-11T12:12:50.124000Z</time>
      </trkpt>
      <trkpt lat="48.017091" lon="10.651164">
        <ele>613.2</ele>
        <time>2026-04-11T12:13:40.425000Z</time>
      </trkpt>
      <trkpt lat="48.016853" lon="10.651367">
        <ele>613</ele>
        <time>2026-04-11T12:14:08.403000Z</time>
      </trkpt>
      <trkpt lat="48.016605" lon="10.65141">
        <ele>612.8</ele>
        <time>2026-04-11T12:14:33.803000Z</time>
      </trkpt>
      <trkpt lat="48.016526" lon="10.651405">
        <ele>612.7</ele>
        <time>2026-04-11T12:14:41.886000Z</time>
      </trkpt>
      <trkpt lat="48.010673" lon="10.650176">
        <ele>614</ele>
        <time>2026-04-11T12:24:38.162000Z</time>
      </trkpt>
      <trkpt lat="48.008508" lon="10.649723">
        <ele>614.4</ele>
        <time>2026-04-11T12:28:18.243000Z</time>
      </trkpt>
      <trkpt lat="48.004071" lon="10.648795">
        <ele>618.1</ele>
        <time>2026-04-11T12:35:59.757000Z</time>
      </trkpt>
      <trkpt lat="48.004053" lon="10.648784">
        <ele>618.1</ele>
        <time>2026-04-11T12:36:01.770000Z</time>
      </trkpt>
      <trkpt lat="48.003975" lon="10.648733">
        <ele>618.1</ele>
        <time>2026-04-11T12:36:10.312000Z</time>
      </trkpt>
      <trkpt lat="48.003906" lon="10.648625">
        <ele>618</ele>
        <time>2026-04-11T12:36:20.395000Z</time>
      </trkpt>
      <trkpt lat="48.003793" lon="10.648616">
        <ele>618</ele>
        <time>2026-04-11T12:36:31.888000Z</time>
      </trkpt>
      <trkpt lat="48.003768" lon="10.648677">
        <ele>617.9</ele>
        <time>2026-04-11T12:36:36.710000Z</time>
      </trkpt>
      <trkpt lat="48.003725" lon="10.649622">
        <ele>617.4</ele>
        <time>2026-04-11T12:37:41.169000Z</time>
      </trkpt>
      <trkpt lat="48.003738" lon="10.649688">
        <ele>617.4</ele>
        <time>2026-04-11T12:37:45.863000Z</time>
      </trkpt>
      <trkpt lat="48.003683" lon="10.649688">
        <ele>617.3</ele>
        <time>2026-04-11T12:37:51.503000Z</time>
      </trkpt>
      <trkpt lat="48.003679" lon="10.649735">
        <ele>617.3</ele>
        <time>2026-04-11T12:37:54.715000Z</time>
      </trkpt>
      <trkpt lat="48.003617" lon="10.649738">
        <ele>617.2</ele>
        <time>2026-04-11T12:38:01.095000Z</time>
      </trkpt>
      <trkpt lat="48.003504" lon="10.649743">
        <ele>617.1</ele>
        <time>2026-04-11T12:38:12.655000Z</time>
      </trkpt>
      <trkpt lat="48.003503" lon="10.649547">
        <ele>616.9</ele>
        <time>2026-04-11T12:38:26.076000Z</time>
      </trkpt>
      <trkpt lat="48.003451" lon="10.64941">
        <ele>616.8</ele>
        <time>2026-04-11T12:38:36.892000Z</time>
      </trkpt>
      <trkpt lat="48.003319" lon="10.649281">
        <ele>616.6</ele>
        <time>2026-04-11T12:38:53.029000Z</time>
      </trkpt>
      <trkpt lat="48.000333" lon="10.648672">
        <ele>615.6</ele>
        <time>2026-04-11T12:43:56.848000Z</time>
      </trkpt>
      <trkpt lat="47.994986" lon="10.647496">
        <ele>619.2</ele>
        <time>2026-04-11T12:53:10.666000Z</time>
      </trkpt>
      <trkpt lat="47.994854" lon="10.647513">
        <ele>619.4</ele>
        <time>2026-04-11T12:53:24.657000Z</time>
      </trkpt>
      <trkpt lat="47.994698" lon="10.647623">
        <ele>619.7</ele>
        <time>2026-04-11T12:53:42.835000Z</time>
      </trkpt>
      <trkpt lat="47.992796" lon="10.647218">
        <ele>623.3</ele>
        <time>2026-04-11T12:57:07.820000Z</time>
      </trkpt>
      <trkpt lat="47.992672" lon="10.647218">
        <ele>623.5</ele>
        <time>2026-04-11T12:57:21.134000Z</time>
      </trkpt>
      <trkpt lat="47.992567" lon="10.647242">
        <ele>623.7</ele>
        <time>2026-04-11T12:57:32.421000Z</time>
      </trkpt>
      <trkpt lat="47.991543" lon="10.647812">
        <ele>625.4</ele>
        <time>2026-04-11T12:59:27.952000Z</time>
      </trkpt>
      <trkpt lat="47.990996" lon="10.648205">
        <ele>626</ele>
        <time>2026-04-11T13:00:30.626000Z</time>
      </trkpt>
      <trkpt lat="47.990873" lon="10.648328">
        <ele>626.1</ele>
        <time>2026-04-11T13:00:45.763000Z</time>
      </trkpt>
      <trkpt lat="47.990775" lon="10.648583">
        <ele>626.2</ele>
        <time>2026-04-11T13:01:05.773000Z</time>
      </trkpt>
      <trkpt lat="47.989553" lon="10.652015">
        <ele>626.6</ele>
        <time>2026-04-11T13:05:27.879000Z</time>
      </trkpt>
      <trkpt lat="47.989396" lon="10.652509">
        <ele>626.6</ele>
        <time>2026-04-11T13:06:04.512000Z</time>
      </trkpt>
      <trkpt lat="47.988792" lon="10.652615">
        <ele>626.7</ele>
        <time>2026-04-11T13:07:05.322000Z</time>
      </trkpt>
      <trkpt lat="47.988458" lon="10.652629">
        <ele>626.7</ele>
        <time>2026-04-11T13:07:38.873000Z</time>
      </trkpt>
      <trkpt lat="47.987623" lon="10.652362">
        <ele>627.1</ele>
        <time>2026-04-11T13:09:05.710000Z</time>
      </trkpt>
      <trkpt lat="47.986599" lon="10.652029">
        <ele>627.6</ele>
        <time>2026-04-11T13:10:52.597000Z</time>
      </trkpt>
      <trkpt lat="47.986606" lon="10.650799">
        <ele>627.7</ele>
        <time>2026-04-11T13:12:15.234000Z</time>
      </trkpt>
      <trkpt lat="47.986595" lon="10.650583">
        <ele>627.6</ele>
        <time>2026-04-11T13:12:29.821000Z</time>
      </trkpt>
      <trkpt lat="47.986478" lon="10.649985">
        <ele>627.4</ele>
        <time>2026-04-11T13:13:11.990000Z</time>
      </trkpt>
      <trkpt lat="47.986467" lon="10.649788">
        <ele>627.4</ele>
        <time>2026-04-11T13:13:25.372000Z</time>
      </trkpt>
      <trkpt lat="47.98649" lon="10.64944">
        <ele>627.3</ele>
        <time>2026-04-11T13:13:48.944000Z</time>
      </trkpt>
      <trkpt lat="47.986354" lon="10.648846">
        <ele>627.2</ele>
        <time>2026-04-11T13:14:31.106000Z</time>
      </trkpt>
      <trkpt lat="47.986278" lon="10.648288">
        <ele>627.3</ele>
        <time>2026-04-11T13:15:09.464000Z</time>
      </trkpt>
      <trkpt lat="47.986264" lon="10.648188">
        <ele>627.3</ele>
        <time>2026-04-11T13:15:16.374000Z</time>
      </trkpt>
      <trkpt lat="47.986214" lon="10.648079">
        <ele>627.3</ele>
        <time>2026-04-11T13:15:25.236000Z</time>
      </trkpt>
      <trkpt lat="47.985482" lon="10.647485">
        <ele>627.4</ele>
        <time>2026-04-11T13:16:48.897000Z</time>
      </trkpt>
      <trkpt lat="47.985337" lon="10.647241">
        <ele>627.4</ele>
        <time>2026-04-11T13:17:10.858000Z</time>
      </trkpt>
      <trkpt lat="47.984905" lon="10.64677">
        <ele>627.3</ele>
        <time>2026-04-11T13:18:04.435000Z</time>
      </trkpt>
      <trkpt lat="47.984481" lon="10.646589">
        <ele>627.2</ele>
        <time>2026-04-11T13:18:48.829000Z</time>
      </trkpt>
      <trkpt lat="47.984248" lon="10.646392">
        <ele>627.1</ele>
        <time>2026-04-11T13:19:15.897000Z</time>
      </trkpt>
      <trkpt lat="47.983699" lon="10.646431">
        <ele>626.8</ele>
        <time>2026-04-11T13:20:11.485000Z</time>
      </trkpt>
      <trkpt lat="47.983527" lon="10.646478">
        <ele>626.8</ele>
        <time>2026-04-11T13:20:28.998000Z</time>
      </trkpt>
      <trkpt lat="47.983453" lon="10.646459">
        <ele>626.8</ele>
        <time>2026-04-11T13:20:36.559000Z</time>
      </trkpt>
      <trkpt lat="47.98317" lon="10.646231">
        <ele>626.8</ele>
        <time>2026-04-11T13:21:08.903000Z</time>
      </trkpt>
      <trkpt lat="47.983124" lon="10.646229">
        <ele>626.8</ele>
        <time>2026-04-11T13:21:13.533000Z</time>
      </trkpt>
      <trkpt lat="47.983039" lon="10.645962">
        <ele>626.9</ele>
        <time>2026-04-11T13:21:33.564000Z</time>
      </trkpt>
      <trkpt lat="47.982991" lon="10.645892">
        <ele>626.9</ele>
        <time>2026-04-11T13:21:40.319000Z</time>
      </trkpt>
      <trkpt lat="47.982913" lon="10.645777">
        <ele>626.9</ele>
        <time>2026-04-11T13:21:51.273000Z</time>
      </trkpt>
      <trkpt lat="47.98221" lon="10.645073">
        <ele>626.1</ele>
        <time>2026-04-11T13:23:17.632000Z</time>
      </trkpt>
      <trkpt lat="47.982151" lon="10.644967">
        <ele>626</ele>
        <time>2026-04-11T13:23:27.081000Z</time>
      </trkpt>
      <trkpt lat="47.982124" lon="10.644828">
        <ele>625.9</ele>
        <time>2026-04-11T13:23:36.962000Z</time>
      </trkpt>
      <trkpt lat="47.982137" lon="10.644765">
        <ele>625.8</ele>
        <time>2026-04-11T13:23:41.525000Z</time>
      </trkpt>
      <trkpt lat="47.982162" lon="10.644689">
        <ele>625.8</ele>
        <time>2026-04-11T13:23:47.347000Z</time>
      </trkpt>
      <trkpt lat="47.982232" lon="10.644619">
        <ele>625.7</ele>
        <time>2026-04-11T13:23:56.013000Z</time>
      </trkpt>
      <trkpt lat="47.982451" lon="10.644383">
        <ele>625.2</ele>
        <time>2026-04-11T13:24:23.925000Z</time>
      </trkpt>
      <trkpt lat="47.982515" lon="10.644314">
        <ele>625.1</ele>
        <time>2026-04-11T13:24:32.140000Z</time>
      </trkpt>
      <trkpt lat="47.982567" lon="10.644237">
        <ele>624.9</ele>
        <time>2026-04-11T13:24:39.681000Z</time>
      </trkpt>
      <trkpt lat="47.982063" lon="10.643248">
        <ele>623.4</ele>
        <time>2026-04-11T13:26:06.085000Z</time>
      </trkpt>
      <trkpt lat="47.981726" lon="10.642765">
        <ele>623.2</ele>
        <time>2026-04-11T13:26:53.248000Z</time>
      </trkpt>
      <trkpt lat="47.981496" lon="10.642511">
        <ele>623.3</ele>
        <time>2026-04-11T13:27:22.220000Z</time>
      </trkpt>
      <trkpt lat="47.980843" lon="10.642119">
        <ele>624.3</ele>
        <time>2026-04-11T13:28:36.092000Z</time>
      </trkpt>
      <trkpt lat="47.979852" lon="10.641905">
        <ele>626.5</ele>
        <time>2026-04-11T13:30:23.991000Z</time>
      </trkpt>
      <trkpt lat="47.979248" lon="10.641824">
        <ele>627.9</ele>
        <time>2026-04-11T13:31:29.710000Z</time>
      </trkpt>
      <trkpt lat="47.978911" lon="10.641736">
        <ele>628.6</ele>
        <time>2026-04-11T13:32:06.572000Z</time>
      </trkpt>
      <trkpt lat="47.978611" lon="10.641297">
        <ele>629.3</ele>
        <time>2026-04-11T13:32:51.083000Z</time>
      </trkpt>
      <trkpt lat="47.978559" lon="10.641364">
        <ele>629.4</ele>
        <time>2026-04-11T13:32:58.337000Z</time>
      </trkpt>
      <trkpt lat="47.978455" lon="10.641374">
        <ele>629.6</ele>
        <time>2026-04-11T13:33:09.196000Z</time>
      </trkpt>
      <trkpt lat="47.978447" lon="10.641433">
        <ele>629.6</ele>
        <time>2026-04-11T13:33:13.366000Z</time>
      </trkpt>
      <trkpt lat="47.978404" lon="10.641046">
        <ele>629.9</ele>
        <time>2026-04-11T13:33:40.480000Z</time>
      </trkpt>
      <trkpt lat="47.9783" lon="10.640536">
        <ele>630.1</ele>
        <time>2026-04-11T13:34:16.991000Z</time>
      </trkpt>
      <trkpt lat="47.978102" lon="10.639973">
        <ele>630.2</ele>
        <time>2026-04-11T13:35:00.072000Z</time>
      </trkpt>
      <trkpt lat="47.977938" lon="10.639682">
        <ele>630.2</ele>
        <time>2026-04-11T13:35:25.618000Z</time>
      </trkpt>
      <trkpt lat="47.977934" lon="10.639677">
        <ele>630.2</ele>
        <time>2026-04-11T13:35:26.110000Z</time>
      </trkpt>
      <trkpt lat="47.977892" lon="10.639622">
        <ele>630.2</ele>
        <time>2026-04-11T13:35:31.731000Z</time>
      </trkpt>
      <trkpt lat="47.977772" lon="10.639504">
        <ele>630.2</ele>
        <time>2026-04-11T13:35:46.121000Z</time>
      </trkpt>
      <trkpt lat="47.977547" lon="10.639374">
        <ele>630.2</ele>
        <time>2026-04-11T13:36:10.363000Z</time>
      </trkpt>
      <trkpt lat="47.976729" lon="10.639068">
        <ele>630.4</ele>
        <time>2026-04-11T13:37:35.499000Z</time>
      </trkpt>
      <trkpt lat="47.975922" lon="10.638703">
        <ele>630.9</ele>
        <time>2026-04-11T13:39:01.498000Z</time>
      </trkpt>
      <trkpt lat="47.975604" lon="10.638491">
        <ele>631</ele>
        <time>2026-04-11T13:39:36.854000Z</time>
      </trkpt>
      <trkpt lat="47.975276" lon="10.638212">
        <ele>631.2</ele>
        <time>2026-04-11T13:40:15.139000Z</time>
      </trkpt>
      <trkpt lat="47.975077" lon="10.637965">
        <ele>631.2</ele>
        <time>2026-04-11T13:40:41.175000Z</time>
      </trkpt>
      <trkpt lat="47.974897" lon="10.637671">
        <ele>631.3</ele>
        <time>2026-04-11T13:41:08.128000Z</time>
      </trkpt>
      <trkpt lat="47.974738" lon="10.63737">
        <ele>631.3</ele>
        <time>2026-04-11T13:41:33.913000Z</time>
      </trkpt>
      <trkpt lat="47.974483" lon="10.636885">
        <ele>631.3</ele>
        <time>2026-04-11T13:42:15.281000Z</time>
      </trkpt>
      <trkpt lat="47.97434" lon="10.63675">
        <ele>631.3</ele>
        <time>2026-04-11T13:42:32.188000Z</time>
      </trkpt>
      <trkpt lat="47.974225" lon="10.636694">
        <ele>631.3</ele>
        <time>2026-04-11T13:42:44.354000Z</time>
      </trkpt>
      <trkpt lat="47.973994" lon="10.636664">
        <ele>631.3</ele>
        <time>2026-04-11T13:43:07.578000Z</time>
      </trkpt>
      <trkpt lat="47.972699" lon="10.636834">
        <ele>631.1</ele>
        <time>2026-04-11T13:45:18.094000Z</time>
      </trkpt>
      <trkpt lat="47.972534" lon="10.636826">
        <ele>631.1</ele>
        <time>2026-04-11T13:45:34.656000Z</time>
      </trkpt>
      <trkpt lat="47.970723" lon="10.636079">
        <ele>631.1</ele>
        <time>2026-04-11T13:48:42.682000Z</time>
      </trkpt>
      <trkpt lat="47.970646" lon="10.636021">
        <ele>631.1</ele>
        <time>2026-04-11T13:48:51.463000Z</time>
      </trkpt>
      <trkpt lat="47.970527" lon="10.635813">
        <ele>631.3</ele>
        <time>2026-04-11T13:49:10.216000Z</time>
      </trkpt>
      <trkpt lat="47.970479" lon="10.635637">
        <ele>631.4</ele>
        <time>2026-04-11T13:49:23.410000Z</time>
      </trkpt>
      <trkpt lat="47.97047" lon="10.635172">
        <ele>631.7</ele>
        <time>2026-04-11T13:49:55.826000Z</time>
      </trkpt>
      <trkpt lat="47.970698" lon="10.633236">
        <ele>633.6</ele>
        <time>2026-04-11T13:52:14.199000Z</time>
      </trkpt>
      <trkpt lat="47.970732" lon="10.633025">
        <ele>633.7</ele>
        <time>2026-04-11T13:52:29.117000Z</time>
      </trkpt>
      <trkpt lat="47.97068" lon="10.633005">
        <ele>633.7</ele>
        <time>2026-04-11T13:52:34.557000Z</time>
      </trkpt>
      <trkpt lat="47.970627" lon="10.633042">
        <ele>633.8</ele>
        <time>2026-04-11T13:52:40.492000Z</time>
      </trkpt>
      <trkpt lat="47.970589" lon="10.633148">
        <ele>633.8</ele>
        <time>2026-04-11T13:52:48.732000Z</time>
      </trkpt>
      <trkpt lat="47.970559" lon="10.633163">
        <ele>633.8</ele>
        <time>2026-04-11T13:52:51.905000Z</time>
      </trkpt>
      <trkpt lat="47.970589" lon="10.633148">
        <ele>633.8</ele>
        <time>2026-04-11T13:52:55.123000Z</time>
      </trkpt>
      <trkpt lat="47.970627" lon="10.633042">
        <ele>633.9</ele>
        <time>2026-04-11T13:53:03.328000Z</time>
      </trkpt>
      <trkpt lat="47.97068" lon="10.633005">
        <ele>633.9</ele>
        <time>2026-04-11T13:53:09.187000Z</time>
      </trkpt>
      <trkpt lat="47.970681" lon="10.632859">
        <ele>633.9</ele>
        <time>2026-04-11T13:53:19.047000Z</time>
      </trkpt>
      <trkpt lat="47.97063" lon="10.632646">
        <ele>633.9</ele>
        <time>2026-04-11T13:53:34.203000Z</time>
      </trkpt>
      <trkpt lat="47.970393" lon="10.632243">
        <ele>633.7</ele>
        <time>2026-04-11T13:54:10.437000Z</time>
      </trkpt>
      <trkpt lat="47.97026" lon="10.632069">
        <ele>633.6</ele>
        <time>2026-04-11T13:54:28.347000Z</time>
      </trkpt>
      <trkpt lat="47.970241" lon="10.631935">
        <ele>633.6</ele>
        <time>2026-04-11T13:54:37.606000Z</time>
      </trkpt>
      <trkpt lat="47.970066" lon="10.631854">
        <ele>633.5</ele>
        <time>2026-04-11T13:54:56.022000Z</time>
      </trkpt>
      <trkpt lat="47.9696" lon="10.63151">
        <ele>633.3</ele>
        <time>2026-04-11T13:55:48.419000Z</time>
      </trkpt>
      <trkpt lat="47.969315" lon="10.631383">
        <ele>633.5</ele>
        <time>2026-04-11T13:56:18.656000Z</time>
      </trkpt>
      <trkpt lat="47.968964" lon="10.63136">
        <ele>633.6</ele>
        <time>2026-04-11T13:56:54.423000Z</time>
      </trkpt>
      <trkpt lat="47.96858" lon="10.631119">
        <ele>633.8</ele>
        <time>2026-04-11T13:57:36.640000Z</time>
      </trkpt>
      <trkpt lat="47.968482" lon="10.631098">
        <ele>633.8</ele>
        <time>2026-04-11T13:57:46.739000Z</time>
      </trkpt>
      <trkpt lat="47.968356" lon="10.631007">
        <ele>633.9</ele>
        <time>2026-04-11T13:58:01.087000Z</time>
      </trkpt>
      <trkpt lat="47.968213" lon="10.630855">
        <ele>634.1</ele>
        <time>2026-04-11T13:58:19.214000Z</time>
      </trkpt>
      <trkpt lat="47.968128" lon="10.630987">
        <ele>634.2</ele>
        <time>2026-04-11T13:58:31.855000Z</time>
      </trkpt>
      <trkpt lat="47.968108" lon="10.631114">
        <ele>634.3</ele>
        <time>2026-04-11T13:58:40.899000Z</time>
      </trkpt>
      <trkpt lat="47.967922" lon="10.631778">
        <ele>634.8</ele>
        <time>2026-04-11T13:59:31.004000Z</time>
      </trkpt>
      <trkpt lat="47.967886" lon="10.631889">
        <ele>634.9</ele>
        <time>2026-04-11T13:59:39.612000Z</time>
      </trkpt>
      <trkpt lat="47.967853" lon="10.632009">
        <ele>635</ele>
        <time>2026-04-11T13:59:48.590000Z</time>
      </trkpt>
      <trkpt lat="47.96786" lon="10.632173">
        <ele>635.1</ele>
        <time>2026-04-11T13:59:59.984000Z</time>
      </trkpt>
      <trkpt lat="47.967305" lon="10.633253">
        <ele>635.8</ele>
        <time>2026-04-11T14:01:33.768000Z</time>
      </trkpt>
      <trkpt lat="47.96643" lon="10.634847">
        <ele>636.4</ele>
        <time>2026-04-11T14:03:54.027000Z</time>
      </trkpt>
      <trkpt lat="47.965991" lon="10.635745">
        <ele>636.7</ele>
        <time>2026-04-11T14:05:09.509000Z</time>
      </trkpt>
      <trkpt lat="47.965728" lon="10.636364">
        <ele>636.7</ele>
        <time>2026-04-11T14:05:58.754000Z</time>
      </trkpt>
      <trkpt lat="47.965351" lon="10.637387">
        <ele>636.6</ele>
        <time>2026-04-11T14:07:17.331000Z</time>
      </trkpt>
      <trkpt lat="47.965247" lon="10.637635">
        <ele>636.5</ele>
        <time>2026-04-11T14:07:37.070000Z</time>
      </trkpt>
      <trkpt lat="47.965139" lon="10.637815">
        <ele>636.5</ele>
        <time>2026-04-11T14:07:53.342000Z</time>
      </trkpt>
      <trkpt lat="47.963051" lon="10.639993">
        <ele>637.6</ele>
        <time>2026-04-11T14:12:12.380000Z</time>
      </trkpt>
      <trkpt lat="47.962931" lon="10.64009">
        <ele>637.7</ele>
        <time>2026-04-11T14:12:26.299000Z</time>
      </trkpt>
      <trkpt lat="47.961625" lon="10.640681">
        <ele>638.4</ele>
        <time>2026-04-11T14:14:45.459000Z</time>
      </trkpt>
      <trkpt lat="47.960965" lon="10.641013">
        <ele>638.8</ele>
        <time>2026-04-11T14:15:56.522000Z</time>
      </trkpt>
      <trkpt lat="47.959954" lon="10.641746">
        <ele>639.3</ele>
        <time>2026-04-11T14:17:50.682000Z</time>
      </trkpt>
      <trkpt lat="47.95958" lon="10.642091">
        <ele>639.5</ele>
        <time>2026-04-11T14:18:35.404000Z</time>
      </trkpt>
      <trkpt lat="47.959363" lon="10.642172">
        <ele>639.6</ele>
        <time>2026-04-11T14:18:58.264000Z</time>
      </trkpt>
      <trkpt lat="47.958911" lon="10.641918">
        <ele>639.9</ele>
        <time>2026-04-11T14:19:47.741000Z</time>
      </trkpt>
      <trkpt lat="47.958188" lon="10.641548">
        <ele>640.5</ele>
        <time>2026-04-11T14:21:06.352000Z</time>
      </trkpt>
      <trkpt lat="47.957193" lon="10.64106">
        <ele>641.3</ele>
        <time>2026-04-11T14:22:53.849000Z</time>
      </trkpt>
      <trkpt lat="47.95585" lon="10.64034">
        <ele>642.1</ele>
        <time>2026-04-11T14:25:19.748000Z</time>
      </trkpt>
      <trkpt lat="47.955611" lon="10.640216">
        <ele>642.2</ele>
        <time>2026-04-11T14:25:45.373000Z</time>
      </trkpt>
      <trkpt lat="47.955571" lon="10.640194">
        <ele>642.2</ele>
        <time>2026-04-11T14:25:49.685000Z</time>
      </trkpt>
      <trkpt lat="47.955193" lon="10.63998">
        <ele>642.2</ele>
        <time>2026-04-11T14:26:30.219000Z</time>
      </trkpt>
      <trkpt lat="47.954345" lon="10.639476">
        <ele>642.4</ele>
        <time>2026-04-11T14:28:02.065000Z</time>
      </trkpt>
      <trkpt lat="47.953738" lon="10.63907">
        <ele>642.6</ele>
        <time>2026-04-11T14:29:09.315000Z</time>
      </trkpt>
      <trkpt lat="47.953325" lon="10.638578">
        <ele>642.9</ele>
        <time>2026-04-11T14:30:03.341000Z</time>
      </trkpt>
      <trkpt lat="47.953085" lon="10.638355">
        <ele>643.1</ele>
        <time>2026-04-11T14:30:32.423000Z</time>
      </trkpt>
      <trkpt lat="47.952942" lon="10.638297">
        <ele>643.2</ele>
        <time>2026-04-11T14:30:47.551000Z</time>
      </trkpt>
      <trkpt lat="47.95122" lon="10.637993">
        <ele>643.9</ele>
        <time>2026-04-11T14:33:43.681000Z</time>
      </trkpt>
      <trkpt lat="47.951583" lon="10.635252">
        <ele>644.1</ele>
        <time>2026-04-11T14:36:51.474000Z</time>
      </trkpt>
      <trkpt lat="47.95158" lon="10.635108">
        <ele>644.1</ele>
        <time>2026-04-11T14:37:01.180000Z</time>
      </trkpt>
      <trkpt lat="47.951544" lon="10.635025">
        <ele>644.1</ele>
        <time>2026-04-11T14:37:07.855000Z</time>
      </trkpt>
      <trkpt lat="47.951498" lon="10.634984">
        <ele>644</ele>
        <time>2026-04-11T14:37:13.206000Z</time>
      </trkpt>
      <trkpt lat="47.951402" lon="10.634955">
        <ele>644</ele>
        <time>2026-04-11T14:37:23.146000Z</time>
      </trkpt>
      <trkpt lat="47.95053" lon="10.634802">
        <ele>643.8</ele>
        <time>2026-04-11T14:38:51.369000Z</time>
      </trkpt>
      <trkpt lat="47.946734" lon="10.634169">
        <ele>645.4</ele>
        <time>2026-04-11T14:45:19.243000Z</time>
      </trkpt>
      <trkpt lat="47.946658" lon="10.634183">
        <ele>645.5</ele>
        <time>2026-04-11T14:45:27.114000Z</time>
      </trkpt>
      <trkpt lat="47.946584" lon="10.634246">
        <ele>645.5</ele>
        <time>2026-04-11T14:45:35.850000Z</time>
      </trkpt>
      <trkpt lat="47.946378" lon="10.634766">
        <ele>645.8</ele>
        <time>2026-04-11T14:46:17.372000Z</time>
      </trkpt>
      <trkpt lat="47.946268" lon="10.634944">
        <ele>645.9</ele>
        <time>2026-04-11T14:46:34.047000Z</time>
      </trkpt>
      <trkpt lat="47.946214" lon="10.634707">
        <ele>646</ele>
        <time>2026-04-11T14:46:51.245000Z</time>
      </trkpt>
      <trkpt lat="47.946159" lon="10.634615">
        <ele>646.1</ele>
        <time>2026-04-11T14:46:59.724000Z</time>
      </trkpt>
      <trkpt lat="47.94553" lon="10.633988">
        <ele>646.5</ele>
        <time>2026-04-11T14:48:16.812000Z</time>
      </trkpt>
      <trkpt lat="47.944839" lon="10.632927">
        <ele>646.8</ele>
        <time>2026-04-11T14:49:57.095000Z</time>
      </trkpt>
      <trkpt lat="47.944588" lon="10.632444">
        <ele>646.9</ele>
        <time>2026-04-11T14:50:38.523000Z</time>
      </trkpt>
      <trkpt lat="47.943621" lon="10.63111">
        <ele>647.4</ele>
        <time>2026-04-11T14:52:51.869000Z</time>
      </trkpt>
      <trkpt lat="47.94246" lon="10.62967">
        <ele>647.5</ele>
        <time>2026-04-11T14:55:23.251000Z</time>
      </trkpt>
      <trkpt lat="47.942313" lon="10.629532">
        <ele>647.5</ele>
        <time>2026-04-11T14:55:40.902000Z</time>
      </trkpt>
      <trkpt lat="47.942179" lon="10.629323">
        <ele>647.6</ele>
        <time>2026-04-11T14:56:00.744000Z</time>
      </trkpt>
      <trkpt lat="47.941507" lon="10.62817">
        <ele>648.5</ele>
        <time>2026-04-11T14:57:46.097000Z</time>
      </trkpt>
      <trkpt lat="47.940897" lon="10.627171">
        <ele>649.2</ele>
        <time>2026-04-11T14:59:19.338000Z</time>
      </trkpt>
      <trkpt lat="47.940585" lon="10.62666">
        <ele>649.3</ele>
        <time>2026-04-11T15:00:06.133000Z</time>
      </trkpt>
      <trkpt lat="47.940837" lon="10.626361">
        <ele>649.3</ele>
        <time>2026-04-11T15:00:38.406000Z</time>
      </trkpt>
      <trkpt lat="47.940894" lon="10.626018">
        <ele>649.2</ele>
        <time>2026-04-11T15:01:02.208000Z</time>
      </trkpt>
      <trkpt lat="47.940786" lon="10.625192">
        <ele>649.2</ele>
        <time>2026-04-11T15:01:58.694000Z</time>
      </trkpt>
      <trkpt lat="47.940661" lon="10.624864">
        <ele>649.2</ele>
        <time>2026-04-11T15:02:24.072000Z</time>
      </trkpt>
      <trkpt lat="47.940441" lon="10.624291">
        <ele>649.2</ele>
        <time>2026-04-11T15:03:08.394000Z</time>
      </trkpt>
      <trkpt lat="47.940262" lon="10.623507">
        <ele>649.3</ele>
        <time>2026-04-11T15:04:04.465000Z</time>
      </trkpt>
      <trkpt lat="47.940102" lon="10.623015">
        <ele>649.6</ele>
        <time>2026-04-11T15:04:42.039000Z</time>
      </trkpt>
      <trkpt lat="47.93932" lon="10.621276">
        <ele>650.2</ele>
        <time>2026-04-11T15:07:04.826000Z</time>
      </trkpt>
      <trkpt lat="47.937082" lon="10.617639">
        <ele>651.1</ele>
        <time>2026-04-11T15:12:39.124000Z</time>
      </trkpt>
      <trkpt lat="47.934915" lon="10.619595">
        <ele>653.8</ele>
        <time>2026-04-11T15:17:02.122000Z</time>
      </trkpt>
      <trkpt lat="47.93468" lon="10.619375">
        <ele>653.7</ele>
        <time>2026-04-11T15:17:30.072000Z</time>
      </trkpt>
      <trkpt lat="47.934235" lon="10.619074">
        <ele>653.3</ele>
        <time>2026-04-11T15:18:19.868000Z</time>
      </trkpt>
      <trkpt lat="47.934258" lon="10.61837">
        <ele>652.6</ele>
        <time>2026-04-11T15:19:08.588000Z</time>
      </trkpt>
      <trkpt lat="47.934408" lon="10.617047">
        <ele>651.5</ele>
        <time>2026-04-11T15:20:40.931000Z</time>
      </trkpt>
      <trkpt lat="47.934386" lon="10.616924">
        <ele>651.4</ele>
        <time>2026-04-11T15:20:49.594000Z</time>
      </trkpt>
      <trkpt lat="47.934222" lon="10.616687">
        <ele>651.2</ele>
        <time>2026-04-11T15:21:12.778000Z</time>
      </trkpt>
      <trkpt lat="47.93414" lon="10.616524">
        <ele>651.2</ele>
        <time>2026-04-11T15:21:26.589000Z</time>
      </trkpt>
      <trkpt lat="47.933566" lon="10.61482">
        <ele>651.4</ele>
        <time>2026-04-11T15:23:35.466000Z</time>
      </trkpt>
      <trkpt lat="47.93341" lon="10.614665">
        <ele>651.5</ele>
        <time>2026-04-11T15:23:54.629000Z</time>
      </trkpt>
      <trkpt lat="47.933351" lon="10.614493">
        <ele>651.6</ele>
        <time>2026-04-11T15:24:07.923000Z</time>
      </trkpt>
      <trkpt lat="47.933199" lon="10.614308">
        <ele>651.8</ele>
        <time>2026-04-11T15:24:28.069000Z</time>
      </trkpt>
      <trkpt lat="47.932611" lon="10.613836">
        <ele>652.2</ele>
        <time>2026-04-11T15:25:36.276000Z</time>
      </trkpt>
      <trkpt lat="47.932487" lon="10.613704">
        <ele>652.3</ele>
        <time>2026-04-11T15:25:51.861000Z</time>
      </trkpt>
      <trkpt lat="47.932262" lon="10.613295">
        <ele>652.5</ele>
        <time>2026-04-11T15:26:28.075000Z</time>
      </trkpt>
      <trkpt lat="47.932304" lon="10.613242">
        <ele>652.5</ele>
        <time>2026-04-11T15:26:33.631000Z</time>
      </trkpt>
      <trkpt lat="47.93246" lon="10.613058">
        <ele>652.5</ele>
        <time>2026-04-11T15:26:53.622000Z</time>
      </trkpt>
      <trkpt lat="47.932519" lon="10.612943">
        <ele>652.5</ele>
        <time>2026-04-11T15:27:03.332000Z</time>
      </trkpt>
      <trkpt lat="47.932428" lon="10.612724">
        <ele>652.5</ele>
        <time>2026-04-11T15:27:20.660000Z</time>
      </trkpt>
      <trkpt lat="47.93238" lon="10.61249">
        <ele>652.4</ele>
        <time>2026-04-11T15:27:37.256000Z</time>
      </trkpt>
      <trkpt lat="47.932348" lon="10.612324">
        <ele>652.3</ele>
        <time>2026-04-11T15:27:48.918000Z</time>
      </trkpt>
      <trkpt lat="47.932325" lon="10.61191">
        <ele>652.1</ele>
        <time>2026-04-11T15:28:17.210000Z</time>
      </trkpt>
      <trkpt lat="47.932412" lon="10.611841">
        <ele>652</ele>
        <time>2026-04-11T15:28:27.296000Z</time>
      </trkpt>
      <trkpt lat="47.932378" lon="10.611363">
        <ele>651.7</ele>
        <time>2026-04-11T15:29:00.117000Z</time>
      </trkpt>
      <trkpt lat="47.932116" lon="10.610051">
        <ele>650.8</ele>
        <time>2026-04-11T15:30:33.858000Z</time>
      </trkpt>
      <trkpt lat="47.932041" lon="10.609822">
        <ele>650.5</ele>
        <time>2026-04-11T15:30:51.557000Z</time>
      </trkpt>
      <trkpt lat="47.931964" lon="10.609822">
        <ele>650.4</ele>
        <time>2026-04-11T15:30:59.510000Z</time>
      </trkpt>
      <trkpt lat="47.931939" lon="10.609517">
        <ele>650.1</ele>
        <time>2026-04-11T15:31:20.774000Z</time>
      </trkpt>
      <trkpt lat="47.932155" lon="10.609407">
        <ele>649.8</ele>
        <time>2026-04-11T15:31:44.181000Z</time>
      </trkpt>
      <trkpt lat="47.932249" lon="10.609397">
        <ele>649.7</ele>
        <time>2026-04-11T15:31:53.937000Z</time>
      </trkpt>
      <trkpt lat="47.9325" lon="10.609155">
        <ele>649.4</ele>
        <time>2026-04-11T15:32:24.374000Z</time>
      </trkpt>
      <trkpt lat="47.93265" lon="10.608988">
        <ele>649.3</ele>
        <time>2026-04-11T15:32:43.382000Z</time>
      </trkpt>
      <trkpt lat="47.932758" lon="10.609145">
        <ele>649.2</ele>
        <time>2026-04-11T15:32:58.707000Z</time>
      </trkpt>
      <trkpt lat="47.932723" lon="10.609353">
        <ele>649.1</ele>
        <time>2026-04-11T15:33:13.256000Z</time>
      </trkpt>
      <trkpt lat="47.932735" lon="10.609482">
        <ele>649.1</ele>
        <time>2026-04-11T15:33:22.054000Z</time>
      </trkpt>
      <trkpt lat="47.932861" lon="10.609799">
        <ele>649</ele>
        <time>2026-04-11T15:33:46.968000Z</time>
      </trkpt>
      <trkpt lat="47.933051" lon="10.610434">
        <ele>649.2</ele>
        <time>2026-04-11T15:34:34.238000Z</time>
      </trkpt>
      <trkpt lat="47.93353" lon="10.61172">
        <ele>649.7</ele>
        <time>2026-04-11T15:36:14.453000Z</time>
      </trkpt>
      <trkpt lat="47.934005" lon="10.612743">
        <ele>649</ele>
        <time>2026-04-11T15:37:39.325000Z</time>
      </trkpt>
      <trkpt lat="47.934299" lon="10.613172">
        <ele>648.3</ele>
        <time>2026-04-11T15:38:21.810000Z</time>
      </trkpt>
      <trkpt lat="47.934615" lon="10.613473">
        <ele>647.8</ele>
        <time>2026-04-11T15:39:00.512000Z</time>
      </trkpt>
      <trkpt lat="47.934912" lon="10.613705">
        <ele>647.3</ele>
        <time>2026-04-11T15:39:34.977000Z</time>
      </trkpt>
      <trkpt lat="47.93515" lon="10.613798">
        <ele>647.1</ele>
        <time>2026-04-11T15:40:00.057000Z</time>
      </trkpt>
      <trkpt lat="47.935407" lon="10.613853">
        <ele>646.9</ele>
        <time>2026-04-11T15:40:26.541000Z</time>
      </trkpt>
      <trkpt lat="47.935794" lon="10.613825">
        <ele>646.6</ele>
        <time>2026-04-11T15:41:05.927000Z</time>
      </trkpt>
      <trkpt lat="47.936058" lon="10.613739">
        <ele>646.3</ele>
        <time>2026-04-11T15:41:33.461000Z</time>
      </trkpt>
      <trkpt lat="47.936242" lon="10.613567">
        <ele>646.2</ele>
        <time>2026-04-11T15:41:55.597000Z</time>
      </trkpt>
      <trkpt lat="47.936428" lon="10.613262">
        <ele>645.8</ele>
        <time>2026-04-11T15:42:23.928000Z</time>
      </trkpt>
      <trkpt lat="47.936586" lon="10.613173">
        <ele>645.6</ele>
        <time>2026-04-11T15:42:41.308000Z</time>
      </trkpt>
      <trkpt lat="47.93714" lon="10.61307">
        <ele>644.5</ele>
        <time>2026-04-11T15:43:39.259000Z</time>
      </trkpt>
      <trkpt lat="47.937576" lon="10.612924">
        <ele>643.7</ele>
        <time>2026-04-11T15:44:25.768000Z</time>
      </trkpt>
      <trkpt lat="47.938025" lon="10.612782">
        <ele>643.1</ele>
        <time>2026-04-11T15:45:12.960000Z</time>
      </trkpt>
      <trkpt lat="47.93837" lon="10.612752">
        <ele>642.9</ele>
        <time>2026-04-11T15:45:48.054000Z</time>
      </trkpt>
      <trkpt lat="47.938657" lon="10.612769">
        <ele>642.8</ele>
        <time>2026-04-11T15:46:17.001000Z</time>
      </trkpt>
      <trkpt lat="47.9391" lon="10.612898">
        <ele>642.9</ele>
        <time>2026-04-11T15:47:02.401000Z</time>
      </trkpt>
      <trkpt lat="47.939374" lon="10.612812">
        <ele>643</ele>
        <time>2026-04-11T15:47:30.777000Z</time>
      </trkpt>
      <trkpt lat="47.939821" lon="10.613449">
        <ele>643.1</ele>
        <time>2026-04-11T15:48:32.977000Z</time>
      </trkpt>
      <trkpt lat="47.940005" lon="10.61366">
        <ele>643.1</ele>
        <time>2026-04-11T15:48:56.289000Z</time>
      </trkpt>
      <trkpt lat="47.94025" lon="10.614223">
        <ele>642.8</ele>
        <time>2026-04-11T15:49:41.745000Z</time>
      </trkpt>
      <trkpt lat="47.940449" lon="10.614839">
        <ele>642.5</ele>
        <time>2026-04-11T15:50:28.378000Z</time>
      </trkpt>
      <trkpt lat="47.940535" lon="10.61532">
        <ele>642.2</ele>
        <time>2026-04-11T15:51:02.406000Z</time>
      </trkpt>
      <trkpt lat="47.940564" lon="10.618925">
        <ele>640.3</ele>
        <time>2026-04-11T15:55:08.046000Z</time>
      </trkpt>
      <trkpt lat="47.94061" lon="10.619567">
        <ele>640.6</ele>
        <time>2026-04-11T15:55:52.504000Z</time>
      </trkpt>
      <trkpt lat="47.940715" lon="10.62014">
        <ele>641.1</ele>
        <time>2026-04-11T15:56:34.147000Z</time>
      </trkpt>
      <trkpt lat="47.940883" lon="10.620781">
        <ele>641.7</ele>
        <time>2026-04-11T15:57:22.447000Z</time>
      </trkpt>
      <trkpt lat="47.941103" lon="10.621343">
        <ele>642.1</ele>
        <time>2026-04-11T15:58:07.441000Z</time>
      </trkpt>
      <trkpt lat="47.941409" lon="10.621732">
        <ele>642.1</ele>
        <time>2026-04-11T15:58:47.857000Z</time>
      </trkpt>
      <trkpt lat="47.942695" lon="10.622911">
        <ele>640.3</ele>
        <time>2026-04-11T16:01:22.719000Z</time>
      </trkpt>
      <trkpt lat="47.943421" lon="10.623836">
        <ele>638.6</ele>
        <time>2026-04-11T16:03:01.700000Z</time>
      </trkpt>
      <trkpt lat="47.943927" lon="10.624781">
        <ele>637.6</ele>
        <time>2026-04-11T16:04:24.969000Z</time>
      </trkpt>
      <trkpt lat="47.944156" lon="10.624643">
        <ele>637.4</ele>
        <time>2026-04-11T16:04:50.228000Z</time>
      </trkpt>
      <trkpt lat="47.944299" lon="10.624645">
        <ele>637.3</ele>
        <time>2026-04-11T16:05:04.675000Z</time>
      </trkpt>
      <trkpt lat="47.94457" lon="10.62475">
        <ele>637.4</ele>
        <time>2026-04-11T16:05:32.868000Z</time>
      </trkpt>
      <trkpt lat="47.944918" lon="10.62502">
        <ele>637.9</ele>
        <time>2026-04-11T16:06:14.219000Z</time>
      </trkpt>
      <trkpt lat="47.945095" lon="10.625021">
        <ele>638.4</ele>
        <time>2026-04-11T16:06:33.441000Z</time>
      </trkpt>
      <trkpt lat="47.945599" lon="10.624925">
        <ele>639.7</ele>
        <time>2026-04-11T16:07:29.047000Z</time>
      </trkpt>
      <trkpt lat="47.945902" lon="10.624907">
        <ele>640.6</ele>
        <time>2026-04-11T16:08:02.633000Z</time>
      </trkpt>
      <trkpt lat="47.946008" lon="10.62482">
        <ele>641</ele>
        <time>2026-04-11T16:08:16.093000Z</time>
      </trkpt>
      <trkpt lat="47.946054" lon="10.624714">
        <ele>641.3</ele>
        <time>2026-04-11T16:08:25.649000Z</time>
      </trkpt>
      <trkpt lat="47.946084" lon="10.624253">
        <ele>642.3</ele>
        <time>2026-04-11T16:09:00.280000Z</time>
      </trkpt>
      <trkpt lat="47.94623" lon="10.623301">
        <ele>643.8</ele>
        <time>2026-04-11T16:10:10.992000Z</time>
      </trkpt>
      <trkpt lat="47.94626" lon="10.623268">
        <ele>643.9</ele>
        <time>2026-04-11T16:10:14.880000Z</time>
      </trkpt>
      <trkpt lat="47.946674" lon="10.623272">
        <ele>644.3</ele>
        <time>2026-04-11T16:10:57.867000Z</time>
      </trkpt>
      <trkpt lat="47.946765" lon="10.623231">
        <ele>644.4</ele>
        <time>2026-04-11T16:11:07.557000Z</time>
      </trkpt>
      <trkpt lat="47.946947" lon="10.622961">
        <ele>644.5</ele>
        <time>2026-04-11T16:11:33.721000Z</time>
      </trkpt>
      <trkpt lat="47.946993" lon="10.622818">
        <ele>644.5</ele>
        <time>2026-04-11T16:11:44.488000Z</time>
      </trkpt>
      <trkpt lat="47.947099" lon="10.622643">
        <ele>644.6</ele>
        <time>2026-04-11T16:12:00.380000Z</time>
      </trkpt>
      <trkpt lat="47.947321" lon="10.622336">
        <ele>644.6</ele>
        <time>2026-04-11T16:12:30.718000Z</time>
      </trkpt>
      <trkpt lat="47.947478" lon="10.6222">
        <ele>644.6</ele>
        <time>2026-04-11T16:12:48.885000Z</time>
      </trkpt>
      <trkpt lat="47.948452" lon="10.621697">
        <ele>644.4</ele>
        <time>2026-04-11T16:14:32.401000Z</time>
      </trkpt>
      <trkpt lat="47.949152" lon="10.621509">
        <ele>644.4</ele>
        <time>2026-04-11T16:15:43.641000Z</time>
      </trkpt>
      <trkpt lat="47.949463" lon="10.621515">
        <ele>644.5</ele>
        <time>2026-04-11T16:16:15.213000Z</time>
      </trkpt>
      <trkpt lat="47.950106" lon="10.621653">
        <ele>644.6</ele>
        <time>2026-04-11T16:17:20.594000Z</time>
      </trkpt>
      <trkpt lat="47.950411" lon="10.621654">
        <ele>644.6</ele>
        <time>2026-04-11T16:17:51.031000Z</time>
      </trkpt>
      <trkpt lat="47.950558" lon="10.621628">
        <ele>644.6</ele>
        <time>2026-04-11T16:18:05.880000Z</time>
      </trkpt>
      <trkpt lat="47.951391" lon="10.621478">
        <ele>644.5</ele>
        <time>2026-04-11T16:19:30.071000Z</time>
      </trkpt>
      <trkpt lat="47.952131" lon="10.621183">
        <ele>644.1</ele>
        <time>2026-04-11T16:20:47.478000Z</time>
      </trkpt>
      <trkpt lat="47.952857" lon="10.621049">
        <ele>644</ele>
        <time>2026-04-11T16:22:00.852000Z</time>
      </trkpt>
      <trkpt lat="47.952963" lon="10.624491">
        <ele>643.1</ele>
        <time>2026-04-11T16:25:53.694000Z</time>
      </trkpt>
      <trkpt lat="47.953015" lon="10.626828">
        <ele>641.1</ele>
        <time>2026-04-11T16:28:34.617000Z</time>
      </trkpt>
      <trkpt lat="47.953069" lon="10.626931">
        <ele>641</ele>
        <time>2026-04-11T16:28:43.525000Z</time>
      </trkpt>
      <trkpt lat="47.953205" lon="10.627083">
        <ele>640.9</ele>
        <time>2026-04-11T16:29:00.774000Z</time>
      </trkpt>
      <trkpt lat="47.95364" lon="10.627377">
        <ele>640.8</ele>
        <time>2026-04-11T16:29:48.892000Z</time>
      </trkpt>
      <trkpt lat="47.954304" lon="10.62777">
        <ele>641.1</ele>
        <time>2026-04-11T16:31:01.366000Z</time>
      </trkpt>
      <trkpt lat="47.954571" lon="10.627849">
        <ele>641.2</ele>
        <time>2026-04-11T16:31:29.269000Z</time>
      </trkpt>
      <trkpt lat="47.95477" lon="10.627819">
        <ele>641.3</ele>
        <time>2026-04-11T16:31:49.607000Z</time>
      </trkpt>
      <trkpt lat="47.954906" lon="10.627762">
        <ele>641.4</ele>
        <time>2026-04-11T16:32:03.912000Z</time>
      </trkpt>
      <trkpt lat="47.955328" lon="10.627474">
        <ele>641.5</ele>
        <time>2026-04-11T16:32:50.767000Z</time>
      </trkpt>
      <trkpt lat="47.955516" lon="10.627414">
        <ele>641.5</ele>
        <time>2026-04-11T16:33:10.140000Z</time>
      </trkpt>
      <trkpt lat="47.955671" lon="10.627462">
        <ele>641.5</ele>
        <time>2026-04-11T16:33:26.057000Z</time>
      </trkpt>
      <trkpt lat="47.956119" lon="10.627862">
        <ele>641.6</ele>
        <time>2026-04-11T16:34:18.463000Z</time>
      </trkpt>
      <trkpt lat="47.957226" lon="10.628364">
        <ele>641.4</ele>
        <time>2026-04-11T16:36:14.612000Z</time>
      </trkpt>
      <trkpt lat="47.957362" lon="10.628387">
        <ele>641.4</ele>
        <time>2026-04-11T16:36:28.350000Z</time>
      </trkpt>
      <trkpt lat="47.957464" lon="10.62837">
        <ele>641.4</ele>
        <time>2026-04-11T16:36:38.647000Z</time>
      </trkpt>
      <trkpt lat="47.957482" lon="10.628367">
        <ele>641.4</ele>
        <time>2026-04-11T16:36:40.468000Z</time>
      </trkpt>
      <trkpt lat="47.957746" lon="10.628199">
        <ele>641.3</ele>
        <time>2026-04-11T16:37:09.233000Z</time>
      </trkpt>
      <trkpt lat="47.958696" lon="10.627317">
        <ele>641.2</ele>
        <time>2026-04-11T16:39:01.543000Z</time>
      </trkpt>
      <trkpt lat="47.959734" lon="10.626511">
        <ele>641</ele>
        <time>2026-04-11T16:40:58.968000Z</time>
      </trkpt>
      <trkpt lat="47.960286" lon="10.626107">
        <ele>640.9</ele>
        <time>2026-04-11T16:42:00.832000Z</time>
      </trkpt>
      <trkpt lat="47.961572" lon="10.625269">
        <ele>640</ele>
        <time>2026-04-11T16:44:22.916000Z</time>
      </trkpt>
      <trkpt lat="47.962303" lon="10.624803">
        <ele>639.6</ele>
        <time>2026-04-11T16:45:43.380000Z</time>
      </trkpt>
      <trkpt lat="47.961807" lon="10.629497">
        <ele>639.2</ele>
        <time>2026-04-11T16:51:02.766000Z</time>
      </trkpt>
      <trkpt lat="47.962667" lon="10.629345">
        <ele>638.9</ele>
        <time>2026-04-11T16:52:29.920000Z</time>
      </trkpt>
      <trkpt lat="47.963134" lon="10.629227">
        <ele>638.6</ele>
        <time>2026-04-11T16:53:18.050000Z</time>
      </trkpt>
      <trkpt lat="47.963583" lon="10.629228">
        <ele>638</ele>
        <time>2026-04-11T16:54:04.142000Z</time>
      </trkpt>
      <trkpt lat="47.964259" lon="10.629322">
        <ele>637</ele>
        <time>2026-04-11T16:55:14.234000Z</time>
      </trkpt>
      <trkpt lat="47.964381" lon="10.629368">
        <ele>636.8</ele>
        <time>2026-04-11T16:55:27.198000Z</time>
      </trkpt>
      <trkpt lat="47.964644" lon="10.629566">
        <ele>636.4</ele>
        <time>2026-04-11T16:55:57.521000Z</time>
      </trkpt>
      <trkpt lat="47.965728" lon="10.630492">
        <ele>635.3</ele>
        <time>2026-04-11T16:58:04.859000Z</time>
      </trkpt>
      <trkpt lat="47.966011" lon="10.630688">
        <ele>635.1</ele>
        <time>2026-04-11T16:58:36.408000Z</time>
      </trkpt>
      <trkpt lat="47.966396" lon="10.630798">
        <ele>634.9</ele>
        <time>2026-04-11T16:59:16.028000Z</time>
      </trkpt>
      <trkpt lat="47.967562" lon="10.630999">
        <ele>634.8</ele>
        <time>2026-04-11T17:01:13.841000Z</time>
      </trkpt>
      <trkpt lat="47.967674" lon="10.630983">
        <ele>634.7</ele>
        <time>2026-04-11T17:01:25.122000Z</time>
      </trkpt>
      <trkpt lat="47.967946" lon="10.630776">
        <ele>634.6</ele>
        <time>2026-04-11T17:01:55.969000Z</time>
      </trkpt>
      <trkpt lat="47.96804" lon="10.630755">
        <ele>634.6</ele>
        <time>2026-04-11T17:02:05.412000Z</time>
      </trkpt>
      <trkpt lat="47.968108" lon="10.63078">
        <ele>634.6</ele>
        <time>2026-04-11T17:02:12.525000Z</time>
      </trkpt>
      <trkpt lat="47.968213" lon="10.630855">
        <ele>634.6</ele>
        <time>2026-04-11T17:02:24.121000Z</time>
      </trkpt>
      <trkpt lat="47.968128" lon="10.630987">
        <ele>634.6</ele>
        <time>2026-04-11T17:02:36.373000Z</time>
      </trkpt>
      <trkpt lat="47.968108" lon="10.631114">
        <ele>634.6</ele>
        <time>2026-04-11T17:02:45.105000Z</time>
      </trkpt>
      <trkpt lat="47.967922" lon="10.631778">
        <ele>634.5</ele>
        <time>2026-04-11T17:03:33.566000Z</time>
      </trkpt>
      <trkpt lat="47.967886" lon="10.631889">
        <ele>634.5</ele>
        <time>2026-04-11T17:03:41.955000Z</time>
      </trkpt>
      <trkpt lat="47.967853" lon="10.632009">
        <ele>634.4</ele>
        <time>2026-04-11T17:03:50.776000Z</time>
      </trkpt>
      <trkpt lat="47.96786" lon="10.632173">
        <ele>634.3</ele>
        <time>2026-04-11T17:04:01.987000Z</time>
      </trkpt>
      <trkpt lat="47.968265" lon="10.63219">
        <ele>634.1</ele>
        <time>2026-04-11T17:04:43.035000Z</time>
      </trkpt>
      <trkpt lat="47.968298" lon="10.632126">
        <ele>634.1</ele>
        <time>2026-04-11T17:04:48.464000Z</time>
      </trkpt>
      <trkpt lat="47.968496" lon="10.632102">
        <ele>634</ele>
        <time>2026-04-11T17:05:08.475000Z</time>
      </trkpt>
      <trkpt lat="47.968724" lon="10.632141">
        <ele>633.9</ele>
        <time>2026-04-11T17:05:31.602000Z</time>
      </trkpt>
      <trkpt lat="47.96912" lon="10.632274">
        <ele>633.7</ele>
        <time>2026-04-11T17:06:12.769000Z</time>
      </trkpt>
      <trkpt lat="47.96954" lon="10.632509">
        <ele>633.4</ele>
        <time>2026-04-11T17:06:58.127000Z</time>
      </trkpt>
      <trkpt lat="47.969664" lon="10.632631">
        <ele>633.3</ele>
        <time>2026-04-11T17:07:13.204000Z</time>
      </trkpt>
      <trkpt lat="47.969719" lon="10.632757">
        <ele>633.3</ele>
        <time>2026-04-11T17:07:23.389000Z</time>
      </trkpt>
      <trkpt lat="47.969735" lon="10.632912">
        <ele>633.3</ele>
        <time>2026-04-11T17:07:33.955000Z</time>
      </trkpt>
      <trkpt lat="47.969723" lon="10.633173">
        <ele>633.2</ele>
        <time>2026-04-11T17:07:51.602000Z</time>
      </trkpt>
      <trkpt lat="47.969607" lon="10.63498">
        <ele>632.9</ele>
        <time>2026-04-11T17:09:53.798000Z</time>
      </trkpt>
      <trkpt lat="47.969617" lon="10.635432">
        <ele>632.9</ele>
        <time>2026-04-11T17:10:24.290000Z</time>
      </trkpt>
      <trkpt lat="47.9696" lon="10.63592">
        <ele>632.8</ele>
        <time>2026-04-11T17:10:57.110000Z</time>
      </trkpt>
      <trkpt lat="47.969536" lon="10.636511">
        <ele>632.7</ele>
        <time>2026-04-11T17:11:37.343000Z</time>
      </trkpt>
      <trkpt lat="47.969452" lon="10.637049">
        <ele>632.6</ele>
        <time>2026-04-11T17:12:14.614000Z</time>
      </trkpt>
      <trkpt lat="47.969443" lon="10.63774">
        <ele>632.5</ele>
        <time>2026-04-11T17:13:01.212000Z</time>
      </trkpt>
      <trkpt lat="47.969465" lon="10.638283">
        <ele>632.3</ele>
        <time>2026-04-11T17:13:37.976000Z</time>
      </trkpt>
      <trkpt lat="47.969561" lon="10.638537">
        <ele>632.2</ele>
        <time>2026-04-11T17:13:57.813000Z</time>
      </trkpt>
      <trkpt lat="47.969824" lon="10.638801">
        <ele>632</ele>
        <time>2026-04-11T17:14:29.988000Z</time>
      </trkpt>
      <trkpt lat="47.970011" lon="10.638823">
        <ele>631.8</ele>
        <time>2026-04-11T17:14:49.021000Z</time>
      </trkpt>
      <trkpt lat="47.970152" lon="10.638765">
        <ele>631.7</ele>
        <time>2026-04-11T17:15:03.939000Z</time>
      </trkpt>
      <trkpt lat="47.970549" lon="10.638229">
        <ele>631.3</ele>
        <time>2026-04-11T17:15:58.361000Z</time>
      </trkpt>
      <trkpt lat="47.970938" lon="10.637792">
        <ele>631.1</ele>
        <time>2026-04-11T17:16:47.549000Z</time>
      </trkpt>
      <trkpt lat="47.971148" lon="10.637694">
        <ele>631.1</ele>
        <time>2026-04-11T17:17:09.590000Z</time>
      </trkpt>
      <trkpt lat="47.971493" lon="10.637621">
        <ele>631.1</ele>
        <time>2026-04-11T17:17:44.534000Z</time>
      </trkpt>
      <trkpt lat="47.971619" lon="10.637737">
        <ele>631.1</ele>
        <time>2026-04-11T17:17:59.444000Z</time>
      </trkpt>
      <trkpt lat="47.971806" lon="10.638756">
        <ele>631.3</ele>
        <time>2026-04-11T17:19:10.790000Z</time>
      </trkpt>
      <trkpt lat="47.971966" lon="10.639526">
        <ele>631.3</ele>
        <time>2026-04-11T17:20:04.977000Z</time>
      </trkpt>
      <trkpt lat="47.971994" lon="10.640156">
        <ele>631.3</ele>
        <time>2026-04-11T17:20:47.425000Z</time>
      </trkpt>
      <trkpt lat="47.97199" lon="10.640888">
        <ele>631.1</ele>
        <time>2026-04-11T17:21:36.712000Z</time>
      </trkpt>
      <trkpt lat="47.972156" lon="10.64219">
        <ele>630.9</ele>
        <time>2026-04-11T17:23:06.047000Z</time>
      </trkpt>
      <trkpt lat="47.972247" lon="10.642631">
        <ele>630.7</ele>
        <time>2026-04-11T17:23:37.383000Z</time>
      </trkpt>
      <trkpt lat="47.972313" lon="10.642847">
        <ele>630.6</ele>
        <time>2026-04-11T17:23:53.403000Z</time>
      </trkpt>
      <trkpt lat="47.972444" lon="10.643105">
        <ele>630.6</ele>
        <time>2026-04-11T17:24:15.229000Z</time>
      </trkpt>
      <trkpt lat="47.972684" lon="10.643365">
        <ele>630.5</ele>
        <time>2026-04-11T17:24:45.156000Z</time>
      </trkpt>
      <trkpt lat="47.972917" lon="10.64352">
        <ele>630.4</ele>
        <time>2026-04-11T17:25:10.832000Z</time>
      </trkpt>
      <trkpt lat="47.972908" lon="10.643611">
        <ele>630.4</ele>
        <time>2026-04-11T17:25:16.966000Z</time>
      </trkpt>
      <trkpt lat="47.973" lon="10.64368">
        <ele>630.4</ele>
        <time>2026-04-11T17:25:27.290000Z</time>
      </trkpt>
      <trkpt lat="47.973031" lon="10.643764">
        <ele>630.4</ele>
        <time>2026-04-11T17:25:33.718000Z</time>
      </trkpt>
      <trkpt lat="47.973195" lon="10.643875">
        <ele>630.4</ele>
        <time>2026-04-11T17:25:51.864000Z</time>
      </trkpt>
      <trkpt lat="47.973333" lon="10.64397">
        <ele>630.5</ele>
        <time>2026-04-11T17:26:07.327000Z</time>
      </trkpt>
      <trkpt lat="47.973806" lon="10.644163">
        <ele>630.9</ele>
        <time>2026-04-11T17:26:58.097000Z</time>
      </trkpt>
      <trkpt lat="47.973864" lon="10.64426">
        <ele>631.1</ele>
        <time>2026-04-11T17:27:07.331000Z</time>
      </trkpt>
      <trkpt lat="47.973902" lon="10.644402">
        <ele>631.2</ele>
        <time>2026-04-11T17:27:18.182000Z</time>
      </trkpt>
      <trkpt lat="47.973907" lon="10.644658">
        <ele>631.5</ele>
        <time>2026-04-11T17:27:36.170000Z</time>
      </trkpt>
      <trkpt lat="47.973925" lon="10.645579">
        <ele>632.1</ele>
        <time>2026-04-11T17:28:40.103000Z</time>
      </trkpt>
      <trkpt lat="47.973953" lon="10.647199">
        <ele>632.5</ele>
        <time>2026-04-11T17:30:30.258000Z</time>
      </trkpt>
      <trkpt lat="47.973994" lon="10.649547">
        <ele>632.6</ele>
        <time>2026-04-11T17:33:08.058000Z</time>
      </trkpt>
      <trkpt lat="47.973946" lon="10.650519">
        <ele>632.6</ele>
        <time>2026-04-11T17:34:13.327000Z</time>
      </trkpt>
      <trkpt lat="47.976194" lon="10.650729">
        <ele>631.5</ele>
        <time>2026-04-11T17:38:01.078000Z</time>
      </trkpt>
      <trkpt lat="47.976188" lon="10.650882">
        <ele>631.5</ele>
        <time>2026-04-11T17:38:11.426000Z</time>
      </trkpt>
      <trkpt lat="47.979537" lon="10.651152">
        <ele>630.7</ele>
        <time>2026-04-11T17:43:48.708000Z</time>
      </trkpt>
      <trkpt lat="47.979996" lon="10.651124">
        <ele>630.5</ele>
        <time>2026-04-11T17:44:34.914000Z</time>
      </trkpt>
      <trkpt lat="47.980884" lon="10.65096">
        <ele>630.3</ele>
        <time>2026-04-11T17:46:05.079000Z</time>
      </trkpt>
      <trkpt lat="47.981431" lon="10.650856">
        <ele>630.2</ele>
        <time>2026-04-11T17:47:00.366000Z</time>
      </trkpt>
      <trkpt lat="47.98148" lon="10.650857">
        <ele>630.2</ele>
        <time>2026-04-11T17:47:05.271000Z</time>
      </trkpt>
      <trkpt lat="47.981755" lon="10.65086">
        <ele>630.2</ele>
        <time>2026-04-11T17:47:32.776000Z</time>
      </trkpt>
      <trkpt lat="47.982794" lon="10.650986">
        <ele>630.2</ele>
        <time>2026-04-11T17:49:17.160000Z</time>
      </trkpt>
      <trkpt lat="47.982881" lon="10.649715">
        <ele>629.9</ele>
        <time>2026-04-11T17:50:43.397000Z</time>
      </trkpt>
      <trkpt lat="47.982881" lon="10.649235">
        <ele>629.7</ele>
        <time>2026-04-11T17:51:15.990000Z</time>
      </trkpt>
      <trkpt lat="47.982761" lon="10.647136">
        <ele>628</ele>
        <time>2026-04-11T17:53:40.616000Z</time>
      </trkpt>
      <trkpt lat="47.982779" lon="10.646937">
        <ele>627.8</ele>
        <time>2026-04-11T17:53:54.425000Z</time>
      </trkpt>
      <trkpt lat="47.982855" lon="10.64672">
        <ele>627.6</ele>
        <time>2026-04-11T17:54:11.205000Z</time>
      </trkpt>
      <trkpt lat="47.983043" lon="10.646318">
        <ele>627.3</ele>
        <time>2026-04-11T17:54:44.667000Z</time>
      </trkpt>
      <trkpt lat="47.983124" lon="10.646229">
        <ele>627.3</ele>
        <time>2026-04-11T17:54:54.875000Z</time>
      </trkpt>
      <trkpt lat="47.983039" lon="10.645962">
        <ele>627.2</ele>
        <time>2026-04-11T17:55:14.954000Z</time>
      </trkpt>
      <trkpt lat="47.982913" lon="10.645777">
        <ele>627.1</ele>
        <time>2026-04-11T17:55:32.811000Z</time>
      </trkpt>
      <trkpt lat="47.98221" lon="10.645073">
        <ele>626.2</ele>
        <time>2026-04-11T17:56:59.354000Z</time>
      </trkpt>
      <trkpt lat="47.982151" lon="10.644967">
        <ele>626.2</ele>
        <time>2026-04-11T17:57:08.671000Z</time>
      </trkpt>
      <trkpt lat="47.982124" lon="10.644828">
        <ele>626.2</ele>
        <time>2026-04-11T17:57:18.397000Z</time>
      </trkpt>
      <trkpt lat="47.982137" lon="10.644765">
        <ele>626.1</ele>
        <time>2026-04-11T17:57:22.873000Z</time>
      </trkpt>
      <trkpt lat="47.982162" lon="10.644689">
        <ele>626.1</ele>
        <time>2026-04-11T17:57:28.589000Z</time>
      </trkpt>
      <trkpt lat="47.982232" lon="10.644619">
        <ele>626.1</ele>
        <time>2026-04-11T17:57:37.090000Z</time>
      </trkpt>
      <trkpt lat="47.982515" lon="10.644314">
        <ele>625.9</ele>
        <time>2026-04-11T17:58:12.471000Z</time>
      </trkpt>
      <trkpt lat="47.982567" lon="10.644237">
        <ele>625.8</ele>
        <time>2026-04-11T17:58:19.872000Z</time>
      </trkpt>
      <trkpt lat="47.982731" lon="10.644568">
        <ele>625.5</ele>
        <time>2026-04-11T17:58:48.076000Z</time>
      </trkpt>
      <trkpt lat="47.982885" lon="10.644778">
        <ele>625.2</ele>
        <time>2026-04-11T17:59:09.510000Z</time>
      </trkpt>
      <trkpt lat="47.983076" lon="10.644981">
        <ele>625</ele>
        <time>2026-04-11T17:59:33.430000Z</time>
      </trkpt>
      <trkpt lat="47.983513" lon="10.645319">
        <ele>624.8</ele>
        <time>2026-04-11T18:00:22.996000Z</time>
      </trkpt>
      <trkpt lat="47.983737" lon="10.645561">
        <ele>624.8</ele>
        <time>2026-04-11T18:00:50.780000Z</time>
      </trkpt>
      <trkpt lat="47.983992" lon="10.645647">
        <ele>624.7</ele>
        <time>2026-04-11T18:01:17.146000Z</time>
      </trkpt>
      <trkpt lat="47.984455" lon="10.645588">
        <ele>624.5</ele>
        <time>2026-04-11T18:02:04.058000Z</time>
      </trkpt>
      <trkpt lat="47.985021" lon="10.645363">
        <ele>624.2</ele>
        <time>2026-04-11T18:03:03.395000Z</time>
      </trkpt>
      <trkpt lat="47.985409" lon="10.645082">
        <ele>623.8</ele>
        <time>2026-04-11T18:03:47.360000Z</time>
      </trkpt>
      <trkpt lat="47.986001" lon="10.64459">
        <ele>622.8</ele>
        <time>2026-04-11T18:04:57.124000Z</time>
      </trkpt>
      <trkpt lat="47.986179" lon="10.644473">
        <ele>622.5</ele>
        <time>2026-04-11T18:05:17.240000Z</time>
      </trkpt>
      <trkpt lat="47.986386" lon="10.644385">
        <ele>622.2</ele>
        <time>2026-04-11T18:05:39.448000Z</time>
      </trkpt>
      <trkpt lat="47.986542" lon="10.644354">
        <ele>621.9</ele>
        <time>2026-04-11T18:05:55.695000Z</time>
      </trkpt>
      <trkpt lat="47.986807" lon="10.644357">
        <ele>621.6</ele>
        <time>2026-04-11T18:06:22.869000Z</time>
      </trkpt>
      <trkpt lat="47.987348" lon="10.644484">
        <ele>621.4</ele>
        <time>2026-04-11T18:07:18.217000Z</time>
      </trkpt>
      <trkpt lat="47.987452" lon="10.644478">
        <ele>621.4</ele>
        <time>2026-04-11T18:07:28.785000Z</time>
      </trkpt>
      <trkpt lat="47.987547" lon="10.644416">
        <ele>621.4</ele>
        <time>2026-04-11T18:07:39.316000Z</time>
      </trkpt>
      <trkpt lat="47.987627" lon="10.64429">
        <ele>621.5</ele>
        <time>2026-04-11T18:07:51.174000Z</time>
      </trkpt>
      <trkpt lat="47.987681" lon="10.644054">
        <ele>621.6</ele>
        <time>2026-04-11T18:08:08.265000Z</time>
      </trkpt>
      <trkpt lat="47.987681" lon="10.643804">
        <ele>621.7</ele>
        <time>2026-04-11T18:08:25.409000Z</time>
      </trkpt>
      <trkpt lat="47.987587" lon="10.642844">
        <ele>622.1</ele>
        <time>2026-04-11T18:09:31.991000Z</time>
      </trkpt>
      <trkpt lat="47.987758" lon="10.642911">
        <ele>622.2</ele>
        <time>2026-04-11T18:09:50.081000Z</time>
      </trkpt>
      <trkpt lat="47.987958" lon="10.643022">
        <ele>622.3</ele>
        <time>2026-04-11T18:10:11.795000Z</time>
      </trkpt>
      <trkpt lat="47.988084" lon="10.643188">
        <ele>622.4</ele>
        <time>2026-04-11T18:10:28.743000Z</time>
      </trkpt>
      <trkpt lat="47.98819" lon="10.643463">
        <ele>622.4</ele>
        <time>2026-04-11T18:10:50.065000Z</time>
      </trkpt>
      <trkpt lat="47.988247" lon="10.643804">
        <ele>622.4</ele>
        <time>2026-04-11T18:11:13.704000Z</time>
      </trkpt>
      <trkpt lat="47.988264" lon="10.644652">
        <ele>622.2</ele>
        <time>2026-04-11T18:12:10.930000Z</time>
      </trkpt>
      <trkpt lat="47.988295" lon="10.64474">
        <ele>622.2</ele>
        <time>2026-04-11T18:12:17.600000Z</time>
      </trkpt>
      <trkpt lat="47.988344" lon="10.644882">
        <ele>622.2</ele>
        <time>2026-04-11T18:12:28.342000Z</time>
      </trkpt>
      <trkpt lat="47.988533" lon="10.645082">
        <ele>622.1</ele>
        <time>2026-04-11T18:12:51.580000Z</time>
      </trkpt>
      <trkpt lat="47.98875" lon="10.6452">
        <ele>622.2</ele>
        <time>2026-04-11T18:13:14.673000Z</time>
      </trkpt>
      <trkpt lat="47.990185" lon="10.645529">
        <ele>622.3</ele>
        <time>2026-04-11T18:15:40.491000Z</time>
      </trkpt>
      <trkpt lat="47.990975" lon="10.645669">
        <ele>621.9</ele>
        <time>2026-04-11T18:17:00.937000Z</time>
      </trkpt>
      <trkpt lat="47.991105" lon="10.645696">
        <ele>621.8</ele>
        <time>2026-04-11T18:17:14.406000Z</time>
      </trkpt>
      <trkpt lat="47.991549" lon="10.645845">
        <ele>621.3</ele>
        <time>2026-04-11T18:18:01.005000Z</time>
      </trkpt>
      <trkpt lat="47.991906" lon="10.646076">
        <ele>620.7</ele>
        <time>2026-04-11T18:18:41.126000Z</time>
      </trkpt>
      <trkpt lat="47.994852" lon="10.64672">
        <ele>616.7</ele>
        <time>2026-04-11T18:23:47.402000Z</time>
      </trkpt>
      <trkpt lat="47.999069" lon="10.647659">
        <ele>616.6</ele>
        <time>2026-04-11T18:30:54.134000Z</time>
      </trkpt>
      <trkpt lat="48.000367" lon="10.647925">
        <ele>616.8</ele>
        <time>2026-04-11T18:33:05.688000Z</time>
      </trkpt>
      <trkpt lat="48.000758" lon="10.648049">
        <ele>616.9</ele>
        <time>2026-04-11T18:33:46.253000Z</time>
      </trkpt>
      <trkpt lat="48.000912" lon="10.647818">
        <ele>617.1</ele>
        <time>2026-04-11T18:34:08.626000Z</time>
      </trkpt>
      <trkpt lat="48.001113" lon="10.648058">
        <ele>617.3</ele>
        <time>2026-04-11T18:34:35.002000Z</time>
      </trkpt>
      <trkpt lat="48.001315" lon="10.648146">
        <ele>617.5</ele>
        <time>2026-04-11T18:34:56.772000Z</time>
      </trkpt>
      <trkpt lat="48.002394" lon="10.648359">
        <ele>618.4</ele>
        <time>2026-04-11T18:36:49.153000Z</time>
      </trkpt>
      <trkpt lat="48.002975" lon="10.648518">
        <ele>618.8</ele>
        <time>2026-04-11T18:37:49.610000Z</time>
      </trkpt>
      <trkpt lat="48.003176" lon="10.648545">
        <ele>618.9</ele>
        <time>2026-04-11T18:38:10.050000Z</time>
      </trkpt>
      <trkpt lat="48.003334" lon="10.648524">
        <ele>618.9</ele>
        <time>2026-04-11T18:38:25.981000Z</time>
      </trkpt>
      <trkpt lat="48.003433" lon="10.648324">
        <ele>618.9</ele>
        <time>2026-04-11T18:38:42.610000Z</time>
      </trkpt>
      <trkpt lat="48.003441" lon="10.648329">
        <ele>618.9</ele>
        <time>2026-04-11T18:38:43.489000Z</time>
      </trkpt>
      <trkpt lat="48.003735" lon="10.648495">
        <ele>618.8</ele>
        <time>2026-04-11T18:39:15.079000Z</time>
      </trkpt>
      <trkpt lat="48.003888" lon="10.648581">
        <ele>618.7</ele>
        <time>2026-04-11T18:39:31.627000Z</time>
      </trkpt>
      <trkpt lat="48.003906" lon="10.648625">
        <ele>618.7</ele>
        <time>2026-04-11T18:39:35.160000Z</time>
      </trkpt>
      <trkpt lat="48.003975" lon="10.648733">
        <ele>618.7</ele>
        <time>2026-04-11T18:39:45.273000Z</time>
      </trkpt>
      <trkpt lat="48.004071" lon="10.648795">
        <ele>618.6</ele>
        <time>2026-04-11T18:39:55.930000Z</time>
      </trkpt>
      <trkpt lat="48.008508" lon="10.649723">
        <ele>614.4</ele>
        <time>2026-04-11T18:47:32.970000Z</time>
      </trkpt>
      <trkpt lat="48.010673" lon="10.650176">
        <ele>614</ele>
        <time>2026-04-11T18:51:12.532000Z</time>
      </trkpt>
      <trkpt lat="48.016526" lon="10.651405">
        <ele>612.7</ele>
        <time>2026-04-11T19:01:06.797000Z</time>
      </trkpt>
      <trkpt lat="48.016605" lon="10.65141">
        <ele>612.8</ele>
        <time>2026-04-11T19:01:14.973000Z</time>
      </trkpt>
      <trkpt lat="48.016853" lon="10.651367">
        <ele>613</ele>
        <time>2026-04-11T19:01:40.679000Z</time>
      </trkpt>
      <trkpt lat="48.017091" lon="10.651164">
        <ele>613.2</ele>
        <time>2026-04-11T19:02:09.066000Z</time>
      </trkpt>
      <trkpt lat="48.017863" lon="10.650251">
        <ele>614.3</ele>
        <time>2026-04-11T19:03:51.351000Z</time>
      </trkpt>
      <trkpt lat="48.01852" lon="10.649561">
        <ele>614.7</ele>
        <time>2026-04-11T19:05:13.020000Z</time>
      </trkpt>
      <trkpt lat="48.01902" lon="10.649213">
        <ele>614.6</ele>
        <time>2026-04-11T19:06:08.275000Z</time>
      </trkpt>
      <trkpt lat="48.019685" lon="10.648961">
        <ele>614.3</ele>
        <time>2026-04-11T19:07:17.484000Z</time>
      </trkpt>
      <trkpt lat="48.019966" lon="10.648921">
        <ele>614.1</ele>
        <time>2026-04-11T19:07:46.202000Z</time>
      </trkpt>
      <trkpt lat="48.020335" lon="10.648926">
        <ele>613.8</ele>
        <time>2026-04-11T19:08:23.837000Z</time>
      </trkpt>
      <trkpt lat="48.020723" lon="10.648986">
        <ele>613.4</ele>
        <time>2026-04-11T19:09:03.799000Z</time>
      </trkpt>
      <trkpt lat="48.021245" lon="10.649199">
        <ele>612.8</ele>
        <time>2026-04-11T19:09:59.136000Z</time>
      </trkpt>
      <trkpt lat="48.021702" lon="10.649472">
        <ele>612.4</ele>
        <time>2026-04-11T19:10:49.156000Z</time>
      </trkpt>
      <trkpt lat="48.022353" lon="10.65005">
        <ele>611.9</ele>
        <time>2026-04-11T19:12:05.931000Z</time>
      </trkpt>
      <trkpt lat="48.022563" lon="10.650305">
        <ele>611.8</ele>
        <time>2026-04-11T19:12:33.335000Z</time>
      </trkpt>
      <trkpt lat="48.022678" lon="10.650424">
        <ele>611.7</ele>
        <time>2026-04-11T19:12:47.374000Z</time>
      </trkpt>
      <trkpt lat="48.023211" lon="10.650798">
        <ele>611.5</ele>
        <time>2026-04-11T19:13:46.826000Z</time>
      </trkpt>
      <trkpt lat="48.023318" lon="10.650856">
        <ele>611.5</ele>
        <time>2026-04-11T19:13:58.259000Z</time>
      </trkpt>
    </trkseg>
  </trk>
</gpx>