<?xml version="1.0" encoding="UTF-8"?>
<gpx xmlns="http://www.topografix.com/GPX/1/1" xmlns:xsi="http://www.w3.org/2001/XMLSchema-instance" xsi:schemaLocation="http://www.topografix.com/GPX/1/1 http://www.topografix.com/GPX/1/1/gpx.xsd" version="1.1" creator="Robert Kampf">
  <metadata>
    <name>Blick auf den Lech – Bank mit Blick auf den Lech Runde von Mundraching</name>
    <desc>Distance: 5.667km, Estimated duration: 1.62h, Elevation up: 131.99088135894556m, Elevation down: 131.99088135894544m, Grade: easy</desc>
    <author>
      <name>Robert Kampf</name>
      <link href="https://www.komoot.de/user/4125295338453">
        <text>View Robert Kampf's Profile on Komoot</text>
      </link>
    </author>
    <link href="https://www.komoot.de/tour/2853530038">
      <text>View tour on Komoot</text>
    </link>
  </metadata>
  <wpt lat="47.958762" lon="10.877997">
    <name>Mundraching</name>
    <cmt></cmt>
    <desc></desc>
    <src>Komoot</src>
    <type>POI</type>
  </wpt>
  <wpt lat="47.958754" lon="10.877967">
    <ele>670.2</ele>
    <name>St. Vitus Church, Mundraching</name>
    <cmt>https://d2exd72xrrp1s7.cloudfront.net/www/000/1k5/44/44dvsec5x0g01umngw4cuxr7w3tj854qf-uhi36211334/0</cmt>
    <desc>HPT: Auf der Nordwestseite des Dorfes liegt die Filialkirche St. Vitus. Bei der Renovierung der Dorfkirche von 1996 bis 2001 stießen die Arbeiter in deren Innerem auf Fundamentreste eines um etwa 1200 entstandenen, erstmaligen ( romanischen ) Kirchenbaus. 
Der spätgotische Chor stammt aus der zweiten Hälfte des 15. Jahrhunderts; 
1691/92 wurde unter Anleitung des bekannten Barockbaumeister Johann Schmuzer aus Wessobrunn – gleichzeitig mit der Wallfahrtskirche Vilgertshofen –  das Kirchenschiff umgebaut und 1801 erfolgte der Bau des Ostturms mit Satteldach. 
Insgesamt sind fünf Bauperioden an dem Gebäude zu erkennen
――――――――――
RITTER MARTON 🐑 🐿: schöne Kirche</desc>
    <src>Komoot</src>
    <link href="https://www.komoot.de/highlight/6076255">
      <text>View POI on Komoot</text>
    </link>
    <type>Highlight</type>
  </wpt>
  <wpt lat="47.958855" lon="10.879162">
    <ele>646.8</ele>
    <name>Village Center Fountain</name>
    <cmt>https://d2exd72xrrp1s7.cloudfront.net/www/000/1k5/14/149tf7xlgoega1sftyeo3b32cq3q54r6fc-uhi30922537/0</cmt>
    <desc>Tourismusverband Pfaffenwinkel: Schöner Platz für eine Rast</desc>
    <src>Komoot</src>
    <link href="https://www.komoot.de/highlight/3052660">
      <text>View POI on Komoot</text>
    </link>
    <type>Highlight</type>
  </wpt>
  <wpt lat="47.96128" lon="10.883279">
    <ele>731</ele>
    <name>View of the Lech</name>
    <cmt>https://d2exd72xrrp1s7.cloudfront.net/www/000/1k9/1n/1nhozfxhkar4h10o0tej434uo75ckda8jk-uhi85492249/0</cmt>
    <desc>Timo. 📍Stapel ]: Tolle Leistung dort Oben eine Pausenbank zu Spenden ( Markus und Christoph ) 
Der Blick ist Genial ..</desc>
    <src>Komoot</src>
    <link href="https://www.komoot.de/highlight/7396578">
      <text>View POI on Komoot</text>
    </link>
    <type>Highlight</type>
  </wpt>
  <wpt lat="47.962007" lon="10.884001">
    <ele>734</ele>
    <name>View of Lechauen and lakes near Lechtal-Süd</name>
    <cmt>https://d2exd72xrrp1s7.cloudfront.net/www/000/1k8/18/18py1fp6ctlvo16neka14yfof4wq8ij0q-uhi69731762/0</cmt>
    <desc></desc>
    <src>Komoot</src>
    <link href="https://www.komoot.de/highlight/6463849">
      <text>View POI on Komoot</text>
    </link>
    <type>Highlight</type>
  </wpt>
  <wpt lat="47.964622" lon="10.884421">
    <ele>718.3</ele>
    <name>View of the Lech River</name>
    <cmt>https://d2exd72xrrp1s7.cloudfront.net/www/000/1k0/1n/1n9825l2r917zv1ffmjpx1xr91s9owfix-uhi352366/0</cmt>
    <desc>⚡Hma⚡(📍MIL  🇩🇪 ): Ob mit Fahrrad oder zu Fuß, diesen Ausblick sollte man sich nicht entgehen lassen.
――――――――――
Michael: Sehr schöner Trail von Mundraching bis Pitzling (und noch weiter). Tolle Aussicht auf die Lechschleifen. Einkehrmöglichkeit in die Teufelsküche kurz nach Pitzling.
――――――――――
Carsten (📍FFB): Zeit für eine Pause.
Bank ist da und die Blicke in die Ferne richten 😉
――――――――――
Manfred: Schöne Aussicht über Mundraching Seestall bis ins Fuchstal
――――――――――
Benjamin Leyer: Schöner knackiger Trail mit super Aussichten auf dem Lech :-)
――――――――――
msateam: Super schöne Ecke mit Ausblick und tolle Wurzelstrecke.
――――――――――
Raphael: Mega Aussicht. Und eine Bank zum sitzen und entspannen gibts auch.
――――――――――
Holger: einfach mal eine kleine Pause einlegen und den Blick sowie die Ruhe geniessen
――――――――――
Reiner L: Ein richtig toller Ausblick über den Lech und die Vorfreude auf einen tollen und anspruchsvollen Trail.
――――――――――
⚡Hma⚡(📍MIL  🇩🇪 ): Toller Platz zum Verweilen und Träumen.
――――――――――
Loady: Schöne Strecke, aber auch sehr anspruchsvoll (viel Wurzelwerk)
――――――――――
Holger: anhalten, die Bank zur Pause nutzen und Blick sowie die Ruhe geniessen
――――――――――
Hardi: Herlicher Platz zum schauen und genießen
――――――――――
Di Rienzo S.: Sehr schöner Anblick und Aussicht.
――――――――――
Manfred: schöne Aussicht über Seestall
――――――――――
Tobi: Mittlerweile ist man dort als Biker leider nicht mehr so gern gesehen, so gut wie alle Wege blockiert und zusätzlich teilweise Verbotsschilder
――――――――――
Boris 🚴 🏃🐾🐕‍🦺: Dieser Abschnitt der Tour ist sehr schwer, die Wurzeln ragen weit nach oben und der Weg ist steil. Fahrt nicht zu schnell, die Sicht ist sooo schön.
――――――――――
Dome: Immer wieder schön, den Ausblick auf der Bank zu genießen.
――――――――――
Michael: Am Lech gibt's zahlreiche Trails &amp; Radwege
――――――――――
Timo. 📍Stapel ]: Grandiose Aussicht auf den Lech..
――――――――――
Tom War: tiefer Abhang mit Ausblick aus dem Wald auf den Lech
――――――――――
Michael: Rastplatz mit Panorama
――――――――――
Anita/Awa🐕 Und Bianca: wirklich zu empfehlen... auch wenn der Weg etwas anstrengend ist</desc>
    <src>Komoot</src>
    <link href="https://www.komoot.de/highlight/1008659">
      <text>View POI on Komoot</text>
    </link>
    <type>Highlight</type>
  </wpt>
  <wpt lat="47.964924" lon="10.884185">
    <ele>730.5</ele>
    <name>Bench with a View of the Lech</name>
    <cmt>https://d2exd72xrrp1s7.cloudfront.net/www/000/1k4/rg/rgo7k26csuuo15vvkxypsnhqg3k2mq7fh-uhi25054048/0</cmt>
    <desc>Marco Schicker: fantastischer Blick
――――――――――
PfalzGraveller: Toller Fernblick über das Lech Tal
――――――――――
PfalzGraveller: Toller Blick auf die Lech.
――――――――――
Michael M.: Bin die Tour heute gefahren. Bis auf den Abschnitt, bei dem man definitiv mit einem Gravelbike schieben muss, eine schöne Tour. Super Ausblick!</desc>
    <src>Komoot</src>
    <link href="https://www.komoot.de/highlight/3004736">
      <text>View POI on Komoot</text>
    </link>
    <type>Highlight</type>
  </wpt>
  <wpt lat="47.969629" lon="10.881302">
    <ele>669.3</ele>
    <name>Rope Swing Over Lech Lake</name>
    <cmt>https://d2exd72xrrp1s7.cloudfront.net/www/000/1k4/1i/1ierknc8t4hbm10jlvxuy59f6q3iei47i4-uhi22469712/0</cmt>
    <desc>ubahnsurfer: Hier kann man in den Lech schaukeln und sich erfrischen.</desc>
    <src>Komoot</src>
    <link href="https://www.komoot.de/highlight/2651292">
      <text>View POI on Komoot</text>
    </link>
    <type>Highlight</type>
  </wpt>
  <wpt lat="47.971239" lon="10.88034">
    <ele>656.2</ele>
    <name>Lakeside Rest Area on the Lech</name>
    <cmt>https://d2exd72xrrp1s7.cloudfront.net/www/000/1k9/1u/1umjw6afpw3zi1byo7x8kjljgt5ckdgo43-uhi85492575/0</cmt>
    <desc></desc>
    <src>Komoot</src>
    <link href="https://www.komoot.de/highlight/7396598">
      <text>View POI on Komoot</text>
    </link>
    <type>Highlight</type>
  </wpt>
  <trk>
    <name>Blick auf den Lech – Bank mit Blick auf den Lech Runde von Mundraching</name>
    <desc>Distance: 5.667km, Estimated duration: 1.62h, Elevation up: 131.99088135894556m, Elevation down: 131.99088135894544m, Grade: easy</desc>
    <link href="https://www.komoot.de/tour/2853530038">
      <text>View tour on Komoot</text>
    </link>
    <trkseg>
      <trkpt lat="47.958819" lon="10.878003">
        <ele>631.5</ele>
        <time>2026-03-30T12:12:14.020000Z</time>
      </trkpt>
      <trkpt lat="47.958822" lon="10.8782">
        <ele>632.2</ele>
        <time>2026-03-30T12:12:29.468000Z</time>
      </trkpt>
      <trkpt lat="47.95884" lon="10.878412">
        <ele>632.9</ele>
        <time>2026-03-30T12:12:46.300000Z</time>
      </trkpt>
      <trkpt lat="47.95885" lon="10.878552">
        <ele>633.5</ele>
        <time>2026-03-30T12:12:57.610000Z</time>
      </trkpt>
      <trkpt lat="47.958857" lon="10.878648">
        <ele>633.8</ele>
        <time>2026-03-30T12:13:05.380000Z</time>
      </trkpt>
      <trkpt lat="47.958873" lon="10.878857">
        <ele>634.7</ele>
        <time>2026-03-30T12:13:22.553000Z</time>
      </trkpt>
      <trkpt lat="47.958887" lon="10.879033">
        <ele>635.5</ele>
        <time>2026-03-30T12:13:37.184000Z</time>
      </trkpt>
      <trkpt lat="47.958878" lon="10.879165">
        <ele>636.2</ele>
        <time>2026-03-30T12:13:48.273000Z</time>
      </trkpt>
      <trkpt lat="47.958864" lon="10.879367">
        <ele>637.2</ele>
        <time>2026-03-30T12:14:05.357000Z</time>
      </trkpt>
      <trkpt lat="47.958964" lon="10.87956">
        <ele>638.6</ele>
        <time>2026-03-30T12:14:26.250000Z</time>
      </trkpt>
      <trkpt lat="47.959129" lon="10.879871">
        <ele>640.9</ele>
        <time>2026-03-30T12:15:00.902000Z</time>
      </trkpt>
      <trkpt lat="47.95955" lon="10.880679">
        <ele>647.7</ele>
        <time>2026-03-30T12:16:32.388000Z</time>
      </trkpt>
      <trkpt lat="47.959597" lon="10.880905">
        <ele>649.3</ele>
        <time>2026-03-30T12:16:53.455000Z</time>
      </trkpt>
      <trkpt lat="47.9596" lon="10.881107">
        <ele>650.6</ele>
        <time>2026-03-30T12:17:11.335000Z</time>
      </trkpt>
      <trkpt lat="47.959034" lon="10.882084">
        <ele>660.5</ele>
        <time>2026-03-30T12:19:12.391000Z</time>
      </trkpt>
      <trkpt lat="47.959035" lon="10.882318">
        <ele>662.7</ele>
        <time>2026-03-30T12:19:36.797000Z</time>
      </trkpt>
      <trkpt lat="47.959" lon="10.882487">
        <ele>664.3</ele>
        <time>2026-03-30T12:19:55.382000Z</time>
      </trkpt>
      <trkpt lat="47.958989" lon="10.882708">
        <ele>666.4</ele>
        <time>2026-03-30T12:20:18.934000Z</time>
      </trkpt>
      <trkpt lat="47.959222" lon="10.88392">
        <ele>677</ele>
        <time>2026-03-30T12:22:23.073000Z</time>
      </trkpt>
      <trkpt lat="47.959236" lon="10.88424">
        <ele>678.9</ele>
        <time>2026-03-30T12:22:50.950000Z</time>
      </trkpt>
      <trkpt lat="47.959216" lon="10.884485">
        <ele>680</ele>
        <time>2026-03-30T12:23:11.472000Z</time>
      </trkpt>
      <trkpt lat="47.959245" lon="10.884759">
        <ele>680.9</ele>
        <time>2026-03-30T12:23:33.119000Z</time>
      </trkpt>
      <trkpt lat="47.959395" lon="10.88459">
        <ele>681.4</ele>
        <time>2026-03-30T12:23:53.488000Z</time>
      </trkpt>
      <trkpt lat="47.95953" lon="10.884339">
        <ele>681.3</ele>
        <time>2026-03-30T12:24:15.188000Z</time>
      </trkpt>
      <trkpt lat="47.959489" lon="10.883756">
        <ele>680</ele>
        <time>2026-03-30T12:24:57.147000Z</time>
      </trkpt>
      <trkpt lat="47.95945" lon="10.883497">
        <ele>679</ele>
        <time>2026-03-30T12:25:16.854000Z</time>
      </trkpt>
      <trkpt lat="47.95944" lon="10.883429">
        <ele>678.8</ele>
        <time>2026-03-30T12:25:22.083000Z</time>
      </trkpt>
      <trkpt lat="47.959511" lon="10.883282">
        <ele>678</ele>
        <time>2026-03-30T12:25:35.648000Z</time>
      </trkpt>
      <trkpt lat="47.959538" lon="10.883134">
        <ele>677.4</ele>
        <time>2026-03-30T12:25:47.252000Z</time>
      </trkpt>
      <trkpt lat="47.959561" lon="10.882903">
        <ele>676.4</ele>
        <time>2026-03-30T12:26:04.922000Z</time>
      </trkpt>
      <trkpt lat="47.959617" lon="10.882736">
        <ele>675.6</ele>
        <time>2026-03-30T12:26:19.036000Z</time>
      </trkpt>
      <trkpt lat="47.95989" lon="10.88225">
        <ele>673.4</ele>
        <time>2026-03-30T12:27:06.060000Z</time>
      </trkpt>
      <trkpt lat="47.959963" lon="10.88225">
        <ele>673.1</ele>
        <time>2026-03-30T12:27:14.016000Z</time>
      </trkpt>
      <trkpt lat="47.960178" lon="10.882075">
        <ele>672.3</ele>
        <time>2026-03-30T12:27:40.097000Z</time>
      </trkpt>
      <trkpt lat="47.960355" lon="10.881989">
        <ele>671.9</ele>
        <time>2026-03-30T12:27:59.561000Z</time>
      </trkpt>
      <trkpt lat="47.960462" lon="10.882138">
        <ele>671.7</ele>
        <time>2026-03-30T12:28:14.492000Z</time>
      </trkpt>
      <trkpt lat="47.960475" lon="10.882273">
        <ele>671.7</ele>
        <time>2026-03-30T12:28:23.760000Z</time>
      </trkpt>
      <trkpt lat="47.960552" lon="10.882323">
        <ele>671.6</ele>
        <time>2026-03-30T12:28:32.299000Z</time>
      </trkpt>
      <trkpt lat="47.960704" lon="10.88224">
        <ele>671.6</ele>
        <time>2026-03-30T12:28:48.616000Z</time>
      </trkpt>
      <trkpt lat="47.960747" lon="10.88234">
        <ele>671.5</ele>
        <time>2026-03-30T12:28:56.673000Z</time>
      </trkpt>
      <trkpt lat="47.960832" lon="10.882296">
        <ele>671.5</ele>
        <time>2026-03-30T12:29:05.788000Z</time>
      </trkpt>
      <trkpt lat="47.960915" lon="10.882379">
        <ele>671.4</ele>
        <time>2026-03-30T12:29:15.800000Z</time>
      </trkpt>
      <trkpt lat="47.961065" lon="10.882731">
        <ele>671.3</ele>
        <time>2026-03-30T12:29:44.064000Z</time>
      </trkpt>
      <trkpt lat="47.961264" lon="10.882967">
        <ele>671.1</ele>
        <time>2026-03-30T12:30:09.982000Z</time>
      </trkpt>
      <trkpt lat="47.961271" lon="10.883183">
        <ele>670.8</ele>
        <time>2026-03-30T12:30:25.019000Z</time>
      </trkpt>
      <trkpt lat="47.961297" lon="10.883267">
        <ele>670.7</ele>
        <time>2026-03-30T12:30:31.474000Z</time>
      </trkpt>
      <trkpt lat="47.961321" lon="10.883347">
        <ele>670.6</ele>
        <time>2026-03-30T12:30:37.599000Z</time>
      </trkpt>
      <trkpt lat="47.96137" lon="10.883432">
        <ele>670.4</ele>
        <time>2026-03-30T12:30:45.508000Z</time>
      </trkpt>
      <trkpt lat="47.961466" lon="10.883473">
        <ele>670.1</ele>
        <time>2026-03-30T12:30:56.094000Z</time>
      </trkpt>
      <trkpt lat="47.961609" lon="10.883622">
        <ele>669.6</ele>
        <time>2026-03-30T12:31:14.546000Z</time>
      </trkpt>
      <trkpt lat="47.961757" lon="10.883904">
        <ele>668.9</ele>
        <time>2026-03-30T12:31:39.978000Z</time>
      </trkpt>
      <trkpt lat="47.961851" lon="10.883876">
        <ele>668.6</ele>
        <time>2026-03-30T12:31:50.228000Z</time>
      </trkpt>
      <trkpt lat="47.962004" lon="10.884008">
        <ele>667.8</ele>
        <time>2026-03-30T12:32:09.490000Z</time>
      </trkpt>
      <trkpt lat="47.962095" lon="10.884086">
        <ele>667.3</ele>
        <time>2026-03-30T12:32:21.125000Z</time>
      </trkpt>
      <trkpt lat="47.962425" lon="10.88431">
        <ele>664.6</ele>
        <time>2026-03-30T12:33:02.657000Z</time>
      </trkpt>
      <trkpt lat="47.962654" lon="10.884809">
        <ele>660.5</ele>
        <time>2026-03-30T12:33:51.312000Z</time>
      </trkpt>
      <trkpt lat="47.96295" lon="10.884455">
        <ele>656.9</ele>
        <time>2026-03-30T12:34:36.267000Z</time>
      </trkpt>
      <trkpt lat="47.963153" lon="10.884252">
        <ele>655.4</ele>
        <time>2026-03-30T12:35:03.935000Z</time>
      </trkpt>
      <trkpt lat="47.96339" lon="10.884165">
        <ele>654.3</ele>
        <time>2026-03-30T12:35:30.538000Z</time>
      </trkpt>
      <trkpt lat="47.963566" lon="10.884212">
        <ele>653.7</ele>
        <time>2026-03-30T12:35:49.578000Z</time>
      </trkpt>
      <trkpt lat="47.963652" lon="10.884194">
        <ele>653.5</ele>
        <time>2026-03-30T12:35:58.695000Z</time>
      </trkpt>
      <trkpt lat="47.96385" lon="10.884272">
        <ele>653</ele>
        <time>2026-03-30T12:36:20.240000Z</time>
      </trkpt>
      <trkpt lat="47.964248" lon="10.884339">
        <ele>653</ele>
        <time>2026-03-30T12:37:00.536000Z</time>
      </trkpt>
      <trkpt lat="47.96455" lon="10.884484">
        <ele>654.2</ele>
        <time>2026-03-30T12:37:36.323000Z</time>
      </trkpt>
      <trkpt lat="47.964627" lon="10.884444">
        <ele>654.5</ele>
        <time>2026-03-30T12:37:45.644000Z</time>
      </trkpt>
      <trkpt lat="47.964705" lon="10.884402">
        <ele>654.9</ele>
        <time>2026-03-30T12:37:55.333000Z</time>
      </trkpt>
      <trkpt lat="47.964907" lon="10.884242">
        <ele>655.6</ele>
        <time>2026-03-30T12:38:20.607000Z</time>
      </trkpt>
      <trkpt lat="47.964984" lon="10.884199">
        <ele>655.8</ele>
        <time>2026-03-30T12:38:29.436000Z</time>
      </trkpt>
      <trkpt lat="47.965107" lon="10.884208">
        <ele>655.9</ele>
        <time>2026-03-30T12:38:42.184000Z</time>
      </trkpt>
      <trkpt lat="47.965258" lon="10.884323">
        <ele>656</ele>
        <time>2026-03-30T12:38:59.417000Z</time>
      </trkpt>
      <trkpt lat="47.965755" lon="10.884078">
        <ele>655.3</ele>
        <time>2026-03-30T12:39:53.325000Z</time>
      </trkpt>
      <trkpt lat="47.96585" lon="10.883914">
        <ele>654.9</ele>
        <time>2026-03-30T12:40:08.593000Z</time>
      </trkpt>
      <trkpt lat="47.966012" lon="10.883821">
        <ele>654.6</ele>
        <time>2026-03-30T12:40:26.593000Z</time>
      </trkpt>
      <trkpt lat="47.966241" lon="10.883821">
        <ele>654</ele>
        <time>2026-03-30T12:40:50.657000Z</time>
      </trkpt>
      <trkpt lat="47.966692" lon="10.883729">
        <ele>651.7</ele>
        <time>2026-03-30T12:41:40.961000Z</time>
      </trkpt>
      <trkpt lat="47.966737" lon="10.883678">
        <ele>651.4</ele>
        <time>2026-03-30T12:41:47.182000Z</time>
      </trkpt>
      <trkpt lat="47.966982" lon="10.883653">
        <ele>649.6</ele>
        <time>2026-03-30T12:42:15.411000Z</time>
      </trkpt>
      <trkpt lat="47.967187" lon="10.883688">
        <ele>647.4</ele>
        <time>2026-03-30T12:42:40.331000Z</time>
      </trkpt>
      <trkpt lat="47.967271" lon="10.883514">
        <ele>645.7</ele>
        <time>2026-03-30T12:42:58.126000Z</time>
      </trkpt>
      <trkpt lat="47.967348" lon="10.883468">
        <ele>644.6</ele>
        <time>2026-03-30T12:43:08.478000Z</time>
      </trkpt>
      <trkpt lat="47.967424" lon="10.883319">
        <ele>643.1</ele>
        <time>2026-03-30T12:43:23.960000Z</time>
      </trkpt>
      <trkpt lat="47.967494" lon="10.883332">
        <ele>642.4</ele>
        <time>2026-03-30T12:43:32.349000Z</time>
      </trkpt>
      <trkpt lat="47.967624" lon="10.883462">
        <ele>640.7</ele>
        <time>2026-03-30T12:43:51.332000Z</time>
      </trkpt>
      <trkpt lat="47.967742" lon="10.883064">
        <ele>637.4</ele>
        <time>2026-03-30T12:44:27.006000Z</time>
      </trkpt>
      <trkpt lat="47.967789" lon="10.882924">
        <ele>635.9</ele>
        <time>2026-03-30T12:44:40.529000Z</time>
      </trkpt>
      <trkpt lat="47.967856" lon="10.882831">
        <ele>634.6</ele>
        <time>2026-03-30T12:44:52.143000Z</time>
      </trkpt>
      <trkpt lat="47.968017" lon="10.882732">
        <ele>631.9</ele>
        <time>2026-03-30T12:45:14.770000Z</time>
      </trkpt>
      <trkpt lat="47.968131" lon="10.882692">
        <ele>630.3</ele>
        <time>2026-03-30T12:45:29.524000Z</time>
      </trkpt>
      <trkpt lat="47.968559" lon="10.882603">
        <ele>624.8</ele>
        <time>2026-03-30T12:46:23.550000Z</time>
      </trkpt>
      <trkpt lat="47.968375" lon="10.88228">
        <ele>622</ele>
        <time>2026-03-30T12:46:57.467000Z</time>
      </trkpt>
      <trkpt lat="47.968364" lon="10.882214">
        <ele>621.7</ele>
        <time>2026-03-30T12:47:02.582000Z</time>
      </trkpt>
      <trkpt lat="47.968446" lon="10.882117">
        <ele>621.2</ele>
        <time>2026-03-30T12:47:14.056000Z</time>
      </trkpt>
      <trkpt lat="47.968623" lon="10.881991">
        <ele>620.5</ele>
        <time>2026-03-30T12:47:35.153000Z</time>
      </trkpt>
      <trkpt lat="47.968925" lon="10.881897">
        <ele>619.2</ele>
        <time>2026-03-30T12:48:08.700000Z</time>
      </trkpt>
      <trkpt lat="47.969374" lon="10.881668">
        <ele>616.4</ele>
        <time>2026-03-30T12:49:01.814000Z</time>
      </trkpt>
      <trkpt lat="47.969662" lon="10.881431">
        <ele>615.4</ele>
        <time>2026-03-30T12:49:36.786000Z</time>
      </trkpt>
      <trkpt lat="47.969665" lon="10.881429">
        <ele>615.4</ele>
        <time>2026-03-30T12:49:37.103000Z</time>
      </trkpt>
      <trkpt lat="47.970216" lon="10.881084">
        <ele>613.6</ele>
        <time>2026-03-30T12:50:40.526000Z</time>
      </trkpt>
      <trkpt lat="47.971041" lon="10.88064">
        <ele>612.6</ele>
        <time>2026-03-30T12:52:10.413000Z</time>
      </trkpt>
      <trkpt lat="47.97116" lon="10.880408">
        <ele>612.7</ele>
        <time>2026-03-30T12:52:30.599000Z</time>
      </trkpt>
      <trkpt lat="47.971245" lon="10.880383">
        <ele>612.9</ele>
        <time>2026-03-30T12:52:39.711000Z</time>
      </trkpt>
      <trkpt lat="47.971253" lon="10.88038">
        <ele>612.9</ele>
        <time>2026-03-30T12:52:40.544000Z</time>
      </trkpt>
      <trkpt lat="47.971352" lon="10.88048">
        <ele>613.1</ele>
        <time>2026-03-30T12:52:53.344000Z</time>
      </trkpt>
      <trkpt lat="47.971461" lon="10.880555">
        <ele>613.4</ele>
        <time>2026-03-30T12:53:06.291000Z</time>
      </trkpt>
      <trkpt lat="47.971288" lon="10.880799">
        <ele>614</ele>
        <time>2026-03-30T12:53:32.237000Z</time>
      </trkpt>
      <trkpt lat="47.971148" lon="10.881112">
        <ele>614.9</ele>
        <time>2026-03-30T12:54:00.519000Z</time>
      </trkpt>
      <trkpt lat="47.971085" lon="10.881376">
        <ele>615.6</ele>
        <time>2026-03-30T12:54:22.096000Z</time>
      </trkpt>
      <trkpt lat="47.970809" lon="10.881524">
        <ele>617.3</ele>
        <time>2026-03-30T12:54:57.178000Z</time>
      </trkpt>
      <trkpt lat="47.97052" lon="10.881626">
        <ele>619.4</ele>
        <time>2026-03-30T12:55:33.984000Z</time>
      </trkpt>
      <trkpt lat="47.970031" lon="10.881956">
        <ele>623.2</ele>
        <time>2026-03-30T12:56:40.774000Z</time>
      </trkpt>
      <trkpt lat="47.969666" lon="10.8824">
        <ele>625.9</ele>
        <time>2026-03-30T12:57:37.222000Z</time>
      </trkpt>
      <trkpt lat="47.969534" lon="10.882521">
        <ele>626.6</ele>
        <time>2026-03-30T12:57:55.154000Z</time>
      </trkpt>
      <trkpt lat="47.969334" lon="10.882583">
        <ele>627.2</ele>
        <time>2026-03-30T12:58:17.660000Z</time>
      </trkpt>
      <trkpt lat="47.968905" lon="10.882556">
        <ele>627.8</ele>
        <time>2026-03-30T12:59:02.863000Z</time>
      </trkpt>
      <trkpt lat="47.968559" lon="10.882603">
        <ele>629.7</ele>
        <time>2026-03-30T12:59:44.142000Z</time>
      </trkpt>
      <trkpt lat="47.968131" lon="10.882692">
        <ele>633.8</ele>
        <time>2026-03-30T13:00:41.311000Z</time>
      </trkpt>
      <trkpt lat="47.968017" lon="10.882732">
        <ele>635.2</ele>
        <time>2026-03-30T13:00:57.830000Z</time>
      </trkpt>
      <trkpt lat="47.967856" lon="10.882831">
        <ele>637.6</ele>
        <time>2026-03-30T13:01:24.651000Z</time>
      </trkpt>
      <trkpt lat="47.967789" lon="10.882924">
        <ele>638.8</ele>
        <time>2026-03-30T13:01:38.995000Z</time>
      </trkpt>
      <trkpt lat="47.967742" lon="10.883064">
        <ele>640.4</ele>
        <time>2026-03-30T13:01:56.298000Z</time>
      </trkpt>
      <trkpt lat="47.967624" lon="10.883462">
        <ele>644.7</ele>
        <time>2026-03-30T13:02:43.606000Z</time>
      </trkpt>
      <trkpt lat="47.967518" lon="10.883888">
        <ele>649.6</ele>
        <time>2026-03-30T13:03:36.234000Z</time>
      </trkpt>
      <trkpt lat="47.967388" lon="10.884192">
        <ele>654</ele>
        <time>2026-03-30T13:04:21.230000Z</time>
      </trkpt>
      <trkpt lat="47.967168" lon="10.884341">
        <ele>658.4</ele>
        <time>2026-03-30T13:05:06.195000Z</time>
      </trkpt>
      <trkpt lat="47.966729" lon="10.884789">
        <ele>664.7</ele>
        <time>2026-03-30T13:06:21.380000Z</time>
      </trkpt>
      <trkpt lat="47.966407" lon="10.885149">
        <ele>667.6</ele>
        <time>2026-03-30T13:07:11.841000Z</time>
      </trkpt>
      <trkpt lat="47.96613" lon="10.885553">
        <ele>669.7</ele>
        <time>2026-03-30T13:07:57.838000Z</time>
      </trkpt>
      <trkpt lat="47.965967" lon="10.885964">
        <ele>671.3</ele>
        <time>2026-03-30T13:08:35.443000Z</time>
      </trkpt>
      <trkpt lat="47.965782" lon="10.886569">
        <ele>673.1</ele>
        <time>2026-03-30T13:09:26.219000Z</time>
      </trkpt>
      <trkpt lat="47.965739" lon="10.887267">
        <ele>674.1</ele>
        <time>2026-03-30T13:10:16.564000Z</time>
      </trkpt>
      <trkpt lat="47.965754" lon="10.887721">
        <ele>674.3</ele>
        <time>2026-03-30T13:10:47.716000Z</time>
      </trkpt>
      <trkpt lat="47.965726" lon="10.888551">
        <ele>674.3</ele>
        <time>2026-03-30T13:11:43.538000Z</time>
      </trkpt>
      <trkpt lat="47.965678" lon="10.889929">
        <ele>675.5</ele>
        <time>2026-03-30T13:13:20.137000Z</time>
      </trkpt>
      <trkpt lat="47.965514" lon="10.890528">
        <ele>676.5</ele>
        <time>2026-03-30T13:14:07.223000Z</time>
      </trkpt>
      <trkpt lat="47.96528" lon="10.891207">
        <ele>678.1</ele>
        <time>2026-03-30T13:15:03.851000Z</time>
      </trkpt>
      <trkpt lat="47.964982" lon="10.891789">
        <ele>679.8</ele>
        <time>2026-03-30T13:15:59.178000Z</time>
      </trkpt>
      <trkpt lat="47.964982" lon="10.89206">
        <ele>680.5</ele>
        <time>2026-03-30T13:16:19.618000Z</time>
      </trkpt>
      <trkpt lat="47.964735" lon="10.893999">
        <ele>684.4</ele>
        <time>2026-03-30T13:18:45.811000Z</time>
      </trkpt>
      <trkpt lat="47.964553" lon="10.894504">
        <ele>685.2</ele>
        <time>2026-03-30T13:19:26.965000Z</time>
      </trkpt>
      <trkpt lat="47.96432" lon="10.894872">
        <ele>685.8</ele>
        <time>2026-03-30T13:20:03.019000Z</time>
      </trkpt>
      <trkpt lat="47.964046" lon="10.895136">
        <ele>686.2</ele>
        <time>2026-03-30T13:20:37.181000Z</time>
      </trkpt>
      <trkpt lat="47.962537" lon="10.896252">
        <ele>688.1</ele>
        <time>2026-03-30T13:23:32.447000Z</time>
      </trkpt>
      <trkpt lat="47.962431" lon="10.89637">
        <ele>688.3</ele>
        <time>2026-03-30T13:23:46.424000Z</time>
      </trkpt>
      <trkpt lat="47.962214" lon="10.895673">
        <ele>689.1</ele>
        <time>2026-03-30T13:24:40.674000Z</time>
      </trkpt>
      <trkpt lat="47.962143" lon="10.895506">
        <ele>689.3</ele>
        <time>2026-03-30T13:24:54.649000Z</time>
      </trkpt>
      <trkpt lat="47.961765" lon="10.894945">
        <ele>690.1</ele>
        <time>2026-03-30T13:25:50.793000Z</time>
      </trkpt>
      <trkpt lat="47.961621" lon="10.894672">
        <ele>690.4</ele>
        <time>2026-03-30T13:26:15.196000Z</time>
      </trkpt>
      <trkpt lat="47.961364" lon="10.893972">
        <ele>690.9</ele>
        <time>2026-03-30T13:27:10.452000Z</time>
      </trkpt>
      <trkpt lat="47.960803" lon="10.893205">
        <ele>691</ele>
        <time>2026-03-30T13:28:27.027000Z</time>
      </trkpt>
      <trkpt lat="47.96071" lon="10.893">
        <ele>691</ele>
        <time>2026-03-30T13:28:43.750000Z</time>
      </trkpt>
      <trkpt lat="47.960443" lon="10.892414">
        <ele>690.5</ele>
        <time>2026-03-30T13:29:32.123000Z</time>
      </trkpt>
      <trkpt lat="47.96023" lon="10.891797">
        <ele>689.8</ele>
        <time>2026-03-30T13:30:20.169000Z</time>
      </trkpt>
      <trkpt lat="47.960217" lon="10.891686">
        <ele>689.7</ele>
        <time>2026-03-30T13:30:28.030000Z</time>
      </trkpt>
      <trkpt lat="47.960092" lon="10.89065">
        <ele>687.9</ele>
        <time>2026-03-30T13:31:42.223000Z</time>
      </trkpt>
      <trkpt lat="47.960075" lon="10.88988">
        <ele>686.9</ele>
        <time>2026-03-30T13:32:35.982000Z</time>
      </trkpt>
      <trkpt lat="47.960067" lon="10.889501">
        <ele>686.5</ele>
        <time>2026-03-30T13:33:02.282000Z</time>
      </trkpt>
      <trkpt lat="47.96009" lon="10.88878">
        <ele>685.9</ele>
        <time>2026-03-30T13:33:51.681000Z</time>
      </trkpt>
      <trkpt lat="47.96014" lon="10.88807">
        <ele>685.9</ele>
        <time>2026-03-30T13:34:39.729000Z</time>
      </trkpt>
      <trkpt lat="47.960365" lon="10.886729">
        <ele>686.4</ele>
        <time>2026-03-30T13:36:14.307000Z</time>
      </trkpt>
      <trkpt lat="47.960381" lon="10.886542">
        <ele>686.5</ele>
        <time>2026-03-30T13:36:27.151000Z</time>
      </trkpt>
      <trkpt lat="47.960358" lon="10.886315">
        <ele>686.5</ele>
        <time>2026-03-30T13:36:42.720000Z</time>
      </trkpt>
      <trkpt lat="47.960305" lon="10.886133">
        <ele>686.5</ele>
        <time>2026-03-30T13:36:56.186000Z</time>
      </trkpt>
      <trkpt lat="47.96023" lon="10.88598">
        <ele>686.6</ele>
        <time>2026-03-30T13:37:08.999000Z</time>
      </trkpt>
      <trkpt lat="47.960107" lon="10.88584">
        <ele>686.6</ele>
        <time>2026-03-30T13:37:24.538000Z</time>
      </trkpt>
      <trkpt lat="47.959673" lon="10.885472">
        <ele>686.1</ele>
        <time>2026-03-30T13:38:15.386000Z</time>
      </trkpt>
      <trkpt lat="47.959304" lon="10.885114">
        <ele>684.5</ele>
        <time>2026-03-30T13:39:02.873000Z</time>
      </trkpt>
      <trkpt lat="47.959245" lon="10.884759">
        <ele>682.8</ele>
        <time>2026-03-30T13:39:30.642000Z</time>
      </trkpt>
      <trkpt lat="47.959216" lon="10.884485">
        <ele>681.3</ele>
        <time>2026-03-30T13:39:52.347000Z</time>
      </trkpt>
      <trkpt lat="47.959236" lon="10.88424">
        <ele>679.6</ele>
        <time>2026-03-30T13:40:12.147000Z</time>
      </trkpt>
      <trkpt lat="47.959222" lon="10.88392">
        <ele>677.3</ele>
        <time>2026-03-30T13:40:38.196000Z</time>
      </trkpt>
      <trkpt lat="47.958989" lon="10.882708">
        <ele>666.4</ele>
        <time>2026-03-30T13:42:23.840000Z</time>
      </trkpt>
      <trkpt lat="47.959" lon="10.882487">
        <ele>664.3</ele>
        <time>2026-03-30T13:42:42.765000Z</time>
      </trkpt>
      <trkpt lat="47.959035" lon="10.882318">
        <ele>662.7</ele>
        <time>2026-03-30T13:42:57.836000Z</time>
      </trkpt>
      <trkpt lat="47.959034" lon="10.882084">
        <ele>660.5</ele>
        <time>2026-03-30T13:43:17.720000Z</time>
      </trkpt>
      <trkpt lat="47.9596" lon="10.881107">
        <ele>650.6</ele>
        <time>2026-03-30T13:45:03.768000Z</time>
      </trkpt>
      <trkpt lat="47.959597" lon="10.880905">
        <ele>649.3</ele>
        <time>2026-03-30T13:45:19.861000Z</time>
      </trkpt>
      <trkpt lat="47.95955" lon="10.880679">
        <ele>647.7</ele>
        <time>2026-03-30T13:45:38.769000Z</time>
      </trkpt>
      <trkpt lat="47.959129" lon="10.879871">
        <ele>640.9</ele>
        <time>2026-03-30T13:47:00.857000Z</time>
      </trkpt>
      <trkpt lat="47.958964" lon="10.87956">
        <ele>638.6</ele>
        <time>2026-03-30T13:47:32.189000Z</time>
      </trkpt>
      <trkpt lat="47.958864" lon="10.879367">
        <ele>637.2</ele>
        <time>2026-03-30T13:47:51.189000Z</time>
      </trkpt>
      <trkpt lat="47.958878" lon="10.879165">
        <ele>636.2</ele>
        <time>2026-03-30T13:48:06.837000Z</time>
      </trkpt>
      <trkpt lat="47.958887" lon="10.879033">
        <ele>635.5</ele>
        <time>2026-03-30T13:48:17.011000Z</time>
      </trkpt>
      <trkpt lat="47.958873" lon="10.878857">
        <ele>634.7</ele>
        <time>2026-03-30T13:48:30.501000Z</time>
      </trkpt>
      <trkpt lat="47.958857" lon="10.878648">
        <ele>633.8</ele>
        <time>2026-03-30T13:48:46.418000Z</time>
      </trkpt>
      <trkpt lat="47.95885" lon="10.878552">
        <ele>633.5</ele>
        <time>2026-03-30T13:48:53.652000Z</time>
      </trkpt>
      <trkpt lat="47.95884" lon="10.878412">
        <ele>632.9</ele>
        <time>2026-03-30T13:49:04.192000Z</time>
      </trkpt>
      <trkpt lat="47.958822" lon="10.8782">
        <ele>632.2</ele>
        <time>2026-03-30T13:49:19.969000Z</time>
      </trkpt>
      <trkpt lat="47.958819" lon="10.878003">
        <ele>631.5</ele>
        <time>2026-03-30T13:49:34.483000Z</time>
      </trkpt>
    </trkseg>
  </trk>
</gpx>