<?xml version="1.0" encoding="UTF-8"?>
<gpx xmlns="http://www.topografix.com/GPX/1/1" xmlns:xsi="http://www.w3.org/2001/XMLSchema-instance" xsi:schemaLocation="http://www.topografix.com/GPX/1/1 http://www.topografix.com/GPX/1/1/gpx.xsd" version="1.1" creator="Robert Kampf">
  <metadata>
    <name>Brauereikeller von 1847 – Brauereikellereingang Runde von Markt Berolzheim</name>
    <desc>Distance: 5.668km, Estimated duration: 1.67h, Elevation up: 155.20861891184632m, Elevation down: 155.61709682718032m, Grade: easy</desc>
    <author>
      <name>Robert Kampf</name>
      <link href="https://www.komoot.de/user/4125295338453">
        <text>View Robert Kampf's Profile on Komoot</text>
      </link>
    </author>
    <link href="https://www.komoot.de/tour/2711731207">
      <text>View tour on Komoot</text>
    </link>
  </metadata>
  <wpt lat="49.007819" lon="10.848071">
    <name>Markt Berolzheim Friedhof</name>
    <cmt></cmt>
    <desc></desc>
    <src>Komoot</src>
    <type>POI</type>
  </wpt>
  <wpt lat="49.009748" lon="10.843958">
    <ele>423.7</ele>
    <name>Jewish Memorial at the Former Synagogue Site</name>
    <cmt>https://d2exd72xrrp1s7.cloudfront.net/www/000/1k6/9h/9hmypwdvy3q61m2rejqy24gs54a3qlet6-uhi53401329/0</cmt>
    <desc>Uschi unterwegs 🌈: An der Stelle, an der bis 1938 die Synagoge stand, wurde im Jahr 1998 ein Sühnemal zur Erinnerung an die jüdische Gemeinde errichtet. Es besteht aus einem Stein in Form eines Davidsterns und einer Andeutung eines kirchlichen Gebäudes. (Quelle: http://www.marktberolzheim.de/wiki/Judendenkmal
――――――――――
Uschi unterwegs 🌈: "An der Stelle, an der bis 1938 die Synagoge stand, wurde im Jahr 1998 ein Sühnemal zur Erinnerung an die jüdische Gemeinde errichtet. Es besteht aus einem Stein in Form eines Davidsterns und einer Andeutung eines kirchlichen Gebäudes. "
Quelle: http://www.marktberolzheim.de/wiki/Judendenkmal</desc>
    <src>Komoot</src>
    <link href="https://www.komoot.de/highlight/4827405">
      <text>View POI on Komoot</text>
    </link>
    <type>Highlight</type>
  </wpt>
  <wpt lat="49.000715" lon="10.83895">
    <ele>568.6</ele>
    <name>Brewery Cellar from 1847</name>
    <cmt>https://d2exd72xrrp1s7.cloudfront.net/www/000/1k8/10/10ssr9shm582lrhbvctd6ca9h588mhtul-uhi81839354/0</cmt>
    <desc></desc>
    <src>Komoot</src>
    <link href="https://www.komoot.de/highlight/7194544">
      <text>View POI on Komoot</text>
    </link>
    <type>Highlight</type>
  </wpt>
  <trk>
    <name>Brauereikeller von 1847 – Brauereikellereingang Runde von Markt Berolzheim</name>
    <desc>Distance: 5.668km, Estimated duration: 1.67h, Elevation up: 155.20861891184632m, Elevation down: 155.61709682718032m, Grade: easy</desc>
    <link href="https://www.komoot.de/tour/2711731207">
      <text>View tour on Komoot</text>
    </link>
    <trkseg>
      <trkpt lat="49.00778" lon="10.848073">
        <ele>425.3</ele>
        <time>2025-12-10T11:19:01.716000Z</time>
      </trkpt>
      <trkpt lat="49.007776" lon="10.84785">
        <ele>425.5</ele>
        <time>2025-12-10T11:19:17.057000Z</time>
      </trkpt>
      <trkpt lat="49.007771" lon="10.847524">
        <ele>425.8</ele>
        <time>2025-12-10T11:19:39.479000Z</time>
      </trkpt>
      <trkpt lat="49.007749" lon="10.846996">
        <ele>426.4</ele>
        <time>2025-12-10T11:20:16.143000Z</time>
      </trkpt>
      <trkpt lat="49.007603" lon="10.845981">
        <ele>427.1</ele>
        <time>2025-12-10T11:21:27.084000Z</time>
      </trkpt>
      <trkpt lat="49.007585" lon="10.845662">
        <ele>427.3</ele>
        <time>2025-12-10T11:21:48.548000Z</time>
      </trkpt>
      <trkpt lat="49.00772" lon="10.845141">
        <ele>427.2</ele>
        <time>2025-12-10T11:22:25.522000Z</time>
      </trkpt>
      <trkpt lat="49.007816" lon="10.844812">
        <ele>426.9</ele>
        <time>2025-12-10T11:22:49.607000Z</time>
      </trkpt>
      <trkpt lat="49.007901" lon="10.844692">
        <ele>426.8</ele>
        <time>2025-12-10T11:23:01.450000Z</time>
      </trkpt>
      <trkpt lat="49.008311" lon="10.844534">
        <ele>426.1</ele>
        <time>2025-12-10T11:23:45.309000Z</time>
      </trkpt>
      <trkpt lat="49.009142" lon="10.844464">
        <ele>424.9</ele>
        <time>2025-12-10T11:25:11.021000Z</time>
      </trkpt>
      <trkpt lat="49.009262" lon="10.844414">
        <ele>424.8</ele>
        <time>2025-12-10T11:25:23.749000Z</time>
      </trkpt>
      <trkpt lat="49.009335" lon="10.844402">
        <ele>424.7</ele>
        <time>2025-12-10T11:25:31.284000Z</time>
      </trkpt>
      <trkpt lat="49.009375" lon="10.844429">
        <ele>424.7</ele>
        <time>2025-12-10T11:25:35.749000Z</time>
      </trkpt>
      <trkpt lat="49.009431" lon="10.844523">
        <ele>424.6</ele>
        <time>2025-12-10T11:25:44.230000Z</time>
      </trkpt>
      <trkpt lat="49.009527" lon="10.8444">
        <ele>424.5</ele>
        <time>2025-12-10T11:25:57.045000Z</time>
      </trkpt>
      <trkpt lat="49.009606" lon="10.844365">
        <ele>424.4</ele>
        <time>2025-12-10T11:26:05.369000Z</time>
      </trkpt>
      <trkpt lat="49.009583" lon="10.844125">
        <ele>424.3</ele>
        <time>2025-12-10T11:26:21.387000Z</time>
      </trkpt>
      <trkpt lat="49.009627" lon="10.843885">
        <ele>424.3</ele>
        <time>2025-12-10T11:26:37.795000Z</time>
      </trkpt>
      <trkpt lat="49.009651" lon="10.843839">
        <ele>424.4</ele>
        <time>2025-12-10T11:26:41.665000Z</time>
      </trkpt>
      <trkpt lat="49.009627" lon="10.843885">
        <ele>424.4</ele>
        <time>2025-12-10T11:26:45.509000Z</time>
      </trkpt>
      <trkpt lat="49.009583" lon="10.844125">
        <ele>424.4</ele>
        <time>2025-12-10T11:27:02.145000Z</time>
      </trkpt>
      <trkpt lat="49.009606" lon="10.844365">
        <ele>424.5</ele>
        <time>2025-12-10T11:27:18.430000Z</time>
      </trkpt>
      <trkpt lat="49.009527" lon="10.8444">
        <ele>424.6</ele>
        <time>2025-12-10T11:27:26.952000Z</time>
      </trkpt>
      <trkpt lat="49.009431" lon="10.844523">
        <ele>424.8</ele>
        <time>2025-12-10T11:27:40.097000Z</time>
      </trkpt>
      <trkpt lat="49.009375" lon="10.844429">
        <ele>424.9</ele>
        <time>2025-12-10T11:27:48.790000Z</time>
      </trkpt>
      <trkpt lat="49.009276" lon="10.84381">
        <ele>425.4</ele>
        <time>2025-12-10T11:28:32.399000Z</time>
      </trkpt>
      <trkpt lat="49.009184" lon="10.843508">
        <ele>425.6</ele>
        <time>2025-12-10T11:28:55.139000Z</time>
      </trkpt>
      <trkpt lat="49.009032" lon="10.843139">
        <ele>426.1</ele>
        <time>2025-12-10T11:29:25.395000Z</time>
      </trkpt>
      <trkpt lat="49.008888" lon="10.842569">
        <ele>427</ele>
        <time>2025-12-10T11:30:08.557000Z</time>
      </trkpt>
      <trkpt lat="49.008607" lon="10.84066">
        <ele>429</ele>
        <time>2025-12-10T11:32:24.319000Z</time>
      </trkpt>
      <trkpt lat="49.008634" lon="10.840527">
        <ele>429.2</ele>
        <time>2025-12-10T11:32:34.027000Z</time>
      </trkpt>
      <trkpt lat="49.008728" lon="10.840308">
        <ele>429.5</ele>
        <time>2025-12-10T11:32:52.266000Z</time>
      </trkpt>
      <trkpt lat="49.008938" lon="10.839995">
        <ele>430</ele>
        <time>2025-12-10T11:33:23.566000Z</time>
      </trkpt>
      <trkpt lat="49.008946" lon="10.83979">
        <ele>430.3</ele>
        <time>2025-12-10T11:33:37.971000Z</time>
      </trkpt>
      <trkpt lat="49.008864" lon="10.838924">
        <ele>431.5</ele>
        <time>2025-12-10T11:34:39.804000Z</time>
      </trkpt>
      <trkpt lat="49.008815" lon="10.838109">
        <ele>433.2</ele>
        <time>2025-12-10T11:35:39.263000Z</time>
      </trkpt>
      <trkpt lat="49.00883" lon="10.837724">
        <ele>434</ele>
        <time>2025-12-10T11:36:07.483000Z</time>
      </trkpt>
      <trkpt lat="49.008731" lon="10.836936">
        <ele>435.6</ele>
        <time>2025-12-10T11:37:05.971000Z</time>
      </trkpt>
      <trkpt lat="49.008702" lon="10.836708">
        <ele>436.1</ele>
        <time>2025-12-10T11:37:22.923000Z</time>
      </trkpt>
      <trkpt lat="49.008693" lon="10.836356">
        <ele>436.9</ele>
        <time>2025-12-10T11:37:48.657000Z</time>
      </trkpt>
      <trkpt lat="49.008719" lon="10.836168">
        <ele>437.3</ele>
        <time>2025-12-10T11:38:02.798000Z</time>
      </trkpt>
      <trkpt lat="49.008784" lon="10.83598">
        <ele>437.8</ele>
        <time>2025-12-10T11:38:18.524000Z</time>
      </trkpt>
      <trkpt lat="49.00886" lon="10.835498">
        <ele>439</ele>
        <time>2025-12-10T11:38:55.067000Z</time>
      </trkpt>
      <trkpt lat="49.008813" lon="10.833661">
        <ele>443.8</ele>
        <time>2025-12-10T11:41:12.813000Z</time>
      </trkpt>
      <trkpt lat="49.008753" lon="10.832626">
        <ele>447.5</ele>
        <time>2025-12-10T11:42:33.800000Z</time>
      </trkpt>
      <trkpt lat="49.008685" lon="10.830652">
        <ele>457.4</ele>
        <time>2025-12-10T11:45:17.158000Z</time>
      </trkpt>
      <trkpt lat="49.008557" lon="10.827827">
        <ele>480.9</ele>
        <time>2025-12-10T11:49:52.005000Z</time>
      </trkpt>
      <trkpt lat="49.008548" lon="10.827647">
        <ele>482.7</ele>
        <time>2025-12-10T11:50:11.917000Z</time>
      </trkpt>
      <trkpt lat="49.008589" lon="10.827351">
        <ele>485.9</ele>
        <time>2025-12-10T11:50:45.963000Z</time>
      </trkpt>
      <trkpt lat="49.008227" lon="10.826222">
        <ele>500.5</ele>
        <time>2025-12-10T11:53:16.857000Z</time>
      </trkpt>
      <trkpt lat="49.008126" lon="10.825612">
        <ele>508.5</ele>
        <time>2025-12-10T11:54:36.964000Z</time>
      </trkpt>
      <trkpt lat="49.008036" lon="10.825355">
        <ele>512.3</ele>
        <time>2025-12-10T11:55:14.785000Z</time>
      </trkpt>
      <trkpt lat="49.007963" lon="10.825149">
        <ele>515.5</ele>
        <time>2025-12-10T11:55:45.870000Z</time>
      </trkpt>
      <trkpt lat="49.007908" lon="10.824582">
        <ele>523.6</ele>
        <time>2025-12-10T11:57:04.326000Z</time>
      </trkpt>
      <trkpt lat="49.007912" lon="10.824119">
        <ele>530.4</ele>
        <time>2025-12-10T11:58:08.931000Z</time>
      </trkpt>
      <trkpt lat="49.008075" lon="10.823218">
        <ele>541.7</ele>
        <time>2025-12-10T12:00:04.041000Z</time>
      </trkpt>
      <trkpt lat="49.008149" lon="10.822934">
        <ele>544.5</ele>
        <time>2025-12-10T12:00:35.910000Z</time>
      </trkpt>
      <trkpt lat="49.00816" lon="10.822679">
        <ele>546.6</ele>
        <time>2025-12-10T12:01:00.492000Z</time>
      </trkpt>
      <trkpt lat="49.008083" lon="10.822496">
        <ele>548.2</ele>
        <time>2025-12-10T12:01:19.975000Z</time>
      </trkpt>
      <trkpt lat="49.007946" lon="10.822357">
        <ele>549.8</ele>
        <time>2025-12-10T12:01:41.860000Z</time>
      </trkpt>
      <trkpt lat="49.007362" lon="10.821885">
        <ele>553.9</ele>
        <time>2025-12-10T12:03:02.206000Z</time>
      </trkpt>
      <trkpt lat="49.006781" lon="10.821048">
        <ele>557.3</ele>
        <time>2025-12-10T12:04:34.005000Z</time>
      </trkpt>
      <trkpt lat="49.006197" lon="10.820619">
        <ele>562.2</ele>
        <time>2025-12-10T12:05:55.593000Z</time>
      </trkpt>
      <trkpt lat="49.005961" lon="10.820485">
        <ele>564.4</ele>
        <time>2025-12-10T12:06:28.108000Z</time>
      </trkpt>
      <trkpt lat="49.005606" lon="10.820577">
        <ele>567.5</ele>
        <time>2025-12-10T12:07:14.658000Z</time>
      </trkpt>
      <trkpt lat="49.004987" lon="10.820737">
        <ele>571.8</ele>
        <time>2025-12-10T12:08:32.244000Z</time>
      </trkpt>
      <trkpt lat="49.004779" lon="10.820849">
        <ele>572.8</ele>
        <time>2025-12-10T12:08:57.742000Z</time>
      </trkpt>
      <trkpt lat="49.004213" lon="10.821375">
        <ele>574</ele>
        <time>2025-12-10T12:10:08.628000Z</time>
      </trkpt>
      <trkpt lat="49.003713" lon="10.821922">
        <ele>572.8</ele>
        <time>2025-12-10T12:11:12.826000Z</time>
      </trkpt>
      <trkpt lat="49.003424" lon="10.822389">
        <ele>571.1</ele>
        <time>2025-12-10T12:11:58.324000Z</time>
      </trkpt>
      <trkpt lat="49.003213" lon="10.822893">
        <ele>569.4</ele>
        <time>2025-12-10T12:12:41.142000Z</time>
      </trkpt>
      <trkpt lat="49.002798" lon="10.823494">
        <ele>567</ele>
        <time>2025-12-10T12:13:43.170000Z</time>
      </trkpt>
      <trkpt lat="49.001647" lon="10.824497">
        <ele>562.9</ele>
        <time>2025-12-10T12:16:04.286000Z</time>
      </trkpt>
      <trkpt lat="49.001415" lon="10.824728">
        <ele>561.6</ele>
        <time>2025-12-10T12:16:34.650000Z</time>
      </trkpt>
      <trkpt lat="49.001038" lon="10.8252">
        <ele>558.4</ele>
        <time>2025-12-10T12:17:29.932000Z</time>
      </trkpt>
      <trkpt lat="49.000827" lon="10.825608">
        <ele>555.3</ele>
        <time>2025-12-10T12:18:10.174000Z</time>
      </trkpt>
      <trkpt lat="49.0007" lon="10.825924">
        <ele>552.7</ele>
        <time>2025-12-10T12:18:39.666000Z</time>
      </trkpt>
      <trkpt lat="49.000623" lon="10.826219">
        <ele>550.2</ele>
        <time>2025-12-10T12:19:05.381000Z</time>
      </trkpt>
      <trkpt lat="49.000605" lon="10.826391">
        <ele>548.8</ele>
        <time>2025-12-10T12:19:19.583000Z</time>
      </trkpt>
      <trkpt lat="49.000595" lon="10.826772">
        <ele>545.6</ele>
        <time>2025-12-10T12:19:50.929000Z</time>
      </trkpt>
      <trkpt lat="49.000623" lon="10.828016">
        <ele>535.3</ele>
        <time>2025-12-10T12:21:32.659000Z</time>
      </trkpt>
      <trkpt lat="49.000658" lon="10.828381">
        <ele>532.8</ele>
        <time>2025-12-10T12:22:01.864000Z</time>
      </trkpt>
      <trkpt lat="49.000736" lon="10.828803">
        <ele>530.2</ele>
        <time>2025-12-10T12:22:35.706000Z</time>
      </trkpt>
      <trkpt lat="49.000764" lon="10.829636">
        <ele>527</ele>
        <time>2025-12-10T12:23:36.922000Z</time>
      </trkpt>
      <trkpt lat="49.000888" lon="10.830408">
        <ele>526</ele>
        <time>2025-12-10T12:24:31.153000Z</time>
      </trkpt>
      <trkpt lat="49.000771" lon="10.831095">
        <ele>526.5</ele>
        <time>2025-12-10T12:25:19.475000Z</time>
      </trkpt>
      <trkpt lat="49.000616" lon="10.831594">
        <ele>527.4</ele>
        <time>2025-12-10T12:25:58.988000Z</time>
      </trkpt>
      <trkpt lat="49.000288" lon="10.833027">
        <ele>528.7</ele>
        <time>2025-12-10T12:27:43.160000Z</time>
      </trkpt>
      <trkpt lat="49.000447" lon="10.834851">
        <ele>525.7</ele>
        <time>2025-12-10T12:29:50.214000Z</time>
      </trkpt>
      <trkpt lat="49.0005" lon="10.836374">
        <ele>524.1</ele>
        <time>2025-12-10T12:31:33.537000Z</time>
      </trkpt>
      <trkpt lat="49.000619" lon="10.836948">
        <ele>524.1</ele>
        <time>2025-12-10T12:32:13.129000Z</time>
      </trkpt>
      <trkpt lat="49.000535" lon="10.837061">
        <ele>524.1</ele>
        <time>2025-12-10T12:32:24.372000Z</time>
      </trkpt>
      <trkpt lat="49.000451" lon="10.837388">
        <ele>524.3</ele>
        <time>2025-12-10T12:32:48.174000Z</time>
      </trkpt>
      <trkpt lat="49.000412" lon="10.837465">
        <ele>524.3</ele>
        <time>2025-12-10T12:32:54.611000Z</time>
      </trkpt>
      <trkpt lat="49.000349" lon="10.837511">
        <ele>524.5</ele>
        <time>2025-12-10T12:33:02.278000Z</time>
      </trkpt>
      <trkpt lat="49.000468" lon="10.837576">
        <ele>524.7</ele>
        <time>2025-12-10T12:33:15.442000Z</time>
      </trkpt>
      <trkpt lat="49.000631" lon="10.837808">
        <ele>525</ele>
        <time>2025-12-10T12:33:39.144000Z</time>
      </trkpt>
      <trkpt lat="49.000845" lon="10.838804">
        <ele>523.2</ele>
        <time>2025-12-10T12:34:51.810000Z</time>
      </trkpt>
      <trkpt lat="49.00085" lon="10.838939">
        <ele>522.5</ele>
        <time>2025-12-10T12:35:02.027000Z</time>
      </trkpt>
      <trkpt lat="49.000861" lon="10.839235">
        <ele>521</ele>
        <time>2025-12-10T12:35:24.500000Z</time>
      </trkpt>
      <trkpt lat="49.001001" lon="10.83938">
        <ele>519.9</ele>
        <time>2025-12-10T12:35:43.790000Z</time>
      </trkpt>
      <trkpt lat="49.001182" lon="10.839723">
        <ele>517.7</ele>
        <time>2025-12-10T12:36:16.877000Z</time>
      </trkpt>
      <trkpt lat="49.001378" lon="10.841056">
        <ele>507.6</ele>
        <time>2025-12-10T12:38:06.534000Z</time>
      </trkpt>
      <trkpt lat="49.001682" lon="10.842145">
        <ele>499</ele>
        <time>2025-12-10T12:39:41.093000Z</time>
      </trkpt>
      <trkpt lat="49.00185" lon="10.843419">
        <ele>490.2</ele>
        <time>2025-12-10T12:41:23.808000Z</time>
      </trkpt>
      <trkpt lat="49.001965" lon="10.843972">
        <ele>487</ele>
        <time>2025-12-10T12:42:08.329000Z</time>
      </trkpt>
      <trkpt lat="49.002085" lon="10.844368">
        <ele>484.7</ele>
        <time>2025-12-10T12:42:41.407000Z</time>
      </trkpt>
      <trkpt lat="49.00229" lon="10.845277">
        <ele>479.6</ele>
        <time>2025-12-10T12:43:54.782000Z</time>
      </trkpt>
      <trkpt lat="49.002404" lon="10.846012">
        <ele>475.4</ele>
        <time>2025-12-10T12:44:52.578000Z</time>
      </trkpt>
      <trkpt lat="49.002472" lon="10.84616">
        <ele>474.5</ele>
        <time>2025-12-10T12:45:06.342000Z</time>
      </trkpt>
      <trkpt lat="49.0026" lon="10.846293">
        <ele>473.2</ele>
        <time>2025-12-10T12:45:24.345000Z</time>
      </trkpt>
      <trkpt lat="49.002701" lon="10.846356">
        <ele>472.3</ele>
        <time>2025-12-10T12:45:37.164000Z</time>
      </trkpt>
      <trkpt lat="49.003011" lon="10.846623">
        <ele>469.4</ele>
        <time>2025-12-10T12:46:18.535000Z</time>
      </trkpt>
      <trkpt lat="49.003215" lon="10.848261">
        <ele>461.3</ele>
        <time>2025-12-10T12:48:24.139000Z</time>
      </trkpt>
      <trkpt lat="49.003419" lon="10.8499">
        <ele>454.4</ele>
        <time>2025-12-10T12:50:27.607000Z</time>
      </trkpt>
      <trkpt lat="49.003546" lon="10.849865">
        <ele>453.5</ele>
        <time>2025-12-10T12:50:42.318000Z</time>
      </trkpt>
      <trkpt lat="49.003989" lon="10.849742">
        <ele>450.2</ele>
        <time>2025-12-10T12:51:33.862000Z</time>
      </trkpt>
      <trkpt lat="49.004047" lon="10.849726">
        <ele>449.9</ele>
        <time>2025-12-10T12:51:40.518000Z</time>
      </trkpt>
      <trkpt lat="49.004559" lon="10.849582">
        <ele>445.8</ele>
        <time>2025-12-10T12:52:40.681000Z</time>
      </trkpt>
      <trkpt lat="49.005123" lon="10.849421">
        <ele>441.1</ele>
        <time>2025-12-10T12:53:47.580000Z</time>
      </trkpt>
      <trkpt lat="49.005698" lon="10.849265">
        <ele>436.5</ele>
        <time>2025-12-10T12:54:55.134000Z</time>
      </trkpt>
      <trkpt lat="49.006386" lon="10.849078">
        <ele>431.7</ele>
        <time>2025-12-10T12:56:14.781000Z</time>
      </trkpt>
      <trkpt lat="49.0067" lon="10.84899">
        <ele>429.7</ele>
        <time>2025-12-10T12:56:50.807000Z</time>
      </trkpt>
      <trkpt lat="49.007498" lon="10.848732">
        <ele>426.3</ele>
        <time>2025-12-10T12:58:19.292000Z</time>
      </trkpt>
      <trkpt lat="49.00779" lon="10.848676">
        <ele>425.6</ele>
        <time>2025-12-10T12:58:50.373000Z</time>
      </trkpt>
      <trkpt lat="49.00778" lon="10.848073">
        <ele>424.9</ele>
        <time>2025-12-10T12:59:31.330000Z</time>
      </trkpt>
    </trkseg>
  </trk>
</gpx>