<?xml version="1.0" encoding="UTF-8"?>
<gpx xmlns="http://www.topografix.com/GPX/1/1" xmlns:xsi="http://www.w3.org/2001/XMLSchema-instance" xsi:schemaLocation="http://www.topografix.com/GPX/1/1 http://www.topografix.com/GPX/1/1/gpx.xsd" version="1.1" creator="Robert Kampf">
  <metadata>
    <name>Die Paar bei Hohenwart – Hohenwarter Stadttor Runde von Waidhofen</name>
    <desc>Distance: 9.171km, Estimated duration: 2.38h, Elevation up: 53.59401916120538m, Elevation down: 55.97969674219934m, Grade: moderate</desc>
    <author>
      <name>Robert Kampf</name>
      <link href="https://www.komoot.de/user/4125295338453">
        <text>View Robert Kampf's Profile on Komoot</text>
      </link>
    </author>
    <link href="https://www.komoot.de/tour/3039590887">
      <text>View tour on Komoot</text>
    </link>
  </metadata>
  <wpt lat="48.589534" lon="11.337748">
    <name>Parking</name>
    <cmt></cmt>
    <desc></desc>
    <src>Komoot</src>
    <type>POI</type>
  </wpt>
  <wpt lat="48.597824" lon="11.375944">
    <ele>481.3</ele>
    <name>St. Georg Abbey Church</name>
    <cmt>https://d2exd72xrrp1s7.cloudfront.net/www/000/1k4/1n/1nza7rwgzuke41xksqwj42bma83fhuo5uy-uhi16471132/0</cmt>
    <desc>KUS Landkreis Pfaffenhofen: Nachdem sowohl die ursprüngliche Klosterkirche des ehemaligen Benediktinerinnenklosters als auch der Nachfolgebau durch einen Brand zerstört wurden, wurde die Kirche St. Georg im neobarocken Stil von 1899 bis 1903 wieder neu aufgebaut. Der ehemals freistehende Nordwestturm aus dem 13. Jahrhundert wurde als Westturm integriert.</desc>
    <src>Komoot</src>
    <link href="https://www.komoot.de/highlight/1027926">
      <text>View POI on Komoot</text>
    </link>
    <type>Highlight</type>
  </wpt>
  <wpt lat="48.597303" lon="11.3767">
    <ele>472.3</ele>
    <name>View of Hohenwart</name>
    <cmt>https://d2exd72xrrp1s7.cloudfront.net/www/000/1k8/1v/1v1bqmmn1y7cm6ogus0lzcftr51644vx9-uhi74509620/0</cmt>
    <desc></desc>
    <src>Komoot</src>
    <link href="https://www.komoot.de/highlight/6757823">
      <text>View POI on Komoot</text>
    </link>
    <type>Highlight</type>
  </wpt>
  <wpt lat="48.597223" lon="11.376727">
    <ele>405.8</ele>
    <name>Chapel of Love</name>
    <cmt>https://d2exd72xrrp1s7.cloudfront.net/www/000/1k4/fa/fackw0u2ie04jyzz5rtufks3cy65u3b-uhi12463036/0</cmt>
    <desc>Bea: Hier lässt es sich ganz prima den Sonnenaufgang beobachten. Im Frühjahr fliegen hier auch die Störche</desc>
    <src>Komoot</src>
    <link href="https://www.komoot.de/highlight/1327251">
      <text>View POI on Komoot</text>
    </link>
    <type>Highlight</type>
  </wpt>
  <wpt lat="48.595456" lon="11.378234">
    <ele>447.4</ele>
    <name>Paar River in Hohenwart</name>
    <cmt>https://d2exd72xrrp1s7.cloudfront.net/www/000/1k5/15/15hrd2lyg5fntss34530mkyoq3vxmb4vk-uhi39985064/0</cmt>
    <desc>Monal: Schön und naturbelassen und schattigen weg</desc>
    <src>Komoot</src>
    <link href="https://www.komoot.de/highlight/3687586">
      <text>View POI on Komoot</text>
    </link>
    <type>Highlight</type>
  </wpt>
  <wpt lat="48.594284" lon="11.378947">
    <ele>455.1</ele>
    <name>Nikolaus-Weg Trailhead Information Board</name>
    <cmt>https://d2exd72xrrp1s7.cloudfront.net/www/000/1k5/k7/k7mo2mit68e4m482vypuilp3not1vh0-uhi28383940/0</cmt>
    <desc>Gitte 💠: Durch ein Leaderprojekt ist auch dieses wunderbare Wegenetz entstanden. Sehr übersichtlich und überschaubar.</desc>
    <src>Komoot</src>
    <link href="https://www.komoot.de/highlight/2942086">
      <text>View POI on Komoot</text>
    </link>
    <type>Highlight</type>
  </wpt>
  <wpt lat="48.59406" lon="11.379503">
    <ele>449.8</ele>
    <name>Hohenwart Town Gate</name>
    <cmt>https://d2exd72xrrp1s7.cloudfront.net/www/000/1k7/1s/1s0u6pshpa1w94wqvetoi5pya4pyzo6qe-uhi65439280/0</cmt>
    <desc>Karsten: Anlage aus dem 15. Jh.
――――――――――
Ivan Irrweg: Schönes Fotomotiv. der Radweg "Paartaltour" führt durch das Stadttor in Richtung Marktplatz.
――――――――――
Monal: Schöne Dorfmitte mit kleinen Geschäften
――――――――――
Elena: Eingang zum Markt Hohenwart</desc>
    <src>Komoot</src>
    <link href="https://www.komoot.de/highlight/3687193">
      <text>View POI on Komoot</text>
    </link>
    <type>Highlight</type>
  </wpt>
  <wpt lat="48.594092" lon="11.378961">
    <ele>455.3</ele>
    <name>Breimann Chapel</name>
    <cmt>https://d2exd72xrrp1s7.cloudfront.net/www/000/1k5/1b/1b3a6in0m3i4yz1jguaas9nxw3not8cgf-uhi28384098/0</cmt>
    <desc>Gitte 💠: Familie Lutz aus Hohenwart errichtete vermutlich in Gedenken an den 30-jährigen Krieg herrschende "ungarische Pest" und die grausame Hungersnot.</desc>
    <src>Komoot</src>
    <link href="https://www.komoot.de/highlight/2942094">
      <text>View POI on Komoot</text>
    </link>
    <type>Highlight</type>
  </wpt>
  <wpt lat="48.591589" lon="11.355663">
    <ele>447.4</ele>
    <name>View of the Paar Weir</name>
    <cmt>https://d2exd72xrrp1s7.cloudfront.net/www/000/1k5/14/145b9wd7ix2wb7k6912bek3r3nosm3sx-uhi28383620/0</cmt>
    <desc></desc>
    <src>Komoot</src>
    <link href="https://www.komoot.de/highlight/2942061">
      <text>View POI on Komoot</text>
    </link>
    <type>Highlight</type>
  </wpt>
  <trk>
    <name>Die Paar bei Hohenwart – Hohenwarter Stadttor Runde von Waidhofen</name>
    <desc>Distance: 9.171km, Estimated duration: 2.38h, Elevation up: 53.59401916120538m, Elevation down: 55.97969674219934m, Grade: moderate</desc>
    <link href="https://www.komoot.de/tour/3039590887">
      <text>View tour on Komoot</text>
    </link>
    <trkseg>
      <trkpt lat="48.589544" lon="11.33778">
        <ele>406.2</ele>
        <time>2026-06-15T12:09:38.513000Z</time>
      </trkpt>
      <trkpt lat="48.589803" lon="11.337602">
        <ele>406.9</ele>
        <time>2026-06-15T12:10:09.513000Z</time>
      </trkpt>
      <trkpt lat="48.589861" lon="11.337618">
        <ele>407.1</ele>
        <time>2026-06-15T12:10:15.882000Z</time>
      </trkpt>
      <trkpt lat="48.589931" lon="11.337568">
        <ele>407.3</ele>
        <time>2026-06-15T12:10:24.361000Z</time>
      </trkpt>
      <trkpt lat="48.589995" lon="11.337638">
        <ele>407.4</ele>
        <time>2026-06-15T12:10:32.786000Z</time>
      </trkpt>
      <trkpt lat="48.590254" lon="11.337754">
        <ele>408</ele>
        <time>2026-06-15T12:11:01.888000Z</time>
      </trkpt>
      <trkpt lat="48.590897" lon="11.337888">
        <ele>409</ele>
        <time>2026-06-15T12:12:10.516000Z</time>
      </trkpt>
      <trkpt lat="48.592007" lon="11.337959">
        <ele>408.6</ele>
        <time>2026-06-15T12:14:02.566000Z</time>
      </trkpt>
      <trkpt lat="48.592326" lon="11.338083">
        <ele>408.6</ele>
        <time>2026-06-15T12:14:35.610000Z</time>
      </trkpt>
      <trkpt lat="48.592647" lon="11.338187">
        <ele>408.7</ele>
        <time>2026-06-15T12:15:08.865000Z</time>
      </trkpt>
      <trkpt lat="48.592686" lon="11.338198">
        <ele>408.8</ele>
        <time>2026-06-15T12:15:12.850000Z</time>
      </trkpt>
      <trkpt lat="48.593167" lon="11.338714">
        <ele>409</ele>
        <time>2026-06-15T12:16:12.713000Z</time>
      </trkpt>
      <trkpt lat="48.59356" lon="11.33925">
        <ele>409</ele>
        <time>2026-06-15T12:17:05.716000Z</time>
      </trkpt>
      <trkpt lat="48.594726" lon="11.339568">
        <ele>407.9</ele>
        <time>2026-06-15T12:19:06.545000Z</time>
      </trkpt>
      <trkpt lat="48.595129" lon="11.339747">
        <ele>407.8</ele>
        <time>2026-06-15T12:19:48.664000Z</time>
      </trkpt>
      <trkpt lat="48.595688" lon="11.340146">
        <ele>408.5</ele>
        <time>2026-06-15T12:20:53.090000Z</time>
      </trkpt>
      <trkpt lat="48.595903" lon="11.340534">
        <ele>409.3</ele>
        <time>2026-06-15T12:21:29.187000Z</time>
      </trkpt>
      <trkpt lat="48.596188" lon="11.341193">
        <ele>410.7</ele>
        <time>2026-06-15T12:22:26.459000Z</time>
      </trkpt>
      <trkpt lat="48.596509" lon="11.341824">
        <ele>412.6</ele>
        <time>2026-06-15T12:23:25.563000Z</time>
      </trkpt>
      <trkpt lat="48.59663" lon="11.341961">
        <ele>413.1</ele>
        <time>2026-06-15T12:23:42.651000Z</time>
      </trkpt>
      <trkpt lat="48.596804" lon="11.342086">
        <ele>413.8</ele>
        <time>2026-06-15T12:24:04.360000Z</time>
      </trkpt>
      <trkpt lat="48.596935" lon="11.34213">
        <ele>414.3</ele>
        <time>2026-06-15T12:24:19.585000Z</time>
      </trkpt>
      <trkpt lat="48.597103" lon="11.342129">
        <ele>415</ele>
        <time>2026-06-15T12:24:38.565000Z</time>
      </trkpt>
      <trkpt lat="48.59728" lon="11.342085">
        <ele>415.6</ele>
        <time>2026-06-15T12:24:58.857000Z</time>
      </trkpt>
      <trkpt lat="48.598249" lon="11.341638">
        <ele>417.2</ele>
        <time>2026-06-15T12:26:45.920000Z</time>
      </trkpt>
      <trkpt lat="48.598335" lon="11.341643">
        <ele>417.2</ele>
        <time>2026-06-15T12:26:54.526000Z</time>
      </trkpt>
      <trkpt lat="48.598411" lon="11.34175">
        <ele>417.2</ele>
        <time>2026-06-15T12:27:05.009000Z</time>
      </trkpt>
      <trkpt lat="48.598602" lon="11.342372">
        <ele>416.8</ele>
        <time>2026-06-15T12:27:51.207000Z</time>
      </trkpt>
      <trkpt lat="48.598707" lon="11.343205">
        <ele>415.6</ele>
        <time>2026-06-15T12:28:49.766000Z</time>
      </trkpt>
      <trkpt lat="48.599038" lon="11.345837">
        <ele>412.5</ele>
        <time>2026-06-15T12:31:53.447000Z</time>
      </trkpt>
      <trkpt lat="48.599067" lon="11.348365">
        <ele>411</ele>
        <time>2026-06-15T12:34:44.031000Z</time>
      </trkpt>
      <trkpt lat="48.599112" lon="11.349011">
        <ele>410.6</ele>
        <time>2026-06-15T12:35:27.912000Z</time>
      </trkpt>
      <trkpt lat="48.599219" lon="11.349547">
        <ele>410.2</ele>
        <time>2026-06-15T12:36:05.747000Z</time>
      </trkpt>
      <trkpt lat="48.59938" lon="11.35048">
        <ele>409.6</ele>
        <time>2026-06-15T12:37:10.847000Z</time>
      </trkpt>
      <trkpt lat="48.599324" lon="11.351306">
        <ele>409.1</ele>
        <time>2026-06-15T12:38:06.910000Z</time>
      </trkpt>
      <trkpt lat="48.598987" lon="11.352833">
        <ele>408.2</ele>
        <time>2026-06-15T12:39:55.127000Z</time>
      </trkpt>
      <trkpt lat="48.598573" lon="11.354214">
        <ele>407.7</ele>
        <time>2026-06-15T12:41:36.530000Z</time>
      </trkpt>
      <trkpt lat="48.598266" lon="11.355547">
        <ele>407.5</ele>
        <time>2026-06-15T12:43:10.418000Z</time>
      </trkpt>
      <trkpt lat="48.598208" lon="11.355951">
        <ele>407.4</ele>
        <time>2026-06-15T12:43:37.911000Z</time>
      </trkpt>
      <trkpt lat="48.598196" lon="11.356872">
        <ele>407.3</ele>
        <time>2026-06-15T12:44:39.303000Z</time>
      </trkpt>
      <trkpt lat="48.598244" lon="11.358413">
        <ele>407.1</ele>
        <time>2026-06-15T12:46:21.695000Z</time>
      </trkpt>
      <trkpt lat="48.598229" lon="11.359139">
        <ele>407.4</ele>
        <time>2026-06-15T12:47:10.792000Z</time>
      </trkpt>
      <trkpt lat="48.598065" lon="11.361503">
        <ele>409.7</ele>
        <time>2026-06-15T12:49:56.260000Z</time>
      </trkpt>
      <trkpt lat="48.597988" lon="11.361854">
        <ele>410.1</ele>
        <time>2026-06-15T12:50:22.072000Z</time>
      </trkpt>
      <trkpt lat="48.598" lon="11.362168">
        <ele>410.4</ele>
        <time>2026-06-15T12:50:44.013000Z</time>
      </trkpt>
      <trkpt lat="48.59783" lon="11.362979">
        <ele>411</ele>
        <time>2026-06-15T12:51:42.680000Z</time>
      </trkpt>
      <trkpt lat="48.597474" lon="11.363823">
        <ele>411.1</ele>
        <time>2026-06-15T12:52:49.035000Z</time>
      </trkpt>
      <trkpt lat="48.59606" lon="11.370128">
        <ele>401.7</ele>
        <time>2026-06-15T13:00:28.974000Z</time>
      </trkpt>
      <trkpt lat="48.59606" lon="11.370128">
        <ele>401.7</ele>
        <time>2026-06-15T13:00:29.051000Z</time>
      </trkpt>
      <trkpt lat="48.59613" lon="11.371413">
        <ele>399.6</ele>
        <time>2026-06-15T13:01:58.768000Z</time>
      </trkpt>
      <trkpt lat="48.596226" lon="11.372071">
        <ele>398.5</ele>
        <time>2026-06-15T13:02:45.619000Z</time>
      </trkpt>
      <trkpt lat="48.596343" lon="11.372267">
        <ele>398.2</ele>
        <time>2026-06-15T13:03:03.790000Z</time>
      </trkpt>
      <trkpt lat="48.596313" lon="11.372834">
        <ele>397.8</ele>
        <time>2026-06-15T13:03:42.277000Z</time>
      </trkpt>
      <trkpt lat="48.596286" lon="11.372964">
        <ele>397.8</ele>
        <time>2026-06-15T13:03:51.408000Z</time>
      </trkpt>
      <trkpt lat="48.596158" lon="11.373125">
        <ele>397.7</ele>
        <time>2026-06-15T13:04:08.041000Z</time>
      </trkpt>
      <trkpt lat="48.596227" lon="11.373358">
        <ele>397.8</ele>
        <time>2026-06-15T13:04:24.966000Z</time>
      </trkpt>
      <trkpt lat="48.596325" lon="11.373737">
        <ele>397.8</ele>
        <time>2026-06-15T13:04:52.137000Z</time>
      </trkpt>
      <trkpt lat="48.596379" lon="11.374417">
        <ele>398</ele>
        <time>2026-06-15T13:05:38.140000Z</time>
      </trkpt>
      <trkpt lat="48.596378" lon="11.37458">
        <ele>398.1</ele>
        <time>2026-06-15T13:05:49.224000Z</time>
      </trkpt>
      <trkpt lat="48.596372" lon="11.376231">
        <ele>398.2</ele>
        <time>2026-06-15T13:07:38.937000Z</time>
      </trkpt>
      <trkpt lat="48.596355" lon="11.376535">
        <ele>398.4</ele>
        <time>2026-06-15T13:07:59.893000Z</time>
      </trkpt>
      <trkpt lat="48.596337" lon="11.376855">
        <ele>399.1</ele>
        <time>2026-06-15T13:08:23.709000Z</time>
      </trkpt>
      <trkpt lat="48.596269" lon="11.377194">
        <ele>400.5</ele>
        <time>2026-06-15T13:08:51.892000Z</time>
      </trkpt>
      <trkpt lat="48.59656" lon="11.377023">
        <ele>403.1</ele>
        <time>2026-06-15T13:09:32.021000Z</time>
      </trkpt>
      <trkpt lat="48.596745" lon="11.37698">
        <ele>404.9</ele>
        <time>2026-06-15T13:09:56.740000Z</time>
      </trkpt>
      <trkpt lat="48.597312" lon="11.376708">
        <ele>411.9</ele>
        <time>2026-06-15T13:11:21.273000Z</time>
      </trkpt>
      <trkpt lat="48.597487" lon="11.376509">
        <ele>414.5</ele>
        <time>2026-06-15T13:11:52.034000Z</time>
      </trkpt>
      <trkpt lat="48.597787" lon="11.376431">
        <ele>417.1</ele>
        <time>2026-06-15T13:12:31.424000Z</time>
      </trkpt>
      <trkpt lat="48.597835" lon="11.37606">
        <ele>418.3</ele>
        <time>2026-06-15T13:13:00.601000Z</time>
      </trkpt>
      <trkpt lat="48.59785" lon="11.375946">
        <ele>418.4</ele>
        <time>2026-06-15T13:13:08.518000Z</time>
      </trkpt>
      <trkpt lat="48.597835" lon="11.37606">
        <ele>418.3</ele>
        <time>2026-06-15T13:13:16.322000Z</time>
      </trkpt>
      <trkpt lat="48.597787" lon="11.376431">
        <ele>417.1</ele>
        <time>2026-06-15T13:13:43.787000Z</time>
      </trkpt>
      <trkpt lat="48.597487" lon="11.376509">
        <ele>414.5</ele>
        <time>2026-06-15T13:14:19.504000Z</time>
      </trkpt>
      <trkpt lat="48.597312" lon="11.376708">
        <ele>411.9</ele>
        <time>2026-06-15T13:14:46.416000Z</time>
      </trkpt>
      <trkpt lat="48.597228" lon="11.376748">
        <ele>410.8</ele>
        <time>2026-06-15T13:14:57.338000Z</time>
      </trkpt>
      <trkpt lat="48.596745" lon="11.37698">
        <ele>404</ele>
        <time>2026-06-15T13:16:01.407000Z</time>
      </trkpt>
      <trkpt lat="48.59656" lon="11.377023">
        <ele>401.7</ele>
        <time>2026-06-15T13:16:24.476000Z</time>
      </trkpt>
      <trkpt lat="48.596269" lon="11.377194">
        <ele>398.4</ele>
        <time>2026-06-15T13:17:02.267000Z</time>
      </trkpt>
      <trkpt lat="48.596207" lon="11.377335">
        <ele>397.4</ele>
        <time>2026-06-15T13:17:15.472000Z</time>
      </trkpt>
      <trkpt lat="48.595523" lon="11.378149">
        <ele>394.5</ele>
        <time>2026-06-15T13:18:48.573000Z</time>
      </trkpt>
      <trkpt lat="48.59545" lon="11.378222">
        <ele>394.4</ele>
        <time>2026-06-15T13:18:57.469000Z</time>
      </trkpt>
      <trkpt lat="48.595362" lon="11.37831">
        <ele>394.4</ele>
        <time>2026-06-15T13:19:08.072000Z</time>
      </trkpt>
      <trkpt lat="48.595121" lon="11.378479">
        <ele>394.5</ele>
        <time>2026-06-15T13:19:34.939000Z</time>
      </trkpt>
      <trkpt lat="48.594759" lon="11.37863">
        <ele>394.6</ele>
        <time>2026-06-15T13:20:12.848000Z</time>
      </trkpt>
      <trkpt lat="48.594634" lon="11.378657">
        <ele>394.6</ele>
        <time>2026-06-15T13:20:25.606000Z</time>
      </trkpt>
      <trkpt lat="48.594527" lon="11.378692">
        <ele>394.7</ele>
        <time>2026-06-15T13:20:36.680000Z</time>
      </trkpt>
      <trkpt lat="48.59439" lon="11.378752">
        <ele>394.7</ele>
        <time>2026-06-15T13:20:51.103000Z</time>
      </trkpt>
      <trkpt lat="48.594385" lon="11.378841">
        <ele>394.7</ele>
        <time>2026-06-15T13:20:57.063000Z</time>
      </trkpt>
      <trkpt lat="48.594378" lon="11.378963">
        <ele>394.8</ele>
        <time>2026-06-15T13:21:05.327000Z</time>
      </trkpt>
      <trkpt lat="48.594287" lon="11.37898">
        <ele>394.8</ele>
        <time>2026-06-15T13:21:14.632000Z</time>
      </trkpt>
      <trkpt lat="48.594183" lon="11.378998">
        <ele>394.8</ele>
        <time>2026-06-15T13:21:25.162000Z</time>
      </trkpt>
      <trkpt lat="48.594175" lon="11.378846">
        <ele>394.8</ele>
        <time>2026-06-15T13:21:35.272000Z</time>
      </trkpt>
      <trkpt lat="48.594066" lon="11.378937">
        <ele>394.8</ele>
        <time>2026-06-15T13:21:47.767000Z</time>
      </trkpt>
      <trkpt lat="48.59409" lon="11.379465">
        <ele>394.6</ele>
        <time>2026-06-15T13:22:23.263000Z</time>
      </trkpt>
      <trkpt lat="48.594066" lon="11.378937">
        <ele>394.2</ele>
        <time>2026-06-15T13:22:58.953000Z</time>
      </trkpt>
      <trkpt lat="48.593996" lon="11.378663">
        <ele>394.1</ele>
        <time>2026-06-15T13:23:18.717000Z</time>
      </trkpt>
      <trkpt lat="48.59384" lon="11.378363">
        <ele>393.9</ele>
        <time>2026-06-15T13:23:44.417000Z</time>
      </trkpt>
      <trkpt lat="48.593705" lon="11.377648">
        <ele>393.5</ele>
        <time>2026-06-15T13:24:34.416000Z</time>
      </trkpt>
      <trkpt lat="48.593528" lon="11.377569">
        <ele>393.3</ele>
        <time>2026-06-15T13:24:53.247000Z</time>
      </trkpt>
      <trkpt lat="48.593063" lon="11.377258">
        <ele>393.1</ele>
        <time>2026-06-15T13:25:44.619000Z</time>
      </trkpt>
      <trkpt lat="48.593017" lon="11.377086">
        <ele>393.1</ele>
        <time>2026-06-15T13:25:56.904000Z</time>
      </trkpt>
      <trkpt lat="48.593003" lon="11.376614">
        <ele>393.1</ele>
        <time>2026-06-15T13:26:28.336000Z</time>
      </trkpt>
      <trkpt lat="48.593038" lon="11.374908">
        <ele>393.6</ele>
        <time>2026-06-15T13:28:23.131000Z</time>
      </trkpt>
      <trkpt lat="48.59319" lon="11.37346">
        <ele>394.1</ele>
        <time>2026-06-15T13:30:01.722000Z</time>
      </trkpt>
      <trkpt lat="48.593472" lon="11.372795">
        <ele>394.2</ele>
        <time>2026-06-15T13:30:54.318000Z</time>
      </trkpt>
      <trkpt lat="48.593854" lon="11.372498">
        <ele>394.2</ele>
        <time>2026-06-15T13:31:37.395000Z</time>
      </trkpt>
      <trkpt lat="48.594194" lon="11.372053">
        <ele>394.1</ele>
        <time>2026-06-15T13:32:22.515000Z</time>
      </trkpt>
      <trkpt lat="48.594413" lon="11.371374">
        <ele>394.1</ele>
        <time>2026-06-15T13:33:12.583000Z</time>
      </trkpt>
      <trkpt lat="48.594544" lon="11.370572">
        <ele>394.1</ele>
        <time>2026-06-15T13:34:07.550000Z</time>
      </trkpt>
      <trkpt lat="48.594566" lon="11.369957">
        <ele>394.2</ele>
        <time>2026-06-15T13:34:48.545000Z</time>
      </trkpt>
      <trkpt lat="48.594447" lon="11.369303">
        <ele>394.2</ele>
        <time>2026-06-15T13:35:33.487000Z</time>
      </trkpt>
      <trkpt lat="48.594175" lon="11.36834">
        <ele>394</ele>
        <time>2026-06-15T13:36:43.218000Z</time>
      </trkpt>
      <trkpt lat="48.5941" lon="11.368206">
        <ele>394</ele>
        <time>2026-06-15T13:36:54.914000Z</time>
      </trkpt>
      <trkpt lat="48.593999" lon="11.368164">
        <ele>393.9</ele>
        <time>2026-06-15T13:37:05.469000Z</time>
      </trkpt>
      <trkpt lat="48.593521" lon="11.368105">
        <ele>393.8</ele>
        <time>2026-06-15T13:37:53.842000Z</time>
      </trkpt>
      <trkpt lat="48.593216" lon="11.368032">
        <ele>393.7</ele>
        <time>2026-06-15T13:38:24.842000Z</time>
      </trkpt>
      <trkpt lat="48.592815" lon="11.367657">
        <ele>393.8</ele>
        <time>2026-06-15T13:39:12.339000Z</time>
      </trkpt>
      <trkpt lat="48.592596" lon="11.367216">
        <ele>394</ele>
        <time>2026-06-15T13:39:49.369000Z</time>
      </trkpt>
      <trkpt lat="48.592476" lon="11.366802">
        <ele>394.1</ele>
        <time>2026-06-15T13:40:19.858000Z</time>
      </trkpt>
      <trkpt lat="48.592325" lon="11.366533">
        <ele>394.2</ele>
        <time>2026-06-15T13:40:43.597000Z</time>
      </trkpt>
      <trkpt lat="48.591429" lon="11.365475">
        <ele>394.2</ele>
        <time>2026-06-15T13:42:37.488000Z</time>
      </trkpt>
      <trkpt lat="48.591227" lon="11.365338">
        <ele>394.1</ele>
        <time>2026-06-15T13:42:59.915000Z</time>
      </trkpt>
      <trkpt lat="48.59106" lon="11.365315">
        <ele>394</ele>
        <time>2026-06-15T13:43:16.801000Z</time>
      </trkpt>
      <trkpt lat="48.59055" lon="11.365243">
        <ele>393.9</ele>
        <time>2026-06-15T13:44:08.226000Z</time>
      </trkpt>
      <trkpt lat="48.590081" lon="11.365231">
        <ele>394</ele>
        <time>2026-06-15T13:44:55.603000Z</time>
      </trkpt>
      <trkpt lat="48.589857" lon="11.365122">
        <ele>394.2</ele>
        <time>2026-06-15T13:45:19.771000Z</time>
      </trkpt>
      <trkpt lat="48.589725" lon="11.364885">
        <ele>394.4</ele>
        <time>2026-06-15T13:45:40.913000Z</time>
      </trkpt>
      <trkpt lat="48.589561" lon="11.363989">
        <ele>395.2</ele>
        <time>2026-06-15T13:46:45.464000Z</time>
      </trkpt>
      <trkpt lat="48.589448" lon="11.363835">
        <ele>395.5</ele>
        <time>2026-06-15T13:47:01.492000Z</time>
      </trkpt>
      <trkpt lat="48.588991" lon="11.363799">
        <ele>396.1</ele>
        <time>2026-06-15T13:47:49.862000Z</time>
      </trkpt>
      <trkpt lat="48.588701" lon="11.363924">
        <ele>396.6</ele>
        <time>2026-06-15T13:48:21.527000Z</time>
      </trkpt>
      <trkpt lat="48.588626" lon="11.363847">
        <ele>396.7</ele>
        <time>2026-06-15T13:48:31.112000Z</time>
      </trkpt>
      <trkpt lat="48.588752" lon="11.363551">
        <ele>397</ele>
        <time>2026-06-15T13:48:55.594000Z</time>
      </trkpt>
      <trkpt lat="48.588775" lon="11.363366">
        <ele>397.2</ele>
        <time>2026-06-15T13:49:08.655000Z</time>
      </trkpt>
      <trkpt lat="48.588755" lon="11.36256">
        <ele>397.7</ele>
        <time>2026-06-15T13:50:03.671000Z</time>
      </trkpt>
      <trkpt lat="48.588627" lon="11.361872">
        <ele>397.4</ele>
        <time>2026-06-15T13:50:51.540000Z</time>
      </trkpt>
      <trkpt lat="48.588597" lon="11.361438">
        <ele>397</ele>
        <time>2026-06-15T13:51:21.190000Z</time>
      </trkpt>
      <trkpt lat="48.588616" lon="11.361341">
        <ele>396.9</ele>
        <time>2026-06-15T13:51:28.054000Z</time>
      </trkpt>
      <trkpt lat="48.588991" lon="11.360491">
        <ele>395.9</ele>
        <time>2026-06-15T13:52:37.808000Z</time>
      </trkpt>
      <trkpt lat="48.589122" lon="11.360306">
        <ele>395.6</ele>
        <time>2026-06-15T13:52:56.394000Z</time>
      </trkpt>
      <trkpt lat="48.58939" lon="11.360019">
        <ele>395.1</ele>
        <time>2026-06-15T13:53:30.403000Z</time>
      </trkpt>
      <trkpt lat="48.589471" lon="11.35989">
        <ele>394.9</ele>
        <time>2026-06-15T13:53:42.540000Z</time>
      </trkpt>
      <trkpt lat="48.589548" lon="11.359729">
        <ele>394.8</ele>
        <time>2026-06-15T13:53:55.930000Z</time>
      </trkpt>
      <trkpt lat="48.589603" lon="11.359541">
        <ele>394.7</ele>
        <time>2026-06-15T13:54:09.724000Z</time>
      </trkpt>
      <trkpt lat="48.589645" lon="11.359292">
        <ele>394.6</ele>
        <time>2026-06-15T13:54:26.890000Z</time>
      </trkpt>
      <trkpt lat="48.589647" lon="11.358941">
        <ele>394.7</ele>
        <time>2026-06-15T13:54:50.293000Z</time>
      </trkpt>
      <trkpt lat="48.589352" lon="11.357672">
        <ele>395.2</ele>
        <time>2026-06-15T13:56:21.361000Z</time>
      </trkpt>
      <trkpt lat="48.589285" lon="11.35717">
        <ele>395.4</ele>
        <time>2026-06-15T13:56:56.029000Z</time>
      </trkpt>
      <trkpt lat="48.58925" lon="11.356508">
        <ele>395.7</ele>
        <time>2026-06-15T13:57:40.879000Z</time>
      </trkpt>
      <trkpt lat="48.589277" lon="11.356423">
        <ele>395.7</ele>
        <time>2026-06-15T13:57:47.211000Z</time>
      </trkpt>
      <trkpt lat="48.58942" lon="11.356179">
        <ele>395.8</ele>
        <time>2026-06-15T13:58:09.094000Z</time>
      </trkpt>
      <trkpt lat="48.589631" lon="11.355974">
        <ele>395.9</ele>
        <time>2026-06-15T13:58:34.505000Z</time>
      </trkpt>
      <trkpt lat="48.590725" lon="11.355595">
        <ele>396.3</ele>
        <time>2026-06-15T14:00:28.407000Z</time>
      </trkpt>
      <trkpt lat="48.591043" lon="11.355547">
        <ele>396.5</ele>
        <time>2026-06-15T14:01:00.842000Z</time>
      </trkpt>
      <trkpt lat="48.591231" lon="11.355578">
        <ele>396.5</ele>
        <time>2026-06-15T14:01:19.989000Z</time>
      </trkpt>
      <trkpt lat="48.591514" lon="11.355652">
        <ele>396.5</ele>
        <time>2026-06-15T14:01:48.779000Z</time>
      </trkpt>
      <trkpt lat="48.591585" lon="11.355633">
        <ele>396.5</ele>
        <time>2026-06-15T14:01:56.031000Z</time>
      </trkpt>
      <trkpt lat="48.591514" lon="11.355652">
        <ele>396.5</ele>
        <time>2026-06-15T14:02:03.309000Z</time>
      </trkpt>
      <trkpt lat="48.591231" lon="11.355578">
        <ele>396.4</ele>
        <time>2026-06-15T14:02:32.220000Z</time>
      </trkpt>
      <trkpt lat="48.591218" lon="11.355484">
        <ele>396.4</ele>
        <time>2026-06-15T14:02:38.607000Z</time>
      </trkpt>
      <trkpt lat="48.590508" lon="11.354214">
        <ele>395.7</ele>
        <time>2026-06-15T14:04:30.129000Z</time>
      </trkpt>
      <trkpt lat="48.590156" lon="11.353876">
        <ele>395.5</ele>
        <time>2026-06-15T14:05:12.285000Z</time>
      </trkpt>
      <trkpt lat="48.590064" lon="11.353503">
        <ele>395.5</ele>
        <time>2026-06-15T14:05:38.774000Z</time>
      </trkpt>
      <trkpt lat="48.590022" lon="11.35313">
        <ele>395.5</ele>
        <time>2026-06-15T14:06:03.894000Z</time>
      </trkpt>
      <trkpt lat="48.589871" lon="11.352645">
        <ele>395.6</ele>
        <time>2026-06-15T14:06:39.953000Z</time>
      </trkpt>
      <trkpt lat="48.589605" lon="11.352044">
        <ele>395.9</ele>
        <time>2026-06-15T14:07:28.621000Z</time>
      </trkpt>
      <trkpt lat="48.589728" lon="11.351311">
        <ele>396</ele>
        <time>2026-06-15T14:08:19.369000Z</time>
      </trkpt>
      <trkpt lat="48.589912" lon="11.350151">
        <ele>396.4</ele>
        <time>2026-06-15T14:09:39.449000Z</time>
      </trkpt>
      <trkpt lat="48.589888" lon="11.349843">
        <ele>396.4</ele>
        <time>2026-06-15T14:10:00.111000Z</time>
      </trkpt>
      <trkpt lat="48.589773" lon="11.349462">
        <ele>396.4</ele>
        <time>2026-06-15T14:10:27.898000Z</time>
      </trkpt>
      <trkpt lat="48.58976" lon="11.349286">
        <ele>396.4</ele>
        <time>2026-06-15T14:10:39.595000Z</time>
      </trkpt>
      <trkpt lat="48.589794" lon="11.348999">
        <ele>396.4</ele>
        <time>2026-06-15T14:10:58.948000Z</time>
      </trkpt>
      <trkpt lat="48.58982" lon="11.348384">
        <ele>396.5</ele>
        <time>2026-06-15T14:11:39.877000Z</time>
      </trkpt>
      <trkpt lat="48.589721" lon="11.348141">
        <ele>396.5</ele>
        <time>2026-06-15T14:11:58.933000Z</time>
      </trkpt>
      <trkpt lat="48.589586" lon="11.347934">
        <ele>396.5</ele>
        <time>2026-06-15T14:12:18.216000Z</time>
      </trkpt>
      <trkpt lat="48.588973" lon="11.347716">
        <ele>396.6</ele>
        <time>2026-06-15T14:13:21.477000Z</time>
      </trkpt>
      <trkpt lat="48.588487" lon="11.347195">
        <ele>396.8</ele>
        <time>2026-06-15T14:14:21.812000Z</time>
      </trkpt>
      <trkpt lat="48.587924" lon="11.346016">
        <ele>397.2</ele>
        <time>2026-06-15T14:15:59.483000Z</time>
      </trkpt>
      <trkpt lat="48.587851" lon="11.345737">
        <ele>397.3</ele>
        <time>2026-06-15T14:16:19.556000Z</time>
      </trkpt>
      <trkpt lat="48.587649" lon="11.345227">
        <ele>397.3</ele>
        <time>2026-06-15T14:16:59.198000Z</time>
      </trkpt>
      <trkpt lat="48.587178" lon="11.344556">
        <ele>397.3</ele>
        <time>2026-06-15T14:18:04.078000Z</time>
      </trkpt>
      <trkpt lat="48.586707" lon="11.343885">
        <ele>397.1</ele>
        <time>2026-06-15T14:19:09.227000Z</time>
      </trkpt>
      <trkpt lat="48.586664" lon="11.343723">
        <ele>397.1</ele>
        <time>2026-06-15T14:19:20.801000Z</time>
      </trkpt>
      <trkpt lat="48.586653" lon="11.34284">
        <ele>397.1</ele>
        <time>2026-06-15T14:20:19.355000Z</time>
      </trkpt>
      <trkpt lat="48.586572" lon="11.342408">
        <ele>397.2</ele>
        <time>2026-06-15T14:20:49.429000Z</time>
      </trkpt>
      <trkpt lat="48.586326" lon="11.341701">
        <ele>397.5</ele>
        <time>2026-06-15T14:21:43.452000Z</time>
      </trkpt>
      <trkpt lat="48.585817" lon="11.340809">
        <ele>398.2</ele>
        <time>2026-06-15T14:23:04.150000Z</time>
      </trkpt>
      <trkpt lat="48.585508" lon="11.340426">
        <ele>398.6</ele>
        <time>2026-06-15T14:23:45.434000Z</time>
      </trkpt>
      <trkpt lat="48.585451" lon="11.340244">
        <ele>398.7</ele>
        <time>2026-06-15T14:23:59.178000Z</time>
      </trkpt>
      <trkpt lat="48.58544" lon="11.340162">
        <ele>398.8</ele>
        <time>2026-06-15T14:24:04.893000Z</time>
      </trkpt>
      <trkpt lat="48.585504" lon="11.340149">
        <ele>398.8</ele>
        <time>2026-06-15T14:24:11.538000Z</time>
      </trkpt>
      <trkpt lat="48.585802" lon="11.340076">
        <ele>399</ele>
        <time>2026-06-15T14:24:42.416000Z</time>
      </trkpt>
      <trkpt lat="48.587085" lon="11.339718">
        <ele>399.9</ele>
        <time>2026-06-15T14:26:56.235000Z</time>
      </trkpt>
      <trkpt lat="48.587378" lon="11.339567">
        <ele>400.2</ele>
        <time>2026-06-15T14:27:28.176000Z</time>
      </trkpt>
      <trkpt lat="48.58775" lon="11.339311">
        <ele>400.6</ele>
        <time>2026-06-15T14:28:10.409000Z</time>
      </trkpt>
      <trkpt lat="48.588353" lon="11.33879">
        <ele>401.4</ele>
        <time>2026-06-15T14:29:22.833000Z</time>
      </trkpt>
      <trkpt lat="48.588538" lon="11.338537">
        <ele>401.8</ele>
        <time>2026-06-15T14:29:49.141000Z</time>
      </trkpt>
      <trkpt lat="48.588575" lon="11.338285">
        <ele>402</ele>
        <time>2026-06-15T14:30:07.187000Z</time>
      </trkpt>
      <trkpt lat="48.588682" lon="11.338058">
        <ele>402.3</ele>
        <time>2026-06-15T14:30:26.765000Z</time>
      </trkpt>
      <trkpt lat="48.588742" lon="11.338059">
        <ele>402.4</ele>
        <time>2026-06-15T14:30:33.115000Z</time>
      </trkpt>
      <trkpt lat="48.588787" lon="11.338063">
        <ele>402.5</ele>
        <time>2026-06-15T14:30:37.855000Z</time>
      </trkpt>
      <trkpt lat="48.588855" lon="11.338075">
        <ele>402.6</ele>
        <time>2026-06-15T14:30:45.097000Z</time>
      </trkpt>
      <trkpt lat="48.588892" lon="11.33818">
        <ele>402.7</ele>
        <time>2026-06-15T14:30:53.473000Z</time>
      </trkpt>
      <trkpt lat="48.588959" lon="11.338199">
        <ele>402.8</ele>
        <time>2026-06-15T14:31:00.612000Z</time>
      </trkpt>
      <trkpt lat="48.589185" lon="11.338128">
        <ele>403.2</ele>
        <time>2026-06-15T14:31:24.959000Z</time>
      </trkpt>
      <trkpt lat="48.589316" lon="11.338004">
        <ele>403.4</ele>
        <time>2026-06-15T14:31:41.174000Z</time>
      </trkpt>
      <trkpt lat="48.589305" lon="11.337944">
        <ele>403.5</ele>
        <time>2026-06-15T14:31:45.476000Z</time>
      </trkpt>
      <trkpt lat="48.589544" lon="11.33778">
        <ele>403.8</ele>
        <time>2026-06-15T14:32:13.123000Z</time>
      </trkpt>
    </trkseg>
  </trk>
</gpx>