<?xml version="1.0" encoding="UTF-8"?>
<gpx xmlns="http://www.topografix.com/GPX/1/1" xmlns:xsi="http://www.w3.org/2001/XMLSchema-instance" xsi:schemaLocation="http://www.topografix.com/GPX/1/1 http://www.topografix.com/GPX/1/1/gpx.xsd" version="1.1" creator="Robert Kampf">
  <metadata>
    <name>Frankenhofner See – Bank an der Wertach Runde von Schlingen</name>
    <desc>Distance: 6.077km, Estimated duration: 1.54h, Elevation up: 13.173649041903673m, Elevation down: 13.533399582538664m, Grade: easy</desc>
    <author>
      <name>Robert Kampf</name>
      <link href="https://www.komoot.de/user/4125295338453">
        <text>View Robert Kampf's Profile on Komoot</text>
      </link>
    </author>
    <link href="https://www.komoot.de/tour/1832895539">
      <text>View tour on Komoot</text>
    </link>
  </metadata>
  <wpt lat="47.967417" lon="10.631042">
    <ele>689.3</ele>
    <name>Wertach Bridge and Saint John of Nepomuk Statue</name>
    <cmt>https://d2exd72xrrp1s7.cloudfront.net/www/000/1k5/o3/o30p1zwl3v1lv7o5n57vd8v93x5jkd4l-uhi41994395/0</cmt>
    <desc>Otti Vpunkt: hier kann man wunderbar pausieren
――――――――――
Armin: An der Wertachbrücke gibts die Möglichkeit in der Sonne oder im Schatten eine kleine Pause ein zulegen</desc>
    <src>Komoot</src>
    <link href="https://www.komoot.de/highlight/3591142">
      <text>View POI on Komoot</text>
    </link>
    <type>Highlight</type>
  </wpt>
  <wpt lat="47.970548" lon="10.633113">
    <ele>681.5</ele>
    <name>Wertach Weir</name>
    <cmt>https://d2exd72xrrp1s7.cloudfront.net/www/000/1k5/hl/hlc6xwg7mwzunfsl9hr0vqo23tjyg1xv-uhi36252800/0</cmt>
    <desc>Chris: rauschendes Wasser lädt zum Rasten ein
――――――――――
Mike Fox: Eine kleine Staustufe oder besser Stolperstein für die Wertach.
――――――――――
Michael: Überlaufwehr</desc>
    <src>Komoot</src>
    <link href="https://www.komoot.de/highlight/3234065">
      <text>View POI on Komoot</text>
    </link>
    <type>Highlight</type>
  </wpt>
  <wpt lat="47.97471" lon="10.637403">
    <ele>683</ele>
    <name>Frankenhofener Lake</name>
    <cmt>https://d2exd72xrrp1s7.cloudfront.net/www/000/1k1/28/28umu205qy1113s8niuow3qit23hrol2e-uhi760119/0</cmt>
    <desc>Martin  👣: Der Frankenhofener See bei Bad Wörishofen ist ein Stausee der Wertach. Das Ufer ist überwiegend dicht bewachsen. Der See ist bei Schwänen und Anglern sehr beliebt. 
Wer gerne Schwäne beobachtet oder fotografiert, hat am Frankenhofener See reichlich Gelegenheit dazu. 
Mit viel Glück ist hier auch mal ein Bieber zu beobachten.
――――――――――
breddy: Ein schöner Platz mit Aussicht
――――――――――
Dare2Bike: Für eine Abkühlung immer gut
――――――――――
msateam: Überraschend ein relativ großer See mit vielen Vögeln,etc...
――――――――――
Johannes: Super schöne Seite dess Sees
――――――――――
AS: Sehr idyllisch gelegener See
――――――――――
AS: Ein wahres Vogelparadies ist der Frankenhofener See
――――――――――
Wolfgang Reh (Hirschi): ein Stausee / See ist immer schön für eine Pause
――――――――――
Mike Fox: Schöner See für eine Runde in den Wertachauen
――――――――――
Kev_Kf_Allgäu: schön zum radeln dort. viele bänke am Ufer entlang</desc>
    <src>Komoot</src>
    <link href="https://www.komoot.de/highlight/218222">
      <text>View POI on Komoot</text>
    </link>
    <type>Highlight</type>
  </wpt>
  <wpt lat="47.978449" lon="10.641445">
    <ele>681.8</ele>
    <name>Rest Area at Rottachsee</name>
    <cmt>https://d2exd72xrrp1s7.cloudfront.net/www/000/1k5/hb/hbzz2822u80rm26n79t2o8jj3muhs6ab-uhi27737468/0</cmt>
    <desc>Otti Vpunkt: richtig gut hier ist sogar eine Steckdose zum Laden vom Handy</desc>
    <src>Komoot</src>
    <link href="https://www.komoot.de/highlight/2843933">
      <text>View POI on Komoot</text>
    </link>
    <type>Highlight</type>
  </wpt>
  <wpt lat="47.982137" lon="10.644765">
    <ele>632.9</ele>
    <name>View of the Wertach River from the bridge</name>
    <cmt>https://d2exd72xrrp1s7.cloudfront.net/www/000/1k8/wh/whsca223c6mjiqeg6nrnftis4usi48zy-uhi68453998/0</cmt>
    <desc>Steelrose: Ich mag diese Brücke gern zum kurz innehalten und den Blick beidseits entlang die baumgesäumten Ufer der Wertach schweifen zu lassen. Ausserdem ist sie quasi "Halbzeit" bei der Runde von Stockheim aus</desc>
    <src>Komoot</src>
    <link href="https://www.komoot.de/highlight/6378407">
      <text>View POI on Komoot</text>
    </link>
    <type>Highlight</type>
  </wpt>
  <wpt lat="47.982995" lon="10.645886">
    <ele>676.8</ele>
    <name>Bench with a view of the Wertach River</name>
    <cmt>https://d2exd72xrrp1s7.cloudfront.net/www/000/1k6/1e/1ezh5mt86mab2ci3ga5hlo3la41hk38fn-uhi45908365/0</cmt>
    <desc>Loockes: Hier finden Sie im Sommer sehr viele Wasservögel
――――――――――
Heike: Sehr schöne Tour an der Wertach entlang
――――――――――
Mike Fox: Auf dieser Bank kann man die Ruhe und die Aussicht genießen, ideal zum entspannen.
――――――――――
SpeedyRosi🫶: An der Wertach entlang lässt es sich wunderbar radeln.</desc>
    <src>Komoot</src>
    <link href="https://www.komoot.de/highlight/4953116">
      <text>View POI on Komoot</text>
    </link>
    <type>Highlight</type>
  </wpt>
  <wpt lat="47.96953" lon="10.636387">
    <ele>671.6</ele>
    <name>Lake Frankenhof</name>
    <cmt>https://d2exd72xrrp1s7.cloudfront.net/www/000/1k3/6l/6l088o1hz6z41kotdl45cyk6x30w4i6iy-uhi6516940/0</cmt>
    <desc>bike-kicky: Wunderschöner Schwanensee!!! Auch für Kinder ein schöner Ort zum Verweilen!
――――――――――
Kev_Kf_Allgäu: Schön zum Fahrradfahren aber auch zum spazieren gehen. Sehr Ruhig dort. 
――――――――――
Andrea E. 😇: ..</desc>
    <src>Komoot</src>
    <link href="https://www.komoot.de/highlight/843835">
      <text>View POI on Komoot</text>
    </link>
    <type>Highlight</type>
  </wpt>
  <trk>
    <name>Frankenhofner See – Bank an der Wertach Runde von Schlingen</name>
    <desc>Distance: 6.077km, Estimated duration: 1.54h, Elevation up: 13.173649041903673m, Elevation down: 13.533399582538664m, Grade: easy</desc>
    <link href="https://www.komoot.de/tour/1832895539">
      <text>View tour on Komoot</text>
    </link>
    <trkseg>
      <trkpt lat="47.968415" lon="10.632259">
        <ele>634.4</ele>
        <time>2024-09-01T12:12:53.721000Z</time>
      </trkpt>
      <trkpt lat="47.968265" lon="10.63219">
        <ele>634.5</ele>
        <time>2024-09-01T12:13:09.898000Z</time>
      </trkpt>
      <trkpt lat="47.967863" lon="10.632181">
        <ele>634.6</ele>
        <time>2024-09-01T12:13:50.433000Z</time>
      </trkpt>
      <trkpt lat="47.967852" lon="10.631992">
        <ele>634.5</ele>
        <time>2024-09-01T12:14:03.311000Z</time>
      </trkpt>
      <trkpt lat="47.967886" lon="10.631889">
        <ele>634.5</ele>
        <time>2024-09-01T12:14:11.034000Z</time>
      </trkpt>
      <trkpt lat="47.967922" lon="10.631778">
        <ele>634.6</ele>
        <time>2024-09-01T12:14:19.542000Z</time>
      </trkpt>
      <trkpt lat="47.968108" lon="10.631114">
        <ele>634.7</ele>
        <time>2024-09-01T12:15:08.123000Z</time>
      </trkpt>
      <trkpt lat="47.968159" lon="10.630882">
        <ele>634.7</ele>
        <time>2024-09-01T12:15:24.580000Z</time>
      </trkpt>
      <trkpt lat="47.968116" lon="10.630759">
        <ele>634.8</ele>
        <time>2024-09-01T12:15:34.232000Z</time>
      </trkpt>
      <trkpt lat="47.968028" lon="10.630727">
        <ele>634.8</ele>
        <time>2024-09-01T12:15:43.292000Z</time>
      </trkpt>
      <trkpt lat="47.967661" lon="10.631008">
        <ele>634.7</ele>
        <time>2024-09-01T12:16:24.758000Z</time>
      </trkpt>
      <trkpt lat="47.967423" lon="10.630968">
        <ele>634.6</ele>
        <time>2024-09-01T12:16:48.907000Z</time>
      </trkpt>
      <trkpt lat="47.967661" lon="10.631008">
        <ele>634.5</ele>
        <time>2024-09-01T12:17:13.136000Z</time>
      </trkpt>
      <trkpt lat="47.968028" lon="10.630727">
        <ele>634.4</ele>
        <time>2024-09-01T12:17:54.564000Z</time>
      </trkpt>
      <trkpt lat="47.968116" lon="10.630759">
        <ele>634.4</ele>
        <time>2024-09-01T12:18:03.664000Z</time>
      </trkpt>
      <trkpt lat="47.96835" lon="10.631013">
        <ele>634.2</ele>
        <time>2024-09-01T12:18:33.042000Z</time>
      </trkpt>
      <trkpt lat="47.968482" lon="10.631098">
        <ele>634.1</ele>
        <time>2024-09-01T12:18:47.637000Z</time>
      </trkpt>
      <trkpt lat="47.96858" lon="10.631119">
        <ele>634</ele>
        <time>2024-09-01T12:18:57.718000Z</time>
      </trkpt>
      <trkpt lat="47.968964" lon="10.63136">
        <ele>633.9</ele>
        <time>2024-09-01T12:19:39.776000Z</time>
      </trkpt>
      <trkpt lat="47.969315" lon="10.631383">
        <ele>633.8</ele>
        <time>2024-09-01T12:20:15.089000Z</time>
      </trkpt>
      <trkpt lat="47.9696" lon="10.63151">
        <ele>633.7</ele>
        <time>2024-09-01T12:20:45.062000Z</time>
      </trkpt>
      <trkpt lat="47.970066" lon="10.631854">
        <ele>633.6</ele>
        <time>2024-09-01T12:21:37.235000Z</time>
      </trkpt>
      <trkpt lat="47.970241" lon="10.631935">
        <ele>633.6</ele>
        <time>2024-09-01T12:21:55.542000Z</time>
      </trkpt>
      <trkpt lat="47.97026" lon="10.632069">
        <ele>633.6</ele>
        <time>2024-09-01T12:22:04.771000Z</time>
      </trkpt>
      <trkpt lat="47.970393" lon="10.632243">
        <ele>633.5</ele>
        <time>2024-09-01T12:22:22.538000Z</time>
      </trkpt>
      <trkpt lat="47.97063" lon="10.632646">
        <ele>633.4</ele>
        <time>2024-09-01T12:22:58.795000Z</time>
      </trkpt>
      <trkpt lat="47.970681" lon="10.632859">
        <ele>633.3</ele>
        <time>2024-09-01T12:23:14.102000Z</time>
      </trkpt>
      <trkpt lat="47.97068" lon="10.633005">
        <ele>633.2</ele>
        <time>2024-09-01T12:23:24.059000Z</time>
      </trkpt>
      <trkpt lat="47.970732" lon="10.633025">
        <ele>633.2</ele>
        <time>2024-09-01T12:23:29.473000Z</time>
      </trkpt>
      <trkpt lat="47.970712" lon="10.63315">
        <ele>633.1</ele>
        <time>2024-09-01T12:23:38.229000Z</time>
      </trkpt>
      <trkpt lat="47.970698" lon="10.633236">
        <ele>633.1</ele>
        <time>2024-09-01T12:23:44.215000Z</time>
      </trkpt>
      <trkpt lat="47.97047" lon="10.635172">
        <ele>632</ele>
        <time>2024-09-01T12:25:58.210000Z</time>
      </trkpt>
      <trkpt lat="47.970479" lon="10.635637">
        <ele>631.7</ele>
        <time>2024-09-01T12:26:30.047000Z</time>
      </trkpt>
      <trkpt lat="47.970527" lon="10.635813">
        <ele>631.6</ele>
        <time>2024-09-01T12:26:43.099000Z</time>
      </trkpt>
      <trkpt lat="47.970646" lon="10.636021">
        <ele>631.4</ele>
        <time>2024-09-01T12:27:01.708000Z</time>
      </trkpt>
      <trkpt lat="47.970723" lon="10.636079">
        <ele>631.3</ele>
        <time>2024-09-01T12:27:10.469000Z</time>
      </trkpt>
      <trkpt lat="47.972534" lon="10.636826">
        <ele>631.1</ele>
        <time>2024-09-01T12:30:18.983000Z</time>
      </trkpt>
      <trkpt lat="47.972699" lon="10.636834">
        <ele>631.1</ele>
        <time>2024-09-01T12:30:35.573000Z</time>
      </trkpt>
      <trkpt lat="47.973994" lon="10.636664">
        <ele>631.3</ele>
        <time>2024-09-01T12:32:46.288000Z</time>
      </trkpt>
      <trkpt lat="47.974225" lon="10.636694">
        <ele>631.3</ele>
        <time>2024-09-01T12:33:09.454000Z</time>
      </trkpt>
      <trkpt lat="47.97434" lon="10.63675">
        <ele>631.3</ele>
        <time>2024-09-01T12:33:21.596000Z</time>
      </trkpt>
      <trkpt lat="47.974483" lon="10.636885">
        <ele>631.3</ele>
        <time>2024-09-01T12:33:38.485000Z</time>
      </trkpt>
      <trkpt lat="47.974897" lon="10.637671">
        <ele>631.2</ele>
        <time>2024-09-01T12:34:45.595000Z</time>
      </trkpt>
      <trkpt lat="47.975077" lon="10.637965">
        <ele>631.2</ele>
        <time>2024-09-01T12:35:12.446000Z</time>
      </trkpt>
      <trkpt lat="47.975276" lon="10.638212">
        <ele>631.1</ele>
        <time>2024-09-01T12:35:38.330000Z</time>
      </trkpt>
      <trkpt lat="47.975604" lon="10.638491">
        <ele>631</ele>
        <time>2024-09-01T12:36:16.392000Z</time>
      </trkpt>
      <trkpt lat="47.975922" lon="10.638703">
        <ele>630.9</ele>
        <time>2024-09-01T12:36:51.510000Z</time>
      </trkpt>
      <trkpt lat="47.976729" lon="10.639068">
        <ele>630.5</ele>
        <time>2024-09-01T12:38:16.706000Z</time>
      </trkpt>
      <trkpt lat="47.977547" lon="10.639374">
        <ele>630.4</ele>
        <time>2024-09-01T12:39:41.355000Z</time>
      </trkpt>
      <trkpt lat="47.977772" lon="10.639504">
        <ele>630.3</ele>
        <time>2024-09-01T12:40:05.666000Z</time>
      </trkpt>
      <trkpt lat="47.977892" lon="10.639622">
        <ele>630.3</ele>
        <time>2024-09-01T12:40:20.103000Z</time>
      </trkpt>
      <trkpt lat="47.977934" lon="10.639677">
        <ele>630.2</ele>
        <time>2024-09-01T12:40:25.783000Z</time>
      </trkpt>
      <trkpt lat="47.977938" lon="10.639682">
        <ele>630.2</ele>
        <time>2024-09-01T12:40:26.281000Z</time>
      </trkpt>
      <trkpt lat="47.978102" lon="10.639973">
        <ele>630.1</ele>
        <time>2024-09-01T12:40:52.022000Z</time>
      </trkpt>
      <trkpt lat="47.9783" lon="10.640536">
        <ele>629.8</ele>
        <time>2024-09-01T12:41:35.236000Z</time>
      </trkpt>
      <trkpt lat="47.978404" lon="10.641046">
        <ele>629.5</ele>
        <time>2024-09-01T12:42:11.593000Z</time>
      </trkpt>
      <trkpt lat="47.978447" lon="10.641433">
        <ele>629.3</ele>
        <time>2024-09-01T12:42:38.340000Z</time>
      </trkpt>
      <trkpt lat="47.978455" lon="10.641374">
        <ele>629.2</ele>
        <time>2024-09-01T12:42:42.417000Z</time>
      </trkpt>
      <trkpt lat="47.978559" lon="10.641364">
        <ele>629.1</ele>
        <time>2024-09-01T12:42:53.048000Z</time>
      </trkpt>
      <trkpt lat="47.978611" lon="10.641297">
        <ele>629</ele>
        <time>2024-09-01T12:43:00.139000Z</time>
      </trkpt>
      <trkpt lat="47.978911" lon="10.641736">
        <ele>628.4</ele>
        <time>2024-09-01T12:43:43.396000Z</time>
      </trkpt>
      <trkpt lat="47.979248" lon="10.641824">
        <ele>627.8</ele>
        <time>2024-09-01T12:44:19.037000Z</time>
      </trkpt>
      <trkpt lat="47.979852" lon="10.641905">
        <ele>626.5</ele>
        <time>2024-09-01T12:45:22.419000Z</time>
      </trkpt>
      <trkpt lat="47.980843" lon="10.642119">
        <ele>624.5</ele>
        <time>2024-09-01T12:47:06.638000Z</time>
      </trkpt>
      <trkpt lat="47.981496" lon="10.642511">
        <ele>623.8</ele>
        <time>2024-09-01T12:48:18.627000Z</time>
      </trkpt>
      <trkpt lat="47.981726" lon="10.642765">
        <ele>623.7</ele>
        <time>2024-09-01T12:48:47.384000Z</time>
      </trkpt>
      <trkpt lat="47.982063" lon="10.643248">
        <ele>624</ele>
        <time>2024-09-01T12:49:35.049000Z</time>
      </trkpt>
      <trkpt lat="47.982567" lon="10.644237">
        <ele>624.9</ele>
        <time>2024-09-01T12:51:01.444000Z</time>
      </trkpt>
      <trkpt lat="47.982515" lon="10.644314">
        <ele>624.9</ele>
        <time>2024-09-01T12:51:08.977000Z</time>
      </trkpt>
      <trkpt lat="47.982232" lon="10.644619">
        <ele>625.3</ele>
        <time>2024-09-01T12:51:45.229000Z</time>
      </trkpt>
      <trkpt lat="47.982162" lon="10.644689">
        <ele>625.4</ele>
        <time>2024-09-01T12:51:54.093000Z</time>
      </trkpt>
      <trkpt lat="47.982137" lon="10.644765">
        <ele>625.5</ele>
        <time>2024-09-01T12:52:00.074000Z</time>
      </trkpt>
      <trkpt lat="47.982124" lon="10.644828">
        <ele>625.6</ele>
        <time>2024-09-01T12:52:04.738000Z</time>
      </trkpt>
      <trkpt lat="47.982151" lon="10.644967">
        <ele>625.7</ele>
        <time>2024-09-01T12:52:14.861000Z</time>
      </trkpt>
      <trkpt lat="47.98221" lon="10.645073">
        <ele>625.8</ele>
        <time>2024-09-01T12:52:24.593000Z</time>
      </trkpt>
      <trkpt lat="47.982907" lon="10.645771">
        <ele>627.1</ele>
        <time>2024-09-01T12:53:52.978000Z</time>
      </trkpt>
      <trkpt lat="47.982913" lon="10.645777">
        <ele>627.1</ele>
        <time>2024-09-01T12:53:53.777000Z</time>
      </trkpt>
      <trkpt lat="47.983039" lon="10.645962">
        <ele>627.3</ele>
        <time>2024-09-01T12:54:12.088000Z</time>
      </trkpt>
      <trkpt lat="47.983124" lon="10.646229">
        <ele>627.5</ele>
        <time>2024-09-01T12:54:32.833000Z</time>
      </trkpt>
      <trkpt lat="47.983043" lon="10.646318">
        <ele>627.6</ele>
        <time>2024-09-01T12:54:43.233000Z</time>
      </trkpt>
      <trkpt lat="47.982855" lon="10.64672">
        <ele>627.8</ele>
        <time>2024-09-01T12:55:16.908000Z</time>
      </trkpt>
      <trkpt lat="47.982779" lon="10.646937">
        <ele>627.9</ele>
        <time>2024-09-01T12:55:33.679000Z</time>
      </trkpt>
      <trkpt lat="47.982761" lon="10.647136">
        <ele>628.1</ele>
        <time>2024-09-01T12:55:47.578000Z</time>
      </trkpt>
      <trkpt lat="47.982881" lon="10.649235">
        <ele>629.6</ele>
        <time>2024-09-01T12:58:14.094000Z</time>
      </trkpt>
      <trkpt lat="47.982881" lon="10.649715">
        <ele>629.8</ele>
        <time>2024-09-01T12:58:46.922000Z</time>
      </trkpt>
      <trkpt lat="47.982794" lon="10.650986">
        <ele>630.1</ele>
        <time>2024-09-01T13:00:13.688000Z</time>
      </trkpt>
      <trkpt lat="47.981755" lon="10.65086">
        <ele>630.2</ele>
        <time>2024-09-01T13:01:58.570000Z</time>
      </trkpt>
      <trkpt lat="47.981431" lon="10.650856">
        <ele>630.3</ele>
        <time>2024-09-01T13:02:31.041000Z</time>
      </trkpt>
      <trkpt lat="47.980884" lon="10.65096">
        <ele>630.3</ele>
        <time>2024-09-01T13:03:26.462000Z</time>
      </trkpt>
      <trkpt lat="47.979996" lon="10.651124">
        <ele>630.5</ele>
        <time>2024-09-01T13:04:56.764000Z</time>
      </trkpt>
      <trkpt lat="47.979537" lon="10.651152">
        <ele>630.7</ele>
        <time>2024-09-01T13:05:43.153000Z</time>
      </trkpt>
      <trkpt lat="47.976188" lon="10.650882">
        <ele>631.6</ele>
        <time>2024-09-01T13:11:22.103000Z</time>
      </trkpt>
      <trkpt lat="47.974109" lon="10.650718">
        <ele>632.5</ele>
        <time>2024-09-01T13:14:53.836000Z</time>
      </trkpt>
      <trkpt lat="47.973942" lon="10.650705">
        <ele>632.5</ele>
        <time>2024-09-01T13:15:10.723000Z</time>
      </trkpt>
      <trkpt lat="47.973946" lon="10.650519">
        <ele>632.6</ele>
        <time>2024-09-01T13:15:23.261000Z</time>
      </trkpt>
      <trkpt lat="47.973994" lon="10.649547">
        <ele>632.6</ele>
        <time>2024-09-01T13:16:28.595000Z</time>
      </trkpt>
      <trkpt lat="47.973953" lon="10.647199">
        <ele>632.5</ele>
        <time>2024-09-01T13:19:06.143000Z</time>
      </trkpt>
      <trkpt lat="47.973925" lon="10.645579">
        <ele>631.8</ele>
        <time>2024-09-01T13:20:56.192000Z</time>
      </trkpt>
      <trkpt lat="47.973907" lon="10.644658">
        <ele>631.3</ele>
        <time>2024-09-01T13:21:58.995000Z</time>
      </trkpt>
      <trkpt lat="47.973902" lon="10.644402">
        <ele>631.2</ele>
        <time>2024-09-01T13:22:16.347000Z</time>
      </trkpt>
      <trkpt lat="47.973864" lon="10.64426">
        <ele>631.1</ele>
        <time>2024-09-01T13:22:26.734000Z</time>
      </trkpt>
      <trkpt lat="47.973937" lon="10.644068">
        <ele>631</ele>
        <time>2024-09-01T13:22:41.685000Z</time>
      </trkpt>
      <trkpt lat="47.973752" lon="10.643995">
        <ele>631</ele>
        <time>2024-09-01T13:23:00.995000Z</time>
      </trkpt>
      <trkpt lat="47.97347" lon="10.643884">
        <ele>630.8</ele>
        <time>2024-09-01T13:23:30.611000Z</time>
      </trkpt>
      <trkpt lat="47.972917" lon="10.64352">
        <ele>630.5</ele>
        <time>2024-09-01T13:24:31.720000Z</time>
      </trkpt>
      <trkpt lat="47.972684" lon="10.643365">
        <ele>630.5</ele>
        <time>2024-09-01T13:24:57.265000Z</time>
      </trkpt>
      <trkpt lat="47.972444" lon="10.643105">
        <ele>630.5</ele>
        <time>2024-09-01T13:25:27.132000Z</time>
      </trkpt>
      <trkpt lat="47.972313" lon="10.642847">
        <ele>630.6</ele>
        <time>2024-09-01T13:25:48.911000Z</time>
      </trkpt>
      <trkpt lat="47.972247" lon="10.642631">
        <ele>630.6</ele>
        <time>2024-09-01T13:26:05.082000Z</time>
      </trkpt>
      <trkpt lat="47.972156" lon="10.64219">
        <ele>630.8</ele>
        <time>2024-09-01T13:26:36.469000Z</time>
      </trkpt>
      <trkpt lat="47.97199" lon="10.640887">
        <ele>631.2</ele>
        <time>2024-09-01T13:28:06.957000Z</time>
      </trkpt>
      <trkpt lat="47.971994" lon="10.640156">
        <ele>631.2</ele>
        <time>2024-09-01T13:28:56.036000Z</time>
      </trkpt>
      <trkpt lat="47.971966" lon="10.639526">
        <ele>631.2</ele>
        <time>2024-09-01T13:29:38.462000Z</time>
      </trkpt>
      <trkpt lat="47.971806" lon="10.638756">
        <ele>631.2</ele>
        <time>2024-09-01T13:30:32.589000Z</time>
      </trkpt>
      <trkpt lat="47.971619" lon="10.637737">
        <ele>631.2</ele>
        <time>2024-09-01T13:31:43.622000Z</time>
      </trkpt>
      <trkpt lat="47.971493" lon="10.637621">
        <ele>631.2</ele>
        <time>2024-09-01T13:31:58.490000Z</time>
      </trkpt>
      <trkpt lat="47.971148" lon="10.637694">
        <ele>631.3</ele>
        <time>2024-09-01T13:32:33.452000Z</time>
      </trkpt>
      <trkpt lat="47.970938" lon="10.637792">
        <ele>631.3</ele>
        <time>2024-09-01T13:32:55.570000Z</time>
      </trkpt>
      <trkpt lat="47.970549" lon="10.638229">
        <ele>631.4</ele>
        <time>2024-09-01T13:33:44.672000Z</time>
      </trkpt>
      <trkpt lat="47.970152" lon="10.638765">
        <ele>631.7</ele>
        <time>2024-09-01T13:34:39.294000Z</time>
      </trkpt>
      <trkpt lat="47.970011" lon="10.638823">
        <ele>631.8</ele>
        <time>2024-09-01T13:34:54.279000Z</time>
      </trkpt>
      <trkpt lat="47.969824" lon="10.638801">
        <ele>631.9</ele>
        <time>2024-09-01T13:35:13.432000Z</time>
      </trkpt>
      <trkpt lat="47.969561" lon="10.638537">
        <ele>632.1</ele>
        <time>2024-09-01T13:35:45.839000Z</time>
      </trkpt>
      <trkpt lat="47.969465" lon="10.638283">
        <ele>632.2</ele>
        <time>2024-09-01T13:36:05.844000Z</time>
      </trkpt>
      <trkpt lat="47.969443" lon="10.63774">
        <ele>632.4</ele>
        <time>2024-09-01T13:36:42.882000Z</time>
      </trkpt>
      <trkpt lat="47.969452" lon="10.637049">
        <ele>632.6</ele>
        <time>2024-09-01T13:37:29.811000Z</time>
      </trkpt>
      <trkpt lat="47.969536" lon="10.636511">
        <ele>632.7</ele>
        <time>2024-09-01T13:38:07.310000Z</time>
      </trkpt>
      <trkpt lat="47.9696" lon="10.63592">
        <ele>632.8</ele>
        <time>2024-09-01T13:38:47.828000Z</time>
      </trkpt>
      <trkpt lat="47.969617" lon="10.635432">
        <ele>632.9</ele>
        <time>2024-09-01T13:39:20.827000Z</time>
      </trkpt>
      <trkpt lat="47.969607" lon="10.63498">
        <ele>632.9</ele>
        <time>2024-09-01T13:39:51.345000Z</time>
      </trkpt>
      <trkpt lat="47.969723" lon="10.633173">
        <ele>633.3</ele>
        <time>2024-09-01T13:41:54.019000Z</time>
      </trkpt>
      <trkpt lat="47.969735" lon="10.632912">
        <ele>633.3</ele>
        <time>2024-09-01T13:42:11.811000Z</time>
      </trkpt>
      <trkpt lat="47.969719" lon="10.632757">
        <ele>633.4</ele>
        <time>2024-09-01T13:42:22.476000Z</time>
      </trkpt>
      <trkpt lat="47.969664" lon="10.632631">
        <ele>633.4</ele>
        <time>2024-09-01T13:42:32.771000Z</time>
      </trkpt>
      <trkpt lat="47.96954" lon="10.632509">
        <ele>633.5</ele>
        <time>2024-09-01T13:42:47.909000Z</time>
      </trkpt>
      <trkpt lat="47.96912" lon="10.632274">
        <ele>633.6</ele>
        <time>2024-09-01T13:43:33.322000Z</time>
      </trkpt>
      <trkpt lat="47.968724" lon="10.632141">
        <ele>633.8</ele>
        <time>2024-09-01T13:44:14.520000Z</time>
      </trkpt>
      <trkpt lat="47.968496" lon="10.632102">
        <ele>633.9</ele>
        <time>2024-09-01T13:44:37.744000Z</time>
      </trkpt>
      <trkpt lat="47.968298" lon="10.632126">
        <ele>633.9</ele>
        <time>2024-09-01T13:44:57.819000Z</time>
      </trkpt>
      <trkpt lat="47.968265" lon="10.63219">
        <ele>634</ele>
        <time>2024-09-01T13:45:03.338000Z</time>
      </trkpt>
      <trkpt lat="47.968415" lon="10.632259">
        <ele>634</ele>
        <time>2024-09-01T13:45:19.165000Z</time>
      </trkpt>
    </trkseg>
  </trk>
</gpx>