<?xml version="1.0" encoding="UTF-8"?>
<gpx xmlns="http://www.topografix.com/GPX/1/1" xmlns:xsi="http://www.w3.org/2001/XMLSchema-instance" xsi:schemaLocation="http://www.topografix.com/GPX/1/1 http://www.topografix.com/GPX/1/1/gpx.xsd" version="1.1" creator="Robert Kampf">
  <metadata>
    <name>Justina-Kapelle – Justina-Kapelle Runde von Reinhartshofen</name>
    <desc>Distance: 6.491km, Estimated duration: 1.71h, Elevation up: 54.44716270567028m, Elevation down: 54.447162705670394m, Grade: easy</desc>
    <author>
      <name>Robert Kampf</name>
      <link href="https://www.komoot.de/user/4125295338453">
        <text>View Robert Kampf's Profile on Komoot</text>
      </link>
    </author>
    <link href="https://www.komoot.de/tour/2840649927">
      <text>View tour on Komoot</text>
    </link>
  </metadata>
  <wpt lat="48.231574" lon="10.736902">
    <name>Parkplatz Reinhartshofen</name>
    <cmt></cmt>
    <desc>Free</desc>
    <src>Komoot</src>
    <type>POI</type>
  </wpt>
  <wpt lat="48.22639" lon="10.722302">
    <ele>620.5</ele>
    <name>Anhauser Bach Source at the Ancient Oak Trunk</name>
    <cmt>https://d2exd72xrrp1s7.cloudfront.net/www/000/1k7/g3/g3giepmaadpb1kazfc0nz6ute4jvpziza-uhi59253437/0</cmt>
    <desc>suny: Der Anhauser Bach entspringt in diesen Wäldern, speist in Reinhartshofen und Burgwalden die Fischweiher, fließt durch Anhausen und mündet in Diedorf in die Schmutter.
――――――――――
suny: Der Anhauser Bach hat seine Quelle bei Reinhartshofen, südlich von uns, und seine Mündung in die Schmutter zwischen Diedorf und Oggenhof, nördlich von uns. Der Anhauser Bach wird, wenn er jung und frisch ist, zwischen Reinhartshofen und rund um Burgwalden zur Fischzucht genutzt, wo er mehrere Weiher füllt.
――――――――――
Hans-Jürgen: Der Anhauser Bach fließt hier in einer Rinne aus einer alten Mooreiche.
――――――――――
Guido (⛵📸🥾🚲): Der Anhauser Bach entspringt hier in diesen Wäldern und speist dann weiter nördlich  die Fischweiher in Reinhartshofen.</desc>
    <src>Komoot</src>
    <link href="https://www.komoot.de/highlight/674684">
      <text>View POI on Komoot</text>
    </link>
    <type>Highlight</type>
  </wpt>
  <wpt lat="48.226357" lon="10.720172">
    <ele>633.5</ele>
    <name>Former well of the Justinakapelle Hermitage</name>
    <cmt>https://d2exd72xrrp1s7.cloudfront.net/www/000/1k4/13/135ck6s6u48yh13lv6b0rps5ki3kcqenx6-uhi25415038/0</cmt>
    <desc>suny: Ein ehemaliger tiefer Brunnen mit einer Ruhebank.
――――――――――
Markus🚵🏼‍♀️⛷: Gottseidank ist ein Gitter auf dem alten Brunnen</desc>
    <src>Komoot</src>
    <link href="https://www.komoot.de/highlight/674716">
      <text>View POI on Komoot</text>
    </link>
    <type>Highlight</type>
  </wpt>
  <wpt lat="48.226243" lon="10.71815">
    <ele>589</ele>
    <name>Justina Chapel</name>
    <cmt>https://d2exd72xrrp1s7.cloudfront.net/www/000/1k2/vh/vhcohg7785a01rivakk2pl0bm2npuqo80-uhi3254264/0</cmt>
    <desc>Hans-Jürgen: Die überdachten Sitzbänke mit Tisch laden zu einer Pause ein.
――――――――――
Markus🚵🏼‍♀️⛷: Mitten im Wald eine gemütliche Einkehrmöglichkeit zum Rast machen
――――――――――
Markus🚵🏼‍♀️⛷: Gerade die überdachten Bänke laden zur Rast ein
――――――――――
Marcus: Sehr schöne kleine Kapelle. 
Toll gemacht. 
Grüße Marcus 
――――――――――
suny: Erste erkundliche Erwähnung bereits im Mittelalter. Sie besaß im 1500 eigenes Vermögen und einige Heiligenpfleger.  Die Gründung der Entstehung der Kapelle liegen wohl darin, daß zu dieser Zeit in der Gegend eine Anzahl Feldgüter, die sog. „Justina Lehen" vorahend waren, die aber bald wieder "abgegangen" sind. Einer Sage habe es in früheren Zeiten in unmittelbarer Nähe sogar ein Frauenkloster gegeben.
Tatsache ist, daß sich bei der Kapelle von Anfang an eine Klause befand, die meistens von zwei Eremiten bewohnt wurde.  1580 wurde berichtet, daß Großaitinger Bürger jährlich einen Bittgang durchgeführt haben.
――――――――――
Didier: Ein sehr spiritueller Platz mitten im Wald. Hier kann man, wenn nicht viel los, ist gut relaxen.
――――――――――
Andy: Schöne Runde
――――――――――
Jörg: Ruhiger Ort mitten im Wald und einer Möglichkeit zum Verzehren mitgebrachter Brotzeit!
――――――――――
Carsten 🏍🚲: Ein Kapelle mitten im Wald mit vielen Informationen über deren Geschichte
――――――――――
Joschi: Eine Infotafel weißt auf eine Klause mit zwei Eremiten die nahe der ursprünglichen Justina-Kapelle stand. Allerdings wurde die alte Kapelle im Zuge der Säkularisation im Jahr 1804 abgerissen. Die neuere Kapelle wird auf das Jahr 1825 datiert, als Erbauer kommt der damalige Grundeigentümer Ignatz Spatz in Betracht. Seit seinem Bau steht das kleine Kirchlein im Grünen. 
Unter der Regie von Franz Stahl, der die Renovierung der Justina-Kapelle mit zwei überdachten Rastplätzen und einem Holzkreuz vornahmen. Bei diesen Arbeiten wurde im Jahre 2002, etwas abseits der Kapelle, auch der alte Brunnen wieder entdeckt. 
Das Altarbild mit dem Martyrium der heiligen Justina im dritten Jahrhundert blieb aus der alten Kapelle erhalten.
――――――――――
Annette: Ein schönes Kleinod mitten im Wald am Jakobusweg.
――――――――――
Didier: Immer wieder herrlich wenn man durch den Wald zu der Lichtung mit der schönen Kapelle kommt. Oft genug ist man auch ganz alleine dort.</desc>
    <src>Komoot</src>
    <link href="https://www.komoot.de/highlight/74331">
      <text>View POI on Komoot</text>
    </link>
    <type>Highlight</type>
  </wpt>
  <wpt lat="48.229577" lon="10.713965">
    <ele>644</ele>
    <name>Crucifix Rest Area in Naturpark Augsburg - Westliche Wälder</name>
    <cmt>https://d2exd72xrrp1s7.cloudfront.net/www/000/1k7/nt/ntq5mg5d014f9vvyutfobf3v4opdi8bw-uhi64090343/0</cmt>
    <desc></desc>
    <src>Komoot</src>
    <link href="https://www.komoot.de/highlight/6039090">
      <text>View POI on Komoot</text>
    </link>
    <type>Highlight</type>
  </wpt>
  <wpt lat="48.23095" lon="10.73058">
    <ele>581</ele>
    <name>Maierleberg</name>
    <cmt></cmt>
    <desc></desc>
    <src>Komoot</src>
    <link href="https://www.komoot.de/highlight/7968759">
      <text>View POI on Komoot</text>
    </link>
    <type>Highlight</type>
  </wpt>
  <trk>
    <name>Justina-Kapelle – Justina-Kapelle Runde von Reinhartshofen</name>
    <desc>Distance: 6.491km, Estimated duration: 1.71h, Elevation up: 54.44716270567028m, Elevation down: 54.447162705670394m, Grade: easy</desc>
    <link href="https://www.komoot.de/tour/2840649927">
      <text>View tour on Komoot</text>
    </link>
    <trkseg>
      <trkpt lat="48.231551" lon="10.736901">
        <ele>591.7</ele>
        <time>2026-03-22T12:40:58.118000Z</time>
      </trkpt>
      <trkpt lat="48.231555" lon="10.736788">
        <ele>591.8</ele>
        <time>2026-03-22T12:41:06.163000Z</time>
      </trkpt>
      <trkpt lat="48.231584" lon="10.736693">
        <ele>591.9</ele>
        <time>2026-03-22T12:41:13.464000Z</time>
      </trkpt>
      <trkpt lat="48.231076" lon="10.736292">
        <ele>592.8</ele>
        <time>2026-03-22T12:42:13.931000Z</time>
      </trkpt>
      <trkpt lat="48.230795" lon="10.735903">
        <ele>593.2</ele>
        <time>2026-03-22T12:42:53.903000Z</time>
      </trkpt>
      <trkpt lat="48.229151" lon="10.732408">
        <ele>592.1</ele>
        <time>2026-03-22T12:47:41.624000Z</time>
      </trkpt>
      <trkpt lat="48.228546" lon="10.731678">
        <ele>592.1</ele>
        <time>2026-03-22T12:48:59.402000Z</time>
      </trkpt>
      <trkpt lat="48.228336" lon="10.731276">
        <ele>592.3</ele>
        <time>2026-03-22T12:49:34.138000Z</time>
      </trkpt>
      <trkpt lat="48.22791" lon="10.73046">
        <ele>592.2</ele>
        <time>2026-03-22T12:50:43.315000Z</time>
      </trkpt>
      <trkpt lat="48.227758" lon="10.73012">
        <ele>592</ele>
        <time>2026-03-22T12:51:11.101000Z</time>
      </trkpt>
      <trkpt lat="48.227941" lon="10.729759">
        <ele>592</ele>
        <time>2026-03-22T12:51:41.512000Z</time>
      </trkpt>
      <trkpt lat="48.228087" lon="10.729274">
        <ele>592.1</ele>
        <time>2026-03-22T12:52:17.368000Z</time>
      </trkpt>
      <trkpt lat="48.228145" lon="10.728888">
        <ele>592.2</ele>
        <time>2026-03-22T12:52:44.297000Z</time>
      </trkpt>
      <trkpt lat="48.228147" lon="10.728721">
        <ele>592.3</ele>
        <time>2026-03-22T12:52:55.713000Z</time>
      </trkpt>
      <trkpt lat="48.227781" lon="10.727807">
        <ele>592.8</ele>
        <time>2026-03-22T12:54:08.596000Z</time>
      </trkpt>
      <trkpt lat="48.227585" lon="10.727439">
        <ele>593</ele>
        <time>2026-03-22T12:54:40.693000Z</time>
      </trkpt>
      <trkpt lat="48.227342" lon="10.727151">
        <ele>593</ele>
        <time>2026-03-22T12:55:11.861000Z</time>
      </trkpt>
      <trkpt lat="48.226552" lon="10.726438">
        <ele>590.5</ele>
        <time>2026-03-22T12:56:49.281000Z</time>
      </trkpt>
      <trkpt lat="48.226425" lon="10.726306">
        <ele>589.8</ele>
        <time>2026-03-22T12:57:06.313000Z</time>
      </trkpt>
      <trkpt lat="48.226237" lon="10.7248">
        <ele>583.4</ele>
        <time>2026-03-22T12:59:01.243000Z</time>
      </trkpt>
      <trkpt lat="48.226256" lon="10.724063">
        <ele>579.8</ele>
        <time>2026-03-22T12:59:57.700000Z</time>
      </trkpt>
      <trkpt lat="48.226211" lon="10.723539">
        <ele>577.5</ele>
        <time>2026-03-22T13:00:37.638000Z</time>
      </trkpt>
      <trkpt lat="48.226268" lon="10.722988">
        <ele>575.8</ele>
        <time>2026-03-22T13:01:18.260000Z</time>
      </trkpt>
      <trkpt lat="48.226333" lon="10.722769">
        <ele>575.3</ele>
        <time>2026-03-22T13:01:35.181000Z</time>
      </trkpt>
      <trkpt lat="48.226386" lon="10.7223">
        <ele>575</ele>
        <time>2026-03-22T13:02:07.531000Z</time>
      </trkpt>
      <trkpt lat="48.226393" lon="10.722235">
        <ele>575</ele>
        <time>2026-03-22T13:02:11.961000Z</time>
      </trkpt>
      <trkpt lat="48.226402" lon="10.722088">
        <ele>575.1</ele>
        <time>2026-03-22T13:02:22.159000Z</time>
      </trkpt>
      <trkpt lat="48.226356" lon="10.720172">
        <ele>581.8</ele>
        <time>2026-03-22T13:04:53.019000Z</time>
      </trkpt>
      <trkpt lat="48.226351" lon="10.719984">
        <ele>582.7</ele>
        <time>2026-03-22T13:05:08.598000Z</time>
      </trkpt>
      <trkpt lat="48.226223" lon="10.718154">
        <ele>588.7</ele>
        <time>2026-03-22T13:07:32.215000Z</time>
      </trkpt>
      <trkpt lat="48.226216" lon="10.718051">
        <ele>588.9</ele>
        <time>2026-03-22T13:07:39.899000Z</time>
      </trkpt>
      <trkpt lat="48.226039" lon="10.717946">
        <ele>589.4</ele>
        <time>2026-03-22T13:08:00.677000Z</time>
      </trkpt>
      <trkpt lat="48.226216" lon="10.718051">
        <ele>589.9</ele>
        <time>2026-03-22T13:08:21.301000Z</time>
      </trkpt>
      <trkpt lat="48.226222" lon="10.717991">
        <ele>590</ele>
        <time>2026-03-22T13:08:25.655000Z</time>
      </trkpt>
      <trkpt lat="48.225689" lon="10.715576">
        <ele>591.8</ele>
        <time>2026-03-22T13:11:21.837000Z</time>
      </trkpt>
      <trkpt lat="48.226978" lon="10.716033">
        <ele>593.3</ele>
        <time>2026-03-22T13:13:39.595000Z</time>
      </trkpt>
      <trkpt lat="48.227108" lon="10.716034">
        <ele>593.5</ele>
        <time>2026-03-22T13:13:53.269000Z</time>
      </trkpt>
      <trkpt lat="48.227164" lon="10.715968">
        <ele>593.6</ele>
        <time>2026-03-22T13:14:00.829000Z</time>
      </trkpt>
      <trkpt lat="48.227342" lon="10.715341">
        <ele>594.2</ele>
        <time>2026-03-22T13:14:48.683000Z</time>
      </trkpt>
      <trkpt lat="48.227469" lon="10.715064">
        <ele>594.5</ele>
        <time>2026-03-22T13:15:12.139000Z</time>
      </trkpt>
      <trkpt lat="48.22882" lon="10.713723">
        <ele>593.2</ele>
        <time>2026-03-22T13:17:57.015000Z</time>
      </trkpt>
      <trkpt lat="48.229218" lon="10.713598">
        <ele>592.2</ele>
        <time>2026-03-22T13:18:39.675000Z</time>
      </trkpt>
      <trkpt lat="48.229367" lon="10.714011">
        <ele>591.6</ele>
        <time>2026-03-22T13:19:12.260000Z</time>
      </trkpt>
      <trkpt lat="48.229558" lon="10.713895">
        <ele>591.2</ele>
        <time>2026-03-22T13:19:33.613000Z</time>
      </trkpt>
      <trkpt lat="48.230381" lon="10.713394">
        <ele>590.8</ele>
        <time>2026-03-22T13:21:03.440000Z</time>
      </trkpt>
      <trkpt lat="48.230965" lon="10.712931">
        <ele>591.8</ele>
        <time>2026-03-22T13:22:13.107000Z</time>
      </trkpt>
      <trkpt lat="48.231879" lon="10.712304">
        <ele>593.2</ele>
        <time>2026-03-22T13:23:58.623000Z</time>
      </trkpt>
      <trkpt lat="48.232483" lon="10.712086">
        <ele>593.5</ele>
        <time>2026-03-22T13:25:01.815000Z</time>
      </trkpt>
      <trkpt lat="48.232773" lon="10.712063">
        <ele>593.2</ele>
        <time>2026-03-22T13:25:31.339000Z</time>
      </trkpt>
      <trkpt lat="48.233212" lon="10.711865">
        <ele>592.4</ele>
        <time>2026-03-22T13:26:18.896000Z</time>
      </trkpt>
      <trkpt lat="48.23402" lon="10.712695">
        <ele>589.4</ele>
        <time>2026-03-22T13:28:02.997000Z</time>
      </trkpt>
      <trkpt lat="48.235069" lon="10.713993">
        <ele>583.9</ele>
        <time>2026-03-22T13:30:30.471000Z</time>
      </trkpt>
      <trkpt lat="48.23555" lon="10.714899">
        <ele>582.2</ele>
        <time>2026-03-22T13:31:51.180000Z</time>
      </trkpt>
      <trkpt lat="48.236107" lon="10.715448">
        <ele>581.3</ele>
        <time>2026-03-22T13:32:59.770000Z</time>
      </trkpt>
      <trkpt lat="48.236381" lon="10.716258">
        <ele>580.7</ele>
        <time>2026-03-22T13:34:01.594000Z</time>
      </trkpt>
      <trkpt lat="48.236875" lon="10.716964">
        <ele>579.6</ele>
        <time>2026-03-22T13:35:12.107000Z</time>
      </trkpt>
      <trkpt lat="48.23737" lon="10.717558">
        <ele>578.9</ele>
        <time>2026-03-22T13:36:16.973000Z</time>
      </trkpt>
      <trkpt lat="48.238193" lon="10.718649">
        <ele>578.4</ele>
        <time>2026-03-22T13:38:07.817000Z</time>
      </trkpt>
      <trkpt lat="48.237822" lon="10.719187">
        <ele>579.1</ele>
        <time>2026-03-22T13:39:01.932000Z</time>
      </trkpt>
      <trkpt lat="48.237717" lon="10.719435">
        <ele>579.6</ele>
        <time>2026-03-22T13:39:23.002000Z</time>
      </trkpt>
      <trkpt lat="48.237726" lon="10.719824">
        <ele>580.1</ele>
        <time>2026-03-22T13:39:51.024000Z</time>
      </trkpt>
      <trkpt lat="48.237805" lon="10.720234">
        <ele>580.7</ele>
        <time>2026-03-22T13:40:21.432000Z</time>
      </trkpt>
      <trkpt lat="48.237776" lon="10.721275">
        <ele>582.1</ele>
        <time>2026-03-22T13:41:35.859000Z</time>
      </trkpt>
      <trkpt lat="48.236871" lon="10.723215">
        <ele>581.2</ele>
        <time>2026-03-22T13:44:15.659000Z</time>
      </trkpt>
      <trkpt lat="48.236598" lon="10.724967">
        <ele>580.7</ele>
        <time>2026-03-22T13:46:16.575000Z</time>
      </trkpt>
      <trkpt lat="48.236528" lon="10.725763">
        <ele>581.1</ele>
        <time>2026-03-22T13:47:11.367000Z</time>
      </trkpt>
      <trkpt lat="48.236438" lon="10.726431">
        <ele>580.9</ele>
        <time>2026-03-22T13:47:57.269000Z</time>
      </trkpt>
      <trkpt lat="48.236423" lon="10.726545">
        <ele>580.8</ele>
        <time>2026-03-22T13:48:05.225000Z</time>
      </trkpt>
      <trkpt lat="48.236282" lon="10.727201">
        <ele>579.6</ele>
        <time>2026-03-22T13:48:53.638000Z</time>
      </trkpt>
      <trkpt lat="48.236198" lon="10.727438">
        <ele>578.8</ele>
        <time>2026-03-22T13:49:13.050000Z</time>
      </trkpt>
      <trkpt lat="48.236162" lon="10.727549">
        <ele>578.4</ele>
        <time>2026-03-22T13:49:22.128000Z</time>
      </trkpt>
      <trkpt lat="48.236104" lon="10.727755">
        <ele>577.7</ele>
        <time>2026-03-22T13:49:38.485000Z</time>
      </trkpt>
      <trkpt lat="48.236074" lon="10.727865">
        <ele>577.3</ele>
        <time>2026-03-22T13:49:47.172000Z</time>
      </trkpt>
      <trkpt lat="48.236009" lon="10.7281">
        <ele>576.6</ele>
        <time>2026-03-22T13:50:05.709000Z</time>
      </trkpt>
      <trkpt lat="48.235989" lon="10.728174">
        <ele>576.4</ele>
        <time>2026-03-22T13:50:11.435000Z</time>
      </trkpt>
      <trkpt lat="48.235932" lon="10.72838">
        <ele>575.8</ele>
        <time>2026-03-22T13:50:27.520000Z</time>
      </trkpt>
      <trkpt lat="48.235914" lon="10.728446">
        <ele>575.6</ele>
        <time>2026-03-22T13:50:32.629000Z</time>
      </trkpt>
      <trkpt lat="48.235843" lon="10.728704">
        <ele>574.9</ele>
        <time>2026-03-22T13:50:52.718000Z</time>
      </trkpt>
      <trkpt lat="48.23572" lon="10.729158">
        <ele>573.7</ele>
        <time>2026-03-22T13:51:27.825000Z</time>
      </trkpt>
      <trkpt lat="48.235673" lon="10.729095">
        <ele>573.5</ele>
        <time>2026-03-22T13:51:34.432000Z</time>
      </trkpt>
      <trkpt lat="48.235278" lon="10.728631">
        <ele>572.6</ele>
        <time>2026-03-22T13:52:26.529000Z</time>
      </trkpt>
      <trkpt lat="48.235209" lon="10.728525">
        <ele>572.5</ele>
        <time>2026-03-22T13:52:36.581000Z</time>
      </trkpt>
      <trkpt lat="48.235151" lon="10.728441">
        <ele>572.5</ele>
        <time>2026-03-22T13:52:44.756000Z</time>
      </trkpt>
      <trkpt lat="48.235054" lon="10.728284">
        <ele>572.4</ele>
        <time>2026-03-22T13:52:59.122000Z</time>
      </trkpt>
      <trkpt lat="48.234961" lon="10.728118">
        <ele>572.4</ele>
        <time>2026-03-22T13:53:13.676000Z</time>
      </trkpt>
      <trkpt lat="48.234841" lon="10.727928">
        <ele>572.5</ele>
        <time>2026-03-22T13:53:31.490000Z</time>
      </trkpt>
      <trkpt lat="48.234673" lon="10.72775">
        <ele>572.5</ele>
        <time>2026-03-22T13:53:52.137000Z</time>
      </trkpt>
      <trkpt lat="48.234563" lon="10.727597">
        <ele>572.4</ele>
        <time>2026-03-22T13:54:07.366000Z</time>
      </trkpt>
      <trkpt lat="48.233898" lon="10.727037">
        <ele>570.8</ele>
        <time>2026-03-22T13:55:27.048000Z</time>
      </trkpt>
      <trkpt lat="48.233584" lon="10.727037">
        <ele>570</ele>
        <time>2026-03-22T13:56:00.193000Z</time>
      </trkpt>
      <trkpt lat="48.232943" lon="10.726725">
        <ele>568.5</ele>
        <time>2026-03-22T13:57:10.650000Z</time>
      </trkpt>
      <trkpt lat="48.232842" lon="10.726608">
        <ele>568.3</ele>
        <time>2026-03-22T13:57:23.785000Z</time>
      </trkpt>
      <trkpt lat="48.232787" lon="10.726482">
        <ele>568.2</ele>
        <time>2026-03-22T13:57:34.039000Z</time>
      </trkpt>
      <trkpt lat="48.232586" lon="10.725867">
        <ele>568</ele>
        <time>2026-03-22T13:58:20.088000Z</time>
      </trkpt>
      <trkpt lat="48.231511" lon="10.724581">
        <ele>570.2</ele>
        <time>2026-03-22T14:00:45.372000Z</time>
      </trkpt>
      <trkpt lat="48.231128" lon="10.724082">
        <ele>571</ele>
        <time>2026-03-22T14:01:38.881000Z</time>
      </trkpt>
      <trkpt lat="48.230948" lon="10.72398">
        <ele>571.1</ele>
        <time>2026-03-22T14:01:58.539000Z</time>
      </trkpt>
      <trkpt lat="48.230829" lon="10.723862">
        <ele>571.2</ele>
        <time>2026-03-22T14:02:13.109000Z</time>
      </trkpt>
      <trkpt lat="48.230772" lon="10.723866">
        <ele>571.2</ele>
        <time>2026-03-22T14:02:18.879000Z</time>
      </trkpt>
      <trkpt lat="48.230695" lon="10.723952">
        <ele>571.2</ele>
        <time>2026-03-22T14:02:28.568000Z</time>
      </trkpt>
      <trkpt lat="48.230644" lon="10.724106">
        <ele>571.2</ele>
        <time>2026-03-22T14:02:40.114000Z</time>
      </trkpt>
      <trkpt lat="48.23058" lon="10.724414">
        <ele>571.2</ele>
        <time>2026-03-22T14:03:01.695000Z</time>
      </trkpt>
      <trkpt lat="48.230581" lon="10.724957">
        <ele>571.3</ele>
        <time>2026-03-22T14:03:38.169000Z</time>
      </trkpt>
      <trkpt lat="48.23055" lon="10.725086">
        <ele>571.4</ele>
        <time>2026-03-22T14:03:47.528000Z</time>
      </trkpt>
      <trkpt lat="48.23025" lon="10.725745">
        <ele>572</ele>
        <time>2026-03-22T14:04:42.820000Z</time>
      </trkpt>
      <trkpt lat="48.230177" lon="10.725959">
        <ele>572.4</ele>
        <time>2026-03-22T14:05:00.219000Z</time>
      </trkpt>
      <trkpt lat="48.229825" lon="10.727393">
        <ele>577.4</ele>
        <time>2026-03-22T14:06:59.473000Z</time>
      </trkpt>
      <trkpt lat="48.229562" lon="10.728345">
        <ele>581.4</ele>
        <time>2026-03-22T14:08:21.928000Z</time>
      </trkpt>
      <trkpt lat="48.229238" lon="10.730683">
        <ele>586.3</ele>
        <time>2026-03-22T14:11:18.555000Z</time>
      </trkpt>
      <trkpt lat="48.229871" lon="10.731678">
        <ele>587</ele>
        <time>2026-03-22T14:12:52.900000Z</time>
      </trkpt>
      <trkpt lat="48.229876" lon="10.731689">
        <ele>587</ele>
        <time>2026-03-22T14:12:53.767000Z</time>
      </trkpt>
      <trkpt lat="48.229871" lon="10.731678">
        <ele>587</ele>
        <time>2026-03-22T14:12:54.637000Z</time>
      </trkpt>
      <trkpt lat="48.229238" lon="10.730683">
        <ele>588.2</ele>
        <time>2026-03-22T14:14:30.673000Z</time>
      </trkpt>
      <trkpt lat="48.229151" lon="10.732408">
        <ele>591.1</ele>
        <time>2026-03-22T14:16:35.916000Z</time>
      </trkpt>
      <trkpt lat="48.230795" lon="10.735903">
        <ele>593.2</ele>
        <time>2026-03-22T14:21:29.005000Z</time>
      </trkpt>
      <trkpt lat="48.231076" lon="10.736292">
        <ele>592.8</ele>
        <time>2026-03-22T14:22:08.259000Z</time>
      </trkpt>
      <trkpt lat="48.231584" lon="10.736693">
        <ele>591.9</ele>
        <time>2026-03-22T14:23:07.467000Z</time>
      </trkpt>
      <trkpt lat="48.231555" lon="10.736788">
        <ele>591.8</ele>
        <time>2026-03-22T14:23:14.629000Z</time>
      </trkpt>
      <trkpt lat="48.231551" lon="10.736901">
        <ele>591.7</ele>
        <time>2026-03-22T14:23:22.468000Z</time>
      </trkpt>
    </trkseg>
  </trk>
</gpx>