<?xml version="1.0" encoding="UTF-8"?>
<gpx xmlns="http://www.topografix.com/GPX/1/1" xmlns:xsi="http://www.w3.org/2001/XMLSchema-instance" xsi:schemaLocation="http://www.topografix.com/GPX/1/1 http://www.topografix.com/GPX/1/1/gpx.xsd" version="1.1" creator="Robert Kampf">
  <metadata>
    <name>Karersee – Blick auf den Karersee Runde von St. Zyprian</name>
    <desc>Distance: 12.449km, Estimated duration: 3.99h, Elevation up: 494.6564420233783m, Elevation down: 494.5013816597111m, Grade: moderate</desc>
    <author>
      <name>Robert Kampf</name>
      <link href="https://www.komoot.de/user/4125295338453">
        <text>View Robert Kampf's Profile on Komoot</text>
      </link>
    </author>
    <link href="https://www.komoot.de/tour/2500161419">
      <text>View tour on Komoot</text>
    </link>
  </metadata>
  <wpt lat="46.437706" lon="11.560595">
    <name>Hotel Rosengarten</name>
    <cmt></cmt>
    <desc></desc>
    <src>Komoot</src>
    <type>POI</type>
  </wpt>
  <wpt lat="46.41261" lon="11.57607">
    <ele>1560.1</ele>
    <name>Suspension Bridge over the Rio di Nova</name>
    <cmt>https://d2exd72xrrp1s7.cloudfront.net/www/000/1k5/zt/ztkm0evj2v1or5c4t6ch36mx3xlqpu2y-uhi42583879/0</cmt>
    <desc>🇨🇭Biker: Der Übergang ist ein ein echtes Erlebnis.
――――――――――
Davide Fioraso: Inaugurato nel 2018, questo nuovo ponte sulla gola del Rio di Nova garantisce un collegamento dell´area del Lago di Carezza (parking) con l´esistente sentiero n. 8, al di là della valle. Di fatto permette il collegamento di tutti i sentieri che si sviluppano verso il Passo Nigra e Passo Costalunga. In considerazione della notevole luce, nonché della sua struttura sospesa, lo stesso ponte funge da attrazione turistica.
――――――――――
ralf: Die Hängebrücke über die Schlucht verbindet den Karersee (über Parkplatz) mit dem Wandergebiet Rosengarten
――――――――――
Michael Cassamagnaghi: Bellissimo ponte tibetano molto semplice
――――――――――
Berlinnic: Selbst ein ängstlicher Hund schafft die Brücke zu überqueren.
――――――――――
Rafael: Hängebrücke über einen Bach kurz vor dem Karersee
――――――――――
Armin: Schöne Hängebrücke die etwas schaukelt 
――――――――――
Monja: Schöne Hängebrücke die den See mit dem Wandergebiet Rosengarten verbindet 
――――――――――
Ede: Tolle Hängebrücke, aber Hundefreunde aufgepasst: komplett Gitterrost - sehr Pfoten unfreundlich! Hab meinen Schäfi rübergetragen.. 🥵
――――――――――
Eckhard: Landschaftlich toll gelegen, Schöner Blick nach Welschnofen.
Die Brücke liegt etwas versteckt am hintersten Teil des Parkplatz am Karersee.
Von der anderen Seite hinter dem kleinen Turm den geschotterten Weg hinunterfahren.
――――――――――
oro96: Sehr geniale Brücke, die man am Besten von oben (also aus Richtung Moseralm) fährt. Bitte auf Wanderer achten. Cooles Erlebnis und vom Parkplatz aus bietet sich dann die Weiterfahrt zum Karersee via 10A weiter abwärts Richtung Welschnofen an.
――――――――――
Benedikt: m Herbst 2018 hat der Karersee eine neue Besucherattraktion bekommen: Eine Hängebrücke für Fußgänger, die die Wanderwege rund um den Karersee nun noch besser miteinander verbindet. Die Hängebrücke befindet sich am rechten Rand des Besucherparkplatzes (wenn man auf den Parkplatz fährt und den Karersee im Rücken hat). Bei der Hängebrücke handelt es sich um eine Spannbrandbrücke, die 58 Meter lang ist und eine Maximalhöhe von 18 Metern hat.
――――――――――
~ Luca ~: Ponte tibetano sovrastante gola con piccolo torrente
――――――――――
Henk.T.: Problemlos mit Rad fahrbar
――――――――――
Berlinnic: Das Gitter schafft auch der Hund.
――――――――――
francesca: Ponte sospeso che parte dal parcheggio del Lago di Carezza
――――――――――
Immer auf Reisen: Beeindruckende Brücke. Für alle Schwinderfreie.
――――――――――
Fabi: Schöne Hängebrücke auf dem Weg zum Karersee :)
――――――――――
Gipfelglück: Kommt überraschend in dieser Gegend, lustig.
――――――――――
Frederic F.: Auf die Fußgänger aufpassen. Am besten morgens oder abends.
――――――――――
Luchino ✌🏻: Ponte suggestivo da cui si gode di un'ottima vista. Per raggiungerlo si passa dal parcheggio del lago e si percorre  un sentiero sterrato. Poi si procedere secondo le indicazioni.
――――――――――
CDM: 👍👍👍👍👍👍👍👍👍👍👍👍👍
――――――――――
Hermann: schöner leichter weg die grüne strecke</desc>
    <src>Komoot</src>
    <link href="https://www.komoot.de/highlight/867450">
      <text>View POI on Komoot</text>
    </link>
    <type>Highlight</type>
  </wpt>
  <wpt lat="46.410223" lon="11.575583">
    <ele>1531.2</ele>
    <name>Lake Carezza (Karersee)</name>
    <cmt>https://d2exd72xrrp1s7.cloudfront.net/www/000/1k5/es/esfqsuz4lcy7j7rd1jbitabg3tbf4x11-uhi35937973/0</cmt>
    <desc>Holger: Am schönsten bei leichtem Sonnenschein und Windstille. Dann spiegelt sich das Latemarmassiv wunderschön im smaragdgrünen klaren Wasser des Sees.
――――――――――
Merle: Schitterend panorama op de streek rond Karer lake.
――――――――――
Pubbe: Absolut mystisch, wenn der See ganz glatt ist, super tolle smaragdgrüne Farbe bei Sonnenschein. Leider immer sehr voll.
――――――――――
Federico Bassis: Paesaggio da fiaba in questa strada che costeggia il lago
――――――――――
Magggus 86: Aussichtsplattform über den Karersee direkt nach dem Zugang vom Parkplatz mit Infotafeln
――――――――――
Jens Helmecke: Der See liegt in den westlichen Dolomiten im Latemarwald, knapp 20 Kilometer südöstlich von Bozen auf 1520 m Höhe im Gemeindegebiet Welschnofen. Die nächstgelegene Siedlung ist Karersee. Das rund 300 m lange und 140 m breite Gewässer wird von unterirdischen Quellen aus dem Latemargebirgszug gespeist. Tiefe und Größe des Sees sind merklich saison- und witterungsabhängig, die größte Tiefe wird mit etwa 22 m angegeben. Im Winter wird der See manchmal von Tauchern aufgesucht, die ihre Tauchgänge unter einer dicken Eisschicht durchführen und in Dokumentarfilmen das Unterwasser-Farbenspiel festhalten. Berühmt ist der kleine Bergsee vor allem für sein tiefgrünes Wasser und die sich über dem umgebenden Wald erhebende Bergkulisse mit der Latemargruppe im Süden und dem Rosengarten im Nordosten als Hintergrund. Um den See ranken sich viele Südtiroler Sagen, und zahlreiche Maler und Schriftsteller wählten das Motiv für ihre Gemälde oder Erzählungen.

Erreichbar ist der See über die Staatsstraße SS 241 (Eggentaler Staatsstraße – auch Dolomitenstraße genannt). Die vor allem im Sommer vielbefahrene Straße zum Karerpass führt in unmittelbarer Nähe am See vorbei. Der See ist umzäunt und seine Ufer dürfen nicht betreten werden.
――――――――――
High-voltages: Hier gilt eindeutig: „Der frühe Vogel fängt den Wurm“
Tagsüber werden hier massig Reisebusse ausgelehrt und damit die Ruhe aus der Idylle verdrängt.
――――――――――
Davide Fioraso: Dalla SS241 che collega Nova Levante a Vigo di Fassa si raggiunge il Centro Visitatori Karersee – Lago di Carezza. Ampio parcheggio a pagamento (1€/h). Dal parcheggio si seguono le indicazioni per il lago imboccando il sottopassaggio pedonale, il cui allestimento ha l’obiettivo di richiamare la storia e la mitologia della foresta del Latemar e di presentare le particolarità del legno che se ne ricava. Giunti alla piattaforma panoramica si può ammirare uno dei più bei laghi delle Dolomiti, circondato da splendidi boschi di abeti (o quel che ne rimane dopo il passaggio della tempesta Vaia). Nelle sue acque cristalline si specchia il massiccio del Latemar, il monte solitario, che trova il suo culmine nei 2.846 m di Cimon del Latemar. Il Lago di Carezza, alimentato da sorgenti sotterranee, sviluppa una larghezza di circa 300 m ed una profondità massima di 22 m che varia in base alla stagione e alle condizioni meteorologiche. I mesi migliori per visitarlo sono maggio, giugno e luglio, quando raggiunge la sua massima espansione. Negli altri mesi solitamente si riduce in modo significativo.
――――――――――
Andreas🇩🇪: Wunderschöner Ausblick in die Berge, das Wasser ist glasklar
――――――――――
🇨🇭Biker: Leider sieht es für die nächsten paar Jahre nicht mehr so schön aus. Der Sturm hat alles nieder gemacht, so schade!!
――――――――――
🇨🇭Biker: Viele Lücken durch die Sturmschäden
――――――――――
Sac: Wenn der Karersee austrocknen sollte, wäre das schade. Für mich der Farbintensivste See - toll
――――――――――
🇨🇭Biker: Leider etwas an Charme Verloren, da viele Bäume dem Sturm zu Opfer gefallen sind
――――――――――
🇨🇭Biker: War ein Schöner See. Ein Sturm hat sehr viel Bäume Umgehauen, leider
――――――――――
𝐺𝑖𝑙𝑏𝑒𝑟𝑡 &amp; 𝑆𝑖𝑚𝑜𝑛𝑒 🍁🍄: Ein faszinierender See. Extrem farbenfroh 👌
――――――――――
wittho1: Sehr schöner, glasklarer Bergsee, mit wunderschönen Blick auf Rosengarten und Latemar, aber leider sehr, sehr überlaufen - auch in Coronazeiten!
――――――――――
wittho1: Im ganzen Gebiet wird immer noch emsig an der Beseitigung der Sturmschäden gearbeitet.
Wahnsinn, welche Mengen an Bäumen dem Sturm zum Opfer gefallen sind 😥
――――――――――
wittho1: Schöner See, nette kleine Runde, allerdings sehr touristisch.
Der See wird wegen seiner vielen Farben auch als "Regenbogensee" bezeichnet 😉

Im ganzen Gebiet wird immer noch emsig an der Beseitigung der Sturmschäden gearbeitet.
Wahnsinn, welche Mengen an Bäumen dem Sturm zum Opfer gefallen sind 😥
――――――――――
Henry Schwan: Der See liegt unterhalb des Karerpasses auf einer Höhe von 1.519 Metern. Er ist Naturschutzgebiet und und komplett umzäunt. Zutritt direkt zum Ufer ist nicht möglich, aber es gibt einen Wanderweg um den See herum. Im Sommer 2022 hat sich der Wassermangel wieder sehr deutlich ausgewirkt, der Wasserstand lag nur noch bei knapp 7 Metern.
Trotzdem ist das Farbenspiel im Karersee noch zu bewundern und die aufragenden Türme des Latemar im Hintergrund sind sehr imposant. Wer möglichst einsam unterwegs sein möchte, sollte in der Nebensaison unter der Woche anreisen. Am besten ihr kommt zusätzlich morgens oder abends. So habt ihr ausreichend Zeit, die Naturschönheit zu fotografieren, ohne dass euch immer jemand vor die Linse rennt.
――――――――――
🌄🏔🥾Daniela 🤿🩴🫧: Wunderschöne Landschaft sehr schön zum wandern
――――――――――
Melli: Man sollte nicht am Wochenende oder amspäten Vormittag starten. Sehr überlaufen. Aber der See ist wunderschön. Es war im August 23 nur etwas wenig Wasser drin.
――――――――――
Antje 70: Türkisblauer See mit wechselnden Farben,  sehr romantisch. Nachmittags nicht mehr mit so vielen Touristen überlaufen.
――――――――――
Jörg: Ein kleiner Bergsee, in dem sich der Rosengarten und der Latemar spiegeln: der Karersee.
――――――――――
Michele Pelacci: Durante la salita verso il passo Costalunga, questo splendido lago alpino è perfetto per una sosta nel verde.</desc>
    <src>Komoot</src>
    <link href="https://www.komoot.de/highlight/261261">
      <text>View POI on Komoot</text>
    </link>
    <type>Highlight</type>
  </wpt>
  <wpt lat="46.408259" lon="11.573169">
    <ele>1535.3</ele>
    <name>View of Lake Carezza</name>
    <cmt>https://d2exd72xrrp1s7.cloudfront.net/www/000/1k6/h2/h22cceebaejvfnj83mlgevof4ckla2f3-uhi55519671/0</cmt>
    <desc>Chris 🚵🏽‍♀️⛷️🥾: Der kleine, aus unterirdischen Quellen des Latemar-Massivs gespeiste Karersee liegt auf etwa 1.500 m NN unterhalb des Karerpasses. Das geschützte Naturdenkmal ist ein Kleinod, dessen Uferbereiche nicht betreten werden dürfen. Der vom Parkplatz gut zu erreichende Rundwanderweg bietet herrliche Aussicht auf den See und die umliegende Bergwelt.
――――――――――
🌄🏔🥾Daniela 🤿🩴🫧: Wunderschöner See zum umwandern
――――――――――
Possi🙂+Wander Biene 🐝: Leider wird der See massiv vermarktet. Reisebusse und 2 hoch dimensionierte Parkplätze sorgen für Massentourismus. Andenkenshop, WC und  Unterführung sind aus massiven Stahlbeton errichtet. Passt nicht zur Naturidylle. 👎 Schade.
Der See, die Bäume und die herrliche Bergwelt sind aber schon klasse.
――――――――――
🌄🏔🥾Daniela 🤿🩴🫧: Durchgang vom Parkplatz zum See
――――――――――
Silke Jens: ☺️
――――――――――
Berginsicht: Tolles Ausflugsziel, doch mit Ruhe kann man hier nicht rechnen. Der See ist sehr gut besucht.
――――――――――
Gudi: Parkt man beim kostenpflichtigen Parkplatz am See zahlt man für 2 Stunden 4€. Durch den Tunnel geht es zum See und zu den Toiletten 😉

――――――――――
Ronny F 3333 🚵‍♀️🧗‍♂️: Am Karersee ist leider immer viel los. Aber mann kann hier gut Parken und viele verschiedene Wanderungen von hieraus starten.
――――――――――
Frank_S.: Ein wunderschöner Ort, der zum Verweilen einlädt!
――――――――――
Gudi: 
Südlich der Seiser Alm – der größten Hochalm Europas gelegen – ist das Rosengarten- und Latemargebiet ein beliebtes Urlaubsgebiet für Gäste aus nah und fern.
――――――――――
Armin: Wunderschöner kleiner See der über einen Tunnel erreichbar ist 
――――――――――
Armin: Einfacher rundweg mit immer wieder schöner Sicht auf den See
――――――――――
Armin: Schon witzig wenn man durch einen Tunnel zum See kommt , aber gleich der erste Blick ist wunderschön 
――――――――――
Monja: Wunderschöner kleiner See mit tollem Panorama 😎🤩 Schön zum Umrunden 
――――――――――
Monja: Einfach zu laufender Rundweg mit schönem Blick auf den See und die umliegenden Felsformationen 
――――――――――
Monja: Zugang zum See mit einigen Erklärungen 
――――――――――
Loris ⛷️🚵‍♀️🪵🌲: Parcheggio con tunnel direttamente sul lago di carezza molto comodo
――――――――――
Berginsicht: Vom Parkplatz kommt man hier direkt zum Karersee. In dem Tunnel gibt es noch Toiletten.
――――――――――
Jacqueline: Vroeg vertrekken met zon voor de mooiste foto's!
――――――――――
Ulrike: Der See liegt wie ein grünes Auge vor einem, umrahmt von hohen Fichten. Allerdings ist der Rundumbewuchs der Fichten spärlich da 2018 ein Sturm die Fichten vernichtet hat. So ist das Erlebnis sehr speziell und kärglich was den Fichtenbestand angeht.
Aber die Abendsonne bringt die Latemargruppe im Hintergrund zum Leuchten.
――――――――――
Tammy: Im Gegensatz zum See, welcher von Touristen nur so wimmelt ist auf den Wanderwegen außenrum fast nichts los. Toll für alle, die dem Trubel gerne aus dem Weg gehen. Tolle Landschaft und Tierwelt
――――――――――
Anja: Gemakkelijke wandeling
――――――――――
peterskomoot: = Gebirgskette
――――――――――
Martina Chiarato: da qui è possibile vedere il catinaccio e la nostra roda dal lago.</desc>
    <src>Komoot</src>
    <link href="https://www.komoot.de/highlight/3828796">
      <text>View POI on Komoot</text>
    </link>
    <type>Highlight</type>
  </wpt>
  <trk>
    <name>Karersee – Blick auf den Karersee Runde von St. Zyprian</name>
    <desc>Distance: 12.449km, Estimated duration: 3.99h, Elevation up: 494.6564420233783m, Elevation down: 494.5013816597111m, Grade: moderate</desc>
    <link href="https://www.komoot.de/tour/2500161419">
      <text>View tour on Komoot</text>
    </link>
    <trkseg>
      <trkpt lat="46.437728" lon="11.560597">
        <ele>1342.8</ele>
        <time>2025-08-16T16:48:36.172000Z</time>
      </trkpt>
      <trkpt lat="46.437731" lon="11.560511">
        <ele>1343.1</ele>
        <time>2025-08-16T16:48:43.087000Z</time>
      </trkpt>
      <trkpt lat="46.437774" lon="11.560496">
        <ele>1343.4</ele>
        <time>2025-08-16T16:48:48.470000Z</time>
      </trkpt>
      <trkpt lat="46.437841" lon="11.560559">
        <ele>1343.9</ele>
        <time>2025-08-16T16:48:58.096000Z</time>
      </trkpt>
      <trkpt lat="46.437877" lon="11.560662">
        <ele>1344.4</ele>
        <time>2025-08-16T16:49:07.837000Z</time>
      </trkpt>
      <trkpt lat="46.437903" lon="11.560849">
        <ele>1345.3</ele>
        <time>2025-08-16T16:49:24.069000Z</time>
      </trkpt>
      <trkpt lat="46.437875" lon="11.561136">
        <ele>1346.9</ele>
        <time>2025-08-16T16:49:49.348000Z</time>
      </trkpt>
      <trkpt lat="46.437907" lon="11.561398">
        <ele>1348.5</ele>
        <time>2025-08-16T16:50:13.407000Z</time>
      </trkpt>
      <trkpt lat="46.438219" lon="11.562378">
        <ele>1357.2</ele>
        <time>2025-08-16T16:51:57.769000Z</time>
      </trkpt>
      <trkpt lat="46.438334" lon="11.563194">
        <ele>1364.7</ele>
        <time>2025-08-16T16:53:24.081000Z</time>
      </trkpt>
      <trkpt lat="46.43834" lon="11.56354">
        <ele>1368.1</ele>
        <time>2025-08-16T16:54:02.265000Z</time>
      </trkpt>
      <trkpt lat="46.438329" lon="11.56359">
        <ele>1368.7</ele>
        <time>2025-08-16T16:54:08.354000Z</time>
      </trkpt>
      <trkpt lat="46.438308" lon="11.563682">
        <ele>1369.7</ele>
        <time>2025-08-16T16:54:19.239000Z</time>
      </trkpt>
      <trkpt lat="46.438227" lon="11.564029">
        <ele>1373.8</ele>
        <time>2025-08-16T16:55:02.502000Z</time>
      </trkpt>
      <trkpt lat="46.438139" lon="11.564257">
        <ele>1376.8</ele>
        <time>2025-08-16T16:55:34.084000Z</time>
      </trkpt>
      <trkpt lat="46.43795" lon="11.564904">
        <ele>1385.4</ele>
        <time>2025-08-16T16:57:02.484000Z</time>
      </trkpt>
      <trkpt lat="46.437877" lon="11.565733">
        <ele>1396.3</ele>
        <time>2025-08-16T16:58:51.167000Z</time>
      </trkpt>
      <trkpt lat="46.437907" lon="11.566232">
        <ele>1403.1</ele>
        <time>2025-08-16T16:59:57.984000Z</time>
      </trkpt>
      <trkpt lat="46.437988" lon="11.566855">
        <ele>1411.2</ele>
        <time>2025-08-16T17:01:20.162000Z</time>
      </trkpt>
      <trkpt lat="46.437976" lon="11.567459">
        <ele>1418.7</ele>
        <time>2025-08-16T17:02:36.136000Z</time>
      </trkpt>
      <trkpt lat="46.437993" lon="11.567582">
        <ele>1420.2</ele>
        <time>2025-08-16T17:02:51.673000Z</time>
      </trkpt>
      <trkpt lat="46.437944" lon="11.567857">
        <ele>1423.6</ele>
        <time>2025-08-16T17:03:26.682000Z</time>
      </trkpt>
      <trkpt lat="46.437923" lon="11.568252">
        <ele>1428.3</ele>
        <time>2025-08-16T17:04:15.266000Z</time>
      </trkpt>
      <trkpt lat="46.437929" lon="11.568625">
        <ele>1432.7</ele>
        <time>2025-08-16T17:05:01.118000Z</time>
      </trkpt>
      <trkpt lat="46.437958" lon="11.568826">
        <ele>1435.1</ele>
        <time>2025-08-16T17:05:26.368000Z</time>
      </trkpt>
      <trkpt lat="46.438103" lon="11.569274">
        <ele>1441</ele>
        <time>2025-08-16T17:06:27.464000Z</time>
      </trkpt>
      <trkpt lat="46.43817" lon="11.569997">
        <ele>1450.1</ele>
        <time>2025-08-16T17:08:00.022000Z</time>
      </trkpt>
      <trkpt lat="46.438275" lon="11.570764">
        <ele>1460.1</ele>
        <time>2025-08-16T17:09:40.276000Z</time>
      </trkpt>
      <trkpt lat="46.438257" lon="11.571008">
        <ele>1463.2</ele>
        <time>2025-08-16T17:10:11.836000Z</time>
      </trkpt>
      <trkpt lat="46.438016" lon="11.57222">
        <ele>1479.5</ele>
        <time>2025-08-16T17:12:55.741000Z</time>
      </trkpt>
      <trkpt lat="46.437908" lon="11.572489">
        <ele>1483.6</ele>
        <time>2025-08-16T17:13:36.398000Z</time>
      </trkpt>
      <trkpt lat="46.437588" lon="11.572882">
        <ele>1491.5</ele>
        <time>2025-08-16T17:14:55.525000Z</time>
      </trkpt>
      <trkpt lat="46.437388" lon="11.573089">
        <ele>1496.1</ele>
        <time>2025-08-16T17:15:41.806000Z</time>
      </trkpt>
      <trkpt lat="46.436845" lon="11.573495">
        <ele>1509.3</ele>
        <time>2025-08-16T17:17:47.502000Z</time>
      </trkpt>
      <trkpt lat="46.436687" lon="11.573673">
        <ele>1513.6</ele>
        <time>2025-08-16T17:18:28.882000Z</time>
      </trkpt>
      <trkpt lat="46.436514" lon="11.573954">
        <ele>1519.1</ele>
        <time>2025-08-16T17:19:21.828000Z</time>
      </trkpt>
      <trkpt lat="46.436401" lon="11.574195">
        <ele>1523.5</ele>
        <time>2025-08-16T17:20:03.257000Z</time>
      </trkpt>
      <trkpt lat="46.43601" lon="11.575616">
        <ele>1546.1</ele>
        <time>2025-08-16T17:23:39.307000Z</time>
      </trkpt>
      <trkpt lat="46.435788" lon="11.576108">
        <ele>1553.1</ele>
        <time>2025-08-16T17:24:51.916000Z</time>
      </trkpt>
      <trkpt lat="46.435661" lon="11.576494">
        <ele>1557.5</ele>
        <time>2025-08-16T17:25:40.151000Z</time>
      </trkpt>
      <trkpt lat="46.435643" lon="11.576706">
        <ele>1559.6</ele>
        <time>2025-08-16T17:26:03.516000Z</time>
      </trkpt>
      <trkpt lat="46.435665" lon="11.576969">
        <ele>1562.2</ele>
        <time>2025-08-16T17:26:32.213000Z</time>
      </trkpt>
      <trkpt lat="46.435774" lon="11.577554">
        <ele>1567.9</ele>
        <time>2025-08-16T17:27:36.790000Z</time>
      </trkpt>
      <trkpt lat="46.435887" lon="11.577746">
        <ele>1570.2</ele>
        <time>2025-08-16T17:28:03.438000Z</time>
      </trkpt>
      <trkpt lat="46.435815" lon="11.578206">
        <ele>1574.7</ele>
        <time>2025-08-16T17:28:53.920000Z</time>
      </trkpt>
      <trkpt lat="46.435545" lon="11.579346">
        <ele>1589.2</ele>
        <time>2025-08-16T17:31:23.014000Z</time>
      </trkpt>
      <trkpt lat="46.435394" lon="11.579472">
        <ele>1593</ele>
        <time>2025-08-16T17:31:59.097000Z</time>
      </trkpt>
      <trkpt lat="46.434651" lon="11.579769">
        <ele>1611.7</ele>
        <time>2025-08-16T17:34:50.807000Z</time>
      </trkpt>
      <trkpt lat="46.434529" lon="11.579631">
        <ele>1615.8</ele>
        <time>2025-08-16T17:35:27.076000Z</time>
      </trkpt>
      <trkpt lat="46.434226" lon="11.579605">
        <ele>1624.1</ele>
        <time>2025-08-16T17:36:39.634000Z</time>
      </trkpt>
      <trkpt lat="46.434058" lon="11.579463">
        <ele>1629.4</ele>
        <time>2025-08-16T17:37:26.438000Z</time>
      </trkpt>
      <trkpt lat="46.433867" lon="11.579365">
        <ele>1634.7</ele>
        <time>2025-08-16T17:38:13.997000Z</time>
      </trkpt>
      <trkpt lat="46.433488" lon="11.579425">
        <ele>1644.2</ele>
        <time>2025-08-16T17:39:39.786000Z</time>
      </trkpt>
      <trkpt lat="46.433377" lon="11.579508">
        <ele>1647.1</ele>
        <time>2025-08-16T17:40:06.881000Z</time>
      </trkpt>
      <trkpt lat="46.433082" lon="11.579431">
        <ele>1653.7</ele>
        <time>2025-08-16T17:41:09.317000Z</time>
      </trkpt>
      <trkpt lat="46.43271" lon="11.579436">
        <ele>1660.8</ele>
        <time>2025-08-16T17:42:20.236000Z</time>
      </trkpt>
      <trkpt lat="46.432564" lon="11.579648">
        <ele>1664.1</ele>
        <time>2025-08-16T17:42:55.832000Z</time>
      </trkpt>
      <trkpt lat="46.432388" lon="11.579805">
        <ele>1667</ele>
        <time>2025-08-16T17:43:28.050000Z</time>
      </trkpt>
      <trkpt lat="46.432204" lon="11.579587">
        <ele>1669.7</ele>
        <time>2025-08-16T17:44:01.040000Z</time>
      </trkpt>
      <trkpt lat="46.432026" lon="11.579446">
        <ele>1671.5</ele>
        <time>2025-08-16T17:44:27.479000Z</time>
      </trkpt>
      <trkpt lat="46.431862" lon="11.579021">
        <ele>1674</ele>
        <time>2025-08-16T17:45:09.415000Z</time>
      </trkpt>
      <trkpt lat="46.43177" lon="11.57871">
        <ele>1675.4</ele>
        <time>2025-08-16T17:45:37.470000Z</time>
      </trkpt>
      <trkpt lat="46.431639" lon="11.579775">
        <ele>1678.9</ele>
        <time>2025-08-16T17:47:04.473000Z</time>
      </trkpt>
      <trkpt lat="46.431709" lon="11.580296">
        <ele>1681</ele>
        <time>2025-08-16T17:47:48.095000Z</time>
      </trkpt>
      <trkpt lat="46.431683" lon="11.580402">
        <ele>1681.5</ele>
        <time>2025-08-16T17:47:57.573000Z</time>
      </trkpt>
      <trkpt lat="46.431543" lon="11.580637">
        <ele>1683.1</ele>
        <time>2025-08-16T17:48:24.478000Z</time>
      </trkpt>
      <trkpt lat="46.431462" lon="11.580885">
        <ele>1684.7</ele>
        <time>2025-08-16T17:48:48.881000Z</time>
      </trkpt>
      <trkpt lat="46.431552" lon="11.581273">
        <ele>1687.4</ele>
        <time>2025-08-16T17:49:26.109000Z</time>
      </trkpt>
      <trkpt lat="46.431516" lon="11.581673">
        <ele>1690.3</ele>
        <time>2025-08-16T17:50:03.880000Z</time>
      </trkpt>
      <trkpt lat="46.431381" lon="11.582045">
        <ele>1693.6</ele>
        <time>2025-08-16T17:50:43.884000Z</time>
      </trkpt>
      <trkpt lat="46.431246" lon="11.582147">
        <ele>1695.3</ele>
        <time>2025-08-16T17:51:04.578000Z</time>
      </trkpt>
      <trkpt lat="46.431095" lon="11.582226">
        <ele>1696.8</ele>
        <time>2025-08-16T17:51:25.989000Z</time>
      </trkpt>
      <trkpt lat="46.430929" lon="11.582592">
        <ele>1699.4</ele>
        <time>2025-08-16T17:52:04.690000Z</time>
      </trkpt>
      <trkpt lat="46.430683" lon="11.583028">
        <ele>1701.5</ele>
        <time>2025-08-16T17:52:50.881000Z</time>
      </trkpt>
      <trkpt lat="46.430667" lon="11.583129">
        <ele>1701.8</ele>
        <time>2025-08-16T17:52:58.974000Z</time>
      </trkpt>
      <trkpt lat="46.430203" lon="11.58296">
        <ele>1702.1</ele>
        <time>2025-08-16T17:53:48.245000Z</time>
      </trkpt>
      <trkpt lat="46.430048" lon="11.582799">
        <ele>1701.7</ele>
        <time>2025-08-16T17:54:08.276000Z</time>
      </trkpt>
      <trkpt lat="46.428055" lon="11.57964">
        <ele>1680.7</ele>
        <time>2025-08-16T17:59:45.772000Z</time>
      </trkpt>
      <trkpt lat="46.427452" lon="11.580606">
        <ele>1673.9</ele>
        <time>2025-08-16T18:01:29.128000Z</time>
      </trkpt>
      <trkpt lat="46.427336" lon="11.580756">
        <ele>1672.6</ele>
        <time>2025-08-16T18:01:47.312000Z</time>
      </trkpt>
      <trkpt lat="46.427055" lon="11.580911">
        <ele>1670</ele>
        <time>2025-08-16T18:02:22.664000Z</time>
      </trkpt>
      <trkpt lat="46.426719" lon="11.581338">
        <ele>1665.6</ele>
        <time>2025-08-16T18:03:16.005000Z</time>
      </trkpt>
      <trkpt lat="46.426518" lon="11.581997">
        <ele>1659.9</ele>
        <time>2025-08-16T18:04:16.819000Z</time>
      </trkpt>
      <trkpt lat="46.426528" lon="11.582252">
        <ele>1657.7</ele>
        <time>2025-08-16T18:04:38.679000Z</time>
      </trkpt>
      <trkpt lat="46.426497" lon="11.582386">
        <ele>1656.4</ele>
        <time>2025-08-16T18:04:50.794000Z</time>
      </trkpt>
      <trkpt lat="46.426309" lon="11.582704">
        <ele>1652.7</ele>
        <time>2025-08-16T18:05:27.036000Z</time>
      </trkpt>
      <trkpt lat="46.426055" lon="11.582833">
        <ele>1649</ele>
        <time>2025-08-16T18:06:00.940000Z</time>
      </trkpt>
      <trkpt lat="46.425883" lon="11.583006">
        <ele>1646.2</ele>
        <time>2025-08-16T18:06:27.417000Z</time>
      </trkpt>
      <trkpt lat="46.425709" lon="11.583463">
        <ele>1641.6</ele>
        <time>2025-08-16T18:07:12.371000Z</time>
      </trkpt>
      <trkpt lat="46.425582" lon="11.584133">
        <ele>1636</ele>
        <time>2025-08-16T18:08:11.127000Z</time>
      </trkpt>
      <trkpt lat="46.425541" lon="11.584202">
        <ele>1635.3</ele>
        <time>2025-08-16T18:08:18.725000Z</time>
      </trkpt>
      <trkpt lat="46.425487" lon="11.584231">
        <ele>1634.7</ele>
        <time>2025-08-16T18:08:25.726000Z</time>
      </trkpt>
      <trkpt lat="46.425393" lon="11.584252">
        <ele>1633.8</ele>
        <time>2025-08-16T18:08:37.035000Z</time>
      </trkpt>
      <trkpt lat="46.425272" lon="11.584175">
        <ele>1632.5</ele>
        <time>2025-08-16T18:08:52.838000Z</time>
      </trkpt>
      <trkpt lat="46.42514" lon="11.583657">
        <ele>1628.8</ele>
        <time>2025-08-16T18:09:38.185000Z</time>
      </trkpt>
      <trkpt lat="46.425122" lon="11.583391">
        <ele>1626.9</ele>
        <time>2025-08-16T18:10:00.329000Z</time>
      </trkpt>
      <trkpt lat="46.425072" lon="11.583356">
        <ele>1626.4</ele>
        <time>2025-08-16T18:10:06.931000Z</time>
      </trkpt>
      <trkpt lat="46.425036" lon="11.583379">
        <ele>1626</ele>
        <time>2025-08-16T18:10:11.681000Z</time>
      </trkpt>
      <trkpt lat="46.425017" lon="11.583452">
        <ele>1625.4</ele>
        <time>2025-08-16T18:10:18.246000Z</time>
      </trkpt>
      <trkpt lat="46.425016" lon="11.583783">
        <ele>1623</ele>
        <time>2025-08-16T18:10:45.840000Z</time>
      </trkpt>
      <trkpt lat="46.424889" lon="11.584439">
        <ele>1618.5</ele>
        <time>2025-08-16T18:11:41.621000Z</time>
      </trkpt>
      <trkpt lat="46.424818" lon="11.585135">
        <ele>1613.9</ele>
        <time>2025-08-16T18:12:39.175000Z</time>
      </trkpt>
      <trkpt lat="46.424813" lon="11.585271">
        <ele>1613</ele>
        <time>2025-08-16T18:12:50.426000Z</time>
      </trkpt>
      <trkpt lat="46.424855" lon="11.585399">
        <ele>1612</ele>
        <time>2025-08-16T18:13:02.069000Z</time>
      </trkpt>
      <trkpt lat="46.425098" lon="11.585555">
        <ele>1609.6</ele>
        <time>2025-08-16T18:13:33.518000Z</time>
      </trkpt>
      <trkpt lat="46.425321" lon="11.585579">
        <ele>1607.8</ele>
        <time>2025-08-16T18:13:59.498000Z</time>
      </trkpt>
      <trkpt lat="46.425362" lon="11.585635">
        <ele>1607.4</ele>
        <time>2025-08-16T18:14:05.805000Z</time>
      </trkpt>
      <trkpt lat="46.425338" lon="11.585716">
        <ele>1607.1</ele>
        <time>2025-08-16T18:14:12.606000Z</time>
      </trkpt>
      <trkpt lat="46.425057" lon="11.585679">
        <ele>1606</ele>
        <time>2025-08-16T18:14:43.107000Z</time>
      </trkpt>
      <trkpt lat="46.424772" lon="11.585743">
        <ele>1605.8</ele>
        <time>2025-08-16T18:15:12.334000Z</time>
      </trkpt>
      <trkpt lat="46.424605" lon="11.58565">
        <ele>1605.8</ele>
        <time>2025-08-16T18:15:30.271000Z</time>
      </trkpt>
      <trkpt lat="46.424517" lon="11.585404">
        <ele>1605.6</ele>
        <time>2025-08-16T18:15:49.691000Z</time>
      </trkpt>
      <trkpt lat="46.424485" lon="11.58495">
        <ele>1605.4</ele>
        <time>2025-08-16T18:16:21.694000Z</time>
      </trkpt>
      <trkpt lat="46.424407" lon="11.58466">
        <ele>1605.1</ele>
        <time>2025-08-16T18:16:43.848000Z</time>
      </trkpt>
      <trkpt lat="46.424323" lon="11.584597">
        <ele>1604.9</ele>
        <time>2025-08-16T18:16:53.695000Z</time>
      </trkpt>
      <trkpt lat="46.424266" lon="11.584589">
        <ele>1604.8</ele>
        <time>2025-08-16T18:16:59.679000Z</time>
      </trkpt>
      <trkpt lat="46.424181" lon="11.584777">
        <ele>1604.4</ele>
        <time>2025-08-16T18:17:15.960000Z</time>
      </trkpt>
      <trkpt lat="46.423821" lon="11.584934">
        <ele>1603</ele>
        <time>2025-08-16T18:17:56.359000Z</time>
      </trkpt>
      <trkpt lat="46.423313" lon="11.585453">
        <ele>1598.6</ele>
        <time>2025-08-16T18:19:07.298000Z</time>
      </trkpt>
      <trkpt lat="46.422469" lon="11.58587">
        <ele>1590.9</ele>
        <time>2025-08-16T18:20:51.846000Z</time>
      </trkpt>
      <trkpt lat="46.422254" lon="11.585842">
        <ele>1588.8</ele>
        <time>2025-08-16T18:21:17.482000Z</time>
      </trkpt>
      <trkpt lat="46.422187" lon="11.585851">
        <ele>1588.2</ele>
        <time>2025-08-16T18:21:25.519000Z</time>
      </trkpt>
      <trkpt lat="46.42209" lon="11.585864">
        <ele>1587.3</ele>
        <time>2025-08-16T18:21:37.032000Z</time>
      </trkpt>
      <trkpt lat="46.421629" lon="11.586097">
        <ele>1583</ele>
        <time>2025-08-16T18:22:34.322000Z</time>
      </trkpt>
      <trkpt lat="46.421289" lon="11.586189">
        <ele>1580.1</ele>
        <time>2025-08-16T18:23:14.738000Z</time>
      </trkpt>
      <trkpt lat="46.421002" lon="11.586173">
        <ele>1577.5</ele>
        <time>2025-08-16T18:23:48.684000Z</time>
      </trkpt>
      <trkpt lat="46.420723" lon="11.586232">
        <ele>1574.6</ele>
        <time>2025-08-16T18:24:22.510000Z</time>
      </trkpt>
      <trkpt lat="46.420558" lon="11.586106">
        <ele>1572.5</ele>
        <time>2025-08-16T18:24:45.316000Z</time>
      </trkpt>
      <trkpt lat="46.420429" lon="11.586106">
        <ele>1571</ele>
        <time>2025-08-16T18:25:01.176000Z</time>
      </trkpt>
      <trkpt lat="46.420243" lon="11.585828">
        <ele>1568.3</ele>
        <time>2025-08-16T18:25:33.248000Z</time>
      </trkpt>
      <trkpt lat="46.419633" lon="11.584753">
        <ele>1559</ele>
        <time>2025-08-16T18:27:27.640000Z</time>
      </trkpt>
      <trkpt lat="46.418974" lon="11.583969">
        <ele>1550.8</ele>
        <time>2025-08-16T18:29:09.016000Z</time>
      </trkpt>
      <trkpt lat="46.418877" lon="11.583671">
        <ele>1549</ele>
        <time>2025-08-16T18:29:35.400000Z</time>
      </trkpt>
      <trkpt lat="46.418657" lon="11.583251">
        <ele>1546.4</ele>
        <time>2025-08-16T18:30:17.106000Z</time>
      </trkpt>
      <trkpt lat="46.418595" lon="11.583256">
        <ele>1546</ele>
        <time>2025-08-16T18:30:24.023000Z</time>
      </trkpt>
      <trkpt lat="46.4185" lon="11.583302">
        <ele>1545.6</ele>
        <time>2025-08-16T18:30:34.918000Z</time>
      </trkpt>
      <trkpt lat="46.418396" lon="11.583306">
        <ele>1545.2</ele>
        <time>2025-08-16T18:30:46.077000Z</time>
      </trkpt>
      <trkpt lat="46.418123" lon="11.583399">
        <ele>1545</ele>
        <time>2025-08-16T18:31:14.489000Z</time>
      </trkpt>
      <trkpt lat="46.41804" lon="11.583295">
        <ele>1545.2</ele>
        <time>2025-08-16T18:31:26.003000Z</time>
      </trkpt>
      <trkpt lat="46.417944" lon="11.583037">
        <ele>1545.4</ele>
        <time>2025-08-16T18:31:46.932000Z</time>
      </trkpt>
      <trkpt lat="46.417754" lon="11.583389">
        <ele>1545.9</ele>
        <time>2025-08-16T18:32:19.656000Z</time>
      </trkpt>
      <trkpt lat="46.417635" lon="11.583567">
        <ele>1546.4</ele>
        <time>2025-08-16T18:32:38.240000Z</time>
      </trkpt>
      <trkpt lat="46.417561" lon="11.58361">
        <ele>1546.6</ele>
        <time>2025-08-16T18:32:47.175000Z</time>
      </trkpt>
      <trkpt lat="46.417417" lon="11.583566">
        <ele>1547</ele>
        <time>2025-08-16T18:33:03.190000Z</time>
      </trkpt>
      <trkpt lat="46.417276" lon="11.583417">
        <ele>1547.3</ele>
        <time>2025-08-16T18:33:21.800000Z</time>
      </trkpt>
      <trkpt lat="46.416993" lon="11.582692">
        <ele>1548.9</ele>
        <time>2025-08-16T18:34:24.689000Z</time>
      </trkpt>
      <trkpt lat="46.416612" lon="11.581901">
        <ele>1548.8</ele>
        <time>2025-08-16T18:35:31.413000Z</time>
      </trkpt>
      <trkpt lat="46.416154" lon="11.581266">
        <ele>1547.4</ele>
        <time>2025-08-16T18:36:37.834000Z</time>
      </trkpt>
      <trkpt lat="46.415664" lon="11.580426">
        <ele>1547.9</ele>
        <time>2025-08-16T18:37:55.469000Z</time>
      </trkpt>
      <trkpt lat="46.415394" lon="11.58012">
        <ele>1549.6</ele>
        <time>2025-08-16T18:38:35.776000Z</time>
      </trkpt>
      <trkpt lat="46.415339" lon="11.580015">
        <ele>1550.2</ele>
        <time>2025-08-16T18:38:46.838000Z</time>
      </trkpt>
      <trkpt lat="46.414991" lon="11.579769">
        <ele>1553.5</ele>
        <time>2025-08-16T18:39:36.882000Z</time>
      </trkpt>
      <trkpt lat="46.414864" lon="11.579647">
        <ele>1555.2</ele>
        <time>2025-08-16T18:39:57.838000Z</time>
      </trkpt>
      <trkpt lat="46.414534" lon="11.5795">
        <ele>1559.3</ele>
        <time>2025-08-16T18:40:46.396000Z</time>
      </trkpt>
      <trkpt lat="46.414233" lon="11.578538">
        <ele>1567.2</ele>
        <time>2025-08-16T18:42:25.526000Z</time>
      </trkpt>
      <trkpt lat="46.414177" lon="11.577378">
        <ele>1566.2</ele>
        <time>2025-08-16T18:43:47.820000Z</time>
      </trkpt>
      <trkpt lat="46.414188" lon="11.577206">
        <ele>1565</ele>
        <time>2025-08-16T18:44:02.032000Z</time>
      </trkpt>
      <trkpt lat="46.414153" lon="11.57706">
        <ele>1563.7</ele>
        <time>2025-08-16T18:44:15.133000Z</time>
      </trkpt>
      <trkpt lat="46.414174" lon="11.576702">
        <ele>1560.7</ele>
        <time>2025-08-16T18:44:45.766000Z</time>
      </trkpt>
      <trkpt lat="46.414156" lon="11.576352">
        <ele>1557.9</ele>
        <time>2025-08-16T18:45:15.548000Z</time>
      </trkpt>
      <trkpt lat="46.414231" lon="11.575845">
        <ele>1554.1</ele>
        <time>2025-08-16T18:45:58.756000Z</time>
      </trkpt>
      <trkpt lat="46.414083" lon="11.575672">
        <ele>1552.3</ele>
        <time>2025-08-16T18:46:21.447000Z</time>
      </trkpt>
      <trkpt lat="46.414049" lon="11.575663">
        <ele>1552</ele>
        <time>2025-08-16T18:46:25.443000Z</time>
      </trkpt>
      <trkpt lat="46.413955" lon="11.575681">
        <ele>1551.2</ele>
        <time>2025-08-16T18:46:36.506000Z</time>
      </trkpt>
      <trkpt lat="46.413083" lon="11.576193">
        <ele>1548.5</ele>
        <time>2025-08-16T18:48:16.357000Z</time>
      </trkpt>
      <trkpt lat="46.413042" lon="11.576191">
        <ele>1548.6</ele>
        <time>2025-08-16T18:48:20.795000Z</time>
      </trkpt>
      <trkpt lat="46.413028" lon="11.576191">
        <ele>1548.6</ele>
        <time>2025-08-16T18:48:22.327000Z</time>
      </trkpt>
      <trkpt lat="46.413017" lon="11.576189">
        <ele>1548.6</ele>
        <time>2025-08-16T18:48:23.569000Z</time>
      </trkpt>
      <trkpt lat="46.412618" lon="11.576028">
        <ele>1550</ele>
        <time>2025-08-16T18:49:09.739000Z</time>
      </trkpt>
      <trkpt lat="46.412461" lon="11.575965">
        <ele>1550.5</ele>
        <time>2025-08-16T18:49:27.999000Z</time>
      </trkpt>
      <trkpt lat="46.412333" lon="11.575953">
        <ele>1551.1</ele>
        <time>2025-08-16T18:49:42.699000Z</time>
      </trkpt>
      <trkpt lat="46.4122" lon="11.575962">
        <ele>1551.6</ele>
        <time>2025-08-16T18:49:57.965000Z</time>
      </trkpt>
      <trkpt lat="46.412134" lon="11.5758">
        <ele>1552.2</ele>
        <time>2025-08-16T18:50:12.820000Z</time>
      </trkpt>
      <trkpt lat="46.412126" lon="11.575728">
        <ele>1552.4</ele>
        <time>2025-08-16T18:50:18.535000Z</time>
      </trkpt>
      <trkpt lat="46.412073" lon="11.575518">
        <ele>1553</ele>
        <time>2025-08-16T18:50:36.072000Z</time>
      </trkpt>
      <trkpt lat="46.411981" lon="11.575394">
        <ele>1553.4</ele>
        <time>2025-08-16T18:50:50.184000Z</time>
      </trkpt>
      <trkpt lat="46.411865" lon="11.575273">
        <ele>1553.8</ele>
        <time>2025-08-16T18:51:05.864000Z</time>
      </trkpt>
      <trkpt lat="46.411678" lon="11.575155">
        <ele>1554.1</ele>
        <time>2025-08-16T18:51:27.162000Z</time>
      </trkpt>
      <trkpt lat="46.411642" lon="11.575151">
        <ele>1554.1</ele>
        <time>2025-08-16T18:51:30.947000Z</time>
      </trkpt>
      <trkpt lat="46.411609" lon="11.575252">
        <ele>1554</ele>
        <time>2025-08-16T18:51:38.851000Z</time>
      </trkpt>
      <trkpt lat="46.411544" lon="11.575234">
        <ele>1553.9</ele>
        <time>2025-08-16T18:51:45.752000Z</time>
      </trkpt>
      <trkpt lat="46.411182" lon="11.575356">
        <ele>1552.1</ele>
        <time>2025-08-16T18:52:26.573000Z</time>
      </trkpt>
      <trkpt lat="46.411118" lon="11.575348">
        <ele>1551.7</ele>
        <time>2025-08-16T18:52:33.809000Z</time>
      </trkpt>
      <trkpt lat="46.411067" lon="11.57539">
        <ele>1551.4</ele>
        <time>2025-08-16T18:52:40.335000Z</time>
      </trkpt>
      <trkpt lat="46.410823" lon="11.575584">
        <ele>1550</ele>
        <time>2025-08-16T18:53:10.954000Z</time>
      </trkpt>
      <trkpt lat="46.410387" lon="11.575819">
        <ele>1546.2</ele>
        <time>2025-08-16T18:54:05.065000Z</time>
      </trkpt>
      <trkpt lat="46.410316" lon="11.575851">
        <ele>1545.4</ele>
        <time>2025-08-16T18:54:14.105000Z</time>
      </trkpt>
      <trkpt lat="46.410325" lon="11.575918">
        <ele>1545</ele>
        <time>2025-08-16T18:54:19.597000Z</time>
      </trkpt>
      <trkpt lat="46.410185" lon="11.575984">
        <ele>1543.5</ele>
        <time>2025-08-16T18:54:37.305000Z</time>
      </trkpt>
      <trkpt lat="46.410187" lon="11.575898">
        <ele>1542.9</ele>
        <time>2025-08-16T18:54:44.519000Z</time>
      </trkpt>
      <trkpt lat="46.410185" lon="11.575984">
        <ele>1542.2</ele>
        <time>2025-08-16T18:54:51.743000Z</time>
      </trkpt>
      <trkpt lat="46.410325" lon="11.575918">
        <ele>1540.7</ele>
        <time>2025-08-16T18:55:09.331000Z</time>
      </trkpt>
      <trkpt lat="46.410316" lon="11.575851">
        <ele>1540.4</ele>
        <time>2025-08-16T18:55:14.773000Z</time>
      </trkpt>
      <trkpt lat="46.410244" lon="11.575841">
        <ele>1539.6</ele>
        <time>2025-08-16T18:55:23.452000Z</time>
      </trkpt>
      <trkpt lat="46.410222" lon="11.575734">
        <ele>1539</ele>
        <time>2025-08-16T18:55:32.364000Z</time>
      </trkpt>
      <trkpt lat="46.410229" lon="11.575586">
        <ele>1538.2</ele>
        <time>2025-08-16T18:55:44.319000Z</time>
      </trkpt>
      <trkpt lat="46.410226" lon="11.57558">
        <ele>1538.1</ele>
        <time>2025-08-16T18:55:44.884000Z</time>
      </trkpt>
      <trkpt lat="46.410136" lon="11.575352">
        <ele>1537.1</ele>
        <time>2025-08-16T18:56:05.111000Z</time>
      </trkpt>
      <trkpt lat="46.409977" lon="11.574826">
        <ele>1536.4</ele>
        <time>2025-08-16T18:56:46.157000Z</time>
      </trkpt>
      <trkpt lat="46.409958" lon="11.574789">
        <ele>1536.4</ele>
        <time>2025-08-16T18:56:49.517000Z</time>
      </trkpt>
      <trkpt lat="46.409792" lon="11.574478">
        <ele>1536.7</ele>
        <time>2025-08-16T18:57:17.697000Z</time>
      </trkpt>
      <trkpt lat="46.409734" lon="11.574322">
        <ele>1537</ele>
        <time>2025-08-16T18:57:30.966000Z</time>
      </trkpt>
      <trkpt lat="46.409638" lon="11.574212">
        <ele>1537.6</ele>
        <time>2025-08-16T18:57:45.326000Z</time>
      </trkpt>
      <trkpt lat="46.409567" lon="11.574043">
        <ele>1538.6</ele>
        <time>2025-08-16T18:58:02.409000Z</time>
      </trkpt>
      <trkpt lat="46.409336" lon="11.573814">
        <ele>1541</ele>
        <time>2025-08-16T18:58:38.468000Z</time>
      </trkpt>
      <trkpt lat="46.409228" lon="11.573607">
        <ele>1542.7</ele>
        <time>2025-08-16T18:59:01.869000Z</time>
      </trkpt>
      <trkpt lat="46.40915" lon="11.573384">
        <ele>1544.3</ele>
        <time>2025-08-16T18:59:24.621000Z</time>
      </trkpt>
      <trkpt lat="46.409115" lon="11.573149">
        <ele>1545.9</ele>
        <time>2025-08-16T18:59:46.629000Z</time>
      </trkpt>
      <trkpt lat="46.409118" lon="11.572987">
        <ele>1547</ele>
        <time>2025-08-16T19:00:01.475000Z</time>
      </trkpt>
      <trkpt lat="46.409175" lon="11.572723">
        <ele>1548.8</ele>
        <time>2025-08-16T19:00:26.637000Z</time>
      </trkpt>
      <trkpt lat="46.409111" lon="11.57279">
        <ele>1549.5</ele>
        <time>2025-08-16T19:00:37.070000Z</time>
      </trkpt>
      <trkpt lat="46.408668" lon="11.572894">
        <ele>1552.9</ele>
        <time>2025-08-16T19:01:33.429000Z</time>
      </trkpt>
      <trkpt lat="46.40842" lon="11.573049">
        <ele>1553.9</ele>
        <time>2025-08-16T19:02:04.013000Z</time>
      </trkpt>
      <trkpt lat="46.408371" lon="11.57308">
        <ele>1554</ele>
        <time>2025-08-16T19:02:09.754000Z</time>
      </trkpt>
      <trkpt lat="46.40827" lon="11.57319">
        <ele>1554</ele>
        <time>2025-08-16T19:02:22.487000Z</time>
      </trkpt>
      <trkpt lat="46.408201" lon="11.573265">
        <ele>1553.8</ele>
        <time>2025-08-16T19:02:31.393000Z</time>
      </trkpt>
      <trkpt lat="46.408104" lon="11.573424">
        <ele>1553.3</ele>
        <time>2025-08-16T19:02:47.149000Z</time>
      </trkpt>
      <trkpt lat="46.408059" lon="11.573564">
        <ele>1552.9</ele>
        <time>2025-08-16T19:02:58.587000Z</time>
      </trkpt>
      <trkpt lat="46.408022" lon="11.574004">
        <ele>1551.6</ele>
        <time>2025-08-16T19:03:31.901000Z</time>
      </trkpt>
      <trkpt lat="46.408041" lon="11.57424">
        <ele>1550.6</ele>
        <time>2025-08-16T19:03:50.237000Z</time>
      </trkpt>
      <trkpt lat="46.40823" lon="11.574573">
        <ele>1549</ele>
        <time>2025-08-16T19:04:23.228000Z</time>
      </trkpt>
      <trkpt lat="46.408226" lon="11.574921">
        <ele>1547.8</ele>
        <time>2025-08-16T19:04:49.582000Z</time>
      </trkpt>
      <trkpt lat="46.408179" lon="11.575142">
        <ele>1547.1</ele>
        <time>2025-08-16T19:05:07.046000Z</time>
      </trkpt>
      <trkpt lat="46.408189" lon="11.575242">
        <ele>1546.8</ele>
        <time>2025-08-16T19:05:14.707000Z</time>
      </trkpt>
      <trkpt lat="46.408231" lon="11.575302">
        <ele>1546.6</ele>
        <time>2025-08-16T19:05:21.038000Z</time>
      </trkpt>
      <trkpt lat="46.408317" lon="11.575475">
        <ele>1546</ele>
        <time>2025-08-16T19:05:36.815000Z</time>
      </trkpt>
      <trkpt lat="46.408369" lon="11.575386">
        <ele>1545.7</ele>
        <time>2025-08-16T19:05:45.460000Z</time>
      </trkpt>
      <trkpt lat="46.408387" lon="11.575378">
        <ele>1545.7</ele>
        <time>2025-08-16T19:05:47.462000Z</time>
      </trkpt>
      <trkpt lat="46.408369" lon="11.575386">
        <ele>1545.6</ele>
        <time>2025-08-16T19:05:49.415000Z</time>
      </trkpt>
      <trkpt lat="46.408317" lon="11.575475">
        <ele>1545.4</ele>
        <time>2025-08-16T19:05:57.899000Z</time>
      </trkpt>
      <trkpt lat="46.408444" lon="11.576197">
        <ele>1544.8</ele>
        <time>2025-08-16T19:06:50.566000Z</time>
      </trkpt>
      <trkpt lat="46.408549" lon="11.576306">
        <ele>1544.8</ele>
        <time>2025-08-16T19:07:03.513000Z</time>
      </trkpt>
      <trkpt lat="46.408738" lon="11.576329">
        <ele>1544.8</ele>
        <time>2025-08-16T19:07:22.541000Z</time>
      </trkpt>
      <trkpt lat="46.408882" lon="11.576251">
        <ele>1544.9</ele>
        <time>2025-08-16T19:07:38.144000Z</time>
      </trkpt>
      <trkpt lat="46.409077" lon="11.576323">
        <ele>1545</ele>
        <time>2025-08-16T19:07:58.603000Z</time>
      </trkpt>
      <trkpt lat="46.408915" lon="11.57677">
        <ele>1544.9</ele>
        <time>2025-08-16T19:08:33.669000Z</time>
      </trkpt>
      <trkpt lat="46.408909" lon="11.57692">
        <ele>1544.8</ele>
        <time>2025-08-16T19:08:44.309000Z</time>
      </trkpt>
      <trkpt lat="46.409086" lon="11.577156">
        <ele>1544.5</ele>
        <time>2025-08-16T19:09:08.920000Z</time>
      </trkpt>
      <trkpt lat="46.409328" lon="11.577393">
        <ele>1544</ele>
        <time>2025-08-16T19:09:39.077000Z</time>
      </trkpt>
      <trkpt lat="46.409459" lon="11.577352">
        <ele>1543.9</ele>
        <time>2025-08-16T19:09:52.811000Z</time>
      </trkpt>
      <trkpt lat="46.409684" lon="11.577143">
        <ele>1543.6</ele>
        <time>2025-08-16T19:10:20.174000Z</time>
      </trkpt>
      <trkpt lat="46.4098" lon="11.576973">
        <ele>1543.3</ele>
        <time>2025-08-16T19:10:37.181000Z</time>
      </trkpt>
      <trkpt lat="46.409919" lon="11.576861">
        <ele>1543.3</ele>
        <time>2025-08-16T19:10:51.437000Z</time>
      </trkpt>
      <trkpt lat="46.410181" lon="11.576749">
        <ele>1544</ele>
        <time>2025-08-16T19:11:21.186000Z</time>
      </trkpt>
      <trkpt lat="46.410229" lon="11.576633">
        <ele>1544.4</ele>
        <time>2025-08-16T19:11:32.042000Z</time>
      </trkpt>
      <trkpt lat="46.410325" lon="11.575918">
        <ele>1547.4</ele>
        <time>2025-08-16T19:12:32.387000Z</time>
      </trkpt>
      <trkpt lat="46.410316" lon="11.575851">
        <ele>1547.6</ele>
        <time>2025-08-16T19:12:37.950000Z</time>
      </trkpt>
      <trkpt lat="46.410387" lon="11.575819">
        <ele>1548.1</ele>
        <time>2025-08-16T19:12:47.157000Z</time>
      </trkpt>
      <trkpt lat="46.410823" lon="11.575584">
        <ele>1550.6</ele>
        <time>2025-08-16T19:13:42.267000Z</time>
      </trkpt>
      <trkpt lat="46.411067" lon="11.57539">
        <ele>1551.8</ele>
        <time>2025-08-16T19:14:14.214000Z</time>
      </trkpt>
      <trkpt lat="46.411118" lon="11.575348">
        <ele>1552</ele>
        <time>2025-08-16T19:14:20.855000Z</time>
      </trkpt>
      <trkpt lat="46.411182" lon="11.575356">
        <ele>1552.3</ele>
        <time>2025-08-16T19:14:28.252000Z</time>
      </trkpt>
      <trkpt lat="46.411544" lon="11.575234">
        <ele>1553.9</ele>
        <time>2025-08-16T19:15:11.134000Z</time>
      </trkpt>
      <trkpt lat="46.411609" lon="11.575252">
        <ele>1554</ele>
        <time>2025-08-16T19:15:18.172000Z</time>
      </trkpt>
      <trkpt lat="46.411642" lon="11.575151">
        <ele>1554.1</ele>
        <time>2025-08-16T19:15:26.216000Z</time>
      </trkpt>
      <trkpt lat="46.411678" lon="11.575155">
        <ele>1554.1</ele>
        <time>2025-08-16T19:15:29.930000Z</time>
      </trkpt>
      <trkpt lat="46.411865" lon="11.575273">
        <ele>1553.8</ele>
        <time>2025-08-16T19:15:50.829000Z</time>
      </trkpt>
      <trkpt lat="46.411981" lon="11.575394">
        <ele>1553.4</ele>
        <time>2025-08-16T19:16:05.923000Z</time>
      </trkpt>
      <trkpt lat="46.412073" lon="11.575518">
        <ele>1553</ele>
        <time>2025-08-16T19:16:19.407000Z</time>
      </trkpt>
      <trkpt lat="46.412126" lon="11.575728">
        <ele>1552.4</ele>
        <time>2025-08-16T19:16:36.083000Z</time>
      </trkpt>
      <trkpt lat="46.412134" lon="11.5758">
        <ele>1552.2</ele>
        <time>2025-08-16T19:16:41.503000Z</time>
      </trkpt>
      <trkpt lat="46.4122" lon="11.575962">
        <ele>1551.6</ele>
        <time>2025-08-16T19:16:55.583000Z</time>
      </trkpt>
      <trkpt lat="46.412333" lon="11.575953">
        <ele>1551.1</ele>
        <time>2025-08-16T19:17:10.044000Z</time>
      </trkpt>
      <trkpt lat="46.412461" lon="11.575965">
        <ele>1550.5</ele>
        <time>2025-08-16T19:17:23.971000Z</time>
      </trkpt>
      <trkpt lat="46.413017" lon="11.576189">
        <ele>1548.6</ele>
        <time>2025-08-16T19:18:25.631000Z</time>
      </trkpt>
      <trkpt lat="46.413028" lon="11.576191">
        <ele>1548.6</ele>
        <time>2025-08-16T19:18:26.821000Z</time>
      </trkpt>
      <trkpt lat="46.413042" lon="11.576191">
        <ele>1548.6</ele>
        <time>2025-08-16T19:18:28.286000Z</time>
      </trkpt>
      <trkpt lat="46.413083" lon="11.576193">
        <ele>1548.5</ele>
        <time>2025-08-16T19:18:32.578000Z</time>
      </trkpt>
      <trkpt lat="46.413955" lon="11.575681">
        <ele>1551.2</ele>
        <time>2025-08-16T19:20:16.464000Z</time>
      </trkpt>
      <trkpt lat="46.414049" lon="11.575663">
        <ele>1552</ele>
        <time>2025-08-16T19:20:28.600000Z</time>
      </trkpt>
      <trkpt lat="46.414083" lon="11.575672">
        <ele>1552.3</ele>
        <time>2025-08-16T19:20:33.007000Z</time>
      </trkpt>
      <trkpt lat="46.414231" lon="11.575845">
        <ele>1554.1</ele>
        <time>2025-08-16T19:20:58.224000Z</time>
      </trkpt>
      <trkpt lat="46.414156" lon="11.576352">
        <ele>1557.9</ele>
        <time>2025-08-16T19:21:46.617000Z</time>
      </trkpt>
      <trkpt lat="46.414174" lon="11.576702">
        <ele>1560.7</ele>
        <time>2025-08-16T19:22:20.746000Z</time>
      </trkpt>
      <trkpt lat="46.414153" lon="11.57706">
        <ele>1563.7</ele>
        <time>2025-08-16T19:22:56.434000Z</time>
      </trkpt>
      <trkpt lat="46.414188" lon="11.577206">
        <ele>1565</ele>
        <time>2025-08-16T19:23:11.494000Z</time>
      </trkpt>
      <trkpt lat="46.414177" lon="11.577378">
        <ele>1566.2</ele>
        <time>2025-08-16T19:23:27.330000Z</time>
      </trkpt>
      <trkpt lat="46.414233" lon="11.578538">
        <ele>1567.2</ele>
        <time>2025-08-16T19:24:51.089000Z</time>
      </trkpt>
      <trkpt lat="46.414534" lon="11.5795">
        <ele>1559</ele>
        <time>2025-08-16T19:26:19.904000Z</time>
      </trkpt>
      <trkpt lat="46.414864" lon="11.579647">
        <ele>1553.7</ele>
        <time>2025-08-16T19:27:04.527000Z</time>
      </trkpt>
      <trkpt lat="46.414991" lon="11.579769">
        <ele>1551.3</ele>
        <time>2025-08-16T19:27:24.364000Z</time>
      </trkpt>
      <trkpt lat="46.415339" lon="11.580015">
        <ele>1545.8</ele>
        <time>2025-08-16T19:28:13.619000Z</time>
      </trkpt>
      <trkpt lat="46.415744" lon="11.580013">
        <ele>1541</ele>
        <time>2025-08-16T19:29:03.630000Z</time>
      </trkpt>
      <trkpt lat="46.415935" lon="11.580025">
        <ele>1539.1</ele>
        <time>2025-08-16T19:29:26.459000Z</time>
      </trkpt>
      <trkpt lat="46.41596" lon="11.580027">
        <ele>1538.9</ele>
        <time>2025-08-16T19:29:29.402000Z</time>
      </trkpt>
      <trkpt lat="46.416128" lon="11.580114">
        <ele>1537.4</ele>
        <time>2025-08-16T19:29:50.225000Z</time>
      </trkpt>
      <trkpt lat="46.416444" lon="11.580597">
        <ele>1534.6</ele>
        <time>2025-08-16T19:30:41.794000Z</time>
      </trkpt>
      <trkpt lat="46.41679" lon="11.580993">
        <ele>1532.8</ele>
        <time>2025-08-16T19:31:29.624000Z</time>
      </trkpt>
      <trkpt lat="46.417" lon="11.581167">
        <ele>1532.1</ele>
        <time>2025-08-16T19:31:55.032000Z</time>
      </trkpt>
      <trkpt lat="46.417183" lon="11.581263">
        <ele>1531.7</ele>
        <time>2025-08-16T19:32:15.442000Z</time>
      </trkpt>
      <trkpt lat="46.417253" lon="11.581276">
        <ele>1531.5</ele>
        <time>2025-08-16T19:32:22.934000Z</time>
      </trkpt>
      <trkpt lat="46.417403" lon="11.581241">
        <ele>1531.3</ele>
        <time>2025-08-16T19:32:38.593000Z</time>
      </trkpt>
      <trkpt lat="46.417497" lon="11.581224">
        <ele>1531.2</ele>
        <time>2025-08-16T19:32:48.171000Z</time>
      </trkpt>
      <trkpt lat="46.417557" lon="11.58121">
        <ele>1531.2</ele>
        <time>2025-08-16T19:32:54.353000Z</time>
      </trkpt>
      <trkpt lat="46.417908" lon="11.581186">
        <ele>1531.3</ele>
        <time>2025-08-16T19:33:30.167000Z</time>
      </trkpt>
      <trkpt lat="46.417966" lon="11.581061">
        <ele>1531.5</ele>
        <time>2025-08-16T19:33:40.996000Z</time>
      </trkpt>
      <trkpt lat="46.417974" lon="11.580853">
        <ele>1531.7</ele>
        <time>2025-08-16T19:33:56.265000Z</time>
      </trkpt>
      <trkpt lat="46.417907" lon="11.580309">
        <ele>1532.6</ele>
        <time>2025-08-16T19:34:37.483000Z</time>
      </trkpt>
      <trkpt lat="46.417901" lon="11.579439">
        <ele>1533.9</ele>
        <time>2025-08-16T19:35:42.159000Z</time>
      </trkpt>
      <trkpt lat="46.417805" lon="11.578735">
        <ele>1534</ele>
        <time>2025-08-16T19:36:32.062000Z</time>
      </trkpt>
      <trkpt lat="46.417667" lon="11.577332">
        <ele>1532</ele>
        <time>2025-08-16T19:38:14.077000Z</time>
      </trkpt>
      <trkpt lat="46.417484" lon="11.576478">
        <ele>1530</ele>
        <time>2025-08-16T19:39:19.887000Z</time>
      </trkpt>
      <trkpt lat="46.417484" lon="11.575859">
        <ele>1528.7</ele>
        <time>2025-08-16T19:40:05.221000Z</time>
      </trkpt>
      <trkpt lat="46.417443" lon="11.574697">
        <ele>1522.5</ele>
        <time>2025-08-16T19:41:37.912000Z</time>
      </trkpt>
      <trkpt lat="46.417404" lon="11.574335">
        <ele>1521</ele>
        <time>2025-08-16T19:42:06.066000Z</time>
      </trkpt>
      <trkpt lat="46.417214" lon="11.573552">
        <ele>1520</ele>
        <time>2025-08-16T19:43:05.532000Z</time>
      </trkpt>
      <trkpt lat="46.417247" lon="11.573221">
        <ele>1519.8</ele>
        <time>2025-08-16T19:43:29.060000Z</time>
      </trkpt>
      <trkpt lat="46.417398" lon="11.573009">
        <ele>1519.5</ele>
        <time>2025-08-16T19:43:50.696000Z</time>
      </trkpt>
      <trkpt lat="46.417774" lon="11.572265">
        <ele>1520</ele>
        <time>2025-08-16T19:44:56.162000Z</time>
      </trkpt>
      <trkpt lat="46.418032" lon="11.571795">
        <ele>1521.6</ele>
        <time>2025-08-16T19:45:43.411000Z</time>
      </trkpt>
      <trkpt lat="46.418398" lon="11.570794">
        <ele>1519.5</ele>
        <time>2025-08-16T19:47:05.930000Z</time>
      </trkpt>
      <trkpt lat="46.418702" lon="11.57026">
        <ele>1517</ele>
        <time>2025-08-16T19:47:58.800000Z</time>
      </trkpt>
      <trkpt lat="46.418883" lon="11.569838">
        <ele>1515.7</ele>
        <time>2025-08-16T19:48:35.832000Z</time>
      </trkpt>
      <trkpt lat="46.419272" lon="11.569273">
        <ele>1515.8</ele>
        <time>2025-08-16T19:49:31.268000Z</time>
      </trkpt>
      <trkpt lat="46.419497" lon="11.569005">
        <ele>1517.4</ele>
        <time>2025-08-16T19:50:06.101000Z</time>
      </trkpt>
      <trkpt lat="46.419787" lon="11.568882">
        <ele>1520</ele>
        <time>2025-08-16T19:50:45.052000Z</time>
      </trkpt>
      <trkpt lat="46.420037" lon="11.568882">
        <ele>1522.4</ele>
        <time>2025-08-16T19:51:18.277000Z</time>
      </trkpt>
      <trkpt lat="46.420361" lon="11.569113">
        <ele>1525.9</ele>
        <time>2025-08-16T19:52:06.098000Z</time>
      </trkpt>
      <trkpt lat="46.420498" lon="11.56941">
        <ele>1528.1</ele>
        <time>2025-08-16T19:52:37.942000Z</time>
      </trkpt>
      <trkpt lat="46.42064" lon="11.569607">
        <ele>1529.5</ele>
        <time>2025-08-16T19:53:02.530000Z</time>
      </trkpt>
      <trkpt lat="46.420833" lon="11.569649">
        <ele>1530.6</ele>
        <time>2025-08-16T19:53:25.788000Z</time>
      </trkpt>
      <trkpt lat="46.420947" lon="11.569508">
        <ele>1531.1</ele>
        <time>2025-08-16T19:53:42.614000Z</time>
      </trkpt>
      <trkpt lat="46.420992" lon="11.569245">
        <ele>1531.5</ele>
        <time>2025-08-16T19:54:02.675000Z</time>
      </trkpt>
      <trkpt lat="46.421402" lon="11.568231">
        <ele>1529.4</ele>
        <time>2025-08-16T19:55:28.110000Z</time>
      </trkpt>
      <trkpt lat="46.421451" lon="11.567589">
        <ele>1527.9</ele>
        <time>2025-08-16T19:56:15.699000Z</time>
      </trkpt>
      <trkpt lat="46.42157" lon="11.567354">
        <ele>1527.5</ele>
        <time>2025-08-16T19:56:36.508000Z</time>
      </trkpt>
      <trkpt lat="46.422056" lon="11.566645">
        <ele>1527.8</ele>
        <time>2025-08-16T19:57:46.454000Z</time>
      </trkpt>
      <trkpt lat="46.422761" lon="11.565935">
        <ele>1530.3</ele>
        <time>2025-08-16T19:59:20.985000Z</time>
      </trkpt>
      <trkpt lat="46.42281" lon="11.565849">
        <ele>1530.4</ele>
        <time>2025-08-16T19:59:29.020000Z</time>
      </trkpt>
      <trkpt lat="46.423072" lon="11.5657">
        <ele>1530.7</ele>
        <time>2025-08-16T19:59:58.343000Z</time>
      </trkpt>
      <trkpt lat="46.423386" lon="11.565745">
        <ele>1530.8</ele>
        <time>2025-08-16T20:00:30.259000Z</time>
      </trkpt>
      <trkpt lat="46.423479" lon="11.56567">
        <ele>1530.8</ele>
        <time>2025-08-16T20:00:40.921000Z</time>
      </trkpt>
      <trkpt lat="46.423525" lon="11.565562">
        <ele>1530.7</ele>
        <time>2025-08-16T20:00:49.859000Z</time>
      </trkpt>
      <trkpt lat="46.423559" lon="11.565093">
        <ele>1530.6</ele>
        <time>2025-08-16T20:01:22.715000Z</time>
      </trkpt>
      <trkpt lat="46.423619" lon="11.564863">
        <ele>1530.6</ele>
        <time>2025-08-16T20:01:39.951000Z</time>
      </trkpt>
      <trkpt lat="46.424076" lon="11.564039">
        <ele>1530.1</ele>
        <time>2025-08-16T20:02:54.093000Z</time>
      </trkpt>
      <trkpt lat="46.424447" lon="11.563541">
        <ele>1530.7</ele>
        <time>2025-08-16T20:03:46.845000Z</time>
      </trkpt>
      <trkpt lat="46.424784" lon="11.563175">
        <ele>1532.5</ele>
        <time>2025-08-16T20:04:35.503000Z</time>
      </trkpt>
      <trkpt lat="46.425004" lon="11.563073">
        <ele>1534</ele>
        <time>2025-08-16T20:05:03.684000Z</time>
      </trkpt>
      <trkpt lat="46.425205" lon="11.563076">
        <ele>1535.5</ele>
        <time>2025-08-16T20:05:28.901000Z</time>
      </trkpt>
      <trkpt lat="46.425404" lon="11.563142">
        <ele>1537.1</ele>
        <time>2025-08-16T20:05:54.765000Z</time>
      </trkpt>
      <trkpt lat="46.425861" lon="11.562959">
        <ele>1540.8</ele>
        <time>2025-08-16T20:06:54.739000Z</time>
      </trkpt>
      <trkpt lat="46.425925" lon="11.562855">
        <ele>1541.6</ele>
        <time>2025-08-16T20:07:06.989000Z</time>
      </trkpt>
      <trkpt lat="46.425955" lon="11.562691">
        <ele>1542.5</ele>
        <time>2025-08-16T20:07:21.770000Z</time>
      </trkpt>
      <trkpt lat="46.426069" lon="11.562378">
        <ele>1544.5</ele>
        <time>2025-08-16T20:07:52.852000Z</time>
      </trkpt>
      <trkpt lat="46.426129" lon="11.562333">
        <ele>1545</ele>
        <time>2025-08-16T20:08:01.363000Z</time>
      </trkpt>
      <trkpt lat="46.426366" lon="11.562282">
        <ele>1546.4</ele>
        <time>2025-08-16T20:08:30.122000Z</time>
      </trkpt>
      <trkpt lat="46.426544" lon="11.562304">
        <ele>1547.1</ele>
        <time>2025-08-16T20:08:50.713000Z</time>
      </trkpt>
      <trkpt lat="46.426626" lon="11.56219">
        <ele>1547.5</ele>
        <time>2025-08-16T20:09:03.473000Z</time>
      </trkpt>
      <trkpt lat="46.426665" lon="11.561977">
        <ele>1548.2</ele>
        <time>2025-08-16T20:09:21.036000Z</time>
      </trkpt>
      <trkpt lat="46.426712" lon="11.561863">
        <ele>1548.7</ele>
        <time>2025-08-16T20:09:32.033000Z</time>
      </trkpt>
      <trkpt lat="46.426939" lon="11.561606">
        <ele>1550.6</ele>
        <time>2025-08-16T20:10:07.054000Z</time>
      </trkpt>
      <trkpt lat="46.426982" lon="11.561498">
        <ele>1551</ele>
        <time>2025-08-16T20:10:17.079000Z</time>
      </trkpt>
      <trkpt lat="46.426945" lon="11.561013">
        <ele>1553</ele>
        <time>2025-08-16T20:10:57.766000Z</time>
      </trkpt>
      <trkpt lat="46.426996" lon="11.560777">
        <ele>1554.1</ele>
        <time>2025-08-16T20:11:18.447000Z</time>
      </trkpt>
      <trkpt lat="46.427238" lon="11.560476">
        <ele>1555.9</ele>
        <time>2025-08-16T20:11:56.705000Z</time>
      </trkpt>
      <trkpt lat="46.427248" lon="11.560342">
        <ele>1556.3</ele>
        <time>2025-08-16T20:12:07.287000Z</time>
      </trkpt>
      <trkpt lat="46.427533" lon="11.559873">
        <ele>1558.3</ele>
        <time>2025-08-16T20:12:57.292000Z</time>
      </trkpt>
      <trkpt lat="46.427757" lon="11.559088">
        <ele>1560.5</ele>
        <time>2025-08-16T20:14:03.850000Z</time>
      </trkpt>
      <trkpt lat="46.427877" lon="11.558862">
        <ele>1560.6</ele>
        <time>2025-08-16T20:14:23.804000Z</time>
      </trkpt>
      <trkpt lat="46.428024" lon="11.558375">
        <ele>1560.6</ele>
        <time>2025-08-16T20:15:00.574000Z</time>
      </trkpt>
      <trkpt lat="46.428269" lon="11.557888">
        <ele>1560.1</ele>
        <time>2025-08-16T20:15:42.957000Z</time>
      </trkpt>
      <trkpt lat="46.429127" lon="11.556791">
        <ele>1560.1</ele>
        <time>2025-08-16T20:17:37.465000Z</time>
      </trkpt>
      <trkpt lat="46.429394" lon="11.556593">
        <ele>1560.5</ele>
        <time>2025-08-16T20:18:08.856000Z</time>
      </trkpt>
      <trkpt lat="46.430125" lon="11.555792">
        <ele>1558.3</ele>
        <time>2025-08-16T20:19:45.137000Z</time>
      </trkpt>
      <trkpt lat="46.430182" lon="11.555742">
        <ele>1557.9</ele>
        <time>2025-08-16T20:19:52.652000Z</time>
      </trkpt>
      <trkpt lat="46.430384" lon="11.555697">
        <ele>1556.4</ele>
        <time>2025-08-16T20:20:16.099000Z</time>
      </trkpt>
      <trkpt lat="46.430411" lon="11.555624">
        <ele>1556</ele>
        <time>2025-08-16T20:20:22.664000Z</time>
      </trkpt>
      <trkpt lat="46.430111" lon="11.555174">
        <ele>1551.8</ele>
        <time>2025-08-16T20:21:14.109000Z</time>
      </trkpt>
      <trkpt lat="46.430107" lon="11.555128">
        <ele>1551.4</ele>
        <time>2025-08-16T20:21:17.929000Z</time>
      </trkpt>
      <trkpt lat="46.430142" lon="11.555093">
        <ele>1550.9</ele>
        <time>2025-08-16T20:21:23.297000Z</time>
      </trkpt>
      <trkpt lat="46.43069" lon="11.555068">
        <ele>1542.1</ele>
        <time>2025-08-16T20:22:34.943000Z</time>
      </trkpt>
      <trkpt lat="46.430895" lon="11.555183">
        <ele>1537.4</ele>
        <time>2025-08-16T20:23:07.865000Z</time>
      </trkpt>
      <trkpt lat="46.431139" lon="11.555447">
        <ele>1530.8</ele>
        <time>2025-08-16T20:23:54.103000Z</time>
      </trkpt>
      <trkpt lat="46.43151" lon="11.555366">
        <ele>1522.3</ele>
        <time>2025-08-16T20:24:52.669000Z</time>
      </trkpt>
      <trkpt lat="46.431912" lon="11.555191">
        <ele>1512.2</ele>
        <time>2025-08-16T20:26:00.328000Z</time>
      </trkpt>
      <trkpt lat="46.432242" lon="11.555126">
        <ele>1503.9</ele>
        <time>2025-08-16T20:26:55.473000Z</time>
      </trkpt>
      <trkpt lat="46.432628" lon="11.555307">
        <ele>1493</ele>
        <time>2025-08-16T20:28:05.241000Z</time>
      </trkpt>
      <trkpt lat="46.433004" lon="11.555835">
        <ele>1477.1</ele>
        <time>2025-08-16T20:29:42.103000Z</time>
      </trkpt>
      <trkpt lat="46.433384" lon="11.556168">
        <ele>1463.1</ele>
        <time>2025-08-16T20:31:06.267000Z</time>
      </trkpt>
      <trkpt lat="46.433892" lon="11.556441">
        <ele>1445.3</ele>
        <time>2025-08-16T20:32:51.571000Z</time>
      </trkpt>
      <trkpt lat="46.434286" lon="11.556601">
        <ele>1431</ele>
        <time>2025-08-16T20:34:14.063000Z</time>
      </trkpt>
      <trkpt lat="46.434659" lon="11.556962">
        <ele>1415.1</ele>
        <time>2025-08-16T20:35:45.150000Z</time>
      </trkpt>
      <trkpt lat="46.435067" lon="11.55746">
        <ele>1396.2</ele>
        <time>2025-08-16T20:37:33.681000Z</time>
      </trkpt>
      <trkpt lat="46.435262" lon="11.55754">
        <ele>1389.8</ele>
        <time>2025-08-16T20:38:12.178000Z</time>
      </trkpt>
      <trkpt lat="46.435442" lon="11.557542">
        <ele>1384.3</ele>
        <time>2025-08-16T20:38:45.854000Z</time>
      </trkpt>
      <trkpt lat="46.435781" lon="11.557195">
        <ele>1371.7</ele>
        <time>2025-08-16T20:40:02.399000Z</time>
      </trkpt>
      <trkpt lat="46.435809" lon="11.557019">
        <ele>1367.9</ele>
        <time>2025-08-16T20:40:25.549000Z</time>
      </trkpt>
      <trkpt lat="46.435996" lon="11.557348">
        <ele>1358.7</ele>
        <time>2025-08-16T20:41:21.170000Z</time>
      </trkpt>
      <trkpt lat="46.43618" lon="11.557757">
        <ele>1349.6</ele>
        <time>2025-08-16T20:42:19.418000Z</time>
      </trkpt>
      <trkpt lat="46.436396" lon="11.557977">
        <ele>1344.8</ele>
        <time>2025-08-16T20:42:55.603000Z</time>
      </trkpt>
      <trkpt lat="46.436498" lon="11.558191">
        <ele>1342.9</ele>
        <time>2025-08-16T20:43:17.373000Z</time>
      </trkpt>
      <trkpt lat="46.436625" lon="11.558252">
        <ele>1342.2</ele>
        <time>2025-08-16T20:43:32.165000Z</time>
      </trkpt>
      <trkpt lat="46.436807" lon="11.558255">
        <ele>1341.3</ele>
        <time>2025-08-16T20:43:52.179000Z</time>
      </trkpt>
      <trkpt lat="46.436873" lon="11.558281">
        <ele>1341</ele>
        <time>2025-08-16T20:43:59.722000Z</time>
      </trkpt>
      <trkpt lat="46.436954" lon="11.55854">
        <ele>1340.4</ele>
        <time>2025-08-16T20:44:20.479000Z</time>
      </trkpt>
      <trkpt lat="46.437026" lon="11.558646">
        <ele>1340.2</ele>
        <time>2025-08-16T20:44:31.228000Z</time>
      </trkpt>
      <trkpt lat="46.437049" lon="11.559462">
        <ele>1341</ele>
        <time>2025-08-16T20:45:30.278000Z</time>
      </trkpt>
      <trkpt lat="46.437112" lon="11.559894">
        <ele>1342.3</ele>
        <time>2025-08-16T20:46:05.280000Z</time>
      </trkpt>
      <trkpt lat="46.437406" lon="11.560718">
        <ele>1343.9</ele>
        <time>2025-08-16T20:47:15.021000Z</time>
      </trkpt>
      <trkpt lat="46.437454" lon="11.560777">
        <ele>1343.8</ele>
        <time>2025-08-16T20:47:21.622000Z</time>
      </trkpt>
      <trkpt lat="46.437531" lon="11.560776">
        <ele>1343.8</ele>
        <time>2025-08-16T20:47:29.384000Z</time>
      </trkpt>
      <trkpt lat="46.437619" lon="11.560767">
        <ele>1343.5</ele>
        <time>2025-08-16T20:47:38.791000Z</time>
      </trkpt>
      <trkpt lat="46.437726" lon="11.560669">
        <ele>1343.2</ele>
        <time>2025-08-16T20:47:52.048000Z</time>
      </trkpt>
      <trkpt lat="46.437728" lon="11.560597">
        <ele>1343</ele>
        <time>2025-08-16T20:47:57.432000Z</time>
      </trkpt>
    </trkseg>
  </trk>
</gpx>