<?xml version="1.0" encoding="UTF-8"?>
<gpx xmlns="http://www.topografix.com/GPX/1/1" xmlns:xsi="http://www.w3.org/2001/XMLSchema-instance" xsi:schemaLocation="http://www.topografix.com/GPX/1/1 http://www.topografix.com/GPX/1/1/gpx.xsd" version="1.1" creator="Robert Kampf">
  <metadata>
    <name>Kath. Pfarrkirche St.Andreas – Burgstall (Althegnenberg) Runde von Althegnenberg</name>
    <desc>Distance: 6.398km, Estimated duration: 1.64h, Elevation up: 28.716531894892796m, Elevation down: 28.716531894892796m, Grade: easy</desc>
    <author>
      <name>Robert Kampf</name>
      <link href="https://www.komoot.de/user/4125295338453">
        <text>View Robert Kampf's Profile on Komoot</text>
      </link>
    </author>
    <link href="https://www.komoot.de/tour/2048731318">
      <text>View tour on Komoot</text>
    </link>
  </metadata>
  <wpt lat="48.239114" lon="11.070267">
    <name>Althegnenberg, Schule</name>
    <cmt></cmt>
    <desc></desc>
    <src>Komoot</src>
    <type>POI</type>
  </wpt>
  <wpt lat="48.220551" lon="11.071813">
    <ele>589.9</ele>
    <name>St. Andrew's Catholic Parish Church (Hörbach)</name>
    <cmt>https://d2exd72xrrp1s7.cloudfront.net/www/000/1k4/1f/1f9ryyooji50o15vyvrwrvkn1q3ei91lta-uhi14917847/0</cmt>
    <desc>Lucody: Hörbach ein kleines Dörfchen auf der Durchfahrt nach Althegnenberg.
Die Dorfstraße ist sehr stark geflickt und mit etlichen Schlaglöchern. Für RR ein Slalomkurs, mit MTB kein Problem ;-)
――――――――――
ast1: Ein schönes Dorf mit Täuferbrunnen bei der Kirche.
――――――――――
Knersi (📍Maisach): Hörbach erscheint erstmals in drei Urkunden aus drei verschiedenen Klöstern, ziemlich zur selben Zeit um 1130. Ein "Engildie de Hurewin" (von "horwec" = sumpfig, schmutzig) um 1133, ein "Teginhart de Huirwin" um 1133-1135 in einer Urkunde des Klosters St. Ulrich und Afra, Augsburg und ein "Heinrich de Hurnwinin" um 1140 in einer Urkunde des Klosters Tegernsee. In allen drei Urkunden geht es um Besitzungen derer von Seefeld (am Wörthsee). Die genannten frühen Hörbacher sind mit den gleichnamigen frühen Seefeldern identisch.

Die Pfarrkirche St. Andreas wurde bereits um 1200 erbaut. Aus dieser Zeit ist der mittlere Teil des Langhauses noch erhalten. An der südlichen Langhauswand ist ein romanischer Bogenfries sichtbar. In der Spätgotik – etwa um 1450 – wurde der Chor angebaut und das Langhaus erhielt die Spitzbogenfenster. In der Barockzeit wurde der Turm mit der charakteristischen Doppelzwiebel errichtet – er wurde 1719 fertiggestellt. </desc>
    <src>Komoot</src>
    <link href="https://www.komoot.de/highlight/6242675">
      <text>View POI on Komoot</text>
    </link>
    <type>Highlight</type>
  </wpt>
  <wpt lat="48.232919" lon="11.066651">
    <ele>577.9</ele>
    <name>Bench by the Finsterbach</name>
    <cmt>https://d2exd72xrrp1s7.cloudfront.net/www/000/1k7/wh/wh1e92klvjiflypodm43xbkk4r7zx0aq-uhi66684991/0</cmt>
    <desc>Knersi (📍Maisach): Finsterbach ist ein Bach in Bayern in Althegnenberg. Das Gewässer wird sehr wenig befischt und von unseren Mitgliedern als Top Angelrevier bewertet. 
Zielfische: Bachforelle, Karpfen, Aland, Frauennerfling, Giebel ....</desc>
    <src>Komoot</src>
    <link href="https://www.komoot.de/highlight/6242685">
      <text>View POI on Komoot</text>
    </link>
    <type>Highlight</type>
  </wpt>
  <wpt lat="48.23368" lon="11.065316">
    <ele>569.6</ele>
    <name>St. Maria Chapel on the Althegnenberg Castle Mound</name>
    <cmt>https://d2exd72xrrp1s7.cloudfront.net/www/000/1k7/1o/1ogs7or6ulktq1wgx7ektwb2b74jynfptf-uhi59346763/0</cmt>
    <desc>Gerhard Mauerberger: Mitten im Ort Althegnenberg, in unmittelbarer Nähe zur Pfarrkirche, gibt es eine "Bergkapelle", die auf einem künstlich aufgeworfenen Berg steht. 
Dieser Berg ist ein ziemlich regelmäßiger Kegelstumpf. Es handelt sich um den Turmhügel, der im 11. und 12. Jahrhundert die kleine Burg der Hegnenberger trug. Diese Burg war ein aus Holz oder Stein errichteter Wohnturm.
Solche Motten waren typische Burgenbauten der Salierzeit. Diese Turmhüglebauten sind ausnahmslos dem niederen Adel oder der aufstrebenden Schicht der Ministerialen zuzuordnen. 
Die Hegnenberger waren solche Ministerialen, die ihren politischen Einfluss ausbauen konnten und schließlich die Hofmark Hegnenberg gründeten. Dieser Herrschaftsbereich hatte über 500 Jahre Bestand.
Im 13. Jahrhundert bauten die Hegnenberger 4 km weiter westlich eine neue Burg, die Neu- oder Hofhegnenberg, die den mittlerweile hohen Stand des Geschlechtes würdiger repräsentierte. Die alte Motte verlor an Bedeutung und begann zu verfallen. Der Name der Ortschaft änderte sich später zu der heutigen Bezeichnung: "Althegnenberg". 
Auf dem Burgberg wurde 1676 die Bergkapelle "St. Maria" errichtet. Sie wurde von dem Bregenzer Baumeister Jobst Moosprucker als achteckiger Zentralbau der Altöttinger Gnadenkapelle nachempfunden. St. Maria entwickelte sich zu einer regionalen Wallfahrt, sodass ca. 100 Jahre nach der Errichtung ein Langhaus angebaut wurde. Heute wird diese Kapelle von der evangelisch-lutherischen Pfarrgemeinde als Gotteshaus genutzt. Ein sehr versöhnlicher Wink der Geschichte, wenn man bedenkt, dass sich nur eine Generation vor der Erbauung der Kapelle Katholiken und Prostestanten 30 Jahre lang auf schrecklichste Art und Weise bekriegten.
Die kleine Ortschaft Althegnenberg hat aber noch mehr sichtbare Bauten aus dem Mittelalter, und zwar die denkmalgeschütze alte Schmiede und der ehemalige Wirtschaftshof der Burg.
Im Jahr 1995 wurde der Wassergraben mit der Brücke und die anschießende Schmiedegasse wieder hergestellt.
――――――――――
🅰️H🍀: Wikipedia (Burgstall Althegnenberg, 2023-04-23): 
https://de.m.wikipedia.org/wiki/Burgstall_Althegnenberg 
Wikipedia (Liste der Baudenkmäler in Althegnenberg, 2023-04-23):
https://de.m.wikipedia.org/wiki/Liste_der_Baudenkmäler_in_Althegnenberg#D-1-79-114-3 
“Ehemalige Wallfahrtskapelle St. Maria, jetzt evangelisch-lutherische Bergkapelle … Oktogonaler Zentralbau mit Erweiterungen nach Osten und Westen sowie schlankem Nordturm auf einem künstlichen Hügel der ehemaligen Burg der Herren von Hegnenberg, von Jobst Moosbrugger, 1676, Erweiterungen 1762/63, Umgestaltung 1883 … D-1-79-114-3” 

Historischer Verein für die Stadt und den Landkreis Fürstenfeldbruck e.V. (Althegnenberg, 2023-04-23): 
https://www.historischer-verein-ffb.de/althegnenberg/
――――――――――
Gitte: Bei uns war die Bergkapelle an einem Samstag Mittag nicht zugänglich.</desc>
    <src>Komoot</src>
    <link href="https://www.komoot.de/highlight/3049255">
      <text>View POI on Komoot</text>
    </link>
    <type>Highlight</type>
  </wpt>
  <trk>
    <name>Kath. Pfarrkirche St.Andreas – Burgstall (Althegnenberg) Runde von Althegnenberg</name>
    <desc>Distance: 6.398km, Estimated duration: 1.64h, Elevation up: 28.716531894892796m, Elevation down: 28.716531894892796m, Grade: easy</desc>
    <link href="https://www.komoot.de/tour/2048731318">
      <text>View tour on Komoot</text>
    </link>
    <trkseg>
      <trkpt lat="48.239115" lon="11.07019">
        <ele>542.5</ele>
        <time>2025-02-09T12:31:23.387000Z</time>
      </trkpt>
      <trkpt lat="48.239427" lon="11.070201">
        <ele>542</ele>
        <time>2025-02-09T12:31:55.707000Z</time>
      </trkpt>
      <trkpt lat="48.239426" lon="11.070284">
        <ele>541.9</ele>
        <time>2025-02-09T12:32:01.453000Z</time>
      </trkpt>
      <trkpt lat="48.239543" lon="11.070295">
        <ele>541.6</ele>
        <time>2025-02-09T12:32:13.708000Z</time>
      </trkpt>
      <trkpt lat="48.239568" lon="11.06988">
        <ele>541.1</ele>
        <time>2025-02-09T12:32:42.517000Z</time>
      </trkpt>
      <trkpt lat="48.23958" lon="11.069405">
        <ele>540.6</ele>
        <time>2025-02-09T12:33:15.246000Z</time>
      </trkpt>
      <trkpt lat="48.239591" lon="11.068995">
        <ele>540.3</ele>
        <time>2025-02-09T12:33:43.307000Z</time>
      </trkpt>
      <trkpt lat="48.23933" lon="11.068957">
        <ele>540.2</ele>
        <time>2025-02-09T12:34:09.807000Z</time>
      </trkpt>
      <trkpt lat="48.239128" lon="11.068927">
        <ele>540.2</ele>
        <time>2025-02-09T12:34:30.101000Z</time>
      </trkpt>
      <trkpt lat="48.239121" lon="11.068926">
        <ele>540.2</ele>
        <time>2025-02-09T12:34:30.829000Z</time>
      </trkpt>
      <trkpt lat="48.238935" lon="11.068906">
        <ele>540.3</ele>
        <time>2025-02-09T12:34:49.918000Z</time>
      </trkpt>
      <trkpt lat="48.238898" lon="11.0689">
        <ele>540.3</ele>
        <time>2025-02-09T12:34:53.749000Z</time>
      </trkpt>
      <trkpt lat="48.238866" lon="11.068895">
        <ele>540.4</ele>
        <time>2025-02-09T12:34:57.100000Z</time>
      </trkpt>
      <trkpt lat="48.23868" lon="11.068864">
        <ele>540.6</ele>
        <time>2025-02-09T12:35:16.500000Z</time>
      </trkpt>
      <trkpt lat="48.238484" lon="11.068832">
        <ele>540.9</ele>
        <time>2025-02-09T12:35:37.389000Z</time>
      </trkpt>
      <trkpt lat="48.238394" lon="11.068817">
        <ele>541.1</ele>
        <time>2025-02-09T12:35:47.205000Z</time>
      </trkpt>
      <trkpt lat="48.238281" lon="11.068798">
        <ele>541.3</ele>
        <time>2025-02-09T12:35:59.435000Z</time>
      </trkpt>
      <trkpt lat="48.238256" lon="11.068794">
        <ele>541.4</ele>
        <time>2025-02-09T12:36:02.221000Z</time>
      </trkpt>
      <trkpt lat="48.238206" lon="11.068791">
        <ele>541.5</ele>
        <time>2025-02-09T12:36:07.728000Z</time>
      </trkpt>
      <trkpt lat="48.238091" lon="11.068786">
        <ele>541.9</ele>
        <time>2025-02-09T12:36:20.352000Z</time>
      </trkpt>
      <trkpt lat="48.23806" lon="11.068784">
        <ele>541.9</ele>
        <time>2025-02-09T12:36:23.682000Z</time>
      </trkpt>
      <trkpt lat="48.237986" lon="11.068781">
        <ele>542.2</ele>
        <time>2025-02-09T12:36:31.834000Z</time>
      </trkpt>
      <trkpt lat="48.237828" lon="11.068773">
        <ele>542.6</ele>
        <time>2025-02-09T12:36:49.351000Z</time>
      </trkpt>
      <trkpt lat="48.23781" lon="11.068772">
        <ele>542.7</ele>
        <time>2025-02-09T12:36:51.336000Z</time>
      </trkpt>
      <trkpt lat="48.237749" lon="11.068769">
        <ele>542.9</ele>
        <time>2025-02-09T12:36:58.088000Z</time>
      </trkpt>
      <trkpt lat="48.237696" lon="11.068766">
        <ele>543</ele>
        <time>2025-02-09T12:37:03.916000Z</time>
      </trkpt>
      <trkpt lat="48.237519" lon="11.068757">
        <ele>543.6</ele>
        <time>2025-02-09T12:37:23.722000Z</time>
      </trkpt>
      <trkpt lat="48.237267" lon="11.068839">
        <ele>544.5</ele>
        <time>2025-02-09T12:37:52.614000Z</time>
      </trkpt>
      <trkpt lat="48.237169" lon="11.068877">
        <ele>544.8</ele>
        <time>2025-02-09T12:38:03.925000Z</time>
      </trkpt>
      <trkpt lat="48.237069" lon="11.068927">
        <ele>545.1</ele>
        <time>2025-02-09T12:38:15.559000Z</time>
      </trkpt>
      <trkpt lat="48.236889" lon="11.069029">
        <ele>545.7</ele>
        <time>2025-02-09T12:38:36.611000Z</time>
      </trkpt>
      <trkpt lat="48.236735" lon="11.069131">
        <ele>546</ele>
        <time>2025-02-09T12:38:54.812000Z</time>
      </trkpt>
      <trkpt lat="48.236701" lon="11.069154">
        <ele>546.1</ele>
        <time>2025-02-09T12:38:58.828000Z</time>
      </trkpt>
      <trkpt lat="48.236555" lon="11.069252">
        <ele>546.4</ele>
        <time>2025-02-09T12:39:15.971000Z</time>
      </trkpt>
      <trkpt lat="48.236534" lon="11.069266">
        <ele>546.5</ele>
        <time>2025-02-09T12:39:18.395000Z</time>
      </trkpt>
      <trkpt lat="48.236498" lon="11.069291">
        <ele>546.5</ele>
        <time>2025-02-09T12:39:22.566000Z</time>
      </trkpt>
      <trkpt lat="48.23636" lon="11.06939">
        <ele>546.8</ele>
        <time>2025-02-09T12:39:38.879000Z</time>
      </trkpt>
      <trkpt lat="48.236293" lon="11.069437">
        <ele>546.9</ele>
        <time>2025-02-09T12:39:46.638000Z</time>
      </trkpt>
      <trkpt lat="48.23611" lon="11.069524">
        <ele>547.1</ele>
        <time>2025-02-09T12:40:06.559000Z</time>
      </trkpt>
      <trkpt lat="48.235869" lon="11.069609">
        <ele>547.1</ele>
        <time>2025-02-09T12:40:31.389000Z</time>
      </trkpt>
      <trkpt lat="48.235777" lon="11.069635">
        <ele>547</ele>
        <time>2025-02-09T12:40:40.769000Z</time>
      </trkpt>
      <trkpt lat="48.235743" lon="11.069645">
        <ele>547</ele>
        <time>2025-02-09T12:40:44.347000Z</time>
      </trkpt>
      <trkpt lat="48.2357" lon="11.069657">
        <ele>547</ele>
        <time>2025-02-09T12:40:48.765000Z</time>
      </trkpt>
      <trkpt lat="48.235561" lon="11.069682">
        <ele>546.8</ele>
        <time>2025-02-09T12:41:03.055000Z</time>
      </trkpt>
      <trkpt lat="48.235332" lon="11.069724">
        <ele>546.6</ele>
        <time>2025-02-09T12:41:26.652000Z</time>
      </trkpt>
      <trkpt lat="48.235254" lon="11.069738">
        <ele>546.5</ele>
        <time>2025-02-09T12:41:34.752000Z</time>
      </trkpt>
      <trkpt lat="48.235031" lon="11.069778">
        <ele>546.2</ele>
        <time>2025-02-09T12:41:57.824000Z</time>
      </trkpt>
      <trkpt lat="48.234865" lon="11.069984">
        <ele>545.6</ele>
        <time>2025-02-09T12:42:20.436000Z</time>
      </trkpt>
      <trkpt lat="48.234771" lon="11.070101">
        <ele>545.3</ele>
        <time>2025-02-09T12:42:33.467000Z</time>
      </trkpt>
      <trkpt lat="48.234475" lon="11.070336">
        <ele>543.9</ele>
        <time>2025-02-09T12:43:09.768000Z</time>
      </trkpt>
      <trkpt lat="48.234381" lon="11.070521">
        <ele>543.3</ele>
        <time>2025-02-09T12:43:26.558000Z</time>
      </trkpt>
      <trkpt lat="48.234307" lon="11.070778">
        <ele>542.6</ele>
        <time>2025-02-09T12:43:46.592000Z</time>
      </trkpt>
      <trkpt lat="48.234243" lon="11.070898">
        <ele>542.3</ele>
        <time>2025-02-09T12:43:57.451000Z</time>
      </trkpt>
      <trkpt lat="48.23392" lon="11.07052">
        <ele>541.3</ele>
        <time>2025-02-09T12:44:40.633000Z</time>
      </trkpt>
      <trkpt lat="48.233821" lon="11.070406">
        <ele>541</ele>
        <time>2025-02-09T12:44:53.768000Z</time>
      </trkpt>
      <trkpt lat="48.23364" lon="11.070169">
        <ele>540.4</ele>
        <time>2025-02-09T12:45:19.057000Z</time>
      </trkpt>
      <trkpt lat="48.233492" lon="11.069852">
        <ele>539.6</ele>
        <time>2025-02-09T12:45:46.413000Z</time>
      </trkpt>
      <trkpt lat="48.233325" lon="11.070496">
        <ele>538.5</ele>
        <time>2025-02-09T12:46:34.742000Z</time>
      </trkpt>
      <trkpt lat="48.233143" lon="11.071024">
        <ele>538.3</ele>
        <time>2025-02-09T12:47:14.811000Z</time>
      </trkpt>
      <trkpt lat="48.23287" lon="11.071814">
        <ele>537.8</ele>
        <time>2025-02-09T12:48:15.172000Z</time>
      </trkpt>
      <trkpt lat="48.232372" lon="11.07339">
        <ele>537.2</ele>
        <time>2025-02-09T12:50:12.676000Z</time>
      </trkpt>
      <trkpt lat="48.231294" lon="11.0764">
        <ele>537.2</ele>
        <time>2025-02-09T12:54:00.588000Z</time>
      </trkpt>
      <trkpt lat="48.230451" lon="11.078647">
        <ele>537.7</ele>
        <time>2025-02-09T12:56:54.316000Z</time>
      </trkpt>
      <trkpt lat="48.230277" lon="11.078787">
        <ele>537.8</ele>
        <time>2025-02-09T12:57:14.405000Z</time>
      </trkpt>
      <trkpt lat="48.229994" lon="11.079376">
        <ele>538.1</ele>
        <time>2025-02-09T12:58:03.750000Z</time>
      </trkpt>
      <trkpt lat="48.229785" lon="11.079882">
        <ele>538.3</ele>
        <time>2025-02-09T12:58:44.366000Z</time>
      </trkpt>
      <trkpt lat="48.229773" lon="11.080343">
        <ele>538.5</ele>
        <time>2025-02-09T12:59:15.823000Z</time>
      </trkpt>
      <trkpt lat="48.228873" lon="11.082646">
        <ele>539.9</ele>
        <time>2025-02-09T13:02:18.535000Z</time>
      </trkpt>
      <trkpt lat="48.228172" lon="11.082759">
        <ele>540.3</ele>
        <time>2025-02-09T13:03:30.527000Z</time>
      </trkpt>
      <trkpt lat="48.227944" lon="11.08239">
        <ele>540.4</ele>
        <time>2025-02-09T13:04:04.462000Z</time>
      </trkpt>
      <trkpt lat="48.227346" lon="11.081093">
        <ele>540.2</ele>
        <time>2025-02-09T13:05:49.936000Z</time>
      </trkpt>
      <trkpt lat="48.226725" lon="11.079979">
        <ele>540</ele>
        <time>2025-02-09T13:07:27.198000Z</time>
      </trkpt>
      <trkpt lat="48.225452" lon="11.078329">
        <ele>540.3</ele>
        <time>2025-02-09T13:10:16.590000Z</time>
      </trkpt>
      <trkpt lat="48.225306" lon="11.078178">
        <ele>540.4</ele>
        <time>2025-02-09T13:10:34.425000Z</time>
      </trkpt>
      <trkpt lat="48.223358" lon="11.07755">
        <ele>540.2</ele>
        <time>2025-02-09T13:13:54.064000Z</time>
      </trkpt>
      <trkpt lat="48.222669" lon="11.077267">
        <ele>540.2</ele>
        <time>2025-02-09T13:15:05.662000Z</time>
      </trkpt>
      <trkpt lat="48.222172" lon="11.076974">
        <ele>540.5</ele>
        <time>2025-02-09T13:16:00.226000Z</time>
      </trkpt>
      <trkpt lat="48.22192" lon="11.076797">
        <ele>540.7</ele>
        <time>2025-02-09T13:16:28.773000Z</time>
      </trkpt>
      <trkpt lat="48.221894" lon="11.076784">
        <ele>540.7</ele>
        <time>2025-02-09T13:16:31.582000Z</time>
      </trkpt>
      <trkpt lat="48.221842" lon="11.076759">
        <ele>540.8</ele>
        <time>2025-02-09T13:16:37.184000Z</time>
      </trkpt>
      <trkpt lat="48.221579" lon="11.07663">
        <ele>541</ele>
        <time>2025-02-09T13:17:05.779000Z</time>
      </trkpt>
      <trkpt lat="48.221544" lon="11.076627">
        <ele>541</ele>
        <time>2025-02-09T13:17:09.380000Z</time>
      </trkpt>
      <trkpt lat="48.221371" lon="11.076611">
        <ele>541.2</ele>
        <time>2025-02-09T13:17:27.357000Z</time>
      </trkpt>
      <trkpt lat="48.221277" lon="11.076602">
        <ele>541.3</ele>
        <time>2025-02-09T13:17:37.049000Z</time>
      </trkpt>
      <trkpt lat="48.221062" lon="11.076543">
        <ele>541.5</ele>
        <time>2025-02-09T13:17:59.568000Z</time>
      </trkpt>
      <trkpt lat="48.221059" lon="11.076504">
        <ele>541.5</ele>
        <time>2025-02-09T13:18:02.253000Z</time>
      </trkpt>
      <trkpt lat="48.221055" lon="11.076436">
        <ele>541.5</ele>
        <time>2025-02-09T13:18:06.909000Z</time>
      </trkpt>
      <trkpt lat="48.221041" lon="11.076088">
        <ele>541.7</ele>
        <time>2025-02-09T13:18:30.762000Z</time>
      </trkpt>
      <trkpt lat="48.221061" lon="11.075597">
        <ele>541.8</ele>
        <time>2025-02-09T13:19:03.913000Z</time>
      </trkpt>
      <trkpt lat="48.221031" lon="11.0749">
        <ele>541.6</ele>
        <time>2025-02-09T13:19:50.782000Z</time>
      </trkpt>
      <trkpt lat="48.220998" lon="11.07476">
        <ele>541.6</ele>
        <time>2025-02-09T13:20:00.791000Z</time>
      </trkpt>
      <trkpt lat="48.221086" lon="11.074576">
        <ele>541.5</ele>
        <time>2025-02-09T13:20:15.994000Z</time>
      </trkpt>
      <trkpt lat="48.221125" lon="11.07442">
        <ele>541.4</ele>
        <time>2025-02-09T13:20:27.311000Z</time>
      </trkpt>
      <trkpt lat="48.221136" lon="11.074177">
        <ele>541.3</ele>
        <time>2025-02-09T13:20:43.744000Z</time>
      </trkpt>
      <trkpt lat="48.221135" lon="11.074132">
        <ele>541.3</ele>
        <time>2025-02-09T13:20:46.747000Z</time>
      </trkpt>
      <trkpt lat="48.221115" lon="11.073964">
        <ele>541.3</ele>
        <time>2025-02-09T13:20:58.239000Z</time>
      </trkpt>
      <trkpt lat="48.221024" lon="11.073576">
        <ele>541.1</ele>
        <time>2025-02-09T13:21:25.895000Z</time>
      </trkpt>
      <trkpt lat="48.220984" lon="11.073467">
        <ele>541.1</ele>
        <time>2025-02-09T13:21:34.197000Z</time>
      </trkpt>
      <trkpt lat="48.220938" lon="11.073365">
        <ele>541.1</ele>
        <time>2025-02-09T13:21:42.429000Z</time>
      </trkpt>
      <trkpt lat="48.220873" lon="11.073212">
        <ele>541.1</ele>
        <time>2025-02-09T13:21:54.564000Z</time>
      </trkpt>
      <trkpt lat="48.220765" lon="11.072964">
        <ele>541.1</ele>
        <time>2025-02-09T13:22:14.366000Z</time>
      </trkpt>
      <trkpt lat="48.220721" lon="11.072854">
        <ele>541.1</ele>
        <time>2025-02-09T13:22:23Z</time>
      </trkpt>
      <trkpt lat="48.220567" lon="11.072378">
        <ele>541.2</ele>
        <time>2025-02-09T13:22:58.775000Z</time>
      </trkpt>
      <trkpt lat="48.220513" lon="11.072037">
        <ele>541.4</ele>
        <time>2025-02-09T13:23:22.609000Z</time>
      </trkpt>
      <trkpt lat="48.220503" lon="11.071909">
        <ele>541.4</ele>
        <time>2025-02-09T13:23:31.421000Z</time>
      </trkpt>
      <trkpt lat="48.220506" lon="11.071809">
        <ele>541.5</ele>
        <time>2025-02-09T13:23:38.249000Z</time>
      </trkpt>
      <trkpt lat="48.220522" lon="11.071399">
        <ele>541.7</ele>
        <time>2025-02-09T13:24:06.464000Z</time>
      </trkpt>
      <trkpt lat="48.220527" lon="11.071235">
        <ele>541.8</ele>
        <time>2025-02-09T13:24:17.831000Z</time>
      </trkpt>
      <trkpt lat="48.22053" lon="11.071134">
        <ele>541.9</ele>
        <time>2025-02-09T13:24:24.909000Z</time>
      </trkpt>
      <trkpt lat="48.220536" lon="11.070717">
        <ele>542.2</ele>
        <time>2025-02-09T13:24:53.844000Z</time>
      </trkpt>
      <trkpt lat="48.220535" lon="11.070631">
        <ele>542.3</ele>
        <time>2025-02-09T13:24:59.829000Z</time>
      </trkpt>
      <trkpt lat="48.220534" lon="11.070405">
        <ele>542.4</ele>
        <time>2025-02-09T13:25:15.422000Z</time>
      </trkpt>
      <trkpt lat="48.220533" lon="11.070366">
        <ele>542.5</ele>
        <time>2025-02-09T13:25:18.086000Z</time>
      </trkpt>
      <trkpt lat="48.220534" lon="11.069696">
        <ele>542.7</ele>
        <time>2025-02-09T13:26:03.733000Z</time>
      </trkpt>
      <trkpt lat="48.220597" lon="11.069472">
        <ele>542.8</ele>
        <time>2025-02-09T13:26:20.271000Z</time>
      </trkpt>
      <trkpt lat="48.220631" lon="11.06941">
        <ele>542.8</ele>
        <time>2025-02-09T13:26:25.662000Z</time>
      </trkpt>
      <trkpt lat="48.220735" lon="11.069335">
        <ele>542.9</ele>
        <time>2025-02-09T13:26:37.267000Z</time>
      </trkpt>
      <trkpt lat="48.220883" lon="11.069288">
        <ele>542.9</ele>
        <time>2025-02-09T13:26:52.396000Z</time>
      </trkpt>
      <trkpt lat="48.221027" lon="11.069267">
        <ele>542.8</ele>
        <time>2025-02-09T13:27:06.934000Z</time>
      </trkpt>
      <trkpt lat="48.221093" lon="11.069267">
        <ele>542.8</ele>
        <time>2025-02-09T13:27:13.561000Z</time>
      </trkpt>
      <trkpt lat="48.221142" lon="11.06928">
        <ele>542.8</ele>
        <time>2025-02-09T13:27:18.517000Z</time>
      </trkpt>
      <trkpt lat="48.221455" lon="11.0694">
        <ele>542.6</ele>
        <time>2025-02-09T13:27:51.309000Z</time>
      </trkpt>
      <trkpt lat="48.221608" lon="11.069475">
        <ele>542.4</ele>
        <time>2025-02-09T13:28:07.763000Z</time>
      </trkpt>
      <trkpt lat="48.221828" lon="11.069574">
        <ele>542.1</ele>
        <time>2025-02-09T13:28:31.501000Z</time>
      </trkpt>
      <trkpt lat="48.22183" lon="11.06966">
        <ele>542</ele>
        <time>2025-02-09T13:28:37.445000Z</time>
      </trkpt>
      <trkpt lat="48.222152" lon="11.069814">
        <ele>541.5</ele>
        <time>2025-02-09T13:29:12.432000Z</time>
      </trkpt>
      <trkpt lat="48.222525" lon="11.069951">
        <ele>540.8</ele>
        <time>2025-02-09T13:29:52.127000Z</time>
      </trkpt>
      <trkpt lat="48.223647" lon="11.069899">
        <ele>539.1</ele>
        <time>2025-02-09T13:31:47.973000Z</time>
      </trkpt>
      <trkpt lat="48.224008" lon="11.070198">
        <ele>538.7</ele>
        <time>2025-02-09T13:32:30.150000Z</time>
      </trkpt>
      <trkpt lat="48.224199" lon="11.070282">
        <ele>538.6</ele>
        <time>2025-02-09T13:32:50.413000Z</time>
      </trkpt>
      <trkpt lat="48.224574" lon="11.070356">
        <ele>538.4</ele>
        <time>2025-02-09T13:33:28.693000Z</time>
      </trkpt>
      <trkpt lat="48.224893" lon="11.070511">
        <ele>538.3</ele>
        <time>2025-02-09T13:34:02.346000Z</time>
      </trkpt>
      <trkpt lat="48.227844" lon="11.070104">
        <ele>539.2</ele>
        <time>2025-02-09T13:39:02.439000Z</time>
      </trkpt>
      <trkpt lat="48.228904" lon="11.069882">
        <ele>538.3</ele>
        <time>2025-02-09T13:40:51.407000Z</time>
      </trkpt>
      <trkpt lat="48.229205" lon="11.069883">
        <ele>537.8</ele>
        <time>2025-02-09T13:41:22.585000Z</time>
      </trkpt>
      <trkpt lat="48.230335" lon="11.069564">
        <ele>535.1</ele>
        <time>2025-02-09T13:43:23.253000Z</time>
      </trkpt>
      <trkpt lat="48.23067" lon="11.069523">
        <ele>534.3</ele>
        <time>2025-02-09T13:43:58.547000Z</time>
      </trkpt>
      <trkpt lat="48.23072" lon="11.068288">
        <ele>533</ele>
        <time>2025-02-09T13:45:23.864000Z</time>
      </trkpt>
      <trkpt lat="48.230826" lon="11.067883">
        <ele>532.7</ele>
        <time>2025-02-09T13:45:53.434000Z</time>
      </trkpt>
      <trkpt lat="48.230928" lon="11.067251">
        <ele>532.5</ele>
        <time>2025-02-09T13:46:37.302000Z</time>
      </trkpt>
      <trkpt lat="48.231074" lon="11.066992">
        <ele>532.3</ele>
        <time>2025-02-09T13:47:00.222000Z</time>
      </trkpt>
      <trkpt lat="48.231144" lon="11.066633">
        <ele>532.2</ele>
        <time>2025-02-09T13:47:25.432000Z</time>
      </trkpt>
      <trkpt lat="48.231414" lon="11.066477">
        <ele>532.1</ele>
        <time>2025-02-09T13:47:54.655000Z</time>
      </trkpt>
      <trkpt lat="48.231503" lon="11.066474">
        <ele>532</ele>
        <time>2025-02-09T13:48:03.551000Z</time>
      </trkpt>
      <trkpt lat="48.231825" lon="11.066694">
        <ele>532</ele>
        <time>2025-02-09T13:48:39.112000Z</time>
      </trkpt>
      <trkpt lat="48.231894" lon="11.066694">
        <ele>532</ele>
        <time>2025-02-09T13:48:46.040000Z</time>
      </trkpt>
      <trkpt lat="48.232148" lon="11.066554">
        <ele>532</ele>
        <time>2025-02-09T13:49:13.139000Z</time>
      </trkpt>
      <trkpt lat="48.232349" lon="11.066387">
        <ele>531.9</ele>
        <time>2025-02-09T13:49:36.202000Z</time>
      </trkpt>
      <trkpt lat="48.232611" lon="11.066288">
        <ele>531.9</ele>
        <time>2025-02-09T13:50:03.320000Z</time>
      </trkpt>
      <trkpt lat="48.232734" lon="11.066515">
        <ele>531.9</ele>
        <time>2025-02-09T13:50:22.931000Z</time>
      </trkpt>
      <trkpt lat="48.232858" lon="11.066446">
        <ele>531.9</ele>
        <time>2025-02-09T13:50:36.257000Z</time>
      </trkpt>
      <trkpt lat="48.232866" lon="11.066483">
        <ele>531.9</ele>
        <time>2025-02-09T13:50:38.837000Z</time>
      </trkpt>
      <trkpt lat="48.232883" lon="11.066587">
        <ele>531.9</ele>
        <time>2025-02-09T13:50:46.066000Z</time>
      </trkpt>
      <trkpt lat="48.232891" lon="11.066658">
        <ele>532</ele>
        <time>2025-02-09T13:50:50.992000Z</time>
      </trkpt>
      <trkpt lat="48.232883" lon="11.066587">
        <ele>532</ele>
        <time>2025-02-09T13:50:55.796000Z</time>
      </trkpt>
      <trkpt lat="48.232866" lon="11.066483">
        <ele>532</ele>
        <time>2025-02-09T13:51:03.116000Z</time>
      </trkpt>
      <trkpt lat="48.232858" lon="11.066446">
        <ele>532</ele>
        <time>2025-02-09T13:51:05.769000Z</time>
      </trkpt>
      <trkpt lat="48.233534" lon="11.066003">
        <ele>532.4</ele>
        <time>2025-02-09T13:52:20.842000Z</time>
      </trkpt>
      <trkpt lat="48.233391" lon="11.065509">
        <ele>532.5</ele>
        <time>2025-02-09T13:52:57.190000Z</time>
      </trkpt>
      <trkpt lat="48.23355" lon="11.065533">
        <ele>532.5</ele>
        <time>2025-02-09T13:53:13.336000Z</time>
      </trkpt>
      <trkpt lat="48.233672" lon="11.065551">
        <ele>532.5</ele>
        <time>2025-02-09T13:53:25.706000Z</time>
      </trkpt>
      <trkpt lat="48.233785" lon="11.065535">
        <ele>532.6</ele>
        <time>2025-02-09T13:53:37.165000Z</time>
      </trkpt>
      <trkpt lat="48.233678" lon="11.065318">
        <ele>532.6</ele>
        <time>2025-02-09T13:53:55.360000Z</time>
      </trkpt>
      <trkpt lat="48.233785" lon="11.065535">
        <ele>532.7</ele>
        <time>2025-02-09T13:54:13.407000Z</time>
      </trkpt>
      <trkpt lat="48.234006" lon="11.065455">
        <ele>532.6</ele>
        <time>2025-02-09T13:54:36.360000Z</time>
      </trkpt>
      <trkpt lat="48.234181" lon="11.06529">
        <ele>532.4</ele>
        <time>2025-02-09T13:54:57.275000Z</time>
      </trkpt>
      <trkpt lat="48.234374" lon="11.065102">
        <ele>532.2</ele>
        <time>2025-02-09T13:55:20.855000Z</time>
      </trkpt>
      <trkpt lat="48.234518" lon="11.065039">
        <ele>532.1</ele>
        <time>2025-02-09T13:55:36.112000Z</time>
      </trkpt>
      <trkpt lat="48.234577" lon="11.065044">
        <ele>532</ele>
        <time>2025-02-09T13:55:42.162000Z</time>
      </trkpt>
      <trkpt lat="48.234714" lon="11.065079">
        <ele>531.9</ele>
        <time>2025-02-09T13:55:56.254000Z</time>
      </trkpt>
      <trkpt lat="48.234887" lon="11.065208">
        <ele>531.7</ele>
        <time>2025-02-09T13:56:15.922000Z</time>
      </trkpt>
      <trkpt lat="48.235232" lon="11.065492">
        <ele>531.3</ele>
        <time>2025-02-09T13:56:56.121000Z</time>
      </trkpt>
      <trkpt lat="48.235311" lon="11.065564">
        <ele>531.2</ele>
        <time>2025-02-09T13:57:05.593000Z</time>
      </trkpt>
      <trkpt lat="48.235524" lon="11.065762">
        <ele>530.9</ele>
        <time>2025-02-09T13:57:31.431000Z</time>
      </trkpt>
      <trkpt lat="48.235749" lon="11.065957">
        <ele>530.5</ele>
        <time>2025-02-09T13:57:58.161000Z</time>
      </trkpt>
      <trkpt lat="48.235889" lon="11.066052">
        <ele>530.4</ele>
        <time>2025-02-09T13:58:13.691000Z</time>
      </trkpt>
      <trkpt lat="48.236021" lon="11.066091">
        <ele>530.4</ele>
        <time>2025-02-09T13:58:27.204000Z</time>
      </trkpt>
      <trkpt lat="48.236083" lon="11.066078">
        <ele>530.5</ele>
        <time>2025-02-09T13:58:33.594000Z</time>
      </trkpt>
      <trkpt lat="48.23631" lon="11.066004">
        <ele>530.7</ele>
        <time>2025-02-09T13:58:57.787000Z</time>
      </trkpt>
      <trkpt lat="48.236341" lon="11.065989">
        <ele>530.8</ele>
        <time>2025-02-09T13:59:01.317000Z</time>
      </trkpt>
      <trkpt lat="48.236542" lon="11.065899">
        <ele>531.2</ele>
        <time>2025-02-09T13:59:23.683000Z</time>
      </trkpt>
      <trkpt lat="48.236738" lon="11.065898">
        <ele>531.7</ele>
        <time>2025-02-09T13:59:44.868000Z</time>
      </trkpt>
      <trkpt lat="48.236881" lon="11.065956">
        <ele>532.1</ele>
        <time>2025-02-09T14:00:01.101000Z</time>
      </trkpt>
      <trkpt lat="48.236935" lon="11.066011">
        <ele>532.3</ele>
        <time>2025-02-09T14:00:08.418000Z</time>
      </trkpt>
      <trkpt lat="48.237104" lon="11.066161">
        <ele>532.9</ele>
        <time>2025-02-09T14:00:30.432000Z</time>
      </trkpt>
      <trkpt lat="48.237309" lon="11.066286">
        <ele>533.9</ele>
        <time>2025-02-09T14:00:55.791000Z</time>
      </trkpt>
      <trkpt lat="48.237357" lon="11.066508">
        <ele>534.6</ele>
        <time>2025-02-09T14:01:13.861000Z</time>
      </trkpt>
      <trkpt lat="48.237375" lon="11.066779">
        <ele>535.6</ele>
        <time>2025-02-09T14:01:35.510000Z</time>
      </trkpt>
      <trkpt lat="48.237378" lon="11.066828">
        <ele>535.8</ele>
        <time>2025-02-09T14:01:39.424000Z</time>
      </trkpt>
      <trkpt lat="48.237389" lon="11.066997">
        <ele>536.5</ele>
        <time>2025-02-09T14:01:53.059000Z</time>
      </trkpt>
      <trkpt lat="48.237391" lon="11.067017">
        <ele>536.6</ele>
        <time>2025-02-09T14:01:54.699000Z</time>
      </trkpt>
      <trkpt lat="48.237397" lon="11.067117">
        <ele>537</ele>
        <time>2025-02-09T14:02:02.817000Z</time>
      </trkpt>
      <trkpt lat="48.237407" lon="11.06726">
        <ele>537.5</ele>
        <time>2025-02-09T14:02:14.362000Z</time>
      </trkpt>
      <trkpt lat="48.237409" lon="11.067284">
        <ele>537.6</ele>
        <time>2025-02-09T14:02:16.324000Z</time>
      </trkpt>
      <trkpt lat="48.237424" lon="11.067448">
        <ele>538.2</ele>
        <time>2025-02-09T14:02:29.416000Z</time>
      </trkpt>
      <trkpt lat="48.237439" lon="11.067604">
        <ele>538.7</ele>
        <time>2025-02-09T14:02:41.680000Z</time>
      </trkpt>
      <trkpt lat="48.237441" lon="11.067626">
        <ele>538.8</ele>
        <time>2025-02-09T14:02:43.444000Z</time>
      </trkpt>
      <trkpt lat="48.237456" lon="11.067787">
        <ele>539.3</ele>
        <time>2025-02-09T14:02:55.871000Z</time>
      </trkpt>
      <trkpt lat="48.23747" lon="11.067933">
        <ele>539.7</ele>
        <time>2025-02-09T14:03:07.046000Z</time>
      </trkpt>
      <trkpt lat="48.237476" lon="11.068007">
        <ele>539.8</ele>
        <time>2025-02-09T14:03:12.597000Z</time>
      </trkpt>
      <trkpt lat="48.237482" lon="11.068074">
        <ele>540</ele>
        <time>2025-02-09T14:03:17.679000Z</time>
      </trkpt>
      <trkpt lat="48.237499" lon="11.068391">
        <ele>540.6</ele>
        <time>2025-02-09T14:03:40.932000Z</time>
      </trkpt>
      <trkpt lat="48.237519" lon="11.068757">
        <ele>541</ele>
        <time>2025-02-09T14:04:07.001000Z</time>
      </trkpt>
      <trkpt lat="48.237696" lon="11.068766">
        <ele>541.2</ele>
        <time>2025-02-09T14:04:25.609000Z</time>
      </trkpt>
      <trkpt lat="48.237749" lon="11.068769">
        <ele>541.3</ele>
        <time>2025-02-09T14:04:31.041000Z</time>
      </trkpt>
      <trkpt lat="48.23781" lon="11.068772">
        <ele>541.3</ele>
        <time>2025-02-09T14:04:37.251000Z</time>
      </trkpt>
      <trkpt lat="48.237828" lon="11.068773">
        <ele>541.3</ele>
        <time>2025-02-09T14:04:39.057000Z</time>
      </trkpt>
      <trkpt lat="48.237986" lon="11.068781">
        <ele>541.3</ele>
        <time>2025-02-09T14:04:54.951000Z</time>
      </trkpt>
      <trkpt lat="48.23806" lon="11.068784">
        <ele>541.3</ele>
        <time>2025-02-09T14:05:02.447000Z</time>
      </trkpt>
      <trkpt lat="48.238091" lon="11.068786">
        <ele>541.3</ele>
        <time>2025-02-09T14:05:05.528000Z</time>
      </trkpt>
      <trkpt lat="48.238206" lon="11.068791">
        <ele>541.2</ele>
        <time>2025-02-09T14:05:17.195000Z</time>
      </trkpt>
      <trkpt lat="48.238256" lon="11.068794">
        <ele>541.1</ele>
        <time>2025-02-09T14:05:22.329000Z</time>
      </trkpt>
      <trkpt lat="48.238281" lon="11.068798">
        <ele>541.1</ele>
        <time>2025-02-09T14:05:24.931000Z</time>
      </trkpt>
      <trkpt lat="48.238394" lon="11.068817">
        <ele>541</ele>
        <time>2025-02-09T14:05:36.526000Z</time>
      </trkpt>
      <trkpt lat="48.238484" lon="11.068832">
        <ele>540.8</ele>
        <time>2025-02-09T14:05:45.931000Z</time>
      </trkpt>
      <trkpt lat="48.23868" lon="11.068864">
        <ele>540.6</ele>
        <time>2025-02-09T14:06:06.253000Z</time>
      </trkpt>
      <trkpt lat="48.238866" lon="11.068895">
        <ele>540.4</ele>
        <time>2025-02-09T14:06:25.373000Z</time>
      </trkpt>
      <trkpt lat="48.238898" lon="11.0689">
        <ele>540.3</ele>
        <time>2025-02-09T14:06:28.683000Z</time>
      </trkpt>
      <trkpt lat="48.238935" lon="11.068906">
        <ele>540.3</ele>
        <time>2025-02-09T14:06:32.474000Z</time>
      </trkpt>
      <trkpt lat="48.239121" lon="11.068926">
        <ele>540.2</ele>
        <time>2025-02-09T14:06:51.377000Z</time>
      </trkpt>
      <trkpt lat="48.239128" lon="11.068927">
        <ele>540.2</ele>
        <time>2025-02-09T14:06:52.099000Z</time>
      </trkpt>
      <trkpt lat="48.23933" lon="11.068957">
        <ele>540.2</ele>
        <time>2025-02-09T14:07:12.374000Z</time>
      </trkpt>
      <trkpt lat="48.239591" lon="11.068995">
        <ele>540.3</ele>
        <time>2025-02-09T14:07:39.051000Z</time>
      </trkpt>
      <trkpt lat="48.23958" lon="11.069405">
        <ele>540.6</ele>
        <time>2025-02-09T14:08:07.611000Z</time>
      </trkpt>
      <trkpt lat="48.239568" lon="11.06988">
        <ele>541.1</ele>
        <time>2025-02-09T14:08:41.052000Z</time>
      </trkpt>
      <trkpt lat="48.239543" lon="11.070295">
        <ele>541.6</ele>
        <time>2025-02-09T14:09:10.636000Z</time>
      </trkpt>
      <trkpt lat="48.239426" lon="11.070284">
        <ele>541.9</ele>
        <time>2025-02-09T14:09:23.236000Z</time>
      </trkpt>
      <trkpt lat="48.239427" lon="11.070201">
        <ele>542</ele>
        <time>2025-02-09T14:09:29.124000Z</time>
      </trkpt>
      <trkpt lat="48.239115" lon="11.07019">
        <ele>542.5</ele>
        <time>2025-02-09T14:10:02.212000Z</time>
      </trkpt>
    </trkseg>
  </trk>
</gpx>