<?xml version="1.0" encoding="UTF-8"?>
<gpx xmlns="http://www.topografix.com/GPX/1/1" xmlns:xsi="http://www.w3.org/2001/XMLSchema-instance" xsi:schemaLocation="http://www.topografix.com/GPX/1/1 http://www.topografix.com/GPX/1/1/gpx.xsd" version="1.1" creator="Robert Kampf">
  <metadata>
    <name>Kloster Holzen – Fluss Schmutter Runde von Nordendorf</name>
    <desc>Distance: 9.058km, Estimated duration: 2.35h, Elevation up: 54.90226305268038m, Elevation down: 54.90226305268021m, Grade: moderate</desc>
    <author>
      <name>Robert Kampf</name>
      <link href="https://www.komoot.de/user/4125295338453">
        <text>View Robert Kampf's Profile on Komoot</text>
      </link>
    </author>
    <link href="https://www.komoot.de/tour/3006914632">
      <text>View tour on Komoot</text>
    </link>
  </metadata>
  <wpt lat="48.593248" lon="10.837332">
    <name>Nordendorf</name>
    <cmt></cmt>
    <desc>Accessible</desc>
    <src>Komoot</src>
    <type>POI</type>
  </wpt>
  <wpt lat="48.594654" lon="10.823552">
    <ele>419</ele>
    <name>Schmutter River</name>
    <cmt>https://d2exd72xrrp1s7.cloudfront.net/www/000/1ka/ox/ox1g0v4yo2ie1kep2qaeodou95n08zxun-uhi97331386/0</cmt>
    <desc></desc>
    <src>Komoot</src>
    <link href="https://www.komoot.de/highlight/7145707">
      <text>View POI on Komoot</text>
    </link>
    <type>Highlight</type>
  </wpt>
  <wpt lat="48.600009" lon="10.817514">
    <ele>420.3</ele>
    <name>View of Kloster Holzen</name>
    <cmt>https://d2exd72xrrp1s7.cloudfront.net/www/000/1k8/17/17drf76tet323z8z6f646szb056ori7rq-uhi81016664/0</cmt>
    <desc></desc>
    <src>Komoot</src>
    <link href="https://www.komoot.de/highlight/7148819">
      <text>View POI on Komoot</text>
    </link>
    <type>Highlight</type>
  </wpt>
  <wpt lat="48.601227" lon="10.815243">
    <ele>473.5</ele>
    <name>Kloster Holzen</name>
    <cmt>https://d2exd72xrrp1s7.cloudfront.net/www/000/1k8/rq/rqj6mm1lkxm87hnfigcsqnsm4xsdwta7-uhi70591330/0</cmt>
    <desc>HePeMa: Kloster Holzen &amp; Karlsberg – historischer Überblick

Das heutige Kloster Holzen liegt auf dem Karlsberg, einer rund 20 Meter erhöhten Anhöhe über dem Schmuttertal bei Allmannshofen. Der Name „Karlsberg“ geht auf eine Kapelle zurück, die Anfang des 17. Jahrhunderts zu Ehren des hl. Karl Borromäus errichtet wurde.

Ursprünglich befand sich das im 12. Jahrhundert gegründete Benediktinerinnenkloster im Tal nahe der Schmutter. Wegen Hochwassergefahr und baulichem Verfall entschied man sich Ende des 17. Jahrhunderts für einen Neubau auf dem höher gelegenen Plateau. Die Klosteranlage mit der weithin sichtbaren barocken Kirche St. Johannes der Täufer entstand zwischen 1696 und 1710 nach Plänen des Vorarlberger Baumeisters Franz Beer.

Nach der Säkularisation 1803 wurde die Anlage zunächst weltlich genutzt. Seit 1927 gehört sie dem Dominikus-Ringeisen-Werk und dient heute als soziale Einrichtung, Hotel- und Tagungsstandort.

Kloster Holzen und der Karlsberg bilden damit ein historisch gewachsenes Ensemble, das Landschaft, Ortsgeschichte und Barockarchitektur der Region eindrucksvoll verbindet.

schwabenmedia.de/Kirchen/Landkreis-augsburg/St-johannes-holzen.php

Lageplan Kloster Holzen (PDF)
kloster-holzen.de/media/78971/lageplan-kloster-holzen-2784639.pdf</desc>
    <src>Komoot</src>
    <link href="https://www.komoot.de/highlight/6517523">
      <text>View POI on Komoot</text>
    </link>
    <type>Highlight</type>
  </wpt>
  <wpt lat="48.605795" lon="10.807036">
    <ele>489.9</ele>
    <name>Gnome Trail</name>
    <cmt>https://d2exd72xrrp1s7.cloudfront.net/www/000/1k7/nw/nwjxnmsu37d6kgkhv43upj8e4ruc2k8u-uhi67095129/0</cmt>
    <desc>Helga☺️🚴🏻‍♀️: Sehr schöner Weg von Allmannshofen nach Kloster Holzen. Für Kinder interessant, sehr viele Wichtel sind integriert, man muss schauen das man die vielen findet.
――――――――――
Reinhard: Hier geht's zum Wichtelweg</desc>
    <src>Komoot</src>
    <link href="https://www.komoot.de/highlight/6276894">
      <text>View POI on Komoot</text>
    </link>
    <type>Highlight</type>
  </wpt>
  <wpt lat="48.613" lon="10.81429">
    <ele>437.1</ele>
    <name>Ecce Homo Shrine at Moritzkapelle</name>
    <cmt>https://d2exd72xrrp1s7.cloudfront.net/www/000/1k7/13/13fp4qs2ahicqqvsizdha6uf84rkirtuc-uhi66926517/0</cmt>
    <desc></desc>
    <src>Komoot</src>
    <link href="https://www.komoot.de/highlight/4344171">
      <text>View POI on Komoot</text>
    </link>
    <type>Highlight</type>
  </wpt>
  <wpt lat="48.613952" lon="10.81656">
    <ele>420</ele>
    <name>Schmutter River</name>
    <cmt>https://d2exd72xrrp1s7.cloudfront.net/www/000/1k5/1i/1igh9dhsabqpk1kawmjbmp12qg3pgrq6w8-uhi30170255/0</cmt>
    <desc>Lenaaaa: An mehreren Stellen auf dieser Runde trifft man auf die Schmutter</desc>
    <src>Komoot</src>
    <link href="https://www.komoot.de/highlight/3024572">
      <text>View POI on Komoot</text>
    </link>
    <type>Highlight</type>
  </wpt>
  <wpt lat="48.610856" lon="10.828217">
    <ele>469</ele>
    <name>Gut Schwaighof</name>
    <cmt>https://d2exd72xrrp1s7.cloudfront.net/www/000/1k5/1i/1i1sklizclm8t1u0laiikrhz6t3p3pavlo-uhi29825598/0</cmt>
    <desc>Siggi: Das Gut Schwaighof ist ein bayerisches Trakehner-Gestüt.
Außerdem sind auf dem Gut eine Molkerei, ein Grünland- und Feldbaubetrieb sowie eine Gärtnerei angesiedelt. Die Gutsanlage steht als Gesamtensemble unter Denkmalschutz.</desc>
    <src>Komoot</src>
    <link href="https://www.komoot.de/highlight/3007858">
      <text>View POI on Komoot</text>
    </link>
    <type>Highlight</type>
  </wpt>
  <trk>
    <name>Kloster Holzen – Fluss Schmutter Runde von Nordendorf</name>
    <desc>Distance: 9.058km, Estimated duration: 2.35h, Elevation up: 54.90226305268038m, Elevation down: 54.90226305268021m, Grade: moderate</desc>
    <link href="https://www.komoot.de/tour/3006914632">
      <text>View tour on Komoot</text>
    </link>
    <trkseg>
      <trkpt lat="48.593222" lon="10.837385">
        <ele>421.5</ele>
        <time>2026-06-02T13:00:03.863000Z</time>
      </trkpt>
      <trkpt lat="48.593416" lon="10.837362">
        <ele>421.5</ele>
        <time>2026-06-02T13:00:23.324000Z</time>
      </trkpt>
      <trkpt lat="48.593418" lon="10.837435">
        <ele>421.5</ele>
        <time>2026-06-02T13:00:28.149000Z</time>
      </trkpt>
      <trkpt lat="48.593471" lon="10.83743">
        <ele>421.5</ele>
        <time>2026-06-02T13:00:33.455000Z</time>
      </trkpt>
      <trkpt lat="48.593524" lon="10.837426">
        <ele>421.5</ele>
        <time>2026-06-02T13:00:38.877000Z</time>
      </trkpt>
      <trkpt lat="48.593527" lon="10.837197">
        <ele>421.6</ele>
        <time>2026-06-02T13:00:54.133000Z</time>
      </trkpt>
      <trkpt lat="48.593522" lon="10.837093">
        <ele>421.6</ele>
        <time>2026-06-02T13:01:01.089000Z</time>
      </trkpt>
      <trkpt lat="48.593513" lon="10.837057">
        <ele>421.6</ele>
        <time>2026-06-02T13:01:03.643000Z</time>
      </trkpt>
      <trkpt lat="48.593511" lon="10.836977">
        <ele>421.6</ele>
        <time>2026-06-02T13:01:09.009000Z</time>
      </trkpt>
      <trkpt lat="48.593519" lon="10.836952">
        <ele>421.6</ele>
        <time>2026-06-02T13:01:10.846000Z</time>
      </trkpt>
      <trkpt lat="48.593516" lon="10.836792">
        <ele>421.6</ele>
        <time>2026-06-02T13:01:21.623000Z</time>
      </trkpt>
      <trkpt lat="48.593516" lon="10.836755">
        <ele>421.6</ele>
        <time>2026-06-02T13:01:24.076000Z</time>
      </trkpt>
      <trkpt lat="48.593443" lon="10.836654">
        <ele>421.7</ele>
        <time>2026-06-02T13:01:34.043000Z</time>
      </trkpt>
      <trkpt lat="48.593611" lon="10.836346">
        <ele>421.7</ele>
        <time>2026-06-02T13:02:00.664000Z</time>
      </trkpt>
      <trkpt lat="48.594026" lon="10.835541">
        <ele>421.9</ele>
        <time>2026-06-02T13:03:08.731000Z</time>
      </trkpt>
      <trkpt lat="48.594067" lon="10.835342">
        <ele>421.9</ele>
        <time>2026-06-02T13:03:22.769000Z</time>
      </trkpt>
      <trkpt lat="48.594116" lon="10.835339">
        <ele>422</ele>
        <time>2026-06-02T13:03:27.803000Z</time>
      </trkpt>
      <trkpt lat="48.594335" lon="10.834831">
        <ele>422.2</ele>
        <time>2026-06-02T13:04:08.790000Z</time>
      </trkpt>
      <trkpt lat="48.594498" lon="10.834283">
        <ele>422.4</ele>
        <time>2026-06-02T13:04:49.016000Z</time>
      </trkpt>
      <trkpt lat="48.594565" lon="10.834348">
        <ele>422.3</ele>
        <time>2026-06-02T13:04:57.039000Z</time>
      </trkpt>
      <trkpt lat="48.594592" lon="10.834261">
        <ele>422.3</ele>
        <time>2026-06-02T13:05:03.405000Z</time>
      </trkpt>
      <trkpt lat="48.594696" lon="10.833937">
        <ele>422.4</ele>
        <time>2026-06-02T13:05:27.306000Z</time>
      </trkpt>
      <trkpt lat="48.594762" lon="10.833706">
        <ele>422.4</ele>
        <time>2026-06-02T13:05:44.131000Z</time>
      </trkpt>
      <trkpt lat="48.59483" lon="10.833444">
        <ele>422.5</ele>
        <time>2026-06-02T13:06:02.975000Z</time>
      </trkpt>
      <trkpt lat="48.594896" lon="10.833126">
        <ele>422.5</ele>
        <time>2026-06-02T13:06:25.123000Z</time>
      </trkpt>
      <trkpt lat="48.594906" lon="10.832857">
        <ele>422.5</ele>
        <time>2026-06-02T13:06:42.984000Z</time>
      </trkpt>
      <trkpt lat="48.594887" lon="10.832697">
        <ele>422.5</ele>
        <time>2026-06-02T13:06:53.685000Z</time>
      </trkpt>
      <trkpt lat="48.594817" lon="10.832431">
        <ele>422.4</ele>
        <time>2026-06-02T13:07:12.834000Z</time>
      </trkpt>
      <trkpt lat="48.594675" lon="10.831867">
        <ele>422.2</ele>
        <time>2026-06-02T13:07:53.289000Z</time>
      </trkpt>
      <trkpt lat="48.594681" lon="10.831708">
        <ele>422.1</ele>
        <time>2026-06-02T13:08:04.031000Z</time>
      </trkpt>
      <trkpt lat="48.594736" lon="10.831592">
        <ele>422</ele>
        <time>2026-06-02T13:08:13.585000Z</time>
      </trkpt>
      <trkpt lat="48.594936" lon="10.831375">
        <ele>421.8</ele>
        <time>2026-06-02T13:08:38.647000Z</time>
      </trkpt>
      <trkpt lat="48.594784" lon="10.830745">
        <ele>421.4</ele>
        <time>2026-06-02T13:09:23.887000Z</time>
      </trkpt>
      <trkpt lat="48.594618" lon="10.83003">
        <ele>420.9</ele>
        <time>2026-06-02T13:10:15.123000Z</time>
      </trkpt>
      <trkpt lat="48.594537" lon="10.829643">
        <ele>420.6</ele>
        <time>2026-06-02T13:10:42.548000Z</time>
      </trkpt>
      <trkpt lat="48.594467" lon="10.829273">
        <ele>420.4</ele>
        <time>2026-06-02T13:11:08.539000Z</time>
      </trkpt>
      <trkpt lat="48.594443" lon="10.829147">
        <ele>420.3</ele>
        <time>2026-06-02T13:11:17.384000Z</time>
      </trkpt>
      <trkpt lat="48.594399" lon="10.828957">
        <ele>420.2</ele>
        <time>2026-06-02T13:11:30.889000Z</time>
      </trkpt>
      <trkpt lat="48.594316" lon="10.828599">
        <ele>420.1</ele>
        <time>2026-06-02T13:11:56.324000Z</time>
      </trkpt>
      <trkpt lat="48.594137" lon="10.827968">
        <ele>419.8</ele>
        <time>2026-06-02T13:12:42.262000Z</time>
      </trkpt>
      <trkpt lat="48.59408" lon="10.827889">
        <ele>419.8</ele>
        <time>2026-06-02T13:12:50.125000Z</time>
      </trkpt>
      <trkpt lat="48.594115" lon="10.827622">
        <ele>419.7</ele>
        <time>2026-06-02T13:13:08.311000Z</time>
      </trkpt>
      <trkpt lat="48.59415" lon="10.827475">
        <ele>419.7</ele>
        <time>2026-06-02T13:13:18.692000Z</time>
      </trkpt>
      <trkpt lat="48.594299" lon="10.827127">
        <ele>419.5</ele>
        <time>2026-06-02T13:13:46.421000Z</time>
      </trkpt>
      <trkpt lat="48.594421" lon="10.82697">
        <ele>419.5</ele>
        <time>2026-06-02T13:14:02.529000Z</time>
      </trkpt>
      <trkpt lat="48.594406" lon="10.826798">
        <ele>419.5</ele>
        <time>2026-06-02T13:14:14.095000Z</time>
      </trkpt>
      <trkpt lat="48.594387" lon="10.826371">
        <ele>419.4</ele>
        <time>2026-06-02T13:14:42.588000Z</time>
      </trkpt>
      <trkpt lat="48.594323" lon="10.826263">
        <ele>419.3</ele>
        <time>2026-06-02T13:14:52.234000Z</time>
      </trkpt>
      <trkpt lat="48.59414" lon="10.825993">
        <ele>419.3</ele>
        <time>2026-06-02T13:15:17.941000Z</time>
      </trkpt>
      <trkpt lat="48.594125" lon="10.825975">
        <ele>419.3</ele>
        <time>2026-06-02T13:15:19.879000Z</time>
      </trkpt>
      <trkpt lat="48.594268" lon="10.825567">
        <ele>419.2</ele>
        <time>2026-06-02T13:15:50.615000Z</time>
      </trkpt>
      <trkpt lat="48.594574" lon="10.823836">
        <ele>418.9</ele>
        <time>2026-06-02T13:17:49.737000Z</time>
      </trkpt>
      <trkpt lat="48.594654" lon="10.823552">
        <ele>418.9</ele>
        <time>2026-06-02T13:18:10.201000Z</time>
      </trkpt>
      <trkpt lat="48.594878" lon="10.82305">
        <ele>419</ele>
        <time>2026-06-02T13:18:50.376000Z</time>
      </trkpt>
      <trkpt lat="48.594884" lon="10.822988">
        <ele>419</ele>
        <time>2026-06-02T13:18:54.582000Z</time>
      </trkpt>
      <trkpt lat="48.595185" lon="10.822798">
        <ele>419</ele>
        <time>2026-06-02T13:19:27.398000Z</time>
      </trkpt>
      <trkpt lat="48.595768" lon="10.822316">
        <ele>419.1</ele>
        <time>2026-06-02T13:20:34.028000Z</time>
      </trkpt>
      <trkpt lat="48.597506" lon="10.820096">
        <ele>418.9</ele>
        <time>2026-06-02T13:24:22.055000Z</time>
      </trkpt>
      <trkpt lat="48.597882" lon="10.81955">
        <ele>419</ele>
        <time>2026-06-02T13:25:14.451000Z</time>
      </trkpt>
      <trkpt lat="48.597981" lon="10.819459">
        <ele>419</ele>
        <time>2026-06-02T13:25:26.087000Z</time>
      </trkpt>
      <trkpt lat="48.598491" lon="10.819159">
        <ele>419.1</ele>
        <time>2026-06-02T13:26:21.351000Z</time>
      </trkpt>
      <trkpt lat="48.598646" lon="10.819012">
        <ele>419.2</ele>
        <time>2026-06-02T13:26:39.807000Z</time>
      </trkpt>
      <trkpt lat="48.598858" lon="10.818788">
        <ele>419.2</ele>
        <time>2026-06-02T13:27:05.977000Z</time>
      </trkpt>
      <trkpt lat="48.599051" lon="10.818529">
        <ele>419.3</ele>
        <time>2026-06-02T13:27:31.998000Z</time>
      </trkpt>
      <trkpt lat="48.600009" lon="10.817514">
        <ele>420</ele>
        <time>2026-06-02T13:29:31.585000Z</time>
      </trkpt>
      <trkpt lat="48.599975" lon="10.817065">
        <ele>420.5</ele>
        <time>2026-06-02T13:30:03.188000Z</time>
      </trkpt>
      <trkpt lat="48.600028" lon="10.817049">
        <ele>420.6</ele>
        <time>2026-06-02T13:30:08.955000Z</time>
      </trkpt>
      <trkpt lat="48.600081" lon="10.817034">
        <ele>420.7</ele>
        <time>2026-06-02T13:30:14.724000Z</time>
      </trkpt>
      <trkpt lat="48.600048" lon="10.816655">
        <ele>421.3</ele>
        <time>2026-06-02T13:30:42.200000Z</time>
      </trkpt>
      <trkpt lat="48.600064" lon="10.816597">
        <ele>421.4</ele>
        <time>2026-06-02T13:30:46.797000Z</time>
      </trkpt>
      <trkpt lat="48.60019" lon="10.816489">
        <ele>421.9</ele>
        <time>2026-06-02T13:31:02.904000Z</time>
      </trkpt>
      <trkpt lat="48.600303" lon="10.816317">
        <ele>422.4</ele>
        <time>2026-06-02T13:31:20.753000Z</time>
      </trkpt>
      <trkpt lat="48.600407" lon="10.816175">
        <ele>422.9</ele>
        <time>2026-06-02T13:31:36.615000Z</time>
      </trkpt>
      <trkpt lat="48.601231" lon="10.815252">
        <ele>427.8</ele>
        <time>2026-06-02T13:33:36.153000Z</time>
      </trkpt>
      <trkpt lat="48.602167" lon="10.814205">
        <ele>434.6</ele>
        <time>2026-06-02T13:35:56.116000Z</time>
      </trkpt>
      <trkpt lat="48.602539" lon="10.813636">
        <ele>437.9</ele>
        <time>2026-06-02T13:37:00.598000Z</time>
      </trkpt>
      <trkpt lat="48.602886" lon="10.813001">
        <ele>441.4</ele>
        <time>2026-06-02T13:38:06.877000Z</time>
      </trkpt>
      <trkpt lat="48.603435" lon="10.811768">
        <ele>446.3</ele>
        <time>2026-06-02T13:40:02.452000Z</time>
      </trkpt>
      <trkpt lat="48.603718" lon="10.810996">
        <ele>448</ele>
        <time>2026-06-02T13:41:06.685000Z</time>
      </trkpt>
      <trkpt lat="48.604164" lon="10.809955">
        <ele>449.1</ele>
        <time>2026-06-02T13:42:32.765000Z</time>
      </trkpt>
      <trkpt lat="48.60491" lon="10.808215">
        <ele>449.4</ele>
        <time>2026-06-02T13:44:51.083000Z</time>
      </trkpt>
      <trkpt lat="48.60518" lon="10.807652">
        <ele>449.1</ele>
        <time>2026-06-02T13:45:37.781000Z</time>
      </trkpt>
      <trkpt lat="48.605753" lon="10.806732">
        <ele>448.4</ele>
        <time>2026-06-02T13:47:02.805000Z</time>
      </trkpt>
      <trkpt lat="48.605773" lon="10.806911">
        <ele>448.3</ele>
        <time>2026-06-02T13:47:14.976000Z</time>
      </trkpt>
      <trkpt lat="48.605785" lon="10.807038">
        <ele>448.2</ele>
        <time>2026-06-02T13:47:23.627000Z</time>
      </trkpt>
      <trkpt lat="48.605773" lon="10.806911">
        <ele>448.2</ele>
        <time>2026-06-02T13:47:32.205000Z</time>
      </trkpt>
      <trkpt lat="48.605753" lon="10.806732">
        <ele>448.2</ele>
        <time>2026-06-02T13:47:44.305000Z</time>
      </trkpt>
      <trkpt lat="48.606396" lon="10.805904">
        <ele>448.3</ele>
        <time>2026-06-02T13:49:09.562000Z</time>
      </trkpt>
      <trkpt lat="48.607492" lon="10.805022">
        <ele>449.4</ele>
        <time>2026-06-02T13:51:17.480000Z</time>
      </trkpt>
      <trkpt lat="48.607487" lon="10.805338">
        <ele>449.5</ele>
        <time>2026-06-02T13:51:38.725000Z</time>
      </trkpt>
      <trkpt lat="48.607421" lon="10.807891">
        <ele>448</ele>
        <time>2026-06-02T13:54:30.857000Z</time>
      </trkpt>
      <trkpt lat="48.607413" lon="10.808341">
        <ele>447.4</ele>
        <time>2026-06-02T13:55:01.807000Z</time>
      </trkpt>
      <trkpt lat="48.607489" lon="10.809933">
        <ele>444.5</ele>
        <time>2026-06-02T13:56:53.456000Z</time>
      </trkpt>
      <trkpt lat="48.607561" lon="10.809908">
        <ele>444.2</ele>
        <time>2026-06-02T13:57:01.411000Z</time>
      </trkpt>
      <trkpt lat="48.607655" lon="10.80995">
        <ele>443.9</ele>
        <time>2026-06-02T13:57:12.010000Z</time>
      </trkpt>
      <trkpt lat="48.607766" lon="10.80995">
        <ele>443.4</ele>
        <time>2026-06-02T13:57:24.029000Z</time>
      </trkpt>
      <trkpt lat="48.608919" lon="10.809849">
        <ele>437.9</ele>
        <time>2026-06-02T13:59:30.765000Z</time>
      </trkpt>
      <trkpt lat="48.608882" lon="10.810108">
        <ele>437.1</ele>
        <time>2026-06-02T13:59:49.935000Z</time>
      </trkpt>
      <trkpt lat="48.608865" lon="10.810443">
        <ele>436.2</ele>
        <time>2026-06-02T14:00:14.026000Z</time>
      </trkpt>
      <trkpt lat="48.60889" lon="10.810949">
        <ele>435</ele>
        <time>2026-06-02T14:00:50.008000Z</time>
      </trkpt>
      <trkpt lat="48.609037" lon="10.811806">
        <ele>434.8</ele>
        <time>2026-06-02T14:01:48.994000Z</time>
      </trkpt>
      <trkpt lat="48.609096" lon="10.812082">
        <ele>435.3</ele>
        <time>2026-06-02T14:02:09.852000Z</time>
      </trkpt>
      <trkpt lat="48.609105" lon="10.812278">
        <ele>435.8</ele>
        <time>2026-06-02T14:02:24.648000Z</time>
      </trkpt>
      <trkpt lat="48.609153" lon="10.812333">
        <ele>436.1</ele>
        <time>2026-06-02T14:02:31.566000Z</time>
      </trkpt>
      <trkpt lat="48.609189" lon="10.812335">
        <ele>436.2</ele>
        <time>2026-06-02T14:02:35.756000Z</time>
      </trkpt>
      <trkpt lat="48.609899" lon="10.811833">
        <ele>440.4</ele>
        <time>2026-06-02T14:04:08.630000Z</time>
      </trkpt>
      <trkpt lat="48.609987" lon="10.811736">
        <ele>441</ele>
        <time>2026-06-02T14:04:21.540000Z</time>
      </trkpt>
      <trkpt lat="48.610047" lon="10.81167">
        <ele>441.4</ele>
        <time>2026-06-02T14:04:30.342000Z</time>
      </trkpt>
      <trkpt lat="48.610165" lon="10.811391">
        <ele>442.5</ele>
        <time>2026-06-02T14:04:55.993000Z</time>
      </trkpt>
      <trkpt lat="48.610263" lon="10.810853">
        <ele>443.5</ele>
        <time>2026-06-02T14:05:36.530000Z</time>
      </trkpt>
      <trkpt lat="48.610468" lon="10.810799">
        <ele>443.6</ele>
        <time>2026-06-02T14:05:57.716000Z</time>
      </trkpt>
      <trkpt lat="48.610553" lon="10.810818">
        <ele>443.6</ele>
        <time>2026-06-02T14:06:06.423000Z</time>
      </trkpt>
      <trkpt lat="48.61107" lon="10.810778">
        <ele>442.1</ele>
        <time>2026-06-02T14:07:01.292000Z</time>
      </trkpt>
      <trkpt lat="48.611335" lon="10.810756">
        <ele>440.7</ele>
        <time>2026-06-02T14:07:30.686000Z</time>
      </trkpt>
      <trkpt lat="48.611457" lon="10.810735">
        <ele>439.9</ele>
        <time>2026-06-02T14:07:44.507000Z</time>
      </trkpt>
      <trkpt lat="48.611456" lon="10.811359">
        <ele>437.1</ele>
        <time>2026-06-02T14:08:31.439000Z</time>
      </trkpt>
      <trkpt lat="48.611455" lon="10.811461">
        <ele>436.6</ele>
        <time>2026-06-02T14:08:39.155000Z</time>
      </trkpt>
      <trkpt lat="48.611484" lon="10.812252">
        <ele>433</ele>
        <time>2026-06-02T14:09:38.789000Z</time>
      </trkpt>
      <trkpt lat="48.611675" lon="10.814316">
        <ele>426.3</ele>
        <time>2026-06-02T14:12:10.385000Z</time>
      </trkpt>
      <trkpt lat="48.61171" lon="10.814426">
        <ele>426.2</ele>
        <time>2026-06-02T14:12:18.579000Z</time>
      </trkpt>
      <trkpt lat="48.611885" lon="10.814405">
        <ele>426.2</ele>
        <time>2026-06-02T14:12:36.234000Z</time>
      </trkpt>
      <trkpt lat="48.612147" lon="10.814778">
        <ele>426.9</ele>
        <time>2026-06-02T14:13:14.603000Z</time>
      </trkpt>
      <trkpt lat="48.612076" lon="10.814512">
        <ele>427.7</ele>
        <time>2026-06-02T14:13:36.507000Z</time>
      </trkpt>
      <trkpt lat="48.612398" lon="10.814598">
        <ele>429.5</ele>
        <time>2026-06-02T14:14:15.428000Z</time>
      </trkpt>
      <trkpt lat="48.612501" lon="10.814588">
        <ele>430</ele>
        <time>2026-06-02T14:14:27.584000Z</time>
      </trkpt>
      <trkpt lat="48.612538" lon="10.814515">
        <ele>430.3</ele>
        <time>2026-06-02T14:14:34.745000Z</time>
      </trkpt>
      <trkpt lat="48.612594" lon="10.814238">
        <ele>431</ele>
        <time>2026-06-02T14:14:56.245000Z</time>
      </trkpt>
      <trkpt lat="48.612739" lon="10.814206">
        <ele>431.4</ele>
        <time>2026-06-02T14:15:12.483000Z</time>
      </trkpt>
      <trkpt lat="48.612782" lon="10.814138">
        <ele>431.6</ele>
        <time>2026-06-02T14:15:19.290000Z</time>
      </trkpt>
      <trkpt lat="48.6128" lon="10.814027">
        <ele>431.8</ele>
        <time>2026-06-02T14:15:27.554000Z</time>
      </trkpt>
      <trkpt lat="48.612942" lon="10.814286">
        <ele>432.1</ele>
        <time>2026-06-02T14:15:50.918000Z</time>
      </trkpt>
      <trkpt lat="48.613" lon="10.814285">
        <ele>432.1</ele>
        <time>2026-06-02T14:15:56.904000Z</time>
      </trkpt>
      <trkpt lat="48.612942" lon="10.814286">
        <ele>432.1</ele>
        <time>2026-06-02T14:16:02.818000Z</time>
      </trkpt>
      <trkpt lat="48.6128" lon="10.814027">
        <ele>431.8</ele>
        <time>2026-06-02T14:16:25.744000Z</time>
      </trkpt>
      <trkpt lat="48.612782" lon="10.814138">
        <ele>431.6</ele>
        <time>2026-06-02T14:16:33.714000Z</time>
      </trkpt>
      <trkpt lat="48.612739" lon="10.814206">
        <ele>431.4</ele>
        <time>2026-06-02T14:16:40.330000Z</time>
      </trkpt>
      <trkpt lat="48.612594" lon="10.814238">
        <ele>430.9</ele>
        <time>2026-06-02T14:16:56.046000Z</time>
      </trkpt>
      <trkpt lat="48.612538" lon="10.814515">
        <ele>430.1</ele>
        <time>2026-06-02T14:17:16.820000Z</time>
      </trkpt>
      <trkpt lat="48.612501" lon="10.814588">
        <ele>429.8</ele>
        <time>2026-06-02T14:17:23.607000Z</time>
      </trkpt>
      <trkpt lat="48.612398" lon="10.814598">
        <ele>429.2</ele>
        <time>2026-06-02T14:17:35.169000Z</time>
      </trkpt>
      <trkpt lat="48.612076" lon="10.814512">
        <ele>427</ele>
        <time>2026-06-02T14:18:12.295000Z</time>
      </trkpt>
      <trkpt lat="48.612147" lon="10.814778">
        <ele>425.9</ele>
        <time>2026-06-02T14:18:33.605000Z</time>
      </trkpt>
      <trkpt lat="48.612475" lon="10.815489">
        <ele>423.9</ele>
        <time>2026-06-02T14:19:35.053000Z</time>
      </trkpt>
      <trkpt lat="48.612527" lon="10.815578">
        <ele>423.7</ele>
        <time>2026-06-02T14:19:43.218000Z</time>
      </trkpt>
      <trkpt lat="48.612671" lon="10.815717">
        <ele>423.5</ele>
        <time>2026-06-02T14:20:00.805000Z</time>
      </trkpt>
      <trkpt lat="48.612869" lon="10.815822">
        <ele>423.3</ele>
        <time>2026-06-02T14:20:22.232000Z</time>
      </trkpt>
      <trkpt lat="48.613268" lon="10.815964">
        <ele>422.9</ele>
        <time>2026-06-02T14:21:04.082000Z</time>
      </trkpt>
      <trkpt lat="48.613466" lon="10.815981">
        <ele>422.6</ele>
        <time>2026-06-02T14:21:24.619000Z</time>
      </trkpt>
      <trkpt lat="48.613762" lon="10.816073">
        <ele>422.1</ele>
        <time>2026-06-02T14:21:55.949000Z</time>
      </trkpt>
      <trkpt lat="48.6139" lon="10.816266">
        <ele>421.7</ele>
        <time>2026-06-02T14:22:15.595000Z</time>
      </trkpt>
      <trkpt lat="48.613982" lon="10.81654">
        <ele>421.2</ele>
        <time>2026-06-02T14:22:36.437000Z</time>
      </trkpt>
      <trkpt lat="48.61409" lon="10.816996">
        <ele>420.3</ele>
        <time>2026-06-02T14:23:10.381000Z</time>
      </trkpt>
      <trkpt lat="48.614122" lon="10.817269">
        <ele>419.7</ele>
        <time>2026-06-02T14:23:29.928000Z</time>
      </trkpt>
      <trkpt lat="48.613807" lon="10.817668">
        <ele>418.4</ele>
        <time>2026-06-02T14:24:13.656000Z</time>
      </trkpt>
      <trkpt lat="48.613593" lon="10.817884">
        <ele>417.8</ele>
        <time>2026-06-02T14:24:40.768000Z</time>
      </trkpt>
      <trkpt lat="48.613239" lon="10.818309">
        <ele>417.1</ele>
        <time>2026-06-02T14:25:27.408000Z</time>
      </trkpt>
      <trkpt lat="48.613105" lon="10.818576">
        <ele>416.9</ele>
        <time>2026-06-02T14:25:49.913000Z</time>
      </trkpt>
      <trkpt lat="48.613047" lon="10.818775">
        <ele>416.8</ele>
        <time>2026-06-02T14:26:04.488000Z</time>
      </trkpt>
      <trkpt lat="48.613024" lon="10.818915">
        <ele>416.7</ele>
        <time>2026-06-02T14:26:14.227000Z</time>
      </trkpt>
      <trkpt lat="48.613029" lon="10.819331">
        <ele>416.6</ele>
        <time>2026-06-02T14:26:41.954000Z</time>
      </trkpt>
      <trkpt lat="48.613086" lon="10.820552">
        <ele>416.7</ele>
        <time>2026-06-02T14:28:03.153000Z</time>
      </trkpt>
      <trkpt lat="48.613137" lon="10.821161">
        <ele>416.8</ele>
        <time>2026-06-02T14:28:43.959000Z</time>
      </trkpt>
      <trkpt lat="48.613177" lon="10.821379">
        <ele>416.8</ele>
        <time>2026-06-02T14:28:58.995000Z</time>
      </trkpt>
      <trkpt lat="48.613237" lon="10.821622">
        <ele>416.8</ele>
        <time>2026-06-02T14:29:16.244000Z</time>
      </trkpt>
      <trkpt lat="48.613836" lon="10.823815">
        <ele>416.6</ele>
        <time>2026-06-02T14:31:53.604000Z</time>
      </trkpt>
      <trkpt lat="48.613881" lon="10.824108">
        <ele>416.6</ele>
        <time>2026-06-02T14:32:13.592000Z</time>
      </trkpt>
      <trkpt lat="48.61378" lon="10.824141">
        <ele>416.5</ele>
        <time>2026-06-02T14:32:24.020000Z</time>
      </trkpt>
      <trkpt lat="48.613805" lon="10.824571">
        <ele>416.5</ele>
        <time>2026-06-02T14:32:52.681000Z</time>
      </trkpt>
      <trkpt lat="48.613763" lon="10.826956">
        <ele>416.5</ele>
        <time>2026-06-02T14:35:30.625000Z</time>
      </trkpt>
      <trkpt lat="48.61375" lon="10.827158">
        <ele>416.5</ele>
        <time>2026-06-02T14:35:44.106000Z</time>
      </trkpt>
      <trkpt lat="48.613701" lon="10.827297">
        <ele>416.5</ele>
        <time>2026-06-02T14:35:54.571000Z</time>
      </trkpt>
      <trkpt lat="48.613708" lon="10.827369">
        <ele>416.5</ele>
        <time>2026-06-02T14:35:59.388000Z</time>
      </trkpt>
      <trkpt lat="48.613734" lon="10.82749">
        <ele>416.5</ele>
        <time>2026-06-02T14:36:07.885000Z</time>
      </trkpt>
      <trkpt lat="48.612889" lon="10.827884">
        <ele>417</ele>
        <time>2026-06-02T14:37:38.120000Z</time>
      </trkpt>
      <trkpt lat="48.611844" lon="10.828467">
        <ele>418</ele>
        <time>2026-06-02T14:39:33.012000Z</time>
      </trkpt>
      <trkpt lat="48.61154" lon="10.828596">
        <ele>418.2</ele>
        <time>2026-06-02T14:40:05.452000Z</time>
      </trkpt>
      <trkpt lat="48.611531" lon="10.82852">
        <ele>418.2</ele>
        <time>2026-06-02T14:40:10.649000Z</time>
      </trkpt>
      <trkpt lat="48.611266" lon="10.828599">
        <ele>418.4</ele>
        <time>2026-06-02T14:40:38.105000Z</time>
      </trkpt>
      <trkpt lat="48.61087" lon="10.82863">
        <ele>418.5</ele>
        <time>2026-06-02T14:41:18.339000Z</time>
      </trkpt>
      <trkpt lat="48.611266" lon="10.828599">
        <ele>418.6</ele>
        <time>2026-06-02T14:41:58.463000Z</time>
      </trkpt>
      <trkpt lat="48.611531" lon="10.82852">
        <ele>418.7</ele>
        <time>2026-06-02T14:42:25.560000Z</time>
      </trkpt>
      <trkpt lat="48.61154" lon="10.828596">
        <ele>418.6</ele>
        <time>2026-06-02T14:42:30.667000Z</time>
      </trkpt>
      <trkpt lat="48.611035" lon="10.828672">
        <ele>418.5</ele>
        <time>2026-06-02T14:43:21.891000Z</time>
      </trkpt>
      <trkpt lat="48.61051" lon="10.82872">
        <ele>418.2</ele>
        <time>2026-06-02T14:44:14.941000Z</time>
      </trkpt>
      <trkpt lat="48.610312" lon="10.82871">
        <ele>418.2</ele>
        <time>2026-06-02T14:44:34.905000Z</time>
      </trkpt>
      <trkpt lat="48.610081" lon="10.828663">
        <ele>418.1</ele>
        <time>2026-06-02T14:44:58.366000Z</time>
      </trkpt>
      <trkpt lat="48.609796" lon="10.828532">
        <ele>418</ele>
        <time>2026-06-02T14:45:28.455000Z</time>
      </trkpt>
      <trkpt lat="48.608621" lon="10.828119">
        <ele>417.9</ele>
        <time>2026-06-02T14:47:29.425000Z</time>
      </trkpt>
      <trkpt lat="48.607915" lon="10.82795">
        <ele>417.9</ele>
        <time>2026-06-02T14:48:41.080000Z</time>
      </trkpt>
      <trkpt lat="48.606976" lon="10.827821">
        <ele>417.8</ele>
        <time>2026-06-02T14:50:15.609000Z</time>
      </trkpt>
      <trkpt lat="48.606919" lon="10.827788">
        <ele>417.8</ele>
        <time>2026-06-02T14:50:21.663000Z</time>
      </trkpt>
      <trkpt lat="48.605017" lon="10.827478">
        <ele>417.8</ele>
        <time>2026-06-02T14:53:33.118000Z</time>
      </trkpt>
      <trkpt lat="48.604396" lon="10.827431">
        <ele>417.9</ele>
        <time>2026-06-02T14:54:35.755000Z</time>
      </trkpt>
      <trkpt lat="48.60358" lon="10.827412">
        <ele>418.2</ele>
        <time>2026-06-02T14:55:58.462000Z</time>
      </trkpt>
      <trkpt lat="48.602223" lon="10.827249">
        <ele>418.9</ele>
        <time>2026-06-02T14:58:17.276000Z</time>
      </trkpt>
      <trkpt lat="48.601854" lon="10.827225">
        <ele>419.2</ele>
        <time>2026-06-02T14:58:55.125000Z</time>
      </trkpt>
      <trkpt lat="48.601597" lon="10.827256">
        <ele>419.3</ele>
        <time>2026-06-02T14:59:21.539000Z</time>
      </trkpt>
      <trkpt lat="48.601526" lon="10.827298">
        <ele>419.4</ele>
        <time>2026-06-02T14:59:29.323000Z</time>
      </trkpt>
      <trkpt lat="48.601478" lon="10.827361">
        <ele>419.4</ele>
        <time>2026-06-02T14:59:35.801000Z</time>
      </trkpt>
      <trkpt lat="48.601453" lon="10.827535">
        <ele>419.5</ele>
        <time>2026-06-02T14:59:47.777000Z</time>
      </trkpt>
      <trkpt lat="48.601408" lon="10.827577">
        <ele>419.5</ele>
        <time>2026-06-02T14:59:53.193000Z</time>
      </trkpt>
      <trkpt lat="48.601357" lon="10.827621">
        <ele>419.5</ele>
        <time>2026-06-02T14:59:59.231000Z</time>
      </trkpt>
      <trkpt lat="48.601302" lon="10.827654">
        <ele>419.5</ele>
        <time>2026-06-02T15:00:05.202000Z</time>
      </trkpt>
      <trkpt lat="48.601035" lon="10.827434">
        <ele>419.7</ele>
        <time>2026-06-02T15:00:36.094000Z</time>
      </trkpt>
      <trkpt lat="48.601038" lon="10.827353">
        <ele>419.7</ele>
        <time>2026-06-02T15:00:41.565000Z</time>
      </trkpt>
      <trkpt lat="48.601038" lon="10.827242">
        <ele>419.8</ele>
        <time>2026-06-02T15:00:49.037000Z</time>
      </trkpt>
      <trkpt lat="48.60104" lon="10.827152">
        <ele>419.8</ele>
        <time>2026-06-02T15:00:55.086000Z</time>
      </trkpt>
      <trkpt lat="48.600538" lon="10.827314">
        <ele>420</ele>
        <time>2026-06-02T15:01:47.477000Z</time>
      </trkpt>
      <trkpt lat="48.600319" lon="10.827387">
        <ele>420.1</ele>
        <time>2026-06-02T15:02:10.205000Z</time>
      </trkpt>
      <trkpt lat="48.599606" lon="10.827661">
        <ele>420.3</ele>
        <time>2026-06-02T15:03:24.453000Z</time>
      </trkpt>
      <trkpt lat="48.599312" lon="10.827742">
        <ele>420.3</ele>
        <time>2026-06-02T15:03:54.512000Z</time>
      </trkpt>
      <trkpt lat="48.598808" lon="10.827974">
        <ele>420.4</ele>
        <time>2026-06-02T15:04:47.287000Z</time>
      </trkpt>
      <trkpt lat="48.598474" lon="10.828163">
        <ele>420.4</ele>
        <time>2026-06-02T15:05:23.035000Z</time>
      </trkpt>
      <trkpt lat="48.597875" lon="10.828626">
        <ele>420.5</ele>
        <time>2026-06-02T15:06:30.790000Z</time>
      </trkpt>
      <trkpt lat="48.597495" lon="10.828952">
        <ele>420.4</ele>
        <time>2026-06-02T15:07:14.701000Z</time>
      </trkpt>
      <trkpt lat="48.59742" lon="10.829143">
        <ele>420.4</ele>
        <time>2026-06-02T15:07:29.563000Z</time>
      </trkpt>
      <trkpt lat="48.597118" lon="10.829414">
        <ele>420.4</ele>
        <time>2026-06-02T15:08:04.673000Z</time>
      </trkpt>
      <trkpt lat="48.596916" lon="10.829582">
        <ele>420.5</ele>
        <time>2026-06-02T15:08:28.203000Z</time>
      </trkpt>
      <trkpt lat="48.596536" lon="10.829978">
        <ele>420.7</ele>
        <time>2026-06-02T15:09:15.337000Z</time>
      </trkpt>
      <trkpt lat="48.596373" lon="10.830162">
        <ele>420.9</ele>
        <time>2026-06-02T15:09:36.057000Z</time>
      </trkpt>
      <trkpt lat="48.596277" lon="10.830272">
        <ele>420.9</ele>
        <time>2026-06-02T15:09:48.420000Z</time>
      </trkpt>
      <trkpt lat="48.596201" lon="10.830358">
        <ele>421</ele>
        <time>2026-06-02T15:09:58.088000Z</time>
      </trkpt>
      <trkpt lat="48.596043" lon="10.83052">
        <ele>421.1</ele>
        <time>2026-06-02T15:10:17.660000Z</time>
      </trkpt>
      <trkpt lat="48.596013" lon="10.83055">
        <ele>421.1</ele>
        <time>2026-06-02T15:10:21.356000Z</time>
      </trkpt>
      <trkpt lat="48.595785" lon="10.830782">
        <ele>421.4</ele>
        <time>2026-06-02T15:10:49.742000Z</time>
      </trkpt>
      <trkpt lat="48.5957" lon="10.830869">
        <ele>421.5</ele>
        <time>2026-06-02T15:11:00.342000Z</time>
      </trkpt>
      <trkpt lat="48.595503" lon="10.831025">
        <ele>421.8</ele>
        <time>2026-06-02T15:11:23.633000Z</time>
      </trkpt>
      <trkpt lat="48.595191" lon="10.831201">
        <ele>422.1</ele>
        <time>2026-06-02T15:11:58.203000Z</time>
      </trkpt>
      <trkpt lat="48.594936" lon="10.831375">
        <ele>422.2</ele>
        <time>2026-06-02T15:12:26.514000Z</time>
      </trkpt>
      <trkpt lat="48.594736" lon="10.831592">
        <ele>422.3</ele>
        <time>2026-06-02T15:12:51.506000Z</time>
      </trkpt>
      <trkpt lat="48.594681" lon="10.831708">
        <ele>422.3</ele>
        <time>2026-06-02T15:13:01.039000Z</time>
      </trkpt>
      <trkpt lat="48.594675" lon="10.831867">
        <ele>422.4</ele>
        <time>2026-06-02T15:13:11.767000Z</time>
      </trkpt>
      <trkpt lat="48.594817" lon="10.832431">
        <ele>422.5</ele>
        <time>2026-06-02T15:13:52.054000Z</time>
      </trkpt>
      <trkpt lat="48.594887" lon="10.832697">
        <ele>422.5</ele>
        <time>2026-06-02T15:14:11.114000Z</time>
      </trkpt>
      <trkpt lat="48.594906" lon="10.832857">
        <ele>422.5</ele>
        <time>2026-06-02T15:14:21.827000Z</time>
      </trkpt>
      <trkpt lat="48.594896" lon="10.833126">
        <ele>422.5</ele>
        <time>2026-06-02T15:14:39.693000Z</time>
      </trkpt>
      <trkpt lat="48.59483" lon="10.833444">
        <ele>422.5</ele>
        <time>2026-06-02T15:15:01.808000Z</time>
      </trkpt>
      <trkpt lat="48.594762" lon="10.833706">
        <ele>422.4</ele>
        <time>2026-06-02T15:15:20.568000Z</time>
      </trkpt>
      <trkpt lat="48.594696" lon="10.833937">
        <ele>422.4</ele>
        <time>2026-06-02T15:15:37.329000Z</time>
      </trkpt>
      <trkpt lat="48.594592" lon="10.834261">
        <ele>422.3</ele>
        <time>2026-06-02T15:16:01.184000Z</time>
      </trkpt>
      <trkpt lat="48.594565" lon="10.834348">
        <ele>422.3</ele>
        <time>2026-06-02T15:16:07.542000Z</time>
      </trkpt>
      <trkpt lat="48.594498" lon="10.834283">
        <ele>422.4</ele>
        <time>2026-06-02T15:16:15.594000Z</time>
      </trkpt>
      <trkpt lat="48.594335" lon="10.834831">
        <ele>422.2</ele>
        <time>2026-06-02T15:16:55.605000Z</time>
      </trkpt>
      <trkpt lat="48.594116" lon="10.835339">
        <ele>422</ele>
        <time>2026-06-02T15:17:36.248000Z</time>
      </trkpt>
      <trkpt lat="48.594067" lon="10.835342">
        <ele>421.9</ele>
        <time>2026-06-02T15:17:41.232000Z</time>
      </trkpt>
      <trkpt lat="48.594026" lon="10.835541">
        <ele>421.9</ele>
        <time>2026-06-02T15:17:55.178000Z</time>
      </trkpt>
      <trkpt lat="48.593611" lon="10.836346">
        <ele>421.7</ele>
        <time>2026-06-02T15:19:03.032000Z</time>
      </trkpt>
      <trkpt lat="48.593443" lon="10.836654">
        <ele>421.7</ele>
        <time>2026-06-02T15:19:29.550000Z</time>
      </trkpt>
      <trkpt lat="48.593516" lon="10.836755">
        <ele>421.6</ele>
        <time>2026-06-02T15:19:39.474000Z</time>
      </trkpt>
      <trkpt lat="48.593516" lon="10.836792">
        <ele>421.6</ele>
        <time>2026-06-02T15:19:41.912000Z</time>
      </trkpt>
      <trkpt lat="48.593519" lon="10.836952">
        <ele>421.6</ele>
        <time>2026-06-02T15:19:52.638000Z</time>
      </trkpt>
      <trkpt lat="48.593511" lon="10.836977">
        <ele>421.6</ele>
        <time>2026-06-02T15:19:54.470000Z</time>
      </trkpt>
      <trkpt lat="48.593513" lon="10.837057">
        <ele>421.6</ele>
        <time>2026-06-02T15:19:59.805000Z</time>
      </trkpt>
      <trkpt lat="48.593522" lon="10.837093">
        <ele>421.6</ele>
        <time>2026-06-02T15:20:02.348000Z</time>
      </trkpt>
      <trkpt lat="48.593527" lon="10.837197">
        <ele>421.6</ele>
        <time>2026-06-02T15:20:09.287000Z</time>
      </trkpt>
      <trkpt lat="48.593524" lon="10.837426">
        <ele>421.5</ele>
        <time>2026-06-02T15:20:24.501000Z</time>
      </trkpt>
      <trkpt lat="48.593471" lon="10.83743">
        <ele>421.5</ele>
        <time>2026-06-02T15:20:29.906000Z</time>
      </trkpt>
      <trkpt lat="48.593418" lon="10.837435">
        <ele>421.5</ele>
        <time>2026-06-02T15:20:35.202000Z</time>
      </trkpt>
      <trkpt lat="48.593416" lon="10.837362">
        <ele>421.5</ele>
        <time>2026-06-02T15:20:40.028000Z</time>
      </trkpt>
      <trkpt lat="48.593222" lon="10.837385">
        <ele>421.5</ele>
        <time>2026-06-02T15:20:59.477000Z</time>
      </trkpt>
    </trkseg>
  </trk>
</gpx>