<?xml version="1.0" encoding="UTF-8"?>
<gpx xmlns="http://www.topografix.com/GPX/1/1" xmlns:xsi="http://www.w3.org/2001/XMLSchema-instance" xsi:schemaLocation="http://www.topografix.com/GPX/1/1 http://www.topografix.com/GPX/1/1/gpx.xsd" version="1.1" creator="Robert Kampf">
  <metadata>
    <name>Natur-Lauschohr – Marienkapelle Runde von Kolonie Hurlach</name>
    <desc>Distance: 3.783km, Estimated duration: 0.98h, Elevation up: 20.49472640723434m, Elevation down: 20.494726407234452m, Grade: easy</desc>
    <author>
      <name>Robert Kampf</name>
      <link href="https://www.komoot.de/user/4125295338453">
        <text>View Robert Kampf's Profile on Komoot</text>
      </link>
    </author>
    <link href="https://www.komoot.de/tour/2749841928">
      <text>View tour on Komoot</text>
    </link>
  </metadata>
  <wpt lat="48.136007" lon="10.872077">
    <name>Parkplatz Weiler Weg</name>
    <cmt></cmt>
    <desc>Free</desc>
    <src>Komoot</src>
    <type>POI</type>
  </wpt>
  <wpt lat="48.135937" lon="10.872483">
    <ele>638.8</ele>
    <name>Parking Area Burgruine Haltenberg</name>
    <cmt>https://d2exd72xrrp1s7.cloudfront.net/www/000/1k6/hd/hdajb6jhdzq18tkjrtpcr1ju4198rr6n-uhi45762044/0</cmt>
    <desc>Michael: Hier sind einige Parkplätze vorhanden und eigentlich immer etwas frei!
――――――――――
Joschi: Den Parkplatz findet man im Internet
Eingabe in das Navi: Parkplatz Burgruine Haltenberg</desc>
    <src>Komoot</src>
    <link href="https://www.komoot.de/highlight/4045612">
      <text>View POI on Komoot</text>
    </link>
    <type>Highlight</type>
  </wpt>
  <wpt lat="48.135061" lon="10.875539">
    <ele>603.8</ele>
    <name>Nature Listening Horn</name>
    <cmt>https://d2exd72xrrp1s7.cloudfront.net/www/000/1k7/jk/jks4dkps6kw1k4n7n9rae1zq4hj6whrb-uhi57839299/0</cmt>
    <desc>Horst Appold: Herbst 2024: nicht mehr auffindbar?
――――――――――
Wolfgang Stößlein: Wird immer mal wieder an anderen Orten aufgestellt. </desc>
    <src>Komoot</src>
    <link href="https://www.komoot.de/highlight/5476097">
      <text>View POI on Komoot</text>
    </link>
    <type>Highlight</type>
  </wpt>
  <wpt lat="48.13176" lon="10.881284">
    <ele>621</ele>
    <name>Maria Shrine</name>
    <cmt>https://d2exd72xrrp1s7.cloudfront.net/www/000/1k8/1q/1qqta7tl88e4kvuoqzghszv2h4z8bsxxx-uhi72234728/0</cmt>
    <desc>Anita/Awa🐕 Und Bianca: Toll zum Pause machen schöne Bank</desc>
    <src>Komoot</src>
    <link href="https://www.komoot.de/highlight/6617600">
      <text>View POI on Komoot</text>
    </link>
    <type>Highlight</type>
  </wpt>
  <wpt lat="48.138303" lon="10.884076">
    <ele>613</ele>
    <name>Old Fallen Oak</name>
    <cmt>https://d2exd72xrrp1s7.cloudfront.net/www/000/1k8/yc/yc8m69c1ek0b1xeoygqzmy5os4z8bu0q4-uhi72234802/0</cmt>
    <desc>Anita/Awa🐕 Und Bianca: Intersant die Infotafel zu lesen</desc>
    <src>Komoot</src>
    <link href="https://www.komoot.de/highlight/6617609">
      <text>View POI on Komoot</text>
    </link>
    <type>Highlight</type>
  </wpt>
  <wpt lat="48.135285" lon="10.874593">
    <ele>641.3</ele>
    <name>Wolpertinger</name>
    <cmt>https://d2exd72xrrp1s7.cloudfront.net/www/000/1k6/1j/1jhc9ha0cwr612dl4q96x2tfv4cj1cyyi-uhi55487795/0</cmt>
    <desc></desc>
    <src>Komoot</src>
    <link href="https://www.komoot.de/highlight/5146145">
      <text>View POI on Komoot</text>
    </link>
    <type>Highlight</type>
  </wpt>
  <trk>
    <name>Natur-Lauschohr – Marienkapelle Runde von Kolonie Hurlach</name>
    <desc>Distance: 3.783km, Estimated duration: 0.98h, Elevation up: 20.49472640723434m, Elevation down: 20.494726407234452m, Grade: easy</desc>
    <link href="https://www.komoot.de/tour/2749841928">
      <text>View tour on Komoot</text>
    </link>
    <trkseg>
      <trkpt lat="48.135994" lon="10.871808">
        <ele>591.7</ele>
        <time>2026-01-14T12:55:31.812000Z</time>
      </trkpt>
      <trkpt lat="48.135866" lon="10.872452">
        <ele>592</ele>
        <time>2026-01-14T12:56:18.009000Z</time>
      </trkpt>
      <trkpt lat="48.135725" lon="10.873164">
        <ele>592.4</ele>
        <time>2026-01-14T12:57:09.118000Z</time>
      </trkpt>
      <trkpt lat="48.135643" lon="10.873294">
        <ele>592.5</ele>
        <time>2026-01-14T12:57:21.328000Z</time>
      </trkpt>
      <trkpt lat="48.135446" lon="10.873955">
        <ele>592.8</ele>
        <time>2026-01-14T12:58:10.701000Z</time>
      </trkpt>
      <trkpt lat="48.135245" lon="10.874563">
        <ele>592.9</ele>
        <time>2026-01-14T12:58:56.389000Z</time>
      </trkpt>
      <trkpt lat="48.134949" lon="10.875456">
        <ele>593.2</ele>
        <time>2026-01-14T13:00:03.964000Z</time>
      </trkpt>
      <trkpt lat="48.134879" lon="10.875668">
        <ele>593.3</ele>
        <time>2026-01-14T13:00:20.263000Z</time>
      </trkpt>
      <trkpt lat="48.134589" lon="10.876406">
        <ele>594.1</ele>
        <time>2026-01-14T13:01:20.340000Z</time>
      </trkpt>
      <trkpt lat="48.134358" lon="10.876864">
        <ele>594.8</ele>
        <time>2026-01-14T13:02:01.085000Z</time>
      </trkpt>
      <trkpt lat="48.133935" lon="10.877685">
        <ele>596.1</ele>
        <time>2026-01-14T13:03:14.998000Z</time>
      </trkpt>
      <trkpt lat="48.133254" lon="10.878898">
        <ele>597.2</ele>
        <time>2026-01-14T13:05:04.633000Z</time>
      </trkpt>
      <trkpt lat="48.132979" lon="10.87945">
        <ele>597.1</ele>
        <time>2026-01-14T13:05:50.659000Z</time>
      </trkpt>
      <trkpt lat="48.131823" lon="10.881279">
        <ele>595.8</ele>
        <time>2026-01-14T13:08:41.781000Z</time>
      </trkpt>
      <trkpt lat="48.131767" lon="10.881251">
        <ele>595.7</ele>
        <time>2026-01-14T13:08:47.908000Z</time>
      </trkpt>
      <trkpt lat="48.131823" lon="10.881279">
        <ele>595.6</ele>
        <time>2026-01-14T13:08:53.994000Z</time>
      </trkpt>
      <trkpt lat="48.135809" lon="10.883024">
        <ele>588.4</ele>
        <time>2026-01-14T13:16:04.576000Z</time>
      </trkpt>
      <trkpt lat="48.138302" lon="10.884083">
        <ele>585.4</ele>
        <time>2026-01-14T13:20:30.118000Z</time>
      </trkpt>
      <trkpt lat="48.138508" lon="10.88417">
        <ele>585.4</ele>
        <time>2026-01-14T13:20:51.598000Z</time>
      </trkpt>
      <trkpt lat="48.140482" lon="10.885116">
        <ele>588.4</ele>
        <time>2026-01-14T13:24:29.844000Z</time>
      </trkpt>
      <trkpt lat="48.140649" lon="10.884192">
        <ele>589.8</ele>
        <time>2026-01-14T13:25:38.505000Z</time>
      </trkpt>
      <trkpt lat="48.140764" lon="10.882486">
        <ele>591.3</ele>
        <time>2026-01-14T13:27:38.511000Z</time>
      </trkpt>
      <trkpt lat="48.140484" lon="10.880716">
        <ele>590.8</ele>
        <time>2026-01-14T13:29:40.971000Z</time>
      </trkpt>
      <trkpt lat="48.140484" lon="10.878999">
        <ele>588.7</ele>
        <time>2026-01-14T13:31:40.002000Z</time>
      </trkpt>
      <trkpt lat="48.140801" lon="10.876538">
        <ele>585</ele>
        <time>2026-01-14T13:34:35.129000Z</time>
      </trkpt>
      <trkpt lat="48.140835" lon="10.876274">
        <ele>584.8</ele>
        <time>2026-01-14T13:34:53.393000Z</time>
      </trkpt>
      <trkpt lat="48.141131" lon="10.875505">
        <ele>584.9</ele>
        <time>2026-01-14T13:35:52.825000Z</time>
      </trkpt>
      <trkpt lat="48.13777" lon="10.876221">
        <ele>591.8</ele>
        <time>2026-01-14T13:41:56.964000Z</time>
      </trkpt>
      <trkpt lat="48.137139" lon="10.876433">
        <ele>592.5</ele>
        <time>2026-01-14T13:43:04.249000Z</time>
      </trkpt>
      <trkpt lat="48.136626" lon="10.876507">
        <ele>592.9</ele>
        <time>2026-01-14T13:43:57.253000Z</time>
      </trkpt>
      <trkpt lat="48.13594" lon="10.87647">
        <ele>593.4</ele>
        <time>2026-01-14T13:45:07.737000Z</time>
      </trkpt>
      <trkpt lat="48.134358" lon="10.876864">
        <ele>593.9</ele>
        <time>2026-01-14T13:47:49.938000Z</time>
      </trkpt>
      <trkpt lat="48.134589" lon="10.876406">
        <ele>593.7</ele>
        <time>2026-01-14T13:48:28.673000Z</time>
      </trkpt>
      <trkpt lat="48.134879" lon="10.875668">
        <ele>593.3</ele>
        <time>2026-01-14T13:49:26.665000Z</time>
      </trkpt>
      <trkpt lat="48.134949" lon="10.875456">
        <ele>593.2</ele>
        <time>2026-01-14T13:49:42.690000Z</time>
      </trkpt>
      <trkpt lat="48.135245" lon="10.874563">
        <ele>592.9</ele>
        <time>2026-01-14T13:50:49.856000Z</time>
      </trkpt>
      <trkpt lat="48.135446" lon="10.873955">
        <ele>592.8</ele>
        <time>2026-01-14T13:51:35.386000Z</time>
      </trkpt>
      <trkpt lat="48.135643" lon="10.873294">
        <ele>592.5</ele>
        <time>2026-01-14T13:52:24.346000Z</time>
      </trkpt>
      <trkpt lat="48.135725" lon="10.873164">
        <ele>592.4</ele>
        <time>2026-01-14T13:52:36.426000Z</time>
      </trkpt>
      <trkpt lat="48.135866" lon="10.872452">
        <ele>592</ele>
        <time>2026-01-14T13:53:26.923000Z</time>
      </trkpt>
      <trkpt lat="48.135994" lon="10.871808">
        <ele>591.7</ele>
        <time>2026-01-14T13:54:12.571000Z</time>
      </trkpt>
    </trkseg>
  </trk>
</gpx>