<?xml version="1.0" encoding="UTF-8"?>
<gpx xmlns="http://www.topografix.com/GPX/1/1" xmlns:xsi="http://www.w3.org/2001/XMLSchema-instance" xsi:schemaLocation="http://www.topografix.com/GPX/1/1 http://www.topografix.com/GPX/1/1/gpx.xsd" version="1.1" creator="Robert Kampf">
  <metadata>
    <name>Natürliches Kneippbad Gremheim – Kraftwerk Schwenningen Runde von Naturwaldreservat Neugeschüttwörth</name>
    <desc>Distance: 5.896km, Estimated duration: 1.49h, Elevation up: 8.551318251848215m, Elevation down: 8.304764158341243m, Grade: easy</desc>
    <author>
      <name>Robert Kampf</name>
      <link href="https://www.komoot.de/user/4125295338453">
        <text>View Robert Kampf's Profile on Komoot</text>
      </link>
    </author>
    <link href="https://www.komoot.de/tour/3057567800">
      <text>View tour on Komoot</text>
    </link>
  </metadata>
  <wpt lat="48.630414" lon="10.655245">
    <ele>411.4</ele>
    <name>Natural Kneipp Bath Gremheim</name>
    <cmt>https://d2exd72xrrp1s7.cloudfront.net/www/000/1k5/jn/jn62svf62uc73b46op7a1zjn3nokljwo-uhi28374042/0</cmt>
    <desc>Siggi: Hier kann man sich nach einer langen Wanderung super erfrischen und die müden Beine können sich bei einer kleinen Kneipp-Kur erholen.
――――――――――
Dodo: Very refreshing a safe and clean set up the water is so clear. It makes the legs and whole body feel wonderful. </desc>
    <src>Komoot</src>
    <link href="https://www.komoot.de/highlight/2077224">
      <text>View POI on Komoot</text>
    </link>
    <type>Highlight</type>
  </wpt>
  <wpt lat="48.644313" lon="10.675092">
    <ele>408.8</ele>
    <name>Danube weir near Gremheim</name>
    <cmt>https://d2exd72xrrp1s7.cloudfront.net/www/000/1ka/1q/1q630d6cwx9fu6k30bwg7bfzx5pmmugk5-uhi98810951/0</cmt>
    <desc></desc>
    <src>Komoot</src>
    <link href="https://www.komoot.de/highlight/8260093">
      <text>View POI on Komoot</text>
    </link>
    <type>Highlight</type>
  </wpt>
  <wpt lat="48.64476" lon="10.674953">
    <ele>407.2</ele>
    <name>Schwenningen Power Plant</name>
    <cmt>https://d2exd72xrrp1s7.cloudfront.net/www/000/1k3/1e/1e9892043xwwstccjdrhx4vqh34i2eeqo-uhi8086982/0</cmt>
    <desc>Julian Sailer: Entlang der Donau in Richtung Donauwörth
――――――――――
Stefan: Super zum fahren
――――――――――
Marcus: Das Kraftwerk Schwenningen ist ein Laufwasserkraftwerk der Mittlere Donau Kraftwerke AG an der Staustufe Schwenningen und wird von der Bayerische Elektrizitätswerke GmbH betrieben.

Das Kraftwerk ging 1983 in Betrieb und ist Teil der Donau-Staustufe Schwenningen bei Stromkilometer 2522,43. Das mit zwei Turbinensätzen ausgestattete Kraftwerk ist ausgelegt für eine Ausbauwassermenge von etwa 200 m³/s. Zwei Kaplan-Turbinen treiben zwei Generatoren mit einer Nennleistung von je 4,3 Megawatt mit einem entsprechenden Regelarbeitsvermögen des Kraftwerks von 53,4 Millionen kWh im Jahr. Das Wehr der Staustufe besteht aus drei Feldern und dem links angeordneten Krafthaus. Am rechten Ufer befindet sich eine Bootsschleuse. 
Quelle:
https://de.wikipedia.org/wiki/Kraftwerk_Schwenningen</desc>
    <src>Komoot</src>
    <link href="https://www.komoot.de/highlight/999673">
      <text>View POI on Komoot</text>
    </link>
    <type>Highlight</type>
  </wpt>
  <wpt lat="48.642342" lon="10.665792">
    <ele>455.8</ele>
    <name>View of the Danube in Donauwald</name>
    <cmt>https://d2exd72xrrp1s7.cloudfront.net/www/000/1k4/rh/rhb8w2fklkina6dlt9kxl01h3ha3sw8w-uhi19982418/0</cmt>
    <desc></desc>
    <src>Komoot</src>
    <link href="https://www.komoot.de/highlight/2487456">
      <text>View POI on Komoot</text>
    </link>
    <type>Highlight</type>
  </wpt>
  <wpt lat="48.631549" lon="10.650528">
    <ele>465.1</ele>
    <name>Old Wooden Danube Bridge Memorial and Information Boards</name>
    <cmt>https://d2exd72xrrp1s7.cloudfront.net/www/000/1k5/1g/1g60tqt7tb3zip58d8wbcbryl3w8jtgh8-uhi40428302/0</cmt>
    <desc>Old Man Bikeboy: Erst in den 80'er Jahren wurde die Brücke modernisiert, d.h. in Beton errichtet. Einem Holzelement der alten Brücke wurde als Erinnerungsstücke und Werkzeug ein 2. Leben gegönnt
――――――――――
Günther🦎: Gut gemacht
――――――――――
Juliane: Erst 1983 wurde die neue Brücke gebaut. Einen Rest und Schaubilder der alten Version sind hier zu sehen.</desc>
    <src>Komoot</src>
    <link href="https://www.komoot.de/highlight/3133585">
      <text>View POI on Komoot</text>
    </link>
    <type>Highlight</type>
  </wpt>
  <wpt lat="48.631058" lon="10.649836">
    <ele>457</ele>
    <name>Information board: Apfelwörth Nature Reserve</name>
    <cmt>https://d2exd72xrrp1s7.cloudfront.net/www/000/1k6/aw/aw7x40c438zxfxp57oxzatnz43ogg8ws-uhi47468310/0</cmt>
    <desc>Madti 🚴: Ein vegetatives Stillgewässer, der ehemals wild fließenden Donau. 
Auch der DonAUwald Wanderweg  verläuft hier durch...</desc>
    <src>Komoot</src>
    <link href="https://www.komoot.de/highlight/4191442">
      <text>View POI on Komoot</text>
    </link>
    <type>Highlight</type>
  </wpt>
  <trk>
    <name>Natürliches Kneippbad Gremheim – Kraftwerk Schwenningen Runde von Naturwaldreservat Neugeschüttwörth</name>
    <desc>Distance: 5.896km, Estimated duration: 1.49h, Elevation up: 8.551318251848215m, Elevation down: 8.304764158341243m, Grade: easy</desc>
    <link href="https://www.komoot.de/tour/3057567800">
      <text>View tour on Komoot</text>
    </link>
    <trkseg>
      <trkpt lat="48.629816" lon="10.654587">
        <ele>410.2</ele>
        <time>2026-06-22T16:47:40.329000Z</time>
      </trkpt>
      <trkpt lat="48.630364" lon="10.65533">
        <ele>410.2</ele>
        <time>2026-06-22T16:48:53.989000Z</time>
      </trkpt>
      <trkpt lat="48.629816" lon="10.654587">
        <ele>410.2</ele>
        <time>2026-06-22T16:50:07.798000Z</time>
      </trkpt>
      <trkpt lat="48.629739" lon="10.654483">
        <ele>410.2</ele>
        <time>2026-06-22T16:50:18.200000Z</time>
      </trkpt>
      <trkpt lat="48.629791" lon="10.654439">
        <ele>410.3</ele>
        <time>2026-06-22T16:50:24.206000Z</time>
      </trkpt>
      <trkpt lat="48.629854" lon="10.65411">
        <ele>410.3</ele>
        <time>2026-06-22T16:50:47.038000Z</time>
      </trkpt>
      <trkpt lat="48.629925" lon="10.653922">
        <ele>410.3</ele>
        <time>2026-06-22T16:51:01.460000Z</time>
      </trkpt>
      <trkpt lat="48.630249" lon="10.653221">
        <ele>410.4</ele>
        <time>2026-06-22T16:51:58.310000Z</time>
      </trkpt>
      <trkpt lat="48.630796" lon="10.652425">
        <ele>410.5</ele>
        <time>2026-06-22T16:53:14.492000Z</time>
      </trkpt>
      <trkpt lat="48.631159" lon="10.652701">
        <ele>410.4</ele>
        <time>2026-06-22T16:53:55.304000Z</time>
      </trkpt>
      <trkpt lat="48.633005" lon="10.654774">
        <ele>408.5</ele>
        <time>2026-06-22T16:57:49.267000Z</time>
      </trkpt>
      <trkpt lat="48.634851" lon="10.656846">
        <ele>406.2</ele>
        <time>2026-06-22T17:01:44.094000Z</time>
      </trkpt>
      <trkpt lat="48.63695" lon="10.659893">
        <ele>405.1</ele>
        <time>2026-06-22T17:06:37.534000Z</time>
      </trkpt>
      <trkpt lat="48.638112" lon="10.661523">
        <ele>405.1</ele>
        <time>2026-06-22T17:09:16.349000Z</time>
      </trkpt>
      <trkpt lat="48.638935" lon="10.662961">
        <ele>405.3</ele>
        <time>2026-06-22T17:11:22.651000Z</time>
      </trkpt>
      <trkpt lat="48.639814" lon="10.664656">
        <ele>406.4</ele>
        <time>2026-06-22T17:13:49.187000Z</time>
      </trkpt>
      <trkpt lat="48.640733" lon="10.666526">
        <ele>408.4</ele>
        <time>2026-06-22T17:16:30.371000Z</time>
      </trkpt>
      <trkpt lat="48.64086" lon="10.666738">
        <ele>408.5</ele>
        <time>2026-06-22T17:16:49.724000Z</time>
      </trkpt>
      <trkpt lat="48.641556" lon="10.667901">
        <ele>408.5</ele>
        <time>2026-06-22T17:18:33.546000Z</time>
      </trkpt>
      <trkpt lat="48.641762" lon="10.668326">
        <ele>408.3</ele>
        <time>2026-06-22T17:19:08.826000Z</time>
      </trkpt>
      <trkpt lat="48.642343" lon="10.669899">
        <ele>407.9</ele>
        <time>2026-06-22T17:21:08.897000Z</time>
      </trkpt>
      <trkpt lat="48.642656" lon="10.670846">
        <ele>407.9</ele>
        <time>2026-06-22T17:22:18.932000Z</time>
      </trkpt>
      <trkpt lat="48.643025" lon="10.672445">
        <ele>408.2</ele>
        <time>2026-06-22T17:24:12.020000Z</time>
      </trkpt>
      <trkpt lat="48.643232" lon="10.673175">
        <ele>408.3</ele>
        <time>2026-06-22T17:25:05.158000Z</time>
      </trkpt>
      <trkpt lat="48.643275" lon="10.673282">
        <ele>408.4</ele>
        <time>2026-06-22T17:25:13.520000Z</time>
      </trkpt>
      <trkpt lat="48.643608" lon="10.674111">
        <ele>408.5</ele>
        <time>2026-06-22T17:26:18.318000Z</time>
      </trkpt>
      <trkpt lat="48.643861" lon="10.674554">
        <ele>408.5</ele>
        <time>2026-06-22T17:26:57.065000Z</time>
      </trkpt>
      <trkpt lat="48.644036" lon="10.675174">
        <ele>408.3</ele>
        <time>2026-06-22T17:27:42.060000Z</time>
      </trkpt>
      <trkpt lat="48.644176" lon="10.675164">
        <ele>408.2</ele>
        <time>2026-06-22T17:27:56.206000Z</time>
      </trkpt>
      <trkpt lat="48.644311" lon="10.675083">
        <ele>408.2</ele>
        <time>2026-06-22T17:28:10.807000Z</time>
      </trkpt>
      <trkpt lat="48.644729" lon="10.674832">
        <ele>408.2</ele>
        <time>2026-06-22T17:28:55.812000Z</time>
      </trkpt>
      <trkpt lat="48.645144" lon="10.674582">
        <ele>408</ele>
        <time>2026-06-22T17:29:40.981000Z</time>
      </trkpt>
      <trkpt lat="48.645402" lon="10.674431">
        <ele>407.9</ele>
        <time>2026-06-22T17:30:09.004000Z</time>
      </trkpt>
      <trkpt lat="48.645057" lon="10.673869">
        <ele>407.6</ele>
        <time>2026-06-22T17:31:00.267000Z</time>
      </trkpt>
      <trkpt lat="48.644734" lon="10.672555">
        <ele>407.4</ele>
        <time>2026-06-22T17:32:33.320000Z</time>
      </trkpt>
      <trkpt lat="48.644206" lon="10.670751">
        <ele>407.7</ele>
        <time>2026-06-22T17:34:44.586000Z</time>
      </trkpt>
      <trkpt lat="48.643892" lon="10.669775">
        <ele>407.8</ele>
        <time>2026-06-22T17:35:56.874000Z</time>
      </trkpt>
      <trkpt lat="48.64369" lon="10.669237">
        <ele>407.8</ele>
        <time>2026-06-22T17:36:37.775000Z</time>
      </trkpt>
      <trkpt lat="48.642802" lon="10.666864">
        <ele>407.5</ele>
        <time>2026-06-22T17:39:38.728000Z</time>
      </trkpt>
      <trkpt lat="48.642334" lon="10.665801">
        <ele>407.4</ele>
        <time>2026-06-22T17:41:03.424000Z</time>
      </trkpt>
      <trkpt lat="48.642291" lon="10.665703">
        <ele>407.4</ele>
        <time>2026-06-22T17:41:11.229000Z</time>
      </trkpt>
      <trkpt lat="48.641524" lon="10.664067">
        <ele>407.5</ele>
        <time>2026-06-22T17:43:24.317000Z</time>
      </trkpt>
      <trkpt lat="48.641083" lon="10.663004">
        <ele>407.6</ele>
        <time>2026-06-22T17:44:47.677000Z</time>
      </trkpt>
      <trkpt lat="48.640657" lon="10.661864">
        <ele>407.7</ele>
        <time>2026-06-22T17:46:14.544000Z</time>
      </trkpt>
      <trkpt lat="48.639946" lon="10.660608">
        <ele>407.7</ele>
        <time>2026-06-22T17:48:03.930000Z</time>
      </trkpt>
      <trkpt lat="48.638379" lon="10.658685">
        <ele>407.3</ele>
        <time>2026-06-22T17:51:26.672000Z</time>
      </trkpt>
      <trkpt lat="48.637998" lon="10.658096">
        <ele>407.2</ele>
        <time>2026-06-22T17:52:21.271000Z</time>
      </trkpt>
      <trkpt lat="48.637238" lon="10.657038">
        <ele>407.2</ele>
        <time>2026-06-22T17:54:04.737000Z</time>
      </trkpt>
      <trkpt lat="48.635592" lon="10.654827">
        <ele>407.6</ele>
        <time>2026-06-22T17:57:46.187000Z</time>
      </trkpt>
      <trkpt lat="48.633184" lon="10.651979">
        <ele>407.9</ele>
        <time>2026-06-22T18:02:53.433000Z</time>
      </trkpt>
      <trkpt lat="48.63281" lon="10.651618">
        <ele>408</ele>
        <time>2026-06-22T18:03:37.911000Z</time>
      </trkpt>
      <trkpt lat="48.632345" lon="10.651295">
        <ele>408</ele>
        <time>2026-06-22T18:04:29.116000Z</time>
      </trkpt>
      <trkpt lat="48.631783" lon="10.650951">
        <ele>408.1</ele>
        <time>2026-06-22T18:05:30.330000Z</time>
      </trkpt>
      <trkpt lat="48.631221" lon="10.650607">
        <ele>408.1</ele>
        <time>2026-06-22T18:06:31.133000Z</time>
      </trkpt>
      <trkpt lat="48.631243" lon="10.650539">
        <ele>408</ele>
        <time>2026-06-22T18:06:36.176000Z</time>
      </trkpt>
      <trkpt lat="48.631445" lon="10.65066">
        <ele>408.1</ele>
        <time>2026-06-22T18:06:58.027000Z</time>
      </trkpt>
      <trkpt lat="48.631506" lon="10.650637">
        <ele>408.1</ele>
        <time>2026-06-22T18:07:04.302000Z</time>
      </trkpt>
      <trkpt lat="48.631556" lon="10.650536">
        <ele>408.2</ele>
        <time>2026-06-22T18:07:12.981000Z</time>
      </trkpt>
      <trkpt lat="48.631506" lon="10.650637">
        <ele>408.2</ele>
        <time>2026-06-22T18:07:21.614000Z</time>
      </trkpt>
      <trkpt lat="48.631445" lon="10.65066">
        <ele>408.3</ele>
        <time>2026-06-22T18:07:28.097000Z</time>
      </trkpt>
      <trkpt lat="48.631243" lon="10.650539">
        <ele>408.4</ele>
        <time>2026-06-22T18:07:50.095000Z</time>
      </trkpt>
      <trkpt lat="48.631221" lon="10.650607">
        <ele>408.4</ele>
        <time>2026-06-22T18:07:55.153000Z</time>
      </trkpt>
      <trkpt lat="48.631174" lon="10.650651">
        <ele>408.4</ele>
        <time>2026-06-22T18:08:00.709000Z</time>
      </trkpt>
      <trkpt lat="48.631148" lon="10.650664">
        <ele>408.4</ele>
        <time>2026-06-22T18:08:03.510000Z</time>
      </trkpt>
      <trkpt lat="48.630945" lon="10.650474">
        <ele>408.4</ele>
        <time>2026-06-22T18:08:27.370000Z</time>
      </trkpt>
      <trkpt lat="48.630969" lon="10.65038">
        <ele>408.4</ele>
        <time>2026-06-22T18:08:34.065000Z</time>
      </trkpt>
      <trkpt lat="48.630992" lon="10.650273">
        <ele>408.4</ele>
        <time>2026-06-22T18:08:41.519000Z</time>
      </trkpt>
      <trkpt lat="48.631083" lon="10.649819">
        <ele>408.4</ele>
        <time>2026-06-22T18:09:12.937000Z</time>
      </trkpt>
      <trkpt lat="48.630992" lon="10.650273">
        <ele>408.4</ele>
        <time>2026-06-22T18:09:44.354000Z</time>
      </trkpt>
      <trkpt lat="48.630969" lon="10.65038">
        <ele>408.4</ele>
        <time>2026-06-22T18:09:51.839000Z</time>
      </trkpt>
      <trkpt lat="48.630945" lon="10.650474">
        <ele>408.4</ele>
        <time>2026-06-22T18:09:58.616000Z</time>
      </trkpt>
      <trkpt lat="48.631148" lon="10.650664">
        <ele>408.4</ele>
        <time>2026-06-22T18:10:22.544000Z</time>
      </trkpt>
      <trkpt lat="48.631174" lon="10.650651">
        <ele>408.4</ele>
        <time>2026-06-22T18:10:25.395000Z</time>
      </trkpt>
      <trkpt lat="48.631221" lon="10.650607">
        <ele>408.5</ele>
        <time>2026-06-22T18:10:31.032000Z</time>
      </trkpt>
      <trkpt lat="48.631243" lon="10.650539">
        <ele>408.5</ele>
        <time>2026-06-22T18:10:36.065000Z</time>
      </trkpt>
      <trkpt lat="48.631211" lon="10.650465">
        <ele>408.5</ele>
        <time>2026-06-22T18:10:42.013000Z</time>
      </trkpt>
      <trkpt lat="48.631246" lon="10.650146">
        <ele>408.4</ele>
        <time>2026-06-22T18:11:03.560000Z</time>
      </trkpt>
      <trkpt lat="48.63123" lon="10.650107">
        <ele>408.4</ele>
        <time>2026-06-22T18:11:06.652000Z</time>
      </trkpt>
      <trkpt lat="48.631195" lon="10.650101">
        <ele>408.4</ele>
        <time>2026-06-22T18:11:10.231000Z</time>
      </trkpt>
      <trkpt lat="48.631096" lon="10.650523">
        <ele>408.4</ele>
        <time>2026-06-22T18:11:39.887000Z</time>
      </trkpt>
      <trkpt lat="48.630859" lon="10.651362">
        <ele>408.9</ele>
        <time>2026-06-22T18:12:42.194000Z</time>
      </trkpt>
      <trkpt lat="48.630555" lon="10.652306">
        <ele>409.5</ele>
        <time>2026-06-22T18:13:53.690000Z</time>
      </trkpt>
      <trkpt lat="48.630249" lon="10.653221">
        <ele>410.1</ele>
        <time>2026-06-22T18:15:03.616000Z</time>
      </trkpt>
      <trkpt lat="48.629925" lon="10.653922">
        <ele>410.4</ele>
        <time>2026-06-22T18:16:01.168000Z</time>
      </trkpt>
      <trkpt lat="48.629854" lon="10.65411">
        <ele>410.4</ele>
        <time>2026-06-22T18:16:15.621000Z</time>
      </trkpt>
      <trkpt lat="48.629791" lon="10.654439">
        <ele>410.4</ele>
        <time>2026-06-22T18:16:38.377000Z</time>
      </trkpt>
      <trkpt lat="48.629739" lon="10.654483">
        <ele>410.4</ele>
        <time>2026-06-22T18:16:44.349000Z</time>
      </trkpt>
      <trkpt lat="48.629816" lon="10.654587">
        <ele>410.4</ele>
        <time>2026-06-22T18:16:54.676000Z</time>
      </trkpt>
    </trkseg>
  </trk>
</gpx>