<?xml version="1.0" encoding="UTF-8"?>
<gpx xmlns="http://www.topografix.com/GPX/1/1" xmlns:xsi="http://www.w3.org/2001/XMLSchema-instance" xsi:schemaLocation="http://www.topografix.com/GPX/1/1 http://www.topografix.com/GPX/1/1/gpx.xsd" version="1.1" creator="Robert Kampf">
  <metadata>
    <name>Rundweg Schlehenberg - Haselhöhe - Emtmannsberg</name>
    <desc>Distance: 9.646km, Estimated duration: 2.69h, Elevation up: 183.7805368000685m, Elevation down: 187.70174228474804m, Grade: moderate</desc>
    <author>
      <name>Robert Kampf</name>
      <link href="https://www.komoot.de/user/4125295338453">
        <text>View Robert Kampf's Profile on Komoot</text>
      </link>
    </author>
    <link href="https://www.komoot.de/tour/3153663504">
      <text>View tour on Komoot</text>
    </link>
  </metadata>
  <wpt lat="49.907744" lon="11.62233">
    <name>Parking</name>
    <cmt></cmt>
    <desc>Free</desc>
    <src>Komoot</src>
    <type>POI</type>
  </wpt>
  <wpt lat="49.912029" lon="11.626106">
    <ele>507.3</ele>
    <name>Hühl Farmstead and Countryside View</name>
    <cmt>https://d2exd72xrrp1s7.cloudfront.net/www/000/1k5/15/15w2sg23d3epo1611jdck31mno3vw4ob30-uhi39906620/0</cmt>
    <desc></desc>
    <src>Komoot</src>
    <link href="https://www.komoot.de/highlight/3679054">
      <text>View POI on Komoot</text>
    </link>
    <type>Highlight</type>
  </wpt>
  <wpt lat="49.911452" lon="11.634869">
    <ele>580.6</ele>
    <name>Foundations of the Former Hühlturm Observation Tower</name>
    <cmt>https://d2exd72xrrp1s7.cloudfront.net/www/000/1k4/f1/f129nlh159b44dhpoydxk4xy3dhihe80-uhi13158125/0</cmt>
    <desc>Gerhard 👣 ( Barfuß Wanderer ): Der Hühlturm war früher ein vielbesuchter Aussichtsturm. Er wurde 1955 wegen Baufälligkeit ersatzlos abgerissen.
――――――――――
Patrick: Alles was ich gefunden habe istr ein bestehendes Wander-Highlight von "Gerhard 👣👣👣": "Der Hühlturm war früher ein vielbesuchter Aussichtsturm. Er wurde 1955 wegen Baufälligkeit ersatzlos abgerissen."</desc>
    <src>Komoot</src>
    <link href="https://www.komoot.de/highlight/545750">
      <text>View POI on Komoot</text>
    </link>
    <type>Highlight</type>
  </wpt>
  <wpt lat="49.906285" lon="11.639752">
    <ele>528.9</ele>
    <name>Viewing bench on the Schlehenberg</name>
    <cmt>https://d2exd72xrrp1s7.cloudfront.net/www/000/1k2/1g/1gls09ny2dgvpanid43xwlp042oiul127-uhi3517373/0</cmt>
    <desc>Gerhard 👣 ( Barfuß Wanderer ): Schöne Aussicht vom Hessenreuther Wald bis zum Sophienberg
――――――――――
Jochen Bayer: toller Ausblick über Schloss Thiergaten zum Culmberg
――――――――――
Mo: Bei Nässe ist der Aufstieg aus Emtmannsberg kommend, extrem rutschig und sumpfig. Oben am Waldrand gibt's ne Bank.</desc>
    <src>Komoot</src>
    <link href="https://www.komoot.de/highlight/409781">
      <text>View POI on Komoot</text>
    </link>
    <type>Highlight</type>
  </wpt>
  <wpt lat="49.896335" lon="11.64467">
    <ele>548.3</ele>
    <name>Viewing hill at the elevated tank</name>
    <cmt>https://d2exd72xrrp1s7.cloudfront.net/www/000/1k2/1i/1itn5f5pdosvx7dd949h9i54j2oiupoan-uhi3517409/0</cmt>
    <desc>Gerhard 👣 ( Barfuß Wanderer ): Sehr schöne 300 Grad Aussicht. Irgendwann soll auch mal ein Picknicktisch und Sitzbänke aufgestellt werden.
Juli 2019: Der Picknicktisch steht!
Seit Mai 2024 gibt's auch eine breite drehbare Wellnessliege
――――――――――
Mo: Der Picknickplatz existiert, aber nur auf dem zweithöchsten Platz. Wir hatten heute, regenbedingt, wenig Fernsicht.
――――――――――
Birgitbh: Super Sicht, bequeme Drehliege! Top!</desc>
    <src>Komoot</src>
    <link href="https://www.komoot.de/highlight/545744">
      <text>View POI on Komoot</text>
    </link>
    <type>Highlight</type>
  </wpt>
  <wpt lat="49.892141" lon="11.646647">
    <ele>468.6</ele>
    <name>St. Bartholomew's Church, Emtmannsberg</name>
    <cmt>https://d2exd72xrrp1s7.cloudfront.net/www/000/1k5/19/19e3efrfq664r14fjqy5rqf0ng3xfhoc9e-uhi42390891/0</cmt>
    <desc>Mo: Am Parkplatz hinter der Kirche findet man gut Platz 
――――――――――
Dr. WS: Ehemalige Schlosskapelle aus dem 12. Jahrhundert, Chorturmkirche. Kirchturm aus dem 14. Jahrhundert mit welscher Haube. Im Inneren im Markgrafenstil umgebaut. Sehenswerter Taufbeckenengel aus dem Jahr 1723
――――――――――
SH: Diese Freske in der Bartholomäuskirche in Emtmannsberg stellt einen Löwen dar, der den Evangelisten Markus symbolisiert. Sie stammt vermutlich aus dem 15. Jahrhundert. Es gibt jedoch noch mehr Fresken in dieser Kirche, die von einer Bamberger Restauratorin  restauriert werden.
――――――――――
Matthias Rausch: sehr steiler Anstieg</desc>
    <src>Komoot</src>
    <link href="https://www.komoot.de/highlight/3837957">
      <text>View POI on Komoot</text>
    </link>
    <type>Highlight</type>
  </wpt>
  <wpt lat="49.892298" lon="11.646277">
    <ele>519.9</ele>
    <name>Village Shop Emtmannsberg</name>
    <cmt>https://d2exd72xrrp1s7.cloudfront.net/www/000/1k5/16/16jjps7968hlox7b5g4z6bpro3r261k3g-uhi32251173/0</cmt>
    <desc>Bernd 68er: Wer mal schnell noch was zum Grillen,Kochen oder zum Naschen braucht, findet es in den beiden Außenkühlschränken. Sehr gute Geschäftsidee.
――――――――――
JK: Gut sortierter Dorfladen mit zusätzlichem Automatengeschäft
――――――――――
Ar〽️in  Bock ©️: Für eine kleine Tourversorgung schon cool.
――――――――――
Dr. WS: Dreiflügelanlage mit einem zweigeschossigen Hauptbau mit Walmdach und einem Mittelbau mit barockem Dachreiter und Portalrisalit. Heute im Besitz der Gemeinde
――――――――――
Mo: Wenn der Laden zu hat, bekommt man noch einiges in den zwei Automaten davor. 
――――――――――
Dieter K. aus S.: Wunderbare Gegend, Natur zum Anfassen, Geheimtipp ...
――――――――――
Gerhard 👣 ( Barfuß Wanderer ): 2018 eröffneter Tante-Emma-Laden in historischem Ambiente mit vielen Produkten aus der Region. Man kann hier sehr gut die Brotzeit für die Wanderung kaufen oder einen Kaffee an einem kleinem Stehtisch trinken. Öffnungszeiten beachten! (Mo-Fr 07:00-13:00,15:30-18:30; Sa 07:00-11:30). Alles weitere hier: dorfladen-emtmannsberg.de</desc>
    <src>Komoot</src>
    <link href="https://www.komoot.de/highlight/3147578">
      <text>View POI on Komoot</text>
    </link>
    <type>Highlight</type>
  </wpt>
  <wpt lat="49.889423" lon="11.629527">
    <ele>471</ele>
    <name>Eiserner Steg Over the Roter Main</name>
    <cmt>https://d2exd72xrrp1s7.cloudfront.net/www/000/1k8/qu/quw3eztigkhzc9uuat39v9xd4yopxwbo-uhi71501650/0</cmt>
    <desc>Andrea und Huskys 🐺: Den "Eisernen Steg", der im Tal unterhalb von Ottmannsreuth den Roten Main überquert, kann man kaum verwechseln mit dem berühmten "Eisernen Steg" in Frankfurt, einer seit 1868 nutzbaren, wuchtigen eisernen Fu0gängerbrücke über den Main. Hier im idyllischen Rotmaintal können auf dem schmalen Steg gerade zwei Personen aneinander vorbeigehen. Aber er ist wichtig, um von Westen auf den schönen Rotmain-Steig zu gelangen.</desc>
    <src>Komoot</src>
    <link href="https://www.komoot.de/highlight/6573528">
      <text>View POI on Komoot</text>
    </link>
    <type>Highlight</type>
  </wpt>
  <wpt lat="49.90541" lon="11.62479">
    <ele>441.3</ele>
    <name>Weir and Mill Channel Junction for Schlehenmühle</name>
    <cmt>https://d2exd72xrrp1s7.cloudfront.net/www/000/1k6/1f/1flapvnfeh9kn1lcpjutfo5g4f4as4e3do-uhi54059707/0</cmt>
    <desc>Clemens: Quelle: 
https://www.rotmainauenweg.de/rotmainauenweg/muehlen-am-roten-main/schlehenmuehle-2/

"Um tagsüber mahlen zu können, musste das Wasser für die Schlehenmühle nachts aufgestaut werden. Während sich die Mühle im Wohnhaus befand und das Mühlrad gleich daneben, lag das Wehr etwa einen halben Kilometer flussaufwärts. Dort zweigt heute noch der Mühlkanal ab. Der Müller musste jeden Morgen dort hinwandern und das aufgestaute Wasser ablassen."
――――――――――
Mo: Naturschutzgebiet. Hier ist das Verlassen des Weges nicht erlaubt. Herrliche Idylle zwischen Main und Bach.</desc>
    <src>Komoot</src>
    <link href="https://www.komoot.de/highlight/4952415">
      <text>View POI on Komoot</text>
    </link>
    <type>Highlight</type>
  </wpt>
  <wpt lat="49.90627" lon="11.62377">
    <ele>396.9</ele>
    <name>Path Along the Upper Main</name>
    <cmt>https://d2exd72xrrp1s7.cloudfront.net/www/000/1k3/xk/xktvxpy9l927emfcd223y75l376b37pa-uhi9423174/0</cmt>
    <desc>ampfortas: Hier darf der Main noch Main sein!
――――――――――
Gerhard 👣 ( Barfuß Wanderer ): Der Weg durch die Schlehenmühle ist gesperrt (Privat)!</desc>
    <src>Komoot</src>
    <link href="https://www.komoot.de/highlight/1057432">
      <text>View POI on Komoot</text>
    </link>
    <type>Highlight</type>
  </wpt>
  <trk>
    <name>Rundweg Schlehenberg - Haselhöhe - Emtmannsberg</name>
    <desc>Distance: 9.646km, Estimated duration: 2.69h, Elevation up: 183.7805368000685m, Elevation down: 187.70174228474804m, Grade: moderate</desc>
    <link href="https://www.komoot.de/tour/3153663504">
      <text>View tour on Komoot</text>
    </link>
    <trkseg>
      <trkpt lat="49.907728" lon="11.622275">
        <ele>396.7</ele>
        <time>2026-07-29T21:12:52.589000Z</time>
      </trkpt>
      <trkpt lat="49.90785" lon="11.622189">
        <ele>397.2</ele>
        <time>2026-07-29T21:13:07.713000Z</time>
      </trkpt>
      <trkpt lat="49.907871" lon="11.62227">
        <ele>397.4</ele>
        <time>2026-07-29T21:13:14.114000Z</time>
      </trkpt>
      <trkpt lat="49.9081" lon="11.622735">
        <ele>399.3</ele>
        <time>2026-07-29T21:13:58.555000Z</time>
      </trkpt>
      <trkpt lat="49.908341" lon="11.623095">
        <ele>401.7</ele>
        <time>2026-07-29T21:14:40.266000Z</time>
      </trkpt>
      <trkpt lat="49.908676" lon="11.623507">
        <ele>405.8</ele>
        <time>2026-07-29T21:15:36.465000Z</time>
      </trkpt>
      <trkpt lat="49.90882" lon="11.623869">
        <ele>408.8</ele>
        <time>2026-07-29T21:16:14.106000Z</time>
      </trkpt>
      <trkpt lat="49.908915" lon="11.624478">
        <ele>413.9</ele>
        <time>2026-07-29T21:17:13.433000Z</time>
      </trkpt>
      <trkpt lat="49.908935" lon="11.625405">
        <ele>421.8</ele>
        <time>2026-07-29T21:18:44.216000Z</time>
      </trkpt>
      <trkpt lat="49.908868" lon="11.625848">
        <ele>425.8</ele>
        <time>2026-07-29T21:19:29.410000Z</time>
      </trkpt>
      <trkpt lat="49.909316" lon="11.626195">
        <ele>432.4</ele>
        <time>2026-07-29T21:20:44.688000Z</time>
      </trkpt>
      <trkpt lat="49.909674" lon="11.626353">
        <ele>436.7</ele>
        <time>2026-07-29T21:21:37.323000Z</time>
      </trkpt>
      <trkpt lat="49.910041" lon="11.62643">
        <ele>440.4</ele>
        <time>2026-07-29T21:22:26.773000Z</time>
      </trkpt>
      <trkpt lat="49.910316" lon="11.626441">
        <ele>442.9</ele>
        <time>2026-07-29T21:23:02.742000Z</time>
      </trkpt>
      <trkpt lat="49.910591" lon="11.626396">
        <ele>445.2</ele>
        <time>2026-07-29T21:23:38.110000Z</time>
      </trkpt>
      <trkpt lat="49.910943" lon="11.626252">
        <ele>447.9</ele>
        <time>2026-07-29T21:24:23.555000Z</time>
      </trkpt>
      <trkpt lat="49.911122" lon="11.626141">
        <ele>449</ele>
        <time>2026-07-29T21:24:46.940000Z</time>
      </trkpt>
      <trkpt lat="49.911329" lon="11.626083">
        <ele>450.2</ele>
        <time>2026-07-29T21:25:11.974000Z</time>
      </trkpt>
      <trkpt lat="49.911941" lon="11.626168">
        <ele>452.6</ele>
        <time>2026-07-29T21:26:21.896000Z</time>
      </trkpt>
      <trkpt lat="49.91203" lon="11.626166">
        <ele>452.9</ele>
        <time>2026-07-29T21:26:31.735000Z</time>
      </trkpt>
      <trkpt lat="49.912364" lon="11.626158">
        <ele>453.9</ele>
        <time>2026-07-29T21:27:08.706000Z</time>
      </trkpt>
      <trkpt lat="49.912573" lon="11.626143">
        <ele>454.5</ele>
        <time>2026-07-29T21:27:31.600000Z</time>
      </trkpt>
      <trkpt lat="49.912991" lon="11.625952">
        <ele>455.7</ele>
        <time>2026-07-29T21:28:19.655000Z</time>
      </trkpt>
      <trkpt lat="49.913514" lon="11.625989">
        <ele>457.4</ele>
        <time>2026-07-29T21:29:18.003000Z</time>
      </trkpt>
      <trkpt lat="49.914185" lon="11.625777">
        <ele>460.2</ele>
        <time>2026-07-29T21:30:36.243000Z</time>
      </trkpt>
      <trkpt lat="49.914614" lon="11.625879">
        <ele>462.3</ele>
        <time>2026-07-29T21:31:27.107000Z</time>
      </trkpt>
      <trkpt lat="49.915092" lon="11.626249">
        <ele>465.1</ele>
        <time>2026-07-29T21:32:30.295000Z</time>
      </trkpt>
      <trkpt lat="49.915483" lon="11.626349">
        <ele>467.3</ele>
        <time>2026-07-29T21:33:17.291000Z</time>
      </trkpt>
      <trkpt lat="49.916041" lon="11.626914">
        <ele>471.6</ele>
        <time>2026-07-29T21:34:38.917000Z</time>
      </trkpt>
      <trkpt lat="49.916064" lon="11.627">
        <ele>472.1</ele>
        <time>2026-07-29T21:34:46.493000Z</time>
      </trkpt>
      <trkpt lat="49.916042" lon="11.627078">
        <ele>472.5</ele>
        <time>2026-07-29T21:34:53.389000Z</time>
      </trkpt>
      <trkpt lat="49.915201" lon="11.628228">
        <ele>481.6</ele>
        <time>2026-07-29T21:37:16.226000Z</time>
      </trkpt>
      <trkpt lat="49.915036" lon="11.628383">
        <ele>483.3</ele>
        <time>2026-07-29T21:37:41.189000Z</time>
      </trkpt>
      <trkpt lat="49.914784" lon="11.62844">
        <ele>485.4</ele>
        <time>2026-07-29T21:38:14.096000Z</time>
      </trkpt>
      <trkpt lat="49.914651" lon="11.628614">
        <ele>486.9</ele>
        <time>2026-07-29T21:38:36.374000Z</time>
      </trkpt>
      <trkpt lat="49.914414" lon="11.629513">
        <ele>491.7</ele>
        <time>2026-07-29T21:39:55.426000Z</time>
      </trkpt>
      <trkpt lat="49.913268" lon="11.630085">
        <ele>499.6</ele>
        <time>2026-07-29T21:42:22.740000Z</time>
      </trkpt>
      <trkpt lat="49.912861" lon="11.63049">
        <ele>501.4</ele>
        <time>2026-07-29T21:43:17.630000Z</time>
      </trkpt>
      <trkpt lat="49.912417" lon="11.63069">
        <ele>502.7</ele>
        <time>2026-07-29T21:44:08.227000Z</time>
      </trkpt>
      <trkpt lat="49.912227" lon="11.630794">
        <ele>503.3</ele>
        <time>2026-07-29T21:44:30.481000Z</time>
      </trkpt>
      <trkpt lat="49.91165" lon="11.63095">
        <ele>505.4</ele>
        <time>2026-07-29T21:45:36.477000Z</time>
      </trkpt>
      <trkpt lat="49.911854" lon="11.63406">
        <ele>516.8</ele>
        <time>2026-07-29T21:49:37.269000Z</time>
      </trkpt>
      <trkpt lat="49.911535" lon="11.634399">
        <ele>517.6</ele>
        <time>2026-07-29T21:50:18.863000Z</time>
      </trkpt>
      <trkpt lat="49.911366" lon="11.634491">
        <ele>517.8</ele>
        <time>2026-07-29T21:50:37.274000Z</time>
      </trkpt>
      <trkpt lat="49.909287" lon="11.635627">
        <ele>514.5</ele>
        <time>2026-07-29T21:54:24.644000Z</time>
      </trkpt>
      <trkpt lat="49.909005" lon="11.635828">
        <ele>514.6</ele>
        <time>2026-07-29T21:54:56.137000Z</time>
      </trkpt>
      <trkpt lat="49.908733" lon="11.635916">
        <ele>514.8</ele>
        <time>2026-07-29T21:55:24.827000Z</time>
      </trkpt>
      <trkpt lat="49.908518" lon="11.636132">
        <ele>515.2</ele>
        <time>2026-07-29T21:55:51.850000Z</time>
      </trkpt>
      <trkpt lat="49.908112" lon="11.636672">
        <ele>516.5</ele>
        <time>2026-07-29T21:56:49.961000Z</time>
      </trkpt>
      <trkpt lat="49.908153" lon="11.636963">
        <ele>517</ele>
        <time>2026-07-29T21:57:10.778000Z</time>
      </trkpt>
      <trkpt lat="49.908049" lon="11.637092">
        <ele>517.3</ele>
        <time>2026-07-29T21:57:25.200000Z</time>
      </trkpt>
      <trkpt lat="49.908" lon="11.637555">
        <ele>518</ele>
        <time>2026-07-29T21:57:57.864000Z</time>
      </trkpt>
      <trkpt lat="49.907871" lon="11.637877">
        <ele>518.4</ele>
        <time>2026-07-29T21:58:23.960000Z</time>
      </trkpt>
      <trkpt lat="49.907237" lon="11.638739">
        <ele>519.4</ele>
        <time>2026-07-29T21:59:51.744000Z</time>
      </trkpt>
      <trkpt lat="49.906956" lon="11.63893">
        <ele>519.3</ele>
        <time>2026-07-29T22:00:22.671000Z</time>
      </trkpt>
      <trkpt lat="49.906728" lon="11.639024">
        <ele>518.8</ele>
        <time>2026-07-29T22:00:47.202000Z</time>
      </trkpt>
      <trkpt lat="49.906518" lon="11.639192">
        <ele>518.1</ele>
        <time>2026-07-29T22:01:12.345000Z</time>
      </trkpt>
      <trkpt lat="49.906318" lon="11.639625">
        <ele>516.6</ele>
        <time>2026-07-29T22:01:49.746000Z</time>
      </trkpt>
      <trkpt lat="49.906269" lon="11.639686">
        <ele>516.3</ele>
        <time>2026-07-29T22:01:56.690000Z</time>
      </trkpt>
      <trkpt lat="49.906293" lon="11.639745">
        <ele>516.1</ele>
        <time>2026-07-29T22:02:01.572000Z</time>
      </trkpt>
      <trkpt lat="49.906305" lon="11.639775">
        <ele>516</ele>
        <time>2026-07-29T22:02:04.094000Z</time>
      </trkpt>
      <trkpt lat="49.906318" lon="11.639975">
        <ele>515.3</ele>
        <time>2026-07-29T22:02:18.441000Z</time>
      </trkpt>
      <trkpt lat="49.906286" lon="11.640797">
        <ele>512.3</ele>
        <time>2026-07-29T22:03:17.525000Z</time>
      </trkpt>
      <trkpt lat="49.906391" lon="11.641116">
        <ele>510.9</ele>
        <time>2026-07-29T22:03:43.374000Z</time>
      </trkpt>
      <trkpt lat="49.905654" lon="11.642591">
        <ele>503.9</ele>
        <time>2026-07-29T22:05:57.893000Z</time>
      </trkpt>
      <trkpt lat="49.905408" lon="11.642963">
        <ele>502.1</ele>
        <time>2026-07-29T22:06:35.978000Z</time>
      </trkpt>
      <trkpt lat="49.905183" lon="11.643177">
        <ele>500.6</ele>
        <time>2026-07-29T22:07:05.390000Z</time>
      </trkpt>
      <trkpt lat="49.904663" lon="11.643456">
        <ele>497.3</ele>
        <time>2026-07-29T22:08:07.026000Z</time>
      </trkpt>
      <trkpt lat="49.903706" lon="11.643837">
        <ele>491.9</ele>
        <time>2026-07-29T22:09:56.941000Z</time>
      </trkpt>
      <trkpt lat="49.903117" lon="11.644248">
        <ele>488.6</ele>
        <time>2026-07-29T22:11:08.244000Z</time>
      </trkpt>
      <trkpt lat="49.902754" lon="11.644585">
        <ele>486.3</ele>
        <time>2026-07-29T22:11:55.195000Z</time>
      </trkpt>
      <trkpt lat="49.90244" lon="11.645001">
        <ele>484.1</ele>
        <time>2026-07-29T22:12:40.923000Z</time>
      </trkpt>
      <trkpt lat="49.902336" lon="11.64514">
        <ele>483.5</ele>
        <time>2026-07-29T22:12:55.902000Z</time>
      </trkpt>
      <trkpt lat="49.901909" lon="11.645817">
        <ele>481.5</ele>
        <time>2026-07-29T22:14:01.038000Z</time>
      </trkpt>
      <trkpt lat="49.901674" lon="11.645962">
        <ele>481</ele>
        <time>2026-07-29T22:14:27.425000Z</time>
      </trkpt>
      <trkpt lat="49.901688" lon="11.645566">
        <ele>480.6</ele>
        <time>2026-07-29T22:14:53.636000Z</time>
      </trkpt>
      <trkpt lat="49.90166" lon="11.645257">
        <ele>480.5</ele>
        <time>2026-07-29T22:15:14.016000Z</time>
      </trkpt>
      <trkpt lat="49.901122" lon="11.645079">
        <ele>481.3</ele>
        <time>2026-07-29T22:16:11.678000Z</time>
      </trkpt>
      <trkpt lat="49.900938" lon="11.644929">
        <ele>481.9</ele>
        <time>2026-07-29T22:16:34.898000Z</time>
      </trkpt>
      <trkpt lat="49.900458" lon="11.644391">
        <ele>484.1</ele>
        <time>2026-07-29T22:17:41.562000Z</time>
      </trkpt>
      <trkpt lat="49.900218" lon="11.644012">
        <ele>485.2</ele>
        <time>2026-07-29T22:18:19.750000Z</time>
      </trkpt>
      <trkpt lat="49.899854" lon="11.643676">
        <ele>486.7</ele>
        <time>2026-07-29T22:19:07.397000Z</time>
      </trkpt>
      <trkpt lat="49.899394" lon="11.643624">
        <ele>488.3</ele>
        <time>2026-07-29T22:19:59.314000Z</time>
      </trkpt>
      <trkpt lat="49.898481" lon="11.643657">
        <ele>491.3</ele>
        <time>2026-07-29T22:21:40.999000Z</time>
      </trkpt>
      <trkpt lat="49.897654" lon="11.643908">
        <ele>494.3</ele>
        <time>2026-07-29T22:23:15.964000Z</time>
      </trkpt>
      <trkpt lat="49.897159" lon="11.643972">
        <ele>495.7</ele>
        <time>2026-07-29T22:24:10.711000Z</time>
      </trkpt>
      <trkpt lat="49.896651" lon="11.644086">
        <ele>496.6</ele>
        <time>2026-07-29T22:25:05.220000Z</time>
      </trkpt>
      <trkpt lat="49.896253" lon="11.644104">
        <ele>496.8</ele>
        <time>2026-07-29T22:25:45.799000Z</time>
      </trkpt>
      <trkpt lat="49.89626" lon="11.644505">
        <ele>496.8</ele>
        <time>2026-07-29T22:26:11.742000Z</time>
      </trkpt>
      <trkpt lat="49.896292" lon="11.644595">
        <ele>496.8</ele>
        <time>2026-07-29T22:26:18.414000Z</time>
      </trkpt>
      <trkpt lat="49.896347" lon="11.644611">
        <ele>496.7</ele>
        <time>2026-07-29T22:26:24.065000Z</time>
      </trkpt>
      <trkpt lat="49.896347" lon="11.64467">
        <ele>496.7</ele>
        <time>2026-07-29T22:26:27.892000Z</time>
      </trkpt>
      <trkpt lat="49.896347" lon="11.644611">
        <ele>496.7</ele>
        <time>2026-07-29T22:26:31.700000Z</time>
      </trkpt>
      <trkpt lat="49.896292" lon="11.644595">
        <ele>496.6</ele>
        <time>2026-07-29T22:26:37.386000Z</time>
      </trkpt>
      <trkpt lat="49.89626" lon="11.644505">
        <ele>496.6</ele>
        <time>2026-07-29T22:26:44.153000Z</time>
      </trkpt>
      <trkpt lat="49.895864" lon="11.644508">
        <ele>496.1</ele>
        <time>2026-07-29T22:27:24.881000Z</time>
      </trkpt>
      <trkpt lat="49.895865" lon="11.644113">
        <ele>495.7</ele>
        <time>2026-07-29T22:27:51.065000Z</time>
      </trkpt>
      <trkpt lat="49.89552" lon="11.64404">
        <ele>495.3</ele>
        <time>2026-07-29T22:28:26.930000Z</time>
      </trkpt>
      <trkpt lat="49.895406" lon="11.644016">
        <ele>495.1</ele>
        <time>2026-07-29T22:28:38.779000Z</time>
      </trkpt>
      <trkpt lat="49.895195" lon="11.643905">
        <ele>494.7</ele>
        <time>2026-07-29T22:29:01.977000Z</time>
      </trkpt>
      <trkpt lat="49.895014" lon="11.643697">
        <ele>494.2</ele>
        <time>2026-07-29T22:29:25.488000Z</time>
      </trkpt>
      <trkpt lat="49.894652" lon="11.643004">
        <ele>493.1</ele>
        <time>2026-07-29T22:30:25.193000Z</time>
      </trkpt>
      <trkpt lat="49.894503" lon="11.642846">
        <ele>492.8</ele>
        <time>2026-07-29T22:30:43.891000Z</time>
      </trkpt>
      <trkpt lat="49.8943" lon="11.642548">
        <ele>492.3</ele>
        <time>2026-07-29T22:31:12.903000Z</time>
      </trkpt>
      <trkpt lat="49.893876" lon="11.643144">
        <ele>490.5</ele>
        <time>2026-07-29T22:32:13.943000Z</time>
      </trkpt>
      <trkpt lat="49.893676" lon="11.643324">
        <ele>489.3</ele>
        <time>2026-07-29T22:32:39.429000Z</time>
      </trkpt>
      <trkpt lat="49.8934" lon="11.643538">
        <ele>487.5</ele>
        <time>2026-07-29T22:33:14.031000Z</time>
      </trkpt>
      <trkpt lat="49.893495" lon="11.644345">
        <ele>483.6</ele>
        <time>2026-07-29T22:34:14.683000Z</time>
      </trkpt>
      <trkpt lat="49.893662" lon="11.645169">
        <ele>478.3</ele>
        <time>2026-07-29T22:35:20.910000Z</time>
      </trkpt>
      <trkpt lat="49.893724" lon="11.645372">
        <ele>476.7</ele>
        <time>2026-07-29T22:35:38.476000Z</time>
      </trkpt>
      <trkpt lat="49.894022" lon="11.646372">
        <ele>470</ele>
        <time>2026-07-29T22:37:02.618000Z</time>
      </trkpt>
      <trkpt lat="49.893774" lon="11.646531">
        <ele>468.5</ele>
        <time>2026-07-29T22:37:32.582000Z</time>
      </trkpt>
      <trkpt lat="49.893431" lon="11.646809">
        <ele>467.1</ele>
        <time>2026-07-29T22:38:14.070000Z</time>
      </trkpt>
      <trkpt lat="49.893277" lon="11.646719">
        <ele>466.9</ele>
        <time>2026-07-29T22:38:30.991000Z</time>
      </trkpt>
      <trkpt lat="49.893069" lon="11.646661">
        <ele>466.9</ele>
        <time>2026-07-29T22:38:52.230000Z</time>
      </trkpt>
      <trkpt lat="49.892802" lon="11.646622">
        <ele>466.9</ele>
        <time>2026-07-29T22:39:19.085000Z</time>
      </trkpt>
      <trkpt lat="49.89241" lon="11.646487">
        <ele>467.5</ele>
        <time>2026-07-29T22:40:01.369000Z</time>
      </trkpt>
      <trkpt lat="49.892326" lon="11.646371">
        <ele>467.8</ele>
        <time>2026-07-29T22:40:13.945000Z</time>
      </trkpt>
      <trkpt lat="49.89226" lon="11.646279">
        <ele>468.2</ele>
        <time>2026-07-29T22:40:24.042000Z</time>
      </trkpt>
      <trkpt lat="49.892119" lon="11.646133">
        <ele>468.8</ele>
        <time>2026-07-29T22:40:43.121000Z</time>
      </trkpt>
      <trkpt lat="49.892117" lon="11.646591">
        <ele>469.9</ele>
        <time>2026-07-29T22:41:16.618000Z</time>
      </trkpt>
      <trkpt lat="49.891981" lon="11.646592">
        <ele>470.5</ele>
        <time>2026-07-29T22:41:32.358000Z</time>
      </trkpt>
      <trkpt lat="49.891932" lon="11.646596">
        <ele>470.8</ele>
        <time>2026-07-29T22:41:38.029000Z</time>
      </trkpt>
      <trkpt lat="49.891981" lon="11.646592">
        <ele>471</ele>
        <time>2026-07-29T22:41:43.713000Z</time>
      </trkpt>
      <trkpt lat="49.892117" lon="11.646591">
        <ele>471.7</ele>
        <time>2026-07-29T22:41:59.834000Z</time>
      </trkpt>
      <trkpt lat="49.892119" lon="11.646133">
        <ele>473.5</ele>
        <time>2026-07-29T22:42:35.443000Z</time>
      </trkpt>
      <trkpt lat="49.892053" lon="11.646069">
        <ele>474</ele>
        <time>2026-07-29T22:42:44.918000Z</time>
      </trkpt>
      <trkpt lat="49.891742" lon="11.64587">
        <ele>476.3</ele>
        <time>2026-07-29T22:43:26.591000Z</time>
      </trkpt>
      <trkpt lat="49.891628" lon="11.645807">
        <ele>477.4</ele>
        <time>2026-07-29T22:43:42.191000Z</time>
      </trkpt>
      <trkpt lat="49.891586" lon="11.645751">
        <ele>477.8</ele>
        <time>2026-07-29T22:43:49.382000Z</time>
      </trkpt>
      <trkpt lat="49.891362" lon="11.645099">
        <ele>482.1</ele>
        <time>2026-07-29T22:44:51.387000Z</time>
      </trkpt>
      <trkpt lat="49.891382" lon="11.64495">
        <ele>482.9</ele>
        <time>2026-07-29T22:45:03.918000Z</time>
      </trkpt>
      <trkpt lat="49.891441" lon="11.644796">
        <ele>483.9</ele>
        <time>2026-07-29T22:45:18.740000Z</time>
      </trkpt>
      <trkpt lat="49.891721" lon="11.64432">
        <ele>486.9</ele>
        <time>2026-07-29T22:46:10.576000Z</time>
      </trkpt>
      <trkpt lat="49.891859" lon="11.644091">
        <ele>488</ele>
        <time>2026-07-29T22:46:34.468000Z</time>
      </trkpt>
      <trkpt lat="49.892005" lon="11.643745">
        <ele>488.8</ele>
        <time>2026-07-29T22:47:04.245000Z</time>
      </trkpt>
      <trkpt lat="49.892197" lon="11.643218">
        <ele>489.2</ele>
        <time>2026-07-29T22:47:44.670000Z</time>
      </trkpt>
      <trkpt lat="49.892244" lon="11.643164">
        <ele>489.2</ele>
        <time>2026-07-29T22:47:50.540000Z</time>
      </trkpt>
      <trkpt lat="49.892194" lon="11.643098">
        <ele>489.2</ele>
        <time>2026-07-29T22:47:57.139000Z</time>
      </trkpt>
      <trkpt lat="49.892464" lon="11.641113">
        <ele>484.3</ele>
        <time>2026-07-29T22:50:17.947000Z</time>
      </trkpt>
      <trkpt lat="49.892562" lon="11.640835">
        <ele>482.8</ele>
        <time>2026-07-29T22:50:41.329000Z</time>
      </trkpt>
      <trkpt lat="49.892611" lon="11.640626">
        <ele>481.7</ele>
        <time>2026-07-29T22:50:57.908000Z</time>
      </trkpt>
      <trkpt lat="49.892615" lon="11.640485">
        <ele>481</ele>
        <time>2026-07-29T22:51:08.442000Z</time>
      </trkpt>
      <trkpt lat="49.892592" lon="11.64027">
        <ele>479.8</ele>
        <time>2026-07-29T22:51:24.777000Z</time>
      </trkpt>
      <trkpt lat="49.892458" lon="11.639766">
        <ele>476.8</ele>
        <time>2026-07-29T22:52:05.929000Z</time>
      </trkpt>
      <trkpt lat="49.892339" lon="11.639184">
        <ele>473.1</ele>
        <time>2026-07-29T22:52:52.565000Z</time>
      </trkpt>
      <trkpt lat="49.892071" lon="11.637623">
        <ele>464.4</ele>
        <time>2026-07-29T22:54:54.015000Z</time>
      </trkpt>
      <trkpt lat="49.892019" lon="11.637536">
        <ele>463.9</ele>
        <time>2026-07-29T22:55:02.759000Z</time>
      </trkpt>
      <trkpt lat="49.891939" lon="11.637471">
        <ele>463.3</ele>
        <time>2026-07-29T22:55:13.049000Z</time>
      </trkpt>
      <trkpt lat="49.891803" lon="11.637448">
        <ele>462.4</ele>
        <time>2026-07-29T22:55:28.546000Z</time>
      </trkpt>
      <trkpt lat="49.891315" lon="11.637419">
        <ele>458.9</ele>
        <time>2026-07-29T22:56:24.296000Z</time>
      </trkpt>
      <trkpt lat="49.891084" lon="11.63732">
        <ele>457.1</ele>
        <time>2026-07-29T22:56:51.844000Z</time>
      </trkpt>
      <trkpt lat="49.890927" lon="11.637186">
        <ele>455.8</ele>
        <time>2026-07-29T22:57:12.381000Z</time>
      </trkpt>
      <trkpt lat="49.890776" lon="11.636776">
        <ele>453.4</ele>
        <time>2026-07-29T22:57:47.600000Z</time>
      </trkpt>
      <trkpt lat="49.890425" lon="11.636474">
        <ele>450</ele>
        <time>2026-07-29T22:58:34.445000Z</time>
      </trkpt>
      <trkpt lat="49.890306" lon="11.636357">
        <ele>448.8</ele>
        <time>2026-07-29T22:58:51.099000Z</time>
      </trkpt>
      <trkpt lat="49.88953" lon="11.635599">
        <ele>440.6</ele>
        <time>2026-07-29T23:00:39.098000Z</time>
      </trkpt>
      <trkpt lat="49.889539" lon="11.635362">
        <ele>439.3</ele>
        <time>2026-07-29T23:00:56.922000Z</time>
      </trkpt>
      <trkpt lat="49.889686" lon="11.634005">
        <ele>432.4</ele>
        <time>2026-07-29T23:02:39.430000Z</time>
      </trkpt>
      <trkpt lat="49.88967" lon="11.633624">
        <ele>431</ele>
        <time>2026-07-29T23:03:06.899000Z</time>
      </trkpt>
      <trkpt lat="49.88963" lon="11.633342">
        <ele>430.3</ele>
        <time>2026-07-29T23:03:27.026000Z</time>
      </trkpt>
      <trkpt lat="49.88936" lon="11.6324">
        <ele>427.8</ele>
        <time>2026-07-29T23:04:38.444000Z</time>
      </trkpt>
      <trkpt lat="49.88906" lon="11.63258">
        <ele>426.5</ele>
        <time>2026-07-29T23:05:13.248000Z</time>
      </trkpt>
      <trkpt lat="49.888848" lon="11.632601">
        <ele>425.6</ele>
        <time>2026-07-29T23:05:36.410000Z</time>
      </trkpt>
      <trkpt lat="49.888862" lon="11.632059">
        <ele>423.8</ele>
        <time>2026-07-29T23:06:15.028000Z</time>
      </trkpt>
      <trkpt lat="49.889065" lon="11.6311">
        <ele>419.2</ele>
        <time>2026-07-29T23:07:29.340000Z</time>
      </trkpt>
      <trkpt lat="49.889071" lon="11.630826">
        <ele>417.6</ele>
        <time>2026-07-29T23:07:50.177000Z</time>
      </trkpt>
      <trkpt lat="49.889274" lon="11.629777">
        <ele>413.1</ele>
        <time>2026-07-29T23:09:09.909000Z</time>
      </trkpt>
      <trkpt lat="49.889328" lon="11.629653">
        <ele>412.7</ele>
        <time>2026-07-29T23:09:20.345000Z</time>
      </trkpt>
      <trkpt lat="49.889315" lon="11.629593">
        <ele>412.6</ele>
        <time>2026-07-29T23:09:24.671000Z</time>
      </trkpt>
      <trkpt lat="49.889339" lon="11.629575">
        <ele>412.5</ele>
        <time>2026-07-29T23:09:27.474000Z</time>
      </trkpt>
      <trkpt lat="49.889408" lon="11.629528">
        <ele>412.2</ele>
        <time>2026-07-29T23:09:35.608000Z</time>
      </trkpt>
      <trkpt lat="49.88949" lon="11.629436">
        <ele>411.9</ele>
        <time>2026-07-29T23:09:46.429000Z</time>
      </trkpt>
      <trkpt lat="49.889557" lon="11.629185">
        <ele>411.3</ele>
        <time>2026-07-29T23:10:05.023000Z</time>
      </trkpt>
      <trkpt lat="49.889514" lon="11.628834">
        <ele>410.8</ele>
        <time>2026-07-29T23:10:29.182000Z</time>
      </trkpt>
      <trkpt lat="49.889624" lon="11.628331">
        <ele>410.2</ele>
        <time>2026-07-29T23:11:04.642000Z</time>
      </trkpt>
      <trkpt lat="49.890373" lon="11.62897">
        <ele>409.5</ele>
        <time>2026-07-29T23:12:31.554000Z</time>
      </trkpt>
      <trkpt lat="49.890615" lon="11.629339">
        <ele>408.7</ele>
        <time>2026-07-29T23:13:07.240000Z</time>
      </trkpt>
      <trkpt lat="49.890789" lon="11.629421">
        <ele>408.2</ele>
        <time>2026-07-29T23:13:26.473000Z</time>
      </trkpt>
      <trkpt lat="49.891449" lon="11.629436">
        <ele>407.2</ele>
        <time>2026-07-29T23:14:34.615000Z</time>
      </trkpt>
      <trkpt lat="49.891775" lon="11.62968">
        <ele>407.4</ele>
        <time>2026-07-29T23:15:11.572000Z</time>
      </trkpt>
      <trkpt lat="49.891945" lon="11.629744">
        <ele>407.6</ele>
        <time>2026-07-29T23:15:29.633000Z</time>
      </trkpt>
      <trkpt lat="49.892239" lon="11.629549">
        <ele>407.9</ele>
        <time>2026-07-29T23:16:02.800000Z</time>
      </trkpt>
      <trkpt lat="49.892974" lon="11.629487">
        <ele>409.2</ele>
        <time>2026-07-29T23:17:20.952000Z</time>
      </trkpt>
      <trkpt lat="49.893547" lon="11.629263">
        <ele>410.8</ele>
        <time>2026-07-29T23:18:25.978000Z</time>
      </trkpt>
      <trkpt lat="49.894215" lon="11.629188">
        <ele>412.8</ele>
        <time>2026-07-29T23:19:40.042000Z</time>
      </trkpt>
      <trkpt lat="49.89504" lon="11.628542">
        <ele>415.3</ele>
        <time>2026-07-29T23:21:21.144000Z</time>
      </trkpt>
      <trkpt lat="49.896027" lon="11.627347">
        <ele>418.7</ele>
        <time>2026-07-29T23:23:38.581000Z</time>
      </trkpt>
      <trkpt lat="49.89608" lon="11.627221">
        <ele>419</ele>
        <time>2026-07-29T23:23:49.206000Z</time>
      </trkpt>
      <trkpt lat="49.896074" lon="11.627011">
        <ele>419.3</ele>
        <time>2026-07-29T23:24:03.734000Z</time>
      </trkpt>
      <trkpt lat="49.895945" lon="11.6266">
        <ele>419.7</ele>
        <time>2026-07-29T23:24:34.604000Z</time>
      </trkpt>
      <trkpt lat="49.895778" lon="11.625846">
        <ele>419.7</ele>
        <time>2026-07-29T23:25:26.051000Z</time>
      </trkpt>
      <trkpt lat="49.895996" lon="11.625793">
        <ele>419.4</ele>
        <time>2026-07-29T23:25:48.624000Z</time>
      </trkpt>
      <trkpt lat="49.896669" lon="11.626119">
        <ele>417.4</ele>
        <time>2026-07-29T23:27:03.447000Z</time>
      </trkpt>
      <trkpt lat="49.896861" lon="11.626078">
        <ele>416.3</ele>
        <time>2026-07-29T23:27:24.922000Z</time>
      </trkpt>
      <trkpt lat="49.897544" lon="11.625716">
        <ele>412.6</ele>
        <time>2026-07-29T23:28:44.683000Z</time>
      </trkpt>
      <trkpt lat="49.897892" lon="11.625458">
        <ele>411</ele>
        <time>2026-07-29T23:29:26.705000Z</time>
      </trkpt>
      <trkpt lat="49.898204" lon="11.625169">
        <ele>409.6</ele>
        <time>2026-07-29T23:30:05.708000Z</time>
      </trkpt>
      <trkpt lat="49.898448" lon="11.624682">
        <ele>408.5</ele>
        <time>2026-07-29T23:30:47.967000Z</time>
      </trkpt>
      <trkpt lat="49.89858" lon="11.624532">
        <ele>408</ele>
        <time>2026-07-29T23:31:05.194000Z</time>
      </trkpt>
      <trkpt lat="49.899342" lon="11.624063">
        <ele>406.2</ele>
        <time>2026-07-29T23:32:31.013000Z</time>
      </trkpt>
      <trkpt lat="49.899806" lon="11.624852">
        <ele>405.2</ele>
        <time>2026-07-29T23:33:41.992000Z</time>
      </trkpt>
      <trkpt lat="49.900552" lon="11.625839">
        <ele>405.1</ele>
        <time>2026-07-29T23:35:20.324000Z</time>
      </trkpt>
      <trkpt lat="49.900887" lon="11.626486">
        <ele>405.9</ele>
        <time>2026-07-29T23:36:16.504000Z</time>
      </trkpt>
      <trkpt lat="49.901282" lon="11.626792">
        <ele>406.4</ele>
        <time>2026-07-29T23:37:02.686000Z</time>
      </trkpt>
      <trkpt lat="49.901326" lon="11.626753">
        <ele>406.5</ele>
        <time>2026-07-29T23:37:08.022000Z</time>
      </trkpt>
      <trkpt lat="49.902169" lon="11.62601">
        <ele>406.2</ele>
        <time>2026-07-29T23:38:45.583000Z</time>
      </trkpt>
      <trkpt lat="49.902725" lon="11.62541">
        <ele>404.6</ele>
        <time>2026-07-29T23:39:56.719000Z</time>
      </trkpt>
      <trkpt lat="49.902985" lon="11.625291">
        <ele>403.8</ele>
        <time>2026-07-29T23:40:25.554000Z</time>
      </trkpt>
      <trkpt lat="49.903136" lon="11.625121">
        <ele>403.1</ele>
        <time>2026-07-29T23:40:45.580000Z</time>
      </trkpt>
      <trkpt lat="49.90342" lon="11.625081">
        <ele>401.9</ele>
        <time>2026-07-29T23:41:16.569000Z</time>
      </trkpt>
      <trkpt lat="49.903922" lon="11.625188">
        <ele>399.5</ele>
        <time>2026-07-29T23:42:12.220000Z</time>
      </trkpt>
      <trkpt lat="49.904246" lon="11.625335">
        <ele>398</ele>
        <time>2026-07-29T23:42:49.057000Z</time>
      </trkpt>
      <trkpt lat="49.904403" lon="11.625511">
        <ele>397.1</ele>
        <time>2026-07-29T23:43:10.184000Z</time>
      </trkpt>
      <trkpt lat="49.904375" lon="11.625584">
        <ele>396.9</ele>
        <time>2026-07-29T23:43:16.129000Z</time>
      </trkpt>
      <trkpt lat="49.904594" lon="11.625756">
        <ele>395.9</ele>
        <time>2026-07-29T23:43:42.758000Z</time>
      </trkpt>
      <trkpt lat="49.90468" lon="11.625752">
        <ele>395.6</ele>
        <time>2026-07-29T23:43:51.951000Z</time>
      </trkpt>
      <trkpt lat="49.904861" lon="11.625741">
        <ele>395.1</ele>
        <time>2026-07-29T23:44:11.095000Z</time>
      </trkpt>
      <trkpt lat="49.905007" lon="11.625625">
        <ele>394.8</ele>
        <time>2026-07-29T23:44:28.212000Z</time>
      </trkpt>
      <trkpt lat="49.90526" lon="11.624983">
        <ele>394.2</ele>
        <time>2026-07-29T23:45:17.970000Z</time>
      </trkpt>
      <trkpt lat="49.905282" lon="11.624937">
        <ele>394.2</ele>
        <time>2026-07-29T23:45:21.615000Z</time>
      </trkpt>
      <trkpt lat="49.905373" lon="11.624747">
        <ele>394.2</ele>
        <time>2026-07-29T23:45:36.932000Z</time>
      </trkpt>
      <trkpt lat="49.905597" lon="11.62428">
        <ele>394.2</ele>
        <time>2026-07-29T23:46:14.540000Z</time>
      </trkpt>
      <trkpt lat="49.905807" lon="11.623987">
        <ele>394</ele>
        <time>2026-07-29T23:46:43.167000Z</time>
      </trkpt>
      <trkpt lat="49.906083" lon="11.623843">
        <ele>393.6</ele>
        <time>2026-07-29T23:47:13.057000Z</time>
      </trkpt>
      <trkpt lat="49.906272" lon="11.623788">
        <ele>393.3</ele>
        <time>2026-07-29T23:47:32.990000Z</time>
      </trkpt>
      <trkpt lat="49.90653" lon="11.623715">
        <ele>392.7</ele>
        <time>2026-07-29T23:48:00.536000Z</time>
      </trkpt>
      <trkpt lat="49.907024" lon="11.623644">
        <ele>391</ele>
        <time>2026-07-29T23:48:53.552000Z</time>
      </trkpt>
      <trkpt lat="49.907229" lon="11.623481">
        <ele>390.2</ele>
        <time>2026-07-29T23:49:18.279000Z</time>
      </trkpt>
      <trkpt lat="49.907306" lon="11.623253">
        <ele>389.6</ele>
        <time>2026-07-29T23:49:36.124000Z</time>
      </trkpt>
      <trkpt lat="49.907332" lon="11.623075">
        <ele>389.2</ele>
        <time>2026-07-29T23:49:48.735000Z</time>
      </trkpt>
      <trkpt lat="49.907327" lon="11.622873">
        <ele>388.7</ele>
        <time>2026-07-29T23:50:02.651000Z</time>
      </trkpt>
      <trkpt lat="49.907256" lon="11.622566">
        <ele>388.1</ele>
        <time>2026-07-29T23:50:25.010000Z</time>
      </trkpt>
      <trkpt lat="49.906884" lon="11.621594">
        <ele>387.5</ele>
        <time>2026-07-29T23:51:39.053000Z</time>
      </trkpt>
      <trkpt lat="49.906896" lon="11.621577">
        <ele>387.6</ele>
        <time>2026-07-29T23:51:40.816000Z</time>
      </trkpt>
      <trkpt lat="49.906929" lon="11.621531">
        <ele>387.7</ele>
        <time>2026-07-29T23:51:45.582000Z</time>
      </trkpt>
      <trkpt lat="49.906947" lon="11.621502">
        <ele>387.7</ele>
        <time>2026-07-29T23:51:48.357000Z</time>
      </trkpt>
      <trkpt lat="49.907051" lon="11.621344">
        <ele>388.1</ele>
        <time>2026-07-29T23:52:04.399000Z</time>
      </trkpt>
      <trkpt lat="49.907172" lon="11.621288">
        <ele>388.5</ele>
        <time>2026-07-29T23:52:18.351000Z</time>
      </trkpt>
      <trkpt lat="49.907231" lon="11.621153">
        <ele>388.8</ele>
        <time>2026-07-29T23:52:29.911000Z</time>
      </trkpt>
      <trkpt lat="49.907783" lon="11.622013">
        <ele>391.6</ele>
        <time>2026-07-29T23:53:58.107000Z</time>
      </trkpt>
      <trkpt lat="49.90785" lon="11.622189">
        <ele>392.2</ele>
        <time>2026-07-29T23:54:13.178000Z</time>
      </trkpt>
      <trkpt lat="49.907728" lon="11.622275">
        <ele>392.8</ele>
        <time>2026-07-29T23:54:28.600000Z</time>
      </trkpt>
    </trkseg>
  </trk>
</gpx>