<?xml version="1.0" encoding="UTF-8"?>
<gpx xmlns="http://www.topografix.com/GPX/1/1" xmlns:xsi="http://www.w3.org/2001/XMLSchema-instance" xsi:schemaLocation="http://www.topografix.com/GPX/1/1 http://www.topografix.com/GPX/1/1/gpx.xsd" version="1.1" creator="Robert Kampf">
  <metadata>
    <name>Schöner Baum – Biberteich an der Lindenhofallee Runde von Universität Bayreuth</name>
    <desc>Distance: 3.602km, Estimated duration: 0.93h, Elevation up: 19.36943636866073m, Elevation down: 18.925635102653303m, Grade: easy</desc>
    <author>
      <name>Robert Kampf</name>
      <link href="https://www.komoot.de/user/4125295338453">
        <text>View Robert Kampf's Profile on Komoot</text>
      </link>
    </author>
    <link href="https://www.komoot.de/tour/3089255341">
      <text>View tour on Komoot</text>
    </link>
  </metadata>
  <wpt lat="49.916312" lon="11.595548">
    <name>Hohlmühle</name>
    <cmt></cmt>
    <desc>Limited access</desc>
    <src>Komoot</src>
    <type>POI</type>
  </wpt>
  <wpt lat="49.916114" lon="11.596393">
    <ele>408.7</ele>
    <name>Beautiful tree</name>
    <cmt>https://d2exd72xrrp1s7.cloudfront.net/www/000/1k9/cj/cjnq6l26dog0n2oehyzuytrw5jz2656n-uhi95477349/0</cmt>
    <desc></desc>
    <src>Komoot</src>
    <link href="https://www.komoot.de/highlight/8075038">
      <text>View POI on Komoot</text>
    </link>
    <type>Highlight</type>
  </wpt>
  <wpt lat="49.91855" lon="11.581897">
    <ele>408.9</ele>
    <name>Beaver Pond on Lindenhofallee</name>
    <cmt>https://d2exd72xrrp1s7.cloudfront.net/www/000/1k6/1t/1tq07x47vgbot1md4l279lruv4fcjgvty-uhi56938349/0</cmt>
    <desc></desc>
    <src>Komoot</src>
    <link href="https://www.komoot.de/highlight/5358833">
      <text>View POI on Komoot</text>
    </link>
    <type>Highlight</type>
  </wpt>
  <wpt lat="49.917934" lon="11.586286">
    <ele>355.1</ele>
    <name>Lindenhof Nature Reserve (LBV Upper Franconia)</name>
    <cmt>https://d2exd72xrrp1s7.cloudfront.net/www/000/1k5/1w/1wh8rsbf9auu4d4z1vvf83oro3ttmlm30-uhi36616990/0</cmt>
    <desc>Hilmar: Aussichtsplattformen, Kühe, Esel, Vögel, Bienen usw. lassen sich hier gut beobachten. Direkt an der Straße gelegen, wissen viele nicht dass sie das hinter den Sträuchern erwartet.
――――――――――
Thomas: Ein kleines Naturhighlight, dass man sich nicht entgehen lassen sollte!
――――――――――
Dieter K. aus S.: Ein Erlebnisplatz in Stadt Nähe ...
――――――――――
Gehlee: https://bayreuth.lbv.de/lindenhof/</desc>
    <src>Komoot</src>
    <link href="https://www.komoot.de/highlight/3419222">
      <text>View POI on Komoot</text>
    </link>
    <type>Highlight</type>
  </wpt>
  <wpt lat="49.917727" lon="11.587927">
    <ele>402.2</ele>
    <name>White Donkey Paddock at Lindenhof</name>
    <cmt>https://d2exd72xrrp1s7.cloudfront.net/www/000/1k5/gp/gpxxgeqb0x81tnp1fb97t7gm3sqaukwj-uhi35074362/0</cmt>
    <desc>Patrick: Neben der Koppel am Röhrensee gibt es hier eine zweite mit den seltenen weißen Eseln.
――――――――――
Thomas: Direkt neben/am Lindenhof! Österreichisch-ungarische weiße Esel.</desc>
    <src>Komoot</src>
    <link href="https://www.komoot.de/highlight/3329197">
      <text>View POI on Komoot</text>
    </link>
    <type>Highlight</type>
  </wpt>
  <wpt lat="49.917478" lon="11.588426">
    <ele>408.2</ele>
    <name>Observation Platform Overlooking Wetlands</name>
    <cmt>https://d2exd72xrrp1s7.cloudfront.net/www/000/1k8/23/236sjorflwn71ihx4lnalssbe52fshf9t-uhi76034140/0</cmt>
    <desc></desc>
    <src>Komoot</src>
    <link href="https://www.komoot.de/highlight/6851816">
      <text>View POI on Komoot</text>
    </link>
    <type>Highlight</type>
  </wpt>
  <trk>
    <name>Schöner Baum – Biberteich an der Lindenhofallee Runde von Universität Bayreuth</name>
    <desc>Distance: 3.602km, Estimated duration: 0.93h, Elevation up: 19.36943636866073m, Elevation down: 18.925635102653303m, Grade: easy</desc>
    <link href="https://www.komoot.de/tour/3089255341">
      <text>View tour on Komoot</text>
    </link>
    <trkseg>
      <trkpt lat="49.916313" lon="11.59555">
        <ele>363.8</ele>
        <time>2026-07-06T14:24:08.165000Z</time>
      </trkpt>
      <trkpt lat="49.916242" lon="11.595551">
        <ele>363.8</ele>
        <time>2026-07-06T14:24:15.327000Z</time>
      </trkpt>
      <trkpt lat="49.916204" lon="11.596026">
        <ele>363.9</ele>
        <time>2026-07-06T14:24:46.460000Z</time>
      </trkpt>
      <trkpt lat="49.916081" lon="11.596046">
        <ele>363.9</ele>
        <time>2026-07-06T14:24:58.984000Z</time>
      </trkpt>
      <trkpt lat="49.91609" lon="11.596395">
        <ele>363.9</ele>
        <time>2026-07-06T14:25:21.548000Z</time>
      </trkpt>
      <trkpt lat="49.916081" lon="11.596046">
        <ele>363.9</ele>
        <time>2026-07-06T14:25:44.073000Z</time>
      </trkpt>
      <trkpt lat="49.916095" lon="11.595549">
        <ele>363.7</ele>
        <time>2026-07-06T14:26:16.545000Z</time>
      </trkpt>
      <trkpt lat="49.916099" lon="11.595547">
        <ele>363.7</ele>
        <time>2026-07-06T14:26:17.016000Z</time>
      </trkpt>
      <trkpt lat="49.916109" lon="11.595257">
        <ele>363.6</ele>
        <time>2026-07-06T14:26:36.011000Z</time>
      </trkpt>
      <trkpt lat="49.916167" lon="11.594299">
        <ele>363</ele>
        <time>2026-07-06T14:27:39.193000Z</time>
      </trkpt>
      <trkpt lat="49.916211" lon="11.593862">
        <ele>362.4</ele>
        <time>2026-07-06T14:28:08.944000Z</time>
      </trkpt>
      <trkpt lat="49.916385" lon="11.592782">
        <ele>360</ele>
        <time>2026-07-06T14:29:25.554000Z</time>
      </trkpt>
      <trkpt lat="49.916421" lon="11.592537">
        <ele>359.4</ele>
        <time>2026-07-06T14:29:43.099000Z</time>
      </trkpt>
      <trkpt lat="49.916518" lon="11.59175">
        <ele>357.6</ele>
        <time>2026-07-06T14:30:38.400000Z</time>
      </trkpt>
      <trkpt lat="49.916531" lon="11.591123">
        <ele>357.1</ele>
        <time>2026-07-06T14:31:19.938000Z</time>
      </trkpt>
      <trkpt lat="49.916495" lon="11.590545">
        <ele>357.1</ele>
        <time>2026-07-06T14:31:57.382000Z</time>
      </trkpt>
      <trkpt lat="49.916422" lon="11.590249">
        <ele>357.3</ele>
        <time>2026-07-06T14:32:18.490000Z</time>
      </trkpt>
      <trkpt lat="49.916476" lon="11.590227">
        <ele>357.3</ele>
        <time>2026-07-06T14:32:24.341000Z</time>
      </trkpt>
      <trkpt lat="49.9164" lon="11.590064">
        <ele>357.5</ele>
        <time>2026-07-06T14:32:37.882000Z</time>
      </trkpt>
      <trkpt lat="49.915962" lon="11.589525">
        <ele>358.7</ele>
        <time>2026-07-06T14:33:37.876000Z</time>
      </trkpt>
      <trkpt lat="49.915901" lon="11.589324">
        <ele>359.1</ele>
        <time>2026-07-06T14:33:53.684000Z</time>
      </trkpt>
      <trkpt lat="49.915847" lon="11.589279">
        <ele>359.3</ele>
        <time>2026-07-06T14:34:00.578000Z</time>
      </trkpt>
      <trkpt lat="49.915749" lon="11.588931">
        <ele>360</ele>
        <time>2026-07-06T14:34:27.711000Z</time>
      </trkpt>
      <trkpt lat="49.915556" lon="11.587107">
        <ele>361.2</ele>
        <time>2026-07-06T14:36:31.065000Z</time>
      </trkpt>
      <trkpt lat="49.915208" lon="11.586282">
        <ele>361</ele>
        <time>2026-07-06T14:37:35.077000Z</time>
      </trkpt>
      <trkpt lat="49.914966" lon="11.585416">
        <ele>360.8</ele>
        <time>2026-07-06T14:38:36.277000Z</time>
      </trkpt>
      <trkpt lat="49.915105" lon="11.585032">
        <ele>360.7</ele>
        <time>2026-07-06T14:39:04.984000Z</time>
      </trkpt>
      <trkpt lat="49.914789" lon="11.585123">
        <ele>360.5</ele>
        <time>2026-07-06T14:39:37.616000Z</time>
      </trkpt>
      <trkpt lat="49.914795" lon="11.58474">
        <ele>360.3</ele>
        <time>2026-07-06T14:40:02.697000Z</time>
      </trkpt>
      <trkpt lat="49.914853" lon="11.584368">
        <ele>360.1</ele>
        <time>2026-07-06T14:40:27.660000Z</time>
      </trkpt>
      <trkpt lat="49.915162" lon="11.583637">
        <ele>359.8</ele>
        <time>2026-07-06T14:41:24.604000Z</time>
      </trkpt>
      <trkpt lat="49.915525" lon="11.582901">
        <ele>359.7</ele>
        <time>2026-07-06T14:42:24.699000Z</time>
      </trkpt>
      <trkpt lat="49.915536" lon="11.582868">
        <ele>359.7</ele>
        <time>2026-07-06T14:42:27.153000Z</time>
      </trkpt>
      <trkpt lat="49.915688" lon="11.582435">
        <ele>360.1</ele>
        <time>2026-07-06T14:43:00.296000Z</time>
      </trkpt>
      <trkpt lat="49.915711" lon="11.58227">
        <ele>360.3</ele>
        <time>2026-07-06T14:43:11.933000Z</time>
      </trkpt>
      <trkpt lat="49.91571" lon="11.582006">
        <ele>360.7</ele>
        <time>2026-07-06T14:43:30.415000Z</time>
      </trkpt>
      <trkpt lat="49.915678" lon="11.581658">
        <ele>361.2</ele>
        <time>2026-07-06T14:43:54.963000Z</time>
      </trkpt>
      <trkpt lat="49.915467" lon="11.580437">
        <ele>362.5</ele>
        <time>2026-07-06T14:45:20.894000Z</time>
      </trkpt>
      <trkpt lat="49.915449" lon="11.580341">
        <ele>362.6</ele>
        <time>2026-07-06T14:45:27.628000Z</time>
      </trkpt>
      <trkpt lat="49.915947" lon="11.579991">
        <ele>362.6</ele>
        <time>2026-07-06T14:46:22.468000Z</time>
      </trkpt>
      <trkpt lat="49.916747" lon="11.579249">
        <ele>360.5</ele>
        <time>2026-07-06T14:48:00.015000Z</time>
      </trkpt>
      <trkpt lat="49.916929" lon="11.579139">
        <ele>360.1</ele>
        <time>2026-07-06T14:48:20.463000Z</time>
      </trkpt>
      <trkpt lat="49.917434" lon="11.579049">
        <ele>359.1</ele>
        <time>2026-07-06T14:49:13.455000Z</time>
      </trkpt>
      <trkpt lat="49.917731" lon="11.578995">
        <ele>358.6</ele>
        <time>2026-07-06T14:49:44.476000Z</time>
      </trkpt>
      <trkpt lat="49.918079" lon="11.578933">
        <ele>358.1</ele>
        <time>2026-07-06T14:50:20.569000Z</time>
      </trkpt>
      <trkpt lat="49.918635" lon="11.578774">
        <ele>357.5</ele>
        <time>2026-07-06T14:51:18.264000Z</time>
      </trkpt>
      <trkpt lat="49.918832" lon="11.578703">
        <ele>357.4</ele>
        <time>2026-07-06T14:51:38.758000Z</time>
      </trkpt>
      <trkpt lat="49.919095" lon="11.578528">
        <ele>357.2</ele>
        <time>2026-07-06T14:52:07.946000Z</time>
      </trkpt>
      <trkpt lat="49.919703" lon="11.578015">
        <ele>356.7</ele>
        <time>2026-07-06T14:53:18.161000Z</time>
      </trkpt>
      <trkpt lat="49.919836" lon="11.577917">
        <ele>356.6</ele>
        <time>2026-07-06T14:53:33.095000Z</time>
      </trkpt>
      <trkpt lat="49.920287" lon="11.577585">
        <ele>356</ele>
        <time>2026-07-06T14:54:24.175000Z</time>
      </trkpt>
      <trkpt lat="49.920568" lon="11.57744">
        <ele>355.6</ele>
        <time>2026-07-06T14:54:54.705000Z</time>
      </trkpt>
      <trkpt lat="49.920577" lon="11.577581">
        <ele>355.4</ele>
        <time>2026-07-06T14:55:04.201000Z</time>
      </trkpt>
      <trkpt lat="49.920449" lon="11.577621">
        <ele>355.2</ele>
        <time>2026-07-06T14:55:17.781000Z</time>
      </trkpt>
      <trkpt lat="49.920573" lon="11.57764">
        <ele>354.9</ele>
        <time>2026-07-06T14:55:30.754000Z</time>
      </trkpt>
      <trkpt lat="49.920099" lon="11.579478">
        <ele>352.5</ele>
        <time>2026-07-06T14:57:43.404000Z</time>
      </trkpt>
      <trkpt lat="49.919984" lon="11.579704">
        <ele>352.3</ele>
        <time>2026-07-06T14:58:02.308000Z</time>
      </trkpt>
      <trkpt lat="49.91983" lon="11.579936">
        <ele>352.2</ele>
        <time>2026-07-06T14:58:24.134000Z</time>
      </trkpt>
      <trkpt lat="49.9191" lon="11.580574">
        <ele>352.1</ele>
        <time>2026-07-06T14:59:48.083000Z</time>
      </trkpt>
      <trkpt lat="49.918975" lon="11.580774">
        <ele>352.2</ele>
        <time>2026-07-06T15:00:06.242000Z</time>
      </trkpt>
      <trkpt lat="49.918868" lon="11.581013">
        <ele>352.2</ele>
        <time>2026-07-06T15:00:25.141000Z</time>
      </trkpt>
      <trkpt lat="49.918576" lon="11.581917">
        <ele>352.4</ele>
        <time>2026-07-06T15:01:30.900000Z</time>
      </trkpt>
      <trkpt lat="49.918402" lon="11.582458">
        <ele>352.4</ele>
        <time>2026-07-06T15:02:10.105000Z</time>
      </trkpt>
      <trkpt lat="49.918194" lon="11.583329">
        <ele>352.6</ele>
        <time>2026-07-06T15:03:10.528000Z</time>
      </trkpt>
      <trkpt lat="49.918057" lon="11.584443">
        <ele>353.2</ele>
        <time>2026-07-06T15:04:25.680000Z</time>
      </trkpt>
      <trkpt lat="49.917971" lon="11.585774">
        <ele>354.1</ele>
        <time>2026-07-06T15:05:55.292000Z</time>
      </trkpt>
      <trkpt lat="49.917908" lon="11.586278">
        <ele>354.6</ele>
        <time>2026-07-06T15:06:29.977000Z</time>
      </trkpt>
      <trkpt lat="49.9177" lon="11.587919">
        <ele>356.1</ele>
        <time>2026-07-06T15:08:23.130000Z</time>
      </trkpt>
      <trkpt lat="49.91763" lon="11.588472">
        <ele>356.4</ele>
        <time>2026-07-06T15:09:00.581000Z</time>
      </trkpt>
      <trkpt lat="49.917547" lon="11.589131">
        <ele>356.6</ele>
        <time>2026-07-06T15:09:44.653000Z</time>
      </trkpt>
      <trkpt lat="49.917543" lon="11.589161">
        <ele>356.7</ele>
        <time>2026-07-06T15:09:46.717000Z</time>
      </trkpt>
      <trkpt lat="49.917495" lon="11.589518">
        <ele>356.8</ele>
        <time>2026-07-06T15:10:10.570000Z</time>
      </trkpt>
      <trkpt lat="49.917529" lon="11.589662">
        <ele>356.8</ele>
        <time>2026-07-06T15:10:20.612000Z</time>
      </trkpt>
      <trkpt lat="49.917624" lon="11.589762">
        <ele>356.8</ele>
        <time>2026-07-06T15:10:32.224000Z</time>
      </trkpt>
      <trkpt lat="49.917823" lon="11.589965">
        <ele>356.9</ele>
        <time>2026-07-06T15:10:56.182000Z</time>
      </trkpt>
      <trkpt lat="49.917836" lon="11.589983">
        <ele>356.9</ele>
        <time>2026-07-06T15:10:57.897000Z</time>
      </trkpt>
      <trkpt lat="49.918141" lon="11.590394">
        <ele>357</ele>
        <time>2026-07-06T15:11:38.921000Z</time>
      </trkpt>
      <trkpt lat="49.918246" lon="11.590404">
        <ele>357.1</ele>
        <time>2026-07-06T15:11:49.647000Z</time>
      </trkpt>
      <trkpt lat="49.917804" lon="11.590962">
        <ele>357.6</ele>
        <time>2026-07-06T15:12:48.553000Z</time>
      </trkpt>
      <trkpt lat="49.917865" lon="11.591142">
        <ele>357.8</ele>
        <time>2026-07-06T15:13:02.427000Z</time>
      </trkpt>
      <trkpt lat="49.917709" lon="11.591478">
        <ele>358.3</ele>
        <time>2026-07-06T15:13:30.897000Z</time>
      </trkpt>
      <trkpt lat="49.917784" lon="11.591659">
        <ele>358.6</ele>
        <time>2026-07-06T15:13:45.655000Z</time>
      </trkpt>
      <trkpt lat="49.917859" lon="11.59184">
        <ele>358.8</ele>
        <time>2026-07-06T15:14:00.430000Z</time>
      </trkpt>
      <trkpt lat="49.917586" lon="11.592431">
        <ele>359.8</ele>
        <time>2026-07-06T15:14:50.826000Z</time>
      </trkpt>
      <trkpt lat="49.917637" lon="11.592508">
        <ele>360</ele>
        <time>2026-07-06T15:14:58.510000Z</time>
      </trkpt>
      <trkpt lat="49.917644" lon="11.592586">
        <ele>360.1</ele>
        <time>2026-07-06T15:15:04.019000Z</time>
      </trkpt>
      <trkpt lat="49.917617" lon="11.592682">
        <ele>360.2</ele>
        <time>2026-07-06T15:15:11.233000Z</time>
      </trkpt>
      <trkpt lat="49.91726" lon="11.593402">
        <ele>361.4</ele>
        <time>2026-07-06T15:16:13.926000Z</time>
      </trkpt>
      <trkpt lat="49.917045" lon="11.593716">
        <ele>362</ele>
        <time>2026-07-06T15:16:45.664000Z</time>
      </trkpt>
      <trkpt lat="49.916607" lon="11.594155">
        <ele>362.9</ele>
        <time>2026-07-06T15:17:40.847000Z</time>
      </trkpt>
      <trkpt lat="49.916861" lon="11.594863">
        <ele>363.5</ele>
        <time>2026-07-06T15:18:35.511000Z</time>
      </trkpt>
      <trkpt lat="49.916891" lon="11.594944">
        <ele>363.6</ele>
        <time>2026-07-06T15:18:41.733000Z</time>
      </trkpt>
      <trkpt lat="49.916492" lon="11.595205">
        <ele>364</ele>
        <time>2026-07-06T15:19:26.579000Z</time>
      </trkpt>
      <trkpt lat="49.916435" lon="11.595442">
        <ele>364.2</ele>
        <time>2026-07-06T15:19:43.322000Z</time>
      </trkpt>
      <trkpt lat="49.916393" lon="11.595517">
        <ele>364.2</ele>
        <time>2026-07-06T15:19:49.836000Z</time>
      </trkpt>
      <trkpt lat="49.916345" lon="11.595549">
        <ele>364.2</ele>
        <time>2026-07-06T15:19:55.221000Z</time>
      </trkpt>
      <trkpt lat="49.916313" lon="11.59555">
        <ele>364.3</ele>
        <time>2026-07-06T15:19:58.504000Z</time>
      </trkpt>
    </trkseg>
  </trk>
</gpx>