<?xml version="1.0" encoding="UTF-8"?>
<gpx xmlns="http://www.topografix.com/GPX/1/1" xmlns:xsi="http://www.w3.org/2001/XMLSchema-instance" xsi:schemaLocation="http://www.topografix.com/GPX/1/1 http://www.topografix.com/GPX/1/1/gpx.xsd" version="1.1" creator="Robert Kampf">
  <metadata>
    <name>Spielplatz am Tapfheimer See – Badesee Schwenningen Runde von Schwenningen</name>
    <desc>Distance: 11.208km, Estimated duration: 2.83h, Elevation up: 19.563035436303437m, Elevation down: 20.11222517790395m, Grade: moderate</desc>
    <author>
      <name>Robert Kampf</name>
      <link href="https://www.komoot.de/user/4125295338453">
        <text>View Robert Kampf's Profile on Komoot</text>
      </link>
    </author>
    <link href="https://www.komoot.de/tour/3057572407">
      <text>View tour on Komoot</text>
    </link>
  </metadata>
  <wpt lat="48.649786" lon="10.673703">
    <name>Parking</name>
    <cmt></cmt>
    <desc>Free</desc>
    <src>Komoot</src>
    <type>POI</type>
  </wpt>
  <wpt lat="48.654423" lon="10.672109">
    <ele>451</ele>
    <name>Donauauen Bird Sanctuary Wetlands</name>
    <cmt>https://d2exd72xrrp1s7.cloudfront.net/www/000/1k5/rg/rg2r04ylsu3p1onusbo48414c3r22noud-uhi32232152/0</cmt>
    <desc></desc>
    <src>Komoot</src>
    <link href="https://www.komoot.de/highlight/3146663">
      <text>View POI on Komoot</text>
    </link>
    <type>Highlight</type>
  </wpt>
  <wpt lat="48.658638" lon="10.700259">
    <ele>452.6</ele>
    <name>Picnic Spot by the Lake in Geopark Ries</name>
    <cmt>https://d2exd72xrrp1s7.cloudfront.net/www/000/1k5/1k/1khjdkrz5hv1i1tn9mjsxtn0ck3qyuqzi7-uhi32026790/0</cmt>
    <desc></desc>
    <src>Komoot</src>
    <link href="https://www.komoot.de/highlight/3133380">
      <text>View POI on Komoot</text>
    </link>
    <type>Highlight</type>
  </wpt>
  <wpt lat="48.65908" lon="10.699727">
    <ele>445</ele>
    <name>Picnic Area at Tapfheimer See</name>
    <cmt>https://d2exd72xrrp1s7.cloudfront.net/www/000/1k5/y9/y9ki95h918b1jd9hnq160zgc3r22fm74-uhi32230733/0</cmt>
    <desc>Anton Brenner: Toll</desc>
    <src>Komoot</src>
    <link href="https://www.komoot.de/highlight/3146592">
      <text>View POI on Komoot</text>
    </link>
    <type>Highlight</type>
  </wpt>
  <wpt lat="48.660452" lon="10.698342">
    <ele>451.6</ele>
    <name>Small Bridge in Geopark Ries</name>
    <cmt>https://d2exd72xrrp1s7.cloudfront.net/www/000/1k5/bz/bz3bagu87aexkk2sawd9ze2q3qyulufy-uhi32026659/0</cmt>
    <desc></desc>
    <src>Komoot</src>
    <link href="https://www.komoot.de/highlight/3133373">
      <text>View POI on Komoot</text>
    </link>
    <type>Highlight</type>
  </wpt>
  <wpt lat="48.668561" lon="10.699407">
    <ele>453.2</ele>
    <name>Playground at Tapfheim Lake</name>
    <cmt>https://d2exd72xrrp1s7.cloudfront.net/www/000/1k5/uj/ujyk3neguqqc1lhwkvavtmt7z3qytf3dk-uhi32025803/0</cmt>
    <desc></desc>
    <src>Komoot</src>
    <link href="https://www.komoot.de/highlight/3133327">
      <text>View POI on Komoot</text>
    </link>
    <type>Highlight</type>
  </wpt>
  <wpt lat="48.670726" lon="10.700947">
    <ele>453.2</ele>
    <name>Auwald Information Board</name>
    <cmt>https://d2exd72xrrp1s7.cloudfront.net/www/000/1k5/vh/vhlkemmxrps88c5ktaw6ed9j3qyt9kw2-uhi32025724/0</cmt>
    <desc></desc>
    <src>Komoot</src>
    <link href="https://www.komoot.de/highlight/3133320">
      <text>View POI on Komoot</text>
    </link>
    <type>Highlight</type>
  </wpt>
  <wpt lat="48.660186" lon="10.702162">
    <ele>408.7</ele>
    <name>Beaver Activity at Tapfheimer Lakes</name>
    <cmt>https://d2exd72xrrp1s7.cloudfront.net/www/000/1k5/kv/kv46fsxd5m5g2twllxrekv9p3n8th0xe-uhi28102093/0</cmt>
    <desc></desc>
    <src>Komoot</src>
    <link href="https://www.komoot.de/highlight/2077215">
      <text>View POI on Komoot</text>
    </link>
    <type>Highlight</type>
  </wpt>
  <wpt lat="48.649759" lon="10.673874">
    <ele>456.4</ele>
    <name>Schwenningen Swimming Lake</name>
    <cmt>https://d2exd72xrrp1s7.cloudfront.net/www/000/1k5/13/132yp2jut9fwy137yn3rpejef73qywfpma-uhi32028023/0</cmt>
    <desc></desc>
    <src>Komoot</src>
    <link href="https://www.komoot.de/highlight/3133445">
      <text>View POI on Komoot</text>
    </link>
    <type>Highlight</type>
  </wpt>
  <trk>
    <name>Spielplatz am Tapfheimer See – Badesee Schwenningen Runde von Schwenningen</name>
    <desc>Distance: 11.208km, Estimated duration: 2.83h, Elevation up: 19.563035436303437m, Elevation down: 20.11222517790395m, Grade: moderate</desc>
    <link href="https://www.komoot.de/tour/3057572407">
      <text>View tour on Komoot</text>
    </link>
    <trkseg>
      <trkpt lat="48.649721" lon="10.673703">
        <ele>406.2</ele>
        <time>2026-06-22T16:49:28.997000Z</time>
      </trkpt>
      <trkpt lat="48.64972" lon="10.673122">
        <ele>406.2</ele>
        <time>2026-06-22T16:50:07.488000Z</time>
      </trkpt>
      <trkpt lat="48.649771" lon="10.672563">
        <ele>406.2</ele>
        <time>2026-06-22T16:50:44.883000Z</time>
      </trkpt>
      <trkpt lat="48.649861" lon="10.672005">
        <ele>406.1</ele>
        <time>2026-06-22T16:51:22.963000Z</time>
      </trkpt>
      <trkpt lat="48.649876" lon="10.671577">
        <ele>406.1</ele>
        <time>2026-06-22T16:51:51.409000Z</time>
      </trkpt>
      <trkpt lat="48.650199" lon="10.671596">
        <ele>406</ele>
        <time>2026-06-22T16:52:23.914000Z</time>
      </trkpt>
      <trkpt lat="48.651397" lon="10.671339">
        <ele>405.7</ele>
        <time>2026-06-22T16:54:25.547000Z</time>
      </trkpt>
      <trkpt lat="48.652175" lon="10.671262">
        <ele>405.5</ele>
        <time>2026-06-22T16:55:43.948000Z</time>
      </trkpt>
      <trkpt lat="48.652818" lon="10.671315">
        <ele>405.3</ele>
        <time>2026-06-22T16:56:49.009000Z</time>
      </trkpt>
      <trkpt lat="48.653456" lon="10.671494">
        <ele>405.1</ele>
        <time>2026-06-22T16:57:54.333000Z</time>
      </trkpt>
      <trkpt lat="48.654414" lon="10.67214">
        <ele>404.9</ele>
        <time>2026-06-22T16:59:39.753000Z</time>
      </trkpt>
      <trkpt lat="48.654517" lon="10.672209">
        <ele>404.8</ele>
        <time>2026-06-22T16:59:51.077000Z</time>
      </trkpt>
      <trkpt lat="48.654958" lon="10.672746">
        <ele>404.6</ele>
        <time>2026-06-22T17:00:48.111000Z</time>
      </trkpt>
      <trkpt lat="48.655202" lon="10.67324">
        <ele>404.5</ele>
        <time>2026-06-22T17:01:29.271000Z</time>
      </trkpt>
      <trkpt lat="48.65542" lon="10.67391">
        <ele>404.3</ele>
        <time>2026-06-22T17:02:18.933000Z</time>
      </trkpt>
      <trkpt lat="48.655555" lon="10.674201">
        <ele>404.3</ele>
        <time>2026-06-22T17:02:42.440000Z</time>
      </trkpt>
      <trkpt lat="48.655671" lon="10.674701">
        <ele>404.3</ele>
        <time>2026-06-22T17:03:17.511000Z</time>
      </trkpt>
      <trkpt lat="48.655812" lon="10.675038">
        <ele>404.4</ele>
        <time>2026-06-22T17:03:43.983000Z</time>
      </trkpt>
      <trkpt lat="48.656138" lon="10.675478">
        <ele>404.5</ele>
        <time>2026-06-22T17:04:28.185000Z</time>
      </trkpt>
      <trkpt lat="48.656338" lon="10.67596">
        <ele>404.6</ele>
        <time>2026-06-22T17:05:06.234000Z</time>
      </trkpt>
      <trkpt lat="48.656415" lon="10.676396">
        <ele>404.7</ele>
        <time>2026-06-22T17:05:36.322000Z</time>
      </trkpt>
      <trkpt lat="48.656387" lon="10.676792">
        <ele>404.7</ele>
        <time>2026-06-22T17:06:02.885000Z</time>
      </trkpt>
      <trkpt lat="48.656297" lon="10.677065">
        <ele>404.8</ele>
        <time>2026-06-22T17:06:23.190000Z</time>
      </trkpt>
      <trkpt lat="48.656082" lon="10.677378">
        <ele>404.8</ele>
        <time>2026-06-22T17:06:53.140000Z</time>
      </trkpt>
      <trkpt lat="48.655906" lon="10.677556">
        <ele>404.8</ele>
        <time>2026-06-22T17:07:14.418000Z</time>
      </trkpt>
      <trkpt lat="48.655795" lon="10.677847">
        <ele>404.9</ele>
        <time>2026-06-22T17:07:36.706000Z</time>
      </trkpt>
      <trkpt lat="48.655404" lon="10.679702">
        <ele>405</ele>
        <time>2026-06-22T17:09:45.812000Z</time>
      </trkpt>
      <trkpt lat="48.655411" lon="10.679968">
        <ele>405</ele>
        <time>2026-06-22T17:10:03.507000Z</time>
      </trkpt>
      <trkpt lat="48.656481" lon="10.683172">
        <ele>404.8</ele>
        <time>2026-06-22T17:14:01.125000Z</time>
      </trkpt>
      <trkpt lat="48.656571" lon="10.683187">
        <ele>404.8</ele>
        <time>2026-06-22T17:14:10.248000Z</time>
      </trkpt>
      <trkpt lat="48.656863" lon="10.682973">
        <ele>404.7</ele>
        <time>2026-06-22T17:14:42.995000Z</time>
      </trkpt>
      <trkpt lat="48.657125" lon="10.682869">
        <ele>404.6</ele>
        <time>2026-06-22T17:15:10.271000Z</time>
      </trkpt>
      <trkpt lat="48.6574" lon="10.682847">
        <ele>404.5</ele>
        <time>2026-06-22T17:15:38.050000Z</time>
      </trkpt>
      <trkpt lat="48.657657" lon="10.682874">
        <ele>404.4</ele>
        <time>2026-06-22T17:16:04.050000Z</time>
      </trkpt>
      <trkpt lat="48.657834" lon="10.682937">
        <ele>404.3</ele>
        <time>2026-06-22T17:16:22.367000Z</time>
      </trkpt>
      <trkpt lat="48.658114" lon="10.683208">
        <ele>404.2</ele>
        <time>2026-06-22T17:16:55.882000Z</time>
      </trkpt>
      <trkpt lat="48.658568" lon="10.683894">
        <ele>404.2</ele>
        <time>2026-06-22T17:18:00.102000Z</time>
      </trkpt>
      <trkpt lat="48.658836" lon="10.684396">
        <ele>404.3</ele>
        <time>2026-06-22T17:18:43.039000Z</time>
      </trkpt>
      <trkpt lat="48.659006" lon="10.685137">
        <ele>404.3</ele>
        <time>2026-06-22T17:19:35.132000Z</time>
      </trkpt>
      <trkpt lat="48.658683" lon="10.685249">
        <ele>404.4</ele>
        <time>2026-06-22T17:20:08.525000Z</time>
      </trkpt>
      <trkpt lat="48.658227" lon="10.684051">
        <ele>404.6</ele>
        <time>2026-06-22T17:21:40.732000Z</time>
      </trkpt>
      <trkpt lat="48.657954" lon="10.683657">
        <ele>404.8</ele>
        <time>2026-06-22T17:22:18.975000Z</time>
      </trkpt>
      <trkpt lat="48.657691" lon="10.683487">
        <ele>404.9</ele>
        <time>2026-06-22T17:22:48.172000Z</time>
      </trkpt>
      <trkpt lat="48.657328" lon="10.683478">
        <ele>405.2</ele>
        <time>2026-06-22T17:23:25.375000Z</time>
      </trkpt>
      <trkpt lat="48.657029" lon="10.683601">
        <ele>405.4</ele>
        <time>2026-06-22T17:23:57.031000Z</time>
      </trkpt>
      <trkpt lat="48.656803" lon="10.683882">
        <ele>405.5</ele>
        <time>2026-06-22T17:24:26.782000Z</time>
      </trkpt>
      <trkpt lat="48.656532" lon="10.684511">
        <ele>405.5</ele>
        <time>2026-06-22T17:25:16.443000Z</time>
      </trkpt>
      <trkpt lat="48.656405" lon="10.685021">
        <ele>405.3</ele>
        <time>2026-06-22T17:25:52.795000Z</time>
      </trkpt>
      <trkpt lat="48.656388" lon="10.685306">
        <ele>405.2</ele>
        <time>2026-06-22T17:26:11.983000Z</time>
      </trkpt>
      <trkpt lat="48.65636" lon="10.685621">
        <ele>405</ele>
        <time>2026-06-22T17:26:33.339000Z</time>
      </trkpt>
      <trkpt lat="48.656313" lon="10.685791">
        <ele>404.9</ele>
        <time>2026-06-22T17:26:45.763000Z</time>
      </trkpt>
      <trkpt lat="48.656248" lon="10.686083">
        <ele>404.7</ele>
        <time>2026-06-22T17:27:06.515000Z</time>
      </trkpt>
      <trkpt lat="48.655865" lon="10.687124">
        <ele>404.2</ele>
        <time>2026-06-22T17:28:26.544000Z</time>
      </trkpt>
      <trkpt lat="48.65587" lon="10.687313">
        <ele>404.1</ele>
        <time>2026-06-22T17:28:39.092000Z</time>
      </trkpt>
      <trkpt lat="48.655949" lon="10.687447">
        <ele>404.1</ele>
        <time>2026-06-22T17:28:51.118000Z</time>
      </trkpt>
      <trkpt lat="48.656878" lon="10.687834">
        <ele>403.9</ele>
        <time>2026-06-22T17:30:27.939000Z</time>
      </trkpt>
      <trkpt lat="48.656844" lon="10.689126">
        <ele>403.7</ele>
        <time>2026-06-22T17:31:53.724000Z</time>
      </trkpt>
      <trkpt lat="48.656963" lon="10.689299">
        <ele>403.7</ele>
        <time>2026-06-22T17:32:10.314000Z</time>
      </trkpt>
      <trkpt lat="48.657059" lon="10.689711">
        <ele>403.6</ele>
        <time>2026-06-22T17:32:39.244000Z</time>
      </trkpt>
      <trkpt lat="48.657005" lon="10.691251">
        <ele>403.7</ele>
        <time>2026-06-22T17:34:21.414000Z</time>
      </trkpt>
      <trkpt lat="48.656874" lon="10.693629">
        <ele>403.7</ele>
        <time>2026-06-22T17:36:59.429000Z</time>
      </trkpt>
      <trkpt lat="48.656665" lon="10.694979">
        <ele>403.7</ele>
        <time>2026-06-22T17:38:31.122000Z</time>
      </trkpt>
      <trkpt lat="48.656218" lon="10.696981">
        <ele>403.9</ele>
        <time>2026-06-22T17:40:51.619000Z</time>
      </trkpt>
      <trkpt lat="48.656218" lon="10.697196">
        <ele>404</ele>
        <time>2026-06-22T17:41:05.882000Z</time>
      </trkpt>
      <trkpt lat="48.656391" lon="10.697726">
        <ele>404</ele>
        <time>2026-06-22T17:41:45.173000Z</time>
      </trkpt>
      <trkpt lat="48.656543" lon="10.697949">
        <ele>404</ele>
        <time>2026-06-22T17:42:06.413000Z</time>
      </trkpt>
      <trkpt lat="48.656465" lon="10.698116">
        <ele>404</ele>
        <time>2026-06-22T17:42:20.013000Z</time>
      </trkpt>
      <trkpt lat="48.656912" lon="10.698706">
        <ele>404.1</ele>
        <time>2026-06-22T17:43:19.559000Z</time>
      </trkpt>
      <trkpt lat="48.658464" lon="10.700166">
        <ele>404.1</ele>
        <time>2026-06-22T17:46:22.619000Z</time>
      </trkpt>
      <trkpt lat="48.658637" lon="10.700162">
        <ele>404.2</ele>
        <time>2026-06-22T17:46:39.926000Z</time>
      </trkpt>
      <trkpt lat="48.658643" lon="10.700162">
        <ele>404.2</ele>
        <time>2026-06-22T17:46:40.577000Z</time>
      </trkpt>
      <trkpt lat="48.65904" lon="10.699656">
        <ele>404.2</ele>
        <time>2026-06-22T17:47:32.668000Z</time>
      </trkpt>
      <trkpt lat="48.659264" lon="10.699371">
        <ele>404.3</ele>
        <time>2026-06-22T17:48:02.190000Z</time>
      </trkpt>
      <trkpt lat="48.659655" lon="10.698929">
        <ele>404.4</ele>
        <time>2026-06-22T17:48:51.537000Z</time>
      </trkpt>
      <trkpt lat="48.660141" lon="10.698601">
        <ele>404.5</ele>
        <time>2026-06-22T17:49:45.164000Z</time>
      </trkpt>
      <trkpt lat="48.660472" lon="10.698434">
        <ele>404.6</ele>
        <time>2026-06-22T17:50:20.290000Z</time>
      </trkpt>
      <trkpt lat="48.660605" lon="10.698367">
        <ele>404.6</ele>
        <time>2026-06-22T17:50:34.367000Z</time>
      </trkpt>
      <trkpt lat="48.660705" lon="10.698465">
        <ele>404.6</ele>
        <time>2026-06-22T17:50:46.327000Z</time>
      </trkpt>
      <trkpt lat="48.660952" lon="10.6982">
        <ele>404.5</ele>
        <time>2026-06-22T17:51:16.707000Z</time>
      </trkpt>
      <trkpt lat="48.661108" lon="10.698101">
        <ele>404.5</ele>
        <time>2026-06-22T17:51:33.765000Z</time>
      </trkpt>
      <trkpt lat="48.661352" lon="10.69808">
        <ele>404.4</ele>
        <time>2026-06-22T17:51:58.452000Z</time>
      </trkpt>
      <trkpt lat="48.661595" lon="10.698151">
        <ele>404.2</ele>
        <time>2026-06-22T17:52:23.563000Z</time>
      </trkpt>
      <trkpt lat="48.661799" lon="10.698267">
        <ele>404</ele>
        <time>2026-06-22T17:52:45.755000Z</time>
      </trkpt>
      <trkpt lat="48.661953" lon="10.698428">
        <ele>403.9</ele>
        <time>2026-06-22T17:53:04.729000Z</time>
      </trkpt>
      <trkpt lat="48.662033" lon="10.69867">
        <ele>403.7</ele>
        <time>2026-06-22T17:53:22.942000Z</time>
      </trkpt>
      <trkpt lat="48.662009" lon="10.699079">
        <ele>403.5</ele>
        <time>2026-06-22T17:53:50.576000Z</time>
      </trkpt>
      <trkpt lat="48.662103" lon="10.699269">
        <ele>403.4</ele>
        <time>2026-06-22T17:54:06.514000Z</time>
      </trkpt>
      <trkpt lat="48.663494" lon="10.700104">
        <ele>402.2</ele>
        <time>2026-06-22T17:56:38.724000Z</time>
      </trkpt>
      <trkpt lat="48.663658" lon="10.700044">
        <ele>402.2</ele>
        <time>2026-06-22T17:56:55.743000Z</time>
      </trkpt>
      <trkpt lat="48.663936" lon="10.6997">
        <ele>402.2</ele>
        <time>2026-06-22T17:57:31.672000Z</time>
      </trkpt>
      <trkpt lat="48.66427" lon="10.699193">
        <ele>402.3</ele>
        <time>2026-06-22T17:58:19.468000Z</time>
      </trkpt>
      <trkpt lat="48.66482" lon="10.697802">
        <ele>402.8</ele>
        <time>2026-06-22T18:00:08.603000Z</time>
      </trkpt>
      <trkpt lat="48.665092" lon="10.697923">
        <ele>402.9</ele>
        <time>2026-06-22T18:00:37.310000Z</time>
      </trkpt>
      <trkpt lat="48.665256" lon="10.697802">
        <ele>403</ele>
        <time>2026-06-22T18:00:55.720000Z</time>
      </trkpt>
      <trkpt lat="48.665704" lon="10.698266">
        <ele>403</ele>
        <time>2026-06-22T18:01:50.059000Z</time>
      </trkpt>
      <trkpt lat="48.666" lon="10.698634">
        <ele>402.9</ele>
        <time>2026-06-22T18:02:28.654000Z</time>
      </trkpt>
      <trkpt lat="48.66653" lon="10.699521">
        <ele>402.3</ele>
        <time>2026-06-22T18:03:48.900000Z</time>
      </trkpt>
      <trkpt lat="48.666632" lon="10.699762">
        <ele>402.2</ele>
        <time>2026-06-22T18:04:08.072000Z</time>
      </trkpt>
      <trkpt lat="48.666615" lon="10.700088">
        <ele>402</ele>
        <time>2026-06-22T18:04:30.009000Z</time>
      </trkpt>
      <trkpt lat="48.666409" lon="10.700551">
        <ele>401.8</ele>
        <time>2026-06-22T18:05:07.393000Z</time>
      </trkpt>
      <trkpt lat="48.666672" lon="10.700438">
        <ele>401.6</ele>
        <time>2026-06-22T18:05:35.040000Z</time>
      </trkpt>
      <trkpt lat="48.667384" lon="10.700218">
        <ele>401.7</ele>
        <time>2026-06-22T18:06:48.075000Z</time>
      </trkpt>
      <trkpt lat="48.668028" lon="10.70014">
        <ele>402.5</ele>
        <time>2026-06-22T18:07:55.519000Z</time>
      </trkpt>
      <trkpt lat="48.668273" lon="10.699954">
        <ele>402.9</ele>
        <time>2026-06-22T18:08:24.305000Z</time>
      </trkpt>
      <trkpt lat="48.668478" lon="10.699701">
        <ele>403.3</ele>
        <time>2026-06-22T18:08:52.128000Z</time>
      </trkpt>
      <trkpt lat="48.66857" lon="10.699414">
        <ele>403.6</ele>
        <time>2026-06-22T18:09:14.412000Z</time>
      </trkpt>
      <trkpt lat="48.668573" lon="10.699407">
        <ele>403.6</ele>
        <time>2026-06-22T18:09:14.984000Z</time>
      </trkpt>
      <trkpt lat="48.669065" lon="10.698433">
        <ele>404.9</ele>
        <time>2026-06-22T18:10:40.536000Z</time>
      </trkpt>
      <trkpt lat="48.669405" lon="10.69764">
        <ele>405.4</ele>
        <time>2026-06-22T18:11:45.068000Z</time>
      </trkpt>
      <trkpt lat="48.669634" lon="10.697235">
        <ele>405.6</ele>
        <time>2026-06-22T18:12:20.889000Z</time>
      </trkpt>
      <trkpt lat="48.669837" lon="10.697031">
        <ele>405.7</ele>
        <time>2026-06-22T18:12:45.594000Z</time>
      </trkpt>
      <trkpt lat="48.670244" lon="10.696716">
        <ele>405.7</ele>
        <time>2026-06-22T18:13:31.328000Z</time>
      </trkpt>
      <trkpt lat="48.67078" lon="10.696131">
        <ele>405.5</ele>
        <time>2026-06-22T18:14:37.844000Z</time>
      </trkpt>
      <trkpt lat="48.670873" lon="10.696222">
        <ele>405.5</ele>
        <time>2026-06-22T18:14:49.054000Z</time>
      </trkpt>
      <trkpt lat="48.67096" lon="10.696251">
        <ele>405.4</ele>
        <time>2026-06-22T18:14:58.019000Z</time>
      </trkpt>
      <trkpt lat="48.671675" lon="10.696395">
        <ele>405.2</ele>
        <time>2026-06-22T18:16:10.588000Z</time>
      </trkpt>
      <trkpt lat="48.672052" lon="10.696688">
        <ele>405.2</ele>
        <time>2026-06-22T18:16:52.970000Z</time>
      </trkpt>
      <trkpt lat="48.672376" lon="10.69704">
        <ele>405.3</ele>
        <time>2026-06-22T18:17:33.168000Z</time>
      </trkpt>
      <trkpt lat="48.672749" lon="10.697508">
        <ele>405.4</ele>
        <time>2026-06-22T18:18:22.128000Z</time>
      </trkpt>
      <trkpt lat="48.67343" lon="10.6994">
        <ele>405.7</ele>
        <time>2026-06-22T18:20:45.655000Z</time>
      </trkpt>
      <trkpt lat="48.67346" lon="10.699877">
        <ele>405.6</ele>
        <time>2026-06-22T18:21:17.737000Z</time>
      </trkpt>
      <trkpt lat="48.673573" lon="10.700146">
        <ele>405.3</ele>
        <time>2026-06-22T18:21:39.238000Z</time>
      </trkpt>
      <trkpt lat="48.673661" lon="10.700358">
        <ele>405.1</ele>
        <time>2026-06-22T18:21:56.218000Z</time>
      </trkpt>
      <trkpt lat="48.673677" lon="10.701479">
        <ele>404</ele>
        <time>2026-06-22T18:23:12.775000Z</time>
      </trkpt>
      <trkpt lat="48.673549" lon="10.701771">
        <ele>403.6</ele>
        <time>2026-06-22T18:23:36.724000Z</time>
      </trkpt>
      <trkpt lat="48.672966" lon="10.702594">
        <ele>402.7</ele>
        <time>2026-06-22T18:24:58.267000Z</time>
      </trkpt>
      <trkpt lat="48.672775" lon="10.702974">
        <ele>402.6</ele>
        <time>2026-06-22T18:25:30.050000Z</time>
      </trkpt>
      <trkpt lat="48.672112" lon="10.702141">
        <ele>402.7</ele>
        <time>2026-06-22T18:26:56.526000Z</time>
      </trkpt>
      <trkpt lat="48.671645" lon="10.701642">
        <ele>402.7</ele>
        <time>2026-06-22T18:27:53.880000Z</time>
      </trkpt>
      <trkpt lat="48.670771" lon="10.700945">
        <ele>402.7</ele>
        <time>2026-06-22T18:29:32.743000Z</time>
      </trkpt>
      <trkpt lat="48.670732" lon="10.700923">
        <ele>402.7</ele>
        <time>2026-06-22T18:29:36.939000Z</time>
      </trkpt>
      <trkpt lat="48.670123" lon="10.700591">
        <ele>402.7</ele>
        <time>2026-06-22T18:30:41.836000Z</time>
      </trkpt>
      <trkpt lat="48.669222" lon="10.700301">
        <ele>402.9</ele>
        <time>2026-06-22T18:32:14.730000Z</time>
      </trkpt>
      <trkpt lat="48.668653" lon="10.700165">
        <ele>402.8</ele>
        <time>2026-06-22T18:33:12.665000Z</time>
      </trkpt>
      <trkpt lat="48.668543" lon="10.699998">
        <ele>402.7</ele>
        <time>2026-06-22T18:33:28.415000Z</time>
      </trkpt>
      <trkpt lat="48.668478" lon="10.699701">
        <ele>402.6</ele>
        <time>2026-06-22T18:33:49.293000Z</time>
      </trkpt>
      <trkpt lat="48.668273" lon="10.699954">
        <ele>402.4</ele>
        <time>2026-06-22T18:34:16.126000Z</time>
      </trkpt>
      <trkpt lat="48.668028" lon="10.70014">
        <ele>402.2</ele>
        <time>2026-06-22T18:34:43.958000Z</time>
      </trkpt>
      <trkpt lat="48.667384" lon="10.700218">
        <ele>401.7</ele>
        <time>2026-06-22T18:35:49.642000Z</time>
      </trkpt>
      <trkpt lat="48.666672" lon="10.700438">
        <ele>401.5</ele>
        <time>2026-06-22T18:37:02.763000Z</time>
      </trkpt>
      <trkpt lat="48.666409" lon="10.700551">
        <ele>401.6</ele>
        <time>2026-06-22T18:37:30.372000Z</time>
      </trkpt>
      <trkpt lat="48.666149" lon="10.70066">
        <ele>401.7</ele>
        <time>2026-06-22T18:37:57.754000Z</time>
      </trkpt>
      <trkpt lat="48.665246" lon="10.701254">
        <ele>402.2</ele>
        <time>2026-06-22T18:39:37.940000Z</time>
      </trkpt>
      <trkpt lat="48.664724" lon="10.701723">
        <ele>402.5</ele>
        <time>2026-06-22T18:40:39.818000Z</time>
      </trkpt>
      <trkpt lat="48.663795" lon="10.702728">
        <ele>403.1</ele>
        <time>2026-06-22T18:42:36.353000Z</time>
      </trkpt>
      <trkpt lat="48.663647" lon="10.702848">
        <ele>403.2</ele>
        <time>2026-06-22T18:42:53.439000Z</time>
      </trkpt>
      <trkpt lat="48.663422" lon="10.702926">
        <ele>403.2</ele>
        <time>2026-06-22T18:43:16.650000Z</time>
      </trkpt>
      <trkpt lat="48.663358" lon="10.70299">
        <ele>403.2</ele>
        <time>2026-06-22T18:43:24.322000Z</time>
      </trkpt>
      <trkpt lat="48.663187" lon="10.703287">
        <ele>403.2</ele>
        <time>2026-06-22T18:43:50.515000Z</time>
      </trkpt>
      <trkpt lat="48.662618" lon="10.703648">
        <ele>402.7</ele>
        <time>2026-06-22T18:44:53.086000Z</time>
      </trkpt>
      <trkpt lat="48.662559" lon="10.703638">
        <ele>402.7</ele>
        <time>2026-06-22T18:44:59.229000Z</time>
      </trkpt>
      <trkpt lat="48.662486" lon="10.703527">
        <ele>402.6</ele>
        <time>2026-06-22T18:45:09.794000Z</time>
      </trkpt>
      <trkpt lat="48.662314" lon="10.702825">
        <ele>402</ele>
        <time>2026-06-22T18:46:00.419000Z</time>
      </trkpt>
      <trkpt lat="48.66217" lon="10.702407">
        <ele>401.7</ele>
        <time>2026-06-22T18:46:32.214000Z</time>
      </trkpt>
      <trkpt lat="48.662079" lon="10.702237">
        <ele>401.6</ele>
        <time>2026-06-22T18:46:46.933000Z</time>
      </trkpt>
      <trkpt lat="48.661516" lon="10.701803">
        <ele>401.3</ele>
        <time>2026-06-22T18:47:50.848000Z</time>
      </trkpt>
      <trkpt lat="48.661333" lon="10.701693">
        <ele>401.2</ele>
        <time>2026-06-22T18:48:10.680000Z</time>
      </trkpt>
      <trkpt lat="48.661039" lon="10.701692">
        <ele>401.2</ele>
        <time>2026-06-22T18:48:40.060000Z</time>
      </trkpt>
      <trkpt lat="48.660863" lon="10.701724">
        <ele>401.2</ele>
        <time>2026-06-22T18:48:57.811000Z</time>
      </trkpt>
      <trkpt lat="48.66065" lon="10.701814">
        <ele>401.2</ele>
        <time>2026-06-22T18:49:20.025000Z</time>
      </trkpt>
      <trkpt lat="48.660177" lon="10.702132">
        <ele>401.2</ele>
        <time>2026-06-22T18:50:11.877000Z</time>
      </trkpt>
      <trkpt lat="48.660166" lon="10.702139">
        <ele>401.2</ele>
        <time>2026-06-22T18:50:13.100000Z</time>
      </trkpt>
      <trkpt lat="48.659689" lon="10.702577">
        <ele>401.2</ele>
        <time>2026-06-22T18:51:08.974000Z</time>
      </trkpt>
      <trkpt lat="48.65949" lon="10.702666">
        <ele>401.2</ele>
        <time>2026-06-22T18:51:29.826000Z</time>
      </trkpt>
      <trkpt lat="48.658806" lon="10.702698">
        <ele>401.1</ele>
        <time>2026-06-22T18:52:38.299000Z</time>
      </trkpt>
      <trkpt lat="48.6585" lon="10.702634">
        <ele>401.2</ele>
        <time>2026-06-22T18:53:09.472000Z</time>
      </trkpt>
      <trkpt lat="48.658385" lon="10.702731">
        <ele>401.2</ele>
        <time>2026-06-22T18:53:22.742000Z</time>
      </trkpt>
      <trkpt lat="48.658091" lon="10.703322">
        <ele>401.5</ele>
        <time>2026-06-22T18:54:12.684000Z</time>
      </trkpt>
      <trkpt lat="48.657768" lon="10.703614">
        <ele>401.8</ele>
        <time>2026-06-22T18:54:51.479000Z</time>
      </trkpt>
      <trkpt lat="48.657601" lon="10.703707">
        <ele>402</ele>
        <time>2026-06-22T18:55:09.914000Z</time>
      </trkpt>
      <trkpt lat="48.657196" lon="10.703531">
        <ele>402.4</ele>
        <time>2026-06-22T18:55:53.601000Z</time>
      </trkpt>
      <trkpt lat="48.656405" lon="10.703054">
        <ele>403.3</ele>
        <time>2026-06-22T18:57:21.762000Z</time>
      </trkpt>
      <trkpt lat="48.655755" lon="10.702524">
        <ele>403.6</ele>
        <time>2026-06-22T18:58:37.013000Z</time>
      </trkpt>
      <trkpt lat="48.655355" lon="10.702134">
        <ele>403.7</ele>
        <time>2026-06-22T18:59:24.779000Z</time>
      </trkpt>
      <trkpt lat="48.655066" lon="10.7018">
        <ele>403.7</ele>
        <time>2026-06-22T19:00:01.173000Z</time>
      </trkpt>
      <trkpt lat="48.654547" lon="10.701166">
        <ele>403.6</ele>
        <time>2026-06-22T19:01:08.049000Z</time>
      </trkpt>
      <trkpt lat="48.654327" lon="10.700833">
        <ele>403.6</ele>
        <time>2026-06-22T19:01:39.257000Z</time>
      </trkpt>
      <trkpt lat="48.654208" lon="10.700558">
        <ele>403.6</ele>
        <time>2026-06-22T19:02:01.086000Z</time>
      </trkpt>
      <trkpt lat="48.654197" lon="10.70039">
        <ele>403.6</ele>
        <time>2026-06-22T19:02:12.319000Z</time>
      </trkpt>
      <trkpt lat="48.654233" lon="10.700158">
        <ele>403.7</ele>
        <time>2026-06-22T19:02:28.178000Z</time>
      </trkpt>
      <trkpt lat="48.654321" lon="10.699845">
        <ele>403.7</ele>
        <time>2026-06-22T19:02:50.846000Z</time>
      </trkpt>
      <trkpt lat="48.65421" lon="10.699877">
        <ele>403.8</ele>
        <time>2026-06-22T19:03:02.316000Z</time>
      </trkpt>
      <trkpt lat="48.653843" lon="10.699943">
        <ele>403.9</ele>
        <time>2026-06-22T19:03:39.792000Z</time>
      </trkpt>
      <trkpt lat="48.653769" lon="10.699864">
        <ele>403.9</ele>
        <time>2026-06-22T19:03:48.977000Z</time>
      </trkpt>
      <trkpt lat="48.65303" lon="10.698514">
        <ele>404</ele>
        <time>2026-06-22T19:05:45.298000Z</time>
      </trkpt>
      <trkpt lat="48.652421" lon="10.697106">
        <ele>403.5</ele>
        <time>2026-06-22T19:07:37.652000Z</time>
      </trkpt>
      <trkpt lat="48.652154" lon="10.696373">
        <ele>403.1</ele>
        <time>2026-06-22T19:08:33.858000Z</time>
      </trkpt>
      <trkpt lat="48.65191" lon="10.695622">
        <ele>402.7</ele>
        <time>2026-06-22T19:09:30.068000Z</time>
      </trkpt>
      <trkpt lat="48.650618" lon="10.690868">
        <ele>401.5</ele>
        <time>2026-06-22T19:15:12.482000Z</time>
      </trkpt>
      <trkpt lat="48.650529" lon="10.690483">
        <ele>401.5</ele>
        <time>2026-06-22T19:15:39.630000Z</time>
      </trkpt>
      <trkpt lat="48.65053" lon="10.690293">
        <ele>401.6</ele>
        <time>2026-06-22T19:15:52.300000Z</time>
      </trkpt>
      <trkpt lat="48.650697" lon="10.689818">
        <ele>401.7</ele>
        <time>2026-06-22T19:16:28.455000Z</time>
      </trkpt>
      <trkpt lat="48.650578" lon="10.689848">
        <ele>401.8</ele>
        <time>2026-06-22T19:16:40.715000Z</time>
      </trkpt>
      <trkpt lat="48.650466" lon="10.689957">
        <ele>401.9</ele>
        <time>2026-06-22T19:16:54.436000Z</time>
      </trkpt>
      <trkpt lat="48.650391" lon="10.689934">
        <ele>401.9</ele>
        <time>2026-06-22T19:17:02.311000Z</time>
      </trkpt>
      <trkpt lat="48.649736" lon="10.687459">
        <ele>403.7</ele>
        <time>2026-06-22T19:20:04.761000Z</time>
      </trkpt>
      <trkpt lat="48.649091" lon="10.6849">
        <ele>405.3</ele>
        <time>2026-06-22T19:23:11.819000Z</time>
      </trkpt>
      <trkpt lat="48.648946" lon="10.684408">
        <ele>405.5</ele>
        <time>2026-06-22T19:23:48.031000Z</time>
      </trkpt>
      <trkpt lat="48.648623" lon="10.683651">
        <ele>405.7</ele>
        <time>2026-06-22T19:24:48.350000Z</time>
      </trkpt>
      <trkpt lat="48.648182" lon="10.682877">
        <ele>405.9</ele>
        <time>2026-06-22T19:25:56.733000Z</time>
      </trkpt>
      <trkpt lat="48.648024" lon="10.682466">
        <ele>406.1</ele>
        <time>2026-06-22T19:26:28.720000Z</time>
      </trkpt>
      <trkpt lat="48.647353" lon="10.679919">
        <ele>407.3</ele>
        <time>2026-06-22T19:29:34.288000Z</time>
      </trkpt>
      <trkpt lat="48.647307" lon="10.679541">
        <ele>407.4</ele>
        <time>2026-06-22T19:29:59.914000Z</time>
      </trkpt>
      <trkpt lat="48.647212" lon="10.679351">
        <ele>407.4</ele>
        <time>2026-06-22T19:30:15.779000Z</time>
      </trkpt>
      <trkpt lat="48.646843" lon="10.677927">
        <ele>406.9</ele>
        <time>2026-06-22T19:31:57.877000Z</time>
      </trkpt>
      <trkpt lat="48.647078" lon="10.677663">
        <ele>406.7</ele>
        <time>2026-06-22T19:32:27.615000Z</time>
      </trkpt>
      <trkpt lat="48.6474" lon="10.677483">
        <ele>406.5</ele>
        <time>2026-06-22T19:33:02.483000Z</time>
      </trkpt>
      <trkpt lat="48.647577" lon="10.677433">
        <ele>406.3</ele>
        <time>2026-06-22T19:33:20.705000Z</time>
      </trkpt>
      <trkpt lat="48.647726" lon="10.677458">
        <ele>406.3</ele>
        <time>2026-06-22T19:33:35.985000Z</time>
      </trkpt>
      <trkpt lat="48.647858" lon="10.677536">
        <ele>406.2</ele>
        <time>2026-06-22T19:33:50.245000Z</time>
      </trkpt>
      <trkpt lat="48.647964" lon="10.67754">
        <ele>406.1</ele>
        <time>2026-06-22T19:34:01.023000Z</time>
      </trkpt>
      <trkpt lat="48.648222" lon="10.677334">
        <ele>406</ele>
        <time>2026-06-22T19:34:30.573000Z</time>
      </trkpt>
      <trkpt lat="48.648844" lon="10.676569">
        <ele>405.7</ele>
        <time>2026-06-22T19:35:51.350000Z</time>
      </trkpt>
      <trkpt lat="48.649057" lon="10.676169">
        <ele>405.6</ele>
        <time>2026-06-22T19:36:25.534000Z</time>
      </trkpt>
      <trkpt lat="48.649298" lon="10.675533">
        <ele>405.4</ele>
        <time>2026-06-22T19:37:14.293000Z</time>
      </trkpt>
      <trkpt lat="48.649498" lon="10.675144">
        <ele>405.5</ele>
        <time>2026-06-22T19:37:46.919000Z</time>
      </trkpt>
      <trkpt lat="48.64969" lon="10.674623">
        <ele>405.5</ele>
        <time>2026-06-22T19:38:26.558000Z</time>
      </trkpt>
      <trkpt lat="48.649722" lon="10.674208">
        <ele>405.6</ele>
        <time>2026-06-22T19:38:54.393000Z</time>
      </trkpt>
      <trkpt lat="48.649721" lon="10.673874">
        <ele>405.6</ele>
        <time>2026-06-22T19:39:16.704000Z</time>
      </trkpt>
      <trkpt lat="48.649721" lon="10.673703">
        <ele>405.7</ele>
        <time>2026-06-22T19:39:28.163000Z</time>
      </trkpt>
    </trkseg>
  </trk>
</gpx>