<?xml version="1.0" encoding="UTF-8"?>
<gpx xmlns="http://www.topografix.com/GPX/1/1" xmlns:xsi="http://www.w3.org/2001/XMLSchema-instance" xsi:schemaLocation="http://www.topografix.com/GPX/1/1 http://www.topografix.com/GPX/1/1/gpx.xsd" version="1.1" creator="Robert Kampf">
  <metadata>
    <name>Steinerne Rinne bei Wolfsbronn – Steinerne Rinne Rest Area Runde von Markt Berolzheim</name>
    <desc>Distance: 13.558km, Estimated duration: 3.83h, Elevation up: 288.3946761154823m, Elevation down: 288.3946761154821m, Grade: moderate</desc>
    <author>
      <name>Robert Kampf</name>
      <link href="https://www.komoot.de/user/4125295338453">
        <text>View Robert Kampf's Profile on Komoot</text>
      </link>
    </author>
    <link href="https://www.komoot.de/tour/2711730220">
      <text>View tour on Komoot</text>
    </link>
  </metadata>
  <wpt lat="49.009523" lon="10.785686">
    <ele>569.3</ele>
    <name>Steinerne Rinne near Wolfsbronn — Wild Garlic Paradise</name>
    <cmt>https://d2exd72xrrp1s7.cloudfront.net/www/000/1k9/1a/1aa1e00mbel3kshc2u34kw6pr5cm5kbwv-uhi85569360/0</cmt>
    <desc>Lume: Ein beeindruckendes empfindliches Naturschauspiel,
――――――――――
Rolf aus Stein 👣: Meines Wissens nach die längste steinerne Rinne weit und breit</desc>
    <src>Komoot</src>
    <link href="https://www.komoot.de/highlight/7397881">
      <text>View POI on Komoot</text>
    </link>
    <type>Highlight</type>
  </wpt>
  <wpt lat="49.009762" lon="10.786997">
    <ele>558.6</ele>
    <name>Steinerne Rinne near Wolfsbronn</name>
    <cmt>https://d2exd72xrrp1s7.cloudfront.net/www/000/1k4/1u/1ulpboz00iewvfqyltthwk8x33lxczzxh-uhi26876077/0</cmt>
    <desc>Stefan V.: Hier vergisst man die Zeit, wenn man das Wasser beobachtet wie es durch die Rinne saust
――――――――――
S+S 👣👣: Eine Steinerne Rinne zu sehen ist immer etwas Besonderes. Auf einem Holzsteg mit Geländer entlang, kann man hier dieses beeindruckende Naturdenkmal bestaunen.
――――――――――
Roland H.: Habe schon einige „Steinerne Rinnen“ angeschaut, aber diese ist etwas Besonderes, sie ist gut über den nahegelegenen Parkplatz zu erreichen.
――――――――――
Gerhard H.: Es ist fantastisch, wie schnell das Wasser durch die Rinne rauscht, ohne dass großartig was daneben geht. Ein absolutes Muss für jeden Naturliebhaber, der einmal in diese Gegend kommt. Der Eintritt ist frei und es befindet sich in der Nähe eines größeren Parkplatzes. Also lohnt sich auf jeden Fall auch ein Kurzbesuch.
――――――――――
Mario: In der Gegend gibt es mehrere Steinerne Rinnen aber das hier ist die Schönste.
――――――――――
Andrea_Hofbeck: Eine der längsten Steinerne Rinne die ich kenne - mega 
Die Rinne wurde zur Unterstützung befestigt und sollte auf keinem Fall berührt werden 
Da das ganze Gelände ein Biotop ist bitte die absperren nicht verlassen
――――――――――
Cathrin: An einem sonnigen September Sonntag war hier erstaunlich wenig los 😳.
――――――――――
Andrea_Hofbeck: Steinerne Rinne  XXL 
Die rinne und das Gebiet darum ist ein Biotop das nicht betreten werden darf 
Bitte achtet darauf eueren Müll wieder mitzunehmen, die Rinne weder zu betreten noch anzufassen um das kleine Naturwunder der Nachwelt zu erhalten
――――――――――
🥾RoJay〽️-Trails🥾: Was soll man dazu noch großartig sagen es ist einfach die wunderschöne Natur.
――――――――――
Nicole🏁: Sehr sehenswert,sollte man sich mal anschauen..
――――――――――
SoSp. 🌲🌳: sehr faszinierend und auch was für Lauffaule da sie direkt an der Straße liegt
――――――――――
Gitte 💠: Unglaublich, welche Macht Wasser hat. Bei regenreichen Tagen fließt das Wasser munter herunter. Absolut sehenswert!
――――――――――
uta_is_hiking: Die Steinerne Rinne bei Wolfsbronn ist spektakulär. Sie ist 120 Meter lang. Sie fängt bei ca. 680 Höhenmetern an und verläuft in leichten Biegungen und Wellen bis auf 600 Höhenmetern bergabwärts. Danach fließt das Wasser aus der Rinne und sucht sich seinen Weg auf dem Waldboden.
Die Rinne besteht aus Kalktuff, auf dem sich das Quellwasser den Weg in der Rinne ins Tal bahnt. Die Kalkablagerungen lassen das Rinnenbett wachsen.
――――――――――
Walter Müller: Ein schönes kleines Naturdenkmal am Hahnekamm.
――――――――――
Mutzkibub: Imposantes Naturdenkmal welches man gesehen haben sollte.
――――――――――
Hermann 🥾🥾🌲🌳🍁: Zurzeit quillt die steinerne Rinne regelrecht über.
Selbst über die Stufen fließt ein kleiner Bach.
――――――――――
PE: Sehr interessantes Naturschauspiel was einen Besuch Wert ist.
――――――――――
Robert R.: "Die Steinerne Rinne liegt im Naturpark Altmühltal auf dem Hahnenkamm, einem Teil des Mittelgebirges Fränkische Alb. Sie erstreckt sich am nördlichen Steilabfall des Lunkenberges (613,3 m ü. NHN), dem Bindeglied zwischen dem Dürrenberg (656,4 m) im Nordwesten und dem Gemeindeberg (ca. 625 m) im Südosten, etwa 500 m südwestlich des namensgebenden Meinheimer Ortsteiles Wolfsbronn. Das Rinnenwasser fließt, nach einer unterhalb der Rinne befindlichen Verrohrung, in den Wolfsbronner Mühlbach, einem südwestlichen Zufluss des Meinheimer Mühlbachs."

Quelle: https://de.wikipedia.org/wiki/Steinerne_Rinne_bei_Wolfsbronn
――――――――――
Bridget Jones 🌳🚐🥾🚲🏞️: Sehr interessant und außergewöhnlich! Unbedingt Abstecher machen wenn man in der Nähe vorbei kommt...👍
――――――――――
k-p-t: die schönste steinerne rinne die wir gesehen haben, sehr beeindruckend, lohnt sich, unbedingt anschauen!!! 
liegt direkt am frankenweg,
――――――――――
Thomas: Einfach einzigartig, seltenes Naturwunder
――――――――――
PE: Sehr faszinierend und gut zu erreichen.
――――――――――
PE: Einfach dem Weg nach oben folgen und man kommt zum Ursprung. 
Der Weg ist teilweise nass.
――――――――――
〽️Markus: Die „Steinerne Rinne“ bei Wolfsbronn ist ein ganz außergewöhnliches Naturdenkmal. Auf ca. 130 m Länge plätschert ein munteres Bächlein in einer ca. 160 cm hohen Kalkrinne durch einen wunderschönen Buchenmischwald.</desc>
    <src>Komoot</src>
    <link href="https://www.komoot.de/highlight/354674">
      <text>View POI on Komoot</text>
    </link>
    <type>Highlight</type>
  </wpt>
  <wpt lat="49.009953" lon="10.787822">
    <ele>582.2</ele>
    <name>Steinerne Rinne Rest Area</name>
    <cmt>https://d2exd72xrrp1s7.cloudfront.net/www/000/1k5/1a/1anlj663cgi4r2np0l43xbi4a3psirgp1-uhi30457529/0</cmt>
    <desc>PE: Kleine Bank mit Tisch unweit vom Parkplatz.
――――――――――
Andrea_Hofbeck: Toller Blick auf die steinerne Rinne- schön dort zu Rasten und das Wasser plätschern zu hören
――――――――――
Christian 🥾⛰️: Fast schon märchenhaft... ;)
――――――――――
Emma ISt.: Kein genaueres Bild war möglich, da die Sitzgelegenheit (ein Tisch mit zwei Bänken) belegt war...
Daneben ist eine Info-Tafel vorhanden.
An dieser Stelle sitzt man mitten drin. Das Wasser plätschert und rauscht an einem vorbei. Die Vögel zwitschern um einen umher...
Waldbaden in einer anderen Form...
――――――――――
Lume: Ein beeindruckendes empfindliches Naturschauspiel.
――――――――――
Anti🌲🦊: Sucht nicht nach einer Quelle!!! (sie ist irgendwo im Berg)</desc>
    <src>Komoot</src>
    <link href="https://www.komoot.de/highlight/2675968">
      <text>View POI on Komoot</text>
    </link>
    <type>Highlight</type>
  </wpt>
  <wpt lat="49.010133" lon="10.788879">
    <ele>550</ele>
    <name>Picnic area at Rinne Nature Reserve</name>
    <cmt>https://d2exd72xrrp1s7.cloudfront.net/www/000/1k9/1i/1ixc7xfhfrc1rohi43l2w13yk5f9w9a7i-uhi89126246/0</cmt>
    <desc>Emma ISt.: Kurz vor oder nach dem Einstieg in das NSG gibt es hier ebenfalls eine Möglichkeit einen Rast anzulegen. Info-Tafel zur Rinne ist direkt daneben.</desc>
    <src>Komoot</src>
    <link href="https://www.komoot.de/highlight/7603847">
      <text>View POI on Komoot</text>
    </link>
    <type>Highlight</type>
  </wpt>
  <wpt lat="49.010108" lon="10.789943">
    <ele>564.2</ele>
    <name>Hiking parking and rest area Steinerne Rinne</name>
    <cmt>https://d2exd72xrrp1s7.cloudfront.net/www/000/1k6/ik/ik9sd465iwdk1baevg6owzzam477j8t4u-uhi50611611/0</cmt>
    <desc>Cathrin: Mehrere Mülleimer und einen Rastplatz gibt es auch.
――――――――――
PE: Kleiner Parkplatz mitten in der Kurve und direkt am Start zum kleinen Aufstieg zur Steinernen Rinne
――――――――――
hopsi: Direkt am Beginn der Steinernen Rinne sind hier einige Parkplätze
――――――――――
SoSp. 🌲🌳: Hier kann man für einen kleinen Abstecher zur Steinernen Rinne gut parken
――――――――――
Emma ISt.: Für 1-2 Reisebusse gibt es ebenfalls eine Extra-Parkbucht.
Da das Durchfahren mit dem Rad durch das NSG verboten ist, gibt's es unten (direkt am Parkplatz) ein paar Abstellmöglichkeiten auch dafür.
――――――――――
Emma ISt.: Ein kleiner Rast vor oder auch nach dem Besuch der Steinernen Rinne. Sogar ein Mülleimer ist vorhanden.
――――――――――
Emma ISt.: Da das Radeln an der Rinne verboten ist, gibt es hier die Möglichkeit die Räder abzustellen und eine Runde zu Fuß zu drehen.</desc>
    <src>Komoot</src>
    <link href="https://www.komoot.de/highlight/4514518">
      <text>View POI on Komoot</text>
    </link>
    <type>Highlight</type>
  </wpt>
  <trk>
    <name>Steinerne Rinne bei Wolfsbronn – Steinerne Rinne Rest Area Runde von Markt Berolzheim</name>
    <desc>Distance: 13.558km, Estimated duration: 3.83h, Elevation up: 288.3946761154823m, Elevation down: 288.3946761154821m, Grade: moderate</desc>
    <link href="https://www.komoot.de/tour/2711730220">
      <text>View tour on Komoot</text>
    </link>
    <trkseg>
      <trkpt lat="48.998799" lon="10.849107">
        <ele>503.9</ele>
        <time>2025-12-10T11:17:59.428000Z</time>
      </trkpt>
      <trkpt lat="48.998933" lon="10.849261">
        <ele>504.4</ele>
        <time>2025-12-10T11:18:17.833000Z</time>
      </trkpt>
      <trkpt lat="48.998937" lon="10.849059">
        <ele>504.8</ele>
        <time>2025-12-10T11:18:32.524000Z</time>
      </trkpt>
      <trkpt lat="48.999052" lon="10.849082">
        <ele>505.1</ele>
        <time>2025-12-10T11:18:45.364000Z</time>
      </trkpt>
      <trkpt lat="48.999251" lon="10.849053">
        <ele>505.7</ele>
        <time>2025-12-10T11:19:07.234000Z</time>
      </trkpt>
      <trkpt lat="48.999387" lon="10.848947">
        <ele>506</ele>
        <time>2025-12-10T11:19:23.740000Z</time>
      </trkpt>
      <trkpt lat="48.999863" lon="10.84874">
        <ele>506.8</ele>
        <time>2025-12-10T11:20:16.062000Z</time>
      </trkpt>
      <trkpt lat="49.00002" lon="10.848629">
        <ele>506.9</ele>
        <time>2025-12-10T11:20:33.867000Z</time>
      </trkpt>
      <trkpt lat="49.000175" lon="10.848478">
        <ele>506.8</ele>
        <time>2025-12-10T11:20:52.643000Z</time>
      </trkpt>
      <trkpt lat="49.000942" lon="10.847514">
        <ele>504.8</ele>
        <time>2025-12-10T11:22:36.219000Z</time>
      </trkpt>
      <trkpt lat="49.001048" lon="10.847497">
        <ele>504.6</ele>
        <time>2025-12-10T11:22:47.229000Z</time>
      </trkpt>
      <trkpt lat="49.001082" lon="10.847428">
        <ele>504.6</ele>
        <time>2025-12-10T11:22:52.972000Z</time>
      </trkpt>
      <trkpt lat="49.001105" lon="10.847188">
        <ele>504.5</ele>
        <time>2025-12-10T11:23:09.097000Z</time>
      </trkpt>
      <trkpt lat="49.001171" lon="10.84709">
        <ele>504.5</ele>
        <time>2025-12-10T11:23:18.358000Z</time>
      </trkpt>
      <trkpt lat="49.001246" lon="10.846939">
        <ele>504.5</ele>
        <time>2025-12-10T11:23:30.846000Z</time>
      </trkpt>
      <trkpt lat="49.001203" lon="10.846746">
        <ele>504.6</ele>
        <time>2025-12-10T11:23:44.589000Z</time>
      </trkpt>
      <trkpt lat="49.001149" lon="10.845874">
        <ele>505.7</ele>
        <time>2025-12-10T11:24:46.036000Z</time>
      </trkpt>
      <trkpt lat="49.001191" lon="10.844582">
        <ele>508.6</ele>
        <time>2025-12-10T11:26:20.949000Z</time>
      </trkpt>
      <trkpt lat="49.00127" lon="10.843887">
        <ele>509.7</ele>
        <time>2025-12-10T11:27:11.191000Z</time>
      </trkpt>
      <trkpt lat="49.001277" lon="10.84334">
        <ele>510.3</ele>
        <time>2025-12-10T11:27:49.279000Z</time>
      </trkpt>
      <trkpt lat="49.001201" lon="10.842819">
        <ele>510.7</ele>
        <time>2025-12-10T11:28:25.651000Z</time>
      </trkpt>
      <trkpt lat="49.001291" lon="10.841342">
        <ele>511.8</ele>
        <time>2025-12-10T11:30:07.097000Z</time>
      </trkpt>
      <trkpt lat="49.00132" lon="10.841106">
        <ele>512.2</ele>
        <time>2025-12-10T11:30:24.286000Z</time>
      </trkpt>
      <trkpt lat="49.001378" lon="10.841056">
        <ele>512.4</ele>
        <time>2025-12-10T11:30:31.438000Z</time>
      </trkpt>
      <trkpt lat="49.001182" lon="10.839723">
        <ele>516.8</ele>
        <time>2025-12-10T11:32:16.667000Z</time>
      </trkpt>
      <trkpt lat="49.00111" lon="10.839377">
        <ele>517.9</ele>
        <time>2025-12-10T11:32:44.187000Z</time>
      </trkpt>
      <trkpt lat="49.000998" lon="10.83908">
        <ele>518.9</ele>
        <time>2025-12-10T11:33:10.218000Z</time>
      </trkpt>
      <trkpt lat="49.000958" lon="10.838831">
        <ele>519.5</ele>
        <time>2025-12-10T11:33:29.285000Z</time>
      </trkpt>
      <trkpt lat="49.000954" lon="10.838402">
        <ele>520.5</ele>
        <time>2025-12-10T11:34:00.740000Z</time>
      </trkpt>
      <trkpt lat="49.000908" lon="10.838037">
        <ele>521.2</ele>
        <time>2025-12-10T11:34:27.547000Z</time>
      </trkpt>
      <trkpt lat="49.000732" lon="10.837275">
        <ele>521.8</ele>
        <time>2025-12-10T11:35:22.690000Z</time>
      </trkpt>
      <trkpt lat="49.000619" lon="10.836948">
        <ele>521.7</ele>
        <time>2025-12-10T11:35:47.006000Z</time>
      </trkpt>
      <trkpt lat="49.0005" lon="10.836374">
        <ele>522.2</ele>
        <time>2025-12-10T11:36:28.086000Z</time>
      </trkpt>
      <trkpt lat="49.000447" lon="10.834851">
        <ele>525.7</ele>
        <time>2025-12-10T11:38:20.471000Z</time>
      </trkpt>
      <trkpt lat="49.000288" lon="10.833027">
        <ele>532.3</ele>
        <time>2025-12-10T11:40:44.213000Z</time>
      </trkpt>
      <trkpt lat="49.000186" lon="10.832572">
        <ele>534.2</ele>
        <time>2025-12-10T11:41:22.204000Z</time>
      </trkpt>
      <trkpt lat="49.000034" lon="10.831381">
        <ele>538.3</ele>
        <time>2025-12-10T11:42:56.325000Z</time>
      </trkpt>
      <trkpt lat="49" lon="10.831038">
        <ele>539.6</ele>
        <time>2025-12-10T11:43:23.526000Z</time>
      </trkpt>
      <trkpt lat="48.999966" lon="10.830231">
        <ele>543.1</ele>
        <time>2025-12-10T11:44:28.406000Z</time>
      </trkpt>
      <trkpt lat="48.999899" lon="10.829767">
        <ele>545.5</ele>
        <time>2025-12-10T11:45:08.032000Z</time>
      </trkpt>
      <trkpt lat="48.999229" lon="10.827063">
        <ele>567.7</ele>
        <time>2025-12-10T11:49:35.503000Z</time>
      </trkpt>
      <trkpt lat="48.999172" lon="10.826652">
        <ele>571</ele>
        <time>2025-12-10T11:50:15.118000Z</time>
      </trkpt>
      <trkpt lat="48.999263" lon="10.826282">
        <ele>574</ele>
        <time>2025-12-10T11:50:51.611000Z</time>
      </trkpt>
      <trkpt lat="48.999441" lon="10.824443">
        <ele>586.1</ele>
        <time>2025-12-10T11:53:34.361000Z</time>
      </trkpt>
      <trkpt lat="48.999535" lon="10.823721">
        <ele>589.5</ele>
        <time>2025-12-10T11:54:34.411000Z</time>
      </trkpt>
      <trkpt lat="48.999705" lon="10.822929">
        <ele>592.5</ele>
        <time>2025-12-10T11:55:39.336000Z</time>
      </trkpt>
      <trkpt lat="48.999807" lon="10.822444">
        <ele>593.9</ele>
        <time>2025-12-10T11:56:17.853000Z</time>
      </trkpt>
      <trkpt lat="48.999942" lon="10.822024">
        <ele>595.2</ele>
        <time>2025-12-10T11:56:52.919000Z</time>
      </trkpt>
      <trkpt lat="49.00053" lon="10.82082">
        <ele>599.7</ele>
        <time>2025-12-10T11:58:47.034000Z</time>
      </trkpt>
      <trkpt lat="49.000806" lon="10.820073">
        <ele>602.8</ele>
        <time>2025-12-10T11:59:54.036000Z</time>
      </trkpt>
      <trkpt lat="49.00111" lon="10.819421">
        <ele>605.7</ele>
        <time>2025-12-10T12:00:56.682000Z</time>
      </trkpt>
      <trkpt lat="49.001475" lon="10.81808">
        <ele>610.4</ele>
        <time>2025-12-10T12:02:48.318000Z</time>
      </trkpt>
      <trkpt lat="49.001649" lon="10.817548">
        <ele>611.9</ele>
        <time>2025-12-10T12:03:32.555000Z</time>
      </trkpt>
      <trkpt lat="49.001852" lon="10.81673">
        <ele>613.6</ele>
        <time>2025-12-10T12:04:36.059000Z</time>
      </trkpt>
      <trkpt lat="49.001914" lon="10.816356">
        <ele>614.2</ele>
        <time>2025-12-10T12:05:03.642000Z</time>
      </trkpt>
      <trkpt lat="49.002026" lon="10.815686">
        <ele>615.4</ele>
        <time>2025-12-10T12:05:53.041000Z</time>
      </trkpt>
      <trkpt lat="49.002118" lon="10.814723">
        <ele>617.1</ele>
        <time>2025-12-10T12:07:03.071000Z</time>
      </trkpt>
      <trkpt lat="49.002137" lon="10.814374">
        <ele>617.8</ele>
        <time>2025-12-10T12:07:28.497000Z</time>
      </trkpt>
      <trkpt lat="49.0021" lon="10.81367">
        <ele>619.3</ele>
        <time>2025-12-10T12:08:20.053000Z</time>
      </trkpt>
      <trkpt lat="49.001999" lon="10.812909">
        <ele>620.8</ele>
        <time>2025-12-10T12:09:16.257000Z</time>
      </trkpt>
      <trkpt lat="49.001962" lon="10.811984">
        <ele>622</ele>
        <time>2025-12-10T12:10:21.427000Z</time>
      </trkpt>
      <trkpt lat="49.001905" lon="10.811474">
        <ele>622.4</ele>
        <time>2025-12-10T12:10:56.645000Z</time>
      </trkpt>
      <trkpt lat="49.001742" lon="10.810446">
        <ele>622.5</ele>
        <time>2025-12-10T12:12:06.702000Z</time>
      </trkpt>
      <trkpt lat="49.001579" lon="10.809582">
        <ele>622.2</ele>
        <time>2025-12-10T12:13:06.369000Z</time>
      </trkpt>
      <trkpt lat="49.001408" lon="10.808823">
        <ele>622</ele>
        <time>2025-12-10T12:13:59.484000Z</time>
      </trkpt>
      <trkpt lat="49.001411" lon="10.808619">
        <ele>622</ele>
        <time>2025-12-10T12:14:12.968000Z</time>
      </trkpt>
      <trkpt lat="49.000722" lon="10.80762">
        <ele>622.2</ele>
        <time>2025-12-10T12:15:49.052000Z</time>
      </trkpt>
      <trkpt lat="49.000587" lon="10.807362">
        <ele>622.2</ele>
        <time>2025-12-10T12:16:10.739000Z</time>
      </trkpt>
      <trkpt lat="49.000446" lon="10.807002">
        <ele>622.2</ele>
        <time>2025-12-10T12:16:38.299000Z</time>
      </trkpt>
      <trkpt lat="49.000408" lon="10.806748">
        <ele>622.2</ele>
        <time>2025-12-10T12:16:55.439000Z</time>
      </trkpt>
      <trkpt lat="49.000445" lon="10.806702">
        <ele>622.2</ele>
        <time>2025-12-10T12:17:00.182000Z</time>
      </trkpt>
      <trkpt lat="49.000465" lon="10.806533">
        <ele>622.2</ele>
        <time>2025-12-10T12:17:11.469000Z</time>
      </trkpt>
      <trkpt lat="49.00044" lon="10.806308">
        <ele>622.1</ele>
        <time>2025-12-10T12:17:26.477000Z</time>
      </trkpt>
      <trkpt lat="49.000222" lon="10.805926">
        <ele>622.1</ele>
        <time>2025-12-10T12:17:59.912000Z</time>
      </trkpt>
      <trkpt lat="48.999992" lon="10.805091">
        <ele>621.7</ele>
        <time>2025-12-10T12:19:00.142000Z</time>
      </trkpt>
      <trkpt lat="48.999946" lon="10.80461">
        <ele>621.3</ele>
        <time>2025-12-10T12:19:32.812000Z</time>
      </trkpt>
      <trkpt lat="48.999972" lon="10.803656">
        <ele>620.8</ele>
        <time>2025-12-10T12:20:36.686000Z</time>
      </trkpt>
      <trkpt lat="48.999975" lon="10.803568">
        <ele>620.7</ele>
        <time>2025-12-10T12:20:42.631000Z</time>
      </trkpt>
      <trkpt lat="49.000039" lon="10.802772">
        <ele>619.8</ele>
        <time>2025-12-10T12:21:37.194000Z</time>
      </trkpt>
      <trkpt lat="49.000211" lon="10.802185">
        <ele>618.8</ele>
        <time>2025-12-10T12:22:21.457000Z</time>
      </trkpt>
      <trkpt lat="49.0007" lon="10.800743">
        <ele>615.2</ele>
        <time>2025-12-10T12:24:15.274000Z</time>
      </trkpt>
      <trkpt lat="49.000802" lon="10.8005">
        <ele>614.4</ele>
        <time>2025-12-10T12:24:36.053000Z</time>
      </trkpt>
      <trkpt lat="49.00098" lon="10.800188">
        <ele>612.9</ele>
        <time>2025-12-10T12:25:06.026000Z</time>
      </trkpt>
      <trkpt lat="49.001248" lon="10.799802">
        <ele>610.8</ele>
        <time>2025-12-10T12:25:47.240000Z</time>
      </trkpt>
      <trkpt lat="49.001867" lon="10.798639">
        <ele>606.1</ele>
        <time>2025-12-10T12:27:35.131000Z</time>
      </trkpt>
      <trkpt lat="49.002195" lon="10.797835">
        <ele>605.2</ele>
        <time>2025-12-10T12:28:39.199000Z</time>
      </trkpt>
      <trkpt lat="49.002274" lon="10.797534">
        <ele>605.3</ele>
        <time>2025-12-10T12:29:01.064000Z</time>
      </trkpt>
      <trkpt lat="49.00259" lon="10.796699">
        <ele>606.9</ele>
        <time>2025-12-10T12:30:09.702000Z</time>
      </trkpt>
      <trkpt lat="49.003205" lon="10.796448">
        <ele>608.5</ele>
        <time>2025-12-10T12:31:19.251000Z</time>
      </trkpt>
      <trkpt lat="49.003375" lon="10.796183">
        <ele>609</ele>
        <time>2025-12-10T12:31:45.147000Z</time>
      </trkpt>
      <trkpt lat="49.003439" lon="10.795904">
        <ele>609.3</ele>
        <time>2025-12-10T12:32:05.746000Z</time>
      </trkpt>
      <trkpt lat="49.003581" lon="10.795006">
        <ele>610.2</ele>
        <time>2025-12-10T12:33:09.441000Z</time>
      </trkpt>
      <trkpt lat="49.003602" lon="10.794808">
        <ele>610.3</ele>
        <time>2025-12-10T12:33:23.174000Z</time>
      </trkpt>
      <trkpt lat="49.003704" lon="10.794699">
        <ele>610.4</ele>
        <time>2025-12-10T12:33:36.113000Z</time>
      </trkpt>
      <trkpt lat="49.003793" lon="10.794465">
        <ele>610.6</ele>
        <time>2025-12-10T12:33:54.305000Z</time>
      </trkpt>
      <trkpt lat="49.003967" lon="10.794029">
        <ele>610.7</ele>
        <time>2025-12-10T12:34:28.229000Z</time>
      </trkpt>
      <trkpt lat="49.004139" lon="10.793654">
        <ele>610.7</ele>
        <time>2025-12-10T12:34:58.376000Z</time>
      </trkpt>
      <trkpt lat="49.004658" lon="10.79252">
        <ele>609.8</ele>
        <time>2025-12-10T12:36:31.062000Z</time>
      </trkpt>
      <trkpt lat="49.004819" lon="10.79218">
        <ele>609.2</ele>
        <time>2025-12-10T12:36:59.775000Z</time>
      </trkpt>
      <trkpt lat="49.005288" lon="10.791254">
        <ele>607.5</ele>
        <time>2025-12-10T12:38:20.151000Z</time>
      </trkpt>
      <trkpt lat="49.005377" lon="10.791023">
        <ele>607.2</ele>
        <time>2025-12-10T12:38:38.409000Z</time>
      </trkpt>
      <trkpt lat="49.005416" lon="10.790817">
        <ele>606.9</ele>
        <time>2025-12-10T12:38:53.008000Z</time>
      </trkpt>
      <trkpt lat="49.005469" lon="10.790611">
        <ele>606.7</ele>
        <time>2025-12-10T12:39:07.950000Z</time>
      </trkpt>
      <trkpt lat="49.005531" lon="10.79014">
        <ele>606.3</ele>
        <time>2025-12-10T12:39:40.271000Z</time>
      </trkpt>
      <trkpt lat="49.005585" lon="10.789004">
        <ele>605.6</ele>
        <time>2025-12-10T12:40:56.495000Z</time>
      </trkpt>
      <trkpt lat="49.005688" lon="10.787983">
        <ele>605.1</ele>
        <time>2025-12-10T12:42:05.331000Z</time>
      </trkpt>
      <trkpt lat="49.005769" lon="10.787622">
        <ele>605</ele>
        <time>2025-12-10T12:42:30.824000Z</time>
      </trkpt>
      <trkpt lat="49.005884" lon="10.787331">
        <ele>604.8</ele>
        <time>2025-12-10T12:42:53.478000Z</time>
      </trkpt>
      <trkpt lat="49.006297" lon="10.78649">
        <ele>604.2</ele>
        <time>2025-12-10T12:44:03.538000Z</time>
      </trkpt>
      <trkpt lat="49.007135" lon="10.785052">
        <ele>603.4</ele>
        <time>2025-12-10T12:46:11.679000Z</time>
      </trkpt>
      <trkpt lat="49.007401" lon="10.784368">
        <ele>603</ele>
        <time>2025-12-10T12:47:04.640000Z</time>
      </trkpt>
      <trkpt lat="49.007539" lon="10.784126">
        <ele>602.6</ele>
        <time>2025-12-10T12:47:26.590000Z</time>
      </trkpt>
      <trkpt lat="49.008023" lon="10.783418">
        <ele>599.6</ele>
        <time>2025-12-10T12:48:39.833000Z</time>
      </trkpt>
      <trkpt lat="49.008064" lon="10.783664">
        <ele>598.4</ele>
        <time>2025-12-10T12:48:58.898000Z</time>
      </trkpt>
      <trkpt lat="49.00858" lon="10.784974">
        <ele>586.8</ele>
        <time>2025-12-10T12:51:01.849000Z</time>
      </trkpt>
      <trkpt lat="49.008974" lon="10.785318">
        <ele>579.7</ele>
        <time>2025-12-10T12:52:00.988000Z</time>
      </trkpt>
      <trkpt lat="49.009071" lon="10.785466">
        <ele>577.5</ele>
        <time>2025-12-10T12:52:18.948000Z</time>
      </trkpt>
      <trkpt lat="49.009509" lon="10.785738">
        <ele>569.7</ele>
        <time>2025-12-10T12:53:21.262000Z</time>
      </trkpt>
      <trkpt lat="49.009557" lon="10.785768">
        <ele>569</ele>
        <time>2025-12-10T12:53:27.703000Z</time>
      </trkpt>
      <trkpt lat="49.009543" lon="10.786034">
        <ele>567</ele>
        <time>2025-12-10T12:53:49.179000Z</time>
      </trkpt>
      <trkpt lat="49.00951" lon="10.786326">
        <ele>565.4</ele>
        <time>2025-12-10T12:54:11.945000Z</time>
      </trkpt>
      <trkpt lat="49.009628" lon="10.786472">
        <ele>564.4</ele>
        <time>2025-12-10T12:54:29.212000Z</time>
      </trkpt>
      <trkpt lat="49.009679" lon="10.786644">
        <ele>563.6</ele>
        <time>2025-12-10T12:54:43.092000Z</time>
      </trkpt>
      <trkpt lat="49.009687" lon="10.786833">
        <ele>562.8</ele>
        <time>2025-12-10T12:54:57.165000Z</time>
      </trkpt>
      <trkpt lat="49.00969" lon="10.786893">
        <ele>562.5</ele>
        <time>2025-12-10T12:55:01.601000Z</time>
      </trkpt>
      <trkpt lat="49.009727" lon="10.78695">
        <ele>562.1</ele>
        <time>2025-12-10T12:55:07.786000Z</time>
      </trkpt>
      <trkpt lat="49.00969" lon="10.786893">
        <ele>561.8</ele>
        <time>2025-12-10T12:55:13.656000Z</time>
      </trkpt>
      <trkpt lat="49.009687" lon="10.786833">
        <ele>561.6</ele>
        <time>2025-12-10T12:55:18.093000Z</time>
      </trkpt>
      <trkpt lat="49.009679" lon="10.786644">
        <ele>560.7</ele>
        <time>2025-12-10T12:55:32.356000Z</time>
      </trkpt>
      <trkpt lat="49.009628" lon="10.786472">
        <ele>559.7</ele>
        <time>2025-12-10T12:55:46.720000Z</time>
      </trkpt>
      <trkpt lat="49.00951" lon="10.786326">
        <ele>558.3</ele>
        <time>2025-12-10T12:56:04.585000Z</time>
      </trkpt>
      <trkpt lat="49.009543" lon="10.786034">
        <ele>556.4</ele>
        <time>2025-12-10T12:56:27.779000Z</time>
      </trkpt>
      <trkpt lat="49.00951" lon="10.786326">
        <ele>554.2</ele>
        <time>2025-12-10T12:56:51.551000Z</time>
      </trkpt>
      <trkpt lat="49.009628" lon="10.786472">
        <ele>552.4</ele>
        <time>2025-12-10T12:57:10.300000Z</time>
      </trkpt>
      <trkpt lat="49.009679" lon="10.786644">
        <ele>550.9</ele>
        <time>2025-12-10T12:57:25.565000Z</time>
      </trkpt>
      <trkpt lat="49.00969" lon="10.786893">
        <ele>548.6</ele>
        <time>2025-12-10T12:57:46.503000Z</time>
      </trkpt>
      <trkpt lat="49.009757" lon="10.786996">
        <ele>546.9</ele>
        <time>2025-12-10T12:57:59.386000Z</time>
      </trkpt>
      <trkpt lat="49.009791" lon="10.78715">
        <ele>544.8</ele>
        <time>2025-12-10T12:58:14.827000Z</time>
      </trkpt>
      <trkpt lat="49.009926" lon="10.787373">
        <ele>540.9</ele>
        <time>2025-12-10T12:58:43.790000Z</time>
      </trkpt>
      <trkpt lat="49.00996" lon="10.787614">
        <ele>537.9</ele>
        <time>2025-12-10T12:59:06.434000Z</time>
      </trkpt>
      <trkpt lat="49.010039" lon="10.787802">
        <ele>535.5</ele>
        <time>2025-12-10T12:59:25.707000Z</time>
      </trkpt>
      <trkpt lat="49.010073" lon="10.78818">
        <ele>532.3</ele>
        <time>2025-12-10T12:59:56.951000Z</time>
      </trkpt>
      <trkpt lat="49.01023" lon="10.788678">
        <ele>527.5</ele>
        <time>2025-12-10T13:00:42.517000Z</time>
      </trkpt>
      <trkpt lat="49.010073" lon="10.78818">
        <ele>523.2</ele>
        <time>2025-12-10T13:01:27.323000Z</time>
      </trkpt>
      <trkpt lat="49.010039" lon="10.787802">
        <ele>520.8</ele>
        <time>2025-12-10T13:01:57.080000Z</time>
      </trkpt>
      <trkpt lat="49.01002" lon="10.787757">
        <ele>520.6</ele>
        <time>2025-12-10T13:02:00.947000Z</time>
      </trkpt>
      <trkpt lat="49.010039" lon="10.787802">
        <ele>520.3</ele>
        <time>2025-12-10T13:02:05.092000Z</time>
      </trkpt>
      <trkpt lat="49.010073" lon="10.78818">
        <ele>518.9</ele>
        <time>2025-12-10T13:02:33.016000Z</time>
      </trkpt>
      <trkpt lat="49.01023" lon="10.788678">
        <ele>517.6</ele>
        <time>2025-12-10T13:03:11.939000Z</time>
      </trkpt>
      <trkpt lat="49.010261" lon="10.788739">
        <ele>517.3</ele>
        <time>2025-12-10T13:03:17.569000Z</time>
      </trkpt>
      <trkpt lat="49.010193" lon="10.788929">
        <ele>516.4</ele>
        <time>2025-12-10T13:03:33.526000Z</time>
      </trkpt>
      <trkpt lat="49.010074" lon="10.789257">
        <ele>514.3</ele>
        <time>2025-12-10T13:04:02.431000Z</time>
      </trkpt>
      <trkpt lat="49.010115" lon="10.789333">
        <ele>513.5</ele>
        <time>2025-12-10T13:04:10.324000Z</time>
      </trkpt>
      <trkpt lat="49.010088" lon="10.789681">
        <ele>511.5</ele>
        <time>2025-12-10T13:04:37.406000Z</time>
      </trkpt>
      <trkpt lat="49.010117" lon="10.789941">
        <ele>510.6</ele>
        <time>2025-12-10T13:04:56.542000Z</time>
      </trkpt>
      <trkpt lat="49.010133" lon="10.790075">
        <ele>510.3</ele>
        <time>2025-12-10T13:05:06.017000Z</time>
      </trkpt>
      <trkpt lat="49.010134" lon="10.790091">
        <ele>510.3</ele>
        <time>2025-12-10T13:05:07.108000Z</time>
      </trkpt>
      <trkpt lat="49.010193" lon="10.790288">
        <ele>510.1</ele>
        <time>2025-12-10T13:05:21.628000Z</time>
      </trkpt>
      <trkpt lat="49.010369" lon="10.79068">
        <ele>510.6</ele>
        <time>2025-12-10T13:05:54.576000Z</time>
      </trkpt>
      <trkpt lat="49.010402" lon="10.79075">
        <ele>510.8</ele>
        <time>2025-12-10T13:06:00.751000Z</time>
      </trkpt>
      <trkpt lat="49.010201" lon="10.790928">
        <ele>511.8</ele>
        <time>2025-12-10T13:06:27.686000Z</time>
      </trkpt>
      <trkpt lat="49.00962" lon="10.79154">
        <ele>517.8</ele>
        <time>2025-12-10T13:07:58.743000Z</time>
      </trkpt>
      <trkpt lat="49.009578" lon="10.791824">
        <ele>520.3</ele>
        <time>2025-12-10T13:08:27.103000Z</time>
      </trkpt>
      <trkpt lat="49.009472" lon="10.791974">
        <ele>522.2</ele>
        <time>2025-12-10T13:08:49.529000Z</time>
      </trkpt>
      <trkpt lat="49.008698" lon="10.792543">
        <ele>534.8</ele>
        <time>2025-12-10T13:11:08.416000Z</time>
      </trkpt>
      <trkpt lat="49.008424" lon="10.792961">
        <ele>540.6</ele>
        <time>2025-12-10T13:12:12.574000Z</time>
      </trkpt>
      <trkpt lat="49.008213" lon="10.793546">
        <ele>547.1</ele>
        <time>2025-12-10T13:13:23.546000Z</time>
      </trkpt>
      <trkpt lat="49.008104" lon="10.794206">
        <ele>553.4</ele>
        <time>2025-12-10T13:14:34.689000Z</time>
      </trkpt>
      <trkpt lat="49.008005" lon="10.794533">
        <ele>556.6</ele>
        <time>2025-12-10T13:15:11.006000Z</time>
      </trkpt>
      <trkpt lat="49.007907" lon="10.795037">
        <ele>560.8</ele>
        <time>2025-12-10T13:16:00.829000Z</time>
      </trkpt>
      <trkpt lat="49.007783" lon="10.795322">
        <ele>563.1</ele>
        <time>2025-12-10T13:16:30.803000Z</time>
      </trkpt>
      <trkpt lat="49.007663" lon="10.795505">
        <ele>564.4</ele>
        <time>2025-12-10T13:16:52.274000Z</time>
      </trkpt>
      <trkpt lat="49.007788" lon="10.795682">
        <ele>565.3</ele>
        <time>2025-12-10T13:17:12.746000Z</time>
      </trkpt>
      <trkpt lat="49.008153" lon="10.796026">
        <ele>567.4</ele>
        <time>2025-12-10T13:18:02.776000Z</time>
      </trkpt>
      <trkpt lat="49.008476" lon="10.796172">
        <ele>568.4</ele>
        <time>2025-12-10T13:18:40.165000Z</time>
      </trkpt>
      <trkpt lat="49.008615" lon="10.79624">
        <ele>568.5</ele>
        <time>2025-12-10T13:18:55.033000Z</time>
      </trkpt>
      <trkpt lat="49.008811" lon="10.796477">
        <ele>567.9</ele>
        <time>2025-12-10T13:19:21.276000Z</time>
      </trkpt>
      <trkpt lat="49.008897" lon="10.796584">
        <ele>567.5</ele>
        <time>2025-12-10T13:19:33.111000Z</time>
      </trkpt>
      <trkpt lat="49.009032" lon="10.796678">
        <ele>566.8</ele>
        <time>2025-12-10T13:19:49.386000Z</time>
      </trkpt>
      <trkpt lat="49.009105" lon="10.79679">
        <ele>566.3</ele>
        <time>2025-12-10T13:20:00.884000Z</time>
      </trkpt>
      <trkpt lat="49.009201" lon="10.796952">
        <ele>565.3</ele>
        <time>2025-12-10T13:20:17.122000Z</time>
      </trkpt>
      <trkpt lat="49.00933" lon="10.79733">
        <ele>563.2</ele>
        <time>2025-12-10T13:20:49.296000Z</time>
      </trkpt>
      <trkpt lat="49.009533" lon="10.797656">
        <ele>561.2</ele>
        <time>2025-12-10T13:21:22.961000Z</time>
      </trkpt>
      <trkpt lat="49.01003" lon="10.798772">
        <ele>552</ele>
        <time>2025-12-10T13:23:09.492000Z</time>
      </trkpt>
      <trkpt lat="49.010147" lon="10.799081">
        <ele>549.4</ele>
        <time>2025-12-10T13:23:38.003000Z</time>
      </trkpt>
      <trkpt lat="49.010284" lon="10.799672">
        <ele>545.1</ele>
        <time>2025-12-10T13:24:27.721000Z</time>
      </trkpt>
      <trkpt lat="49.010406" lon="10.80036">
        <ele>540.5</ele>
        <time>2025-12-10T13:25:23.529000Z</time>
      </trkpt>
      <trkpt lat="49.010533" lon="10.80089">
        <ele>537.1</ele>
        <time>2025-12-10T13:26:07.325000Z</time>
      </trkpt>
      <trkpt lat="49.010892" lon="10.802006">
        <ele>531</ele>
        <time>2025-12-10T13:27:41.236000Z</time>
      </trkpt>
      <trkpt lat="49.011154" lon="10.802928">
        <ele>528</ele>
        <time>2025-12-10T13:28:53.138000Z</time>
      </trkpt>
      <trkpt lat="49.011079" lon="10.803617">
        <ele>528.2</ele>
        <time>2025-12-10T13:29:39.682000Z</time>
      </trkpt>
      <trkpt lat="49.010967" lon="10.804292">
        <ele>530.5</ele>
        <time>2025-12-10T13:30:33.448000Z</time>
      </trkpt>
      <trkpt lat="49.010675" lon="10.804395">
        <ele>533.1</ele>
        <time>2025-12-10T13:31:12.250000Z</time>
      </trkpt>
      <trkpt lat="49.010404" lon="10.804635">
        <ele>536.3</ele>
        <time>2025-12-10T13:31:54.192000Z</time>
      </trkpt>
      <trkpt lat="49.009973" lon="10.805537">
        <ele>544.2</ele>
        <time>2025-12-10T13:33:33.963000Z</time>
      </trkpt>
      <trkpt lat="49.009749" lon="10.806262">
        <ele>547.9</ele>
        <time>2025-12-10T13:34:39.083000Z</time>
      </trkpt>
      <trkpt lat="49.009661" lon="10.806652">
        <ele>548.8</ele>
        <time>2025-12-10T13:35:09.216000Z</time>
      </trkpt>
      <trkpt lat="49.009701" lon="10.807038">
        <ele>549.2</ele>
        <time>2025-12-10T13:35:36.429000Z</time>
      </trkpt>
      <trkpt lat="49.009853" lon="10.807279">
        <ele>549.4</ele>
        <time>2025-12-10T13:35:59.011000Z</time>
      </trkpt>
      <trkpt lat="49.010151" lon="10.807399">
        <ele>549.9</ele>
        <time>2025-12-10T13:36:31.758000Z</time>
      </trkpt>
      <trkpt lat="49.010404" lon="10.80745">
        <ele>550.8</ele>
        <time>2025-12-10T13:37:00.562000Z</time>
      </trkpt>
      <trkpt lat="49.01081" lon="10.807639">
        <ele>552.6</ele>
        <time>2025-12-10T13:37:49.131000Z</time>
      </trkpt>
      <trkpt lat="49.011181" lon="10.808">
        <ele>554.9</ele>
        <time>2025-12-10T13:38:41.067000Z</time>
      </trkpt>
      <trkpt lat="49.011282" lon="10.808227">
        <ele>556.1</ele>
        <time>2025-12-10T13:39:03.272000Z</time>
      </trkpt>
      <trkpt lat="49.011333" lon="10.808343">
        <ele>556.8</ele>
        <time>2025-12-10T13:39:14.929000Z</time>
      </trkpt>
      <trkpt lat="49.011474" lon="10.808515">
        <ele>558.2</ele>
        <time>2025-12-10T13:39:37.720000Z</time>
      </trkpt>
      <trkpt lat="49.011756" lon="10.808969">
        <ele>561.8</ele>
        <time>2025-12-10T13:40:30.855000Z</time>
      </trkpt>
      <trkpt lat="49.012125" lon="10.809664">
        <ele>564.7</ele>
        <time>2025-12-10T13:41:39.662000Z</time>
      </trkpt>
      <trkpt lat="49.01229" lon="10.809974">
        <ele>564.9</ele>
        <time>2025-12-10T13:42:06.693000Z</time>
      </trkpt>
      <trkpt lat="49.012459" lon="10.810454">
        <ele>564.8</ele>
        <time>2025-12-10T13:42:42.821000Z</time>
      </trkpt>
      <trkpt lat="49.012701" lon="10.810729">
        <ele>564.6</ele>
        <time>2025-12-10T13:43:13.337000Z</time>
      </trkpt>
      <trkpt lat="49.012927" lon="10.810643">
        <ele>564.6</ele>
        <time>2025-12-10T13:43:36.584000Z</time>
      </trkpt>
      <trkpt lat="49.013122" lon="10.81043">
        <ele>564.6</ele>
        <time>2025-12-10T13:44:00.775000Z</time>
      </trkpt>
      <trkpt lat="49.013294" lon="10.810171">
        <ele>564.5</ele>
        <time>2025-12-10T13:44:24.951000Z</time>
      </trkpt>
      <trkpt lat="49.013293" lon="10.810214">
        <ele>564.6</ele>
        <time>2025-12-10T13:44:27.911000Z</time>
      </trkpt>
      <trkpt lat="49.013288" lon="10.810488">
        <ele>564.7</ele>
        <time>2025-12-10T13:44:46.525000Z</time>
      </trkpt>
      <trkpt lat="49.01315" lon="10.811704">
        <ele>568.2</ele>
        <time>2025-12-10T13:46:19.601000Z</time>
      </trkpt>
      <trkpt lat="49.013105" lon="10.812339">
        <ele>570.8</ele>
        <time>2025-12-10T13:47:10.555000Z</time>
      </trkpt>
      <trkpt lat="49.013118" lon="10.81281">
        <ele>572.1</ele>
        <time>2025-12-10T13:47:45.981000Z</time>
      </trkpt>
      <trkpt lat="49.013103" lon="10.813199">
        <ele>572.7</ele>
        <time>2025-12-10T13:48:13.513000Z</time>
      </trkpt>
      <trkpt lat="49.013089" lon="10.813584">
        <ele>572.8</ele>
        <time>2025-12-10T13:48:39.257000Z</time>
      </trkpt>
      <trkpt lat="49.013033" lon="10.81409">
        <ele>572.6</ele>
        <time>2025-12-10T13:49:13.321000Z</time>
      </trkpt>
      <trkpt lat="49.012869" lon="10.815027">
        <ele>573.3</ele>
        <time>2025-12-10T13:50:19.351000Z</time>
      </trkpt>
      <trkpt lat="49.012768" lon="10.81541">
        <ele>573.7</ele>
        <time>2025-12-10T13:50:47.713000Z</time>
      </trkpt>
      <trkpt lat="49.012357" lon="10.815731">
        <ele>574.5</ele>
        <time>2025-12-10T13:51:37.032000Z</time>
      </trkpt>
      <trkpt lat="49.012147" lon="10.815999">
        <ele>575.2</ele>
        <time>2025-12-10T13:52:06.791000Z</time>
      </trkpt>
      <trkpt lat="49.012081" lon="10.816083">
        <ele>575.4</ele>
        <time>2025-12-10T13:52:16.256000Z</time>
      </trkpt>
      <trkpt lat="49.011597" lon="10.817482">
        <ele>578.1</ele>
        <time>2025-12-10T13:54:09.416000Z</time>
      </trkpt>
      <trkpt lat="49.011445" lon="10.818254">
        <ele>577.3</ele>
        <time>2025-12-10T13:55:04.006000Z</time>
      </trkpt>
      <trkpt lat="49.011372" lon="10.818512">
        <ele>576.8</ele>
        <time>2025-12-10T13:55:23.414000Z</time>
      </trkpt>
      <trkpt lat="49.011349" lon="10.818684">
        <ele>576.5</ele>
        <time>2025-12-10T13:55:35.614000Z</time>
      </trkpt>
      <trkpt lat="49.011349" lon="10.818993">
        <ele>575.8</ele>
        <time>2025-12-10T13:55:57.314000Z</time>
      </trkpt>
      <trkpt lat="49.011428" lon="10.819276">
        <ele>575</ele>
        <time>2025-12-10T13:56:19.144000Z</time>
      </trkpt>
      <trkpt lat="49.011448" lon="10.819791">
        <ele>573.2</ele>
        <time>2025-12-10T13:56:56.571000Z</time>
      </trkpt>
      <trkpt lat="49.011402" lon="10.820297">
        <ele>571.2</ele>
        <time>2025-12-10T13:57:34.291000Z</time>
      </trkpt>
      <trkpt lat="49.011335" lon="10.820752">
        <ele>569.3</ele>
        <time>2025-12-10T13:58:08.722000Z</time>
      </trkpt>
      <trkpt lat="49.011273" lon="10.820984">
        <ele>568.4</ele>
        <time>2025-12-10T13:58:26.978000Z</time>
      </trkpt>
      <trkpt lat="49.011214" lon="10.821352">
        <ele>567.2</ele>
        <time>2025-12-10T13:58:54.244000Z</time>
      </trkpt>
      <trkpt lat="49.011048" lon="10.821739">
        <ele>566.2</ele>
        <time>2025-12-10T13:59:26.556000Z</time>
      </trkpt>
      <trkpt lat="49.010862" lon="10.822082">
        <ele>565.8</ele>
        <time>2025-12-10T13:59:56.679000Z</time>
      </trkpt>
      <trkpt lat="49.010558" lon="10.822462">
        <ele>565.9</ele>
        <time>2025-12-10T14:00:36.256000Z</time>
      </trkpt>
      <trkpt lat="49.01026" lon="10.82272">
        <ele>566.4</ele>
        <time>2025-12-10T14:01:12.279000Z</time>
      </trkpt>
      <trkpt lat="49.010059" lon="10.822787">
        <ele>566.7</ele>
        <time>2025-12-10T14:01:34.182000Z</time>
      </trkpt>
      <trkpt lat="49.009978" lon="10.822814">
        <ele>566.9</ele>
        <time>2025-12-10T14:01:43.038000Z</time>
      </trkpt>
      <trkpt lat="49.009815" lon="10.822831">
        <ele>567.3</ele>
        <time>2025-12-10T14:02:00.696000Z</time>
      </trkpt>
      <trkpt lat="49.009567" lon="10.82278">
        <ele>567.8</ele>
        <time>2025-12-10T14:02:27.698000Z</time>
      </trkpt>
      <trkpt lat="49.009198" lon="10.822606">
        <ele>568.6</ele>
        <time>2025-12-10T14:03:09.287000Z</time>
      </trkpt>
      <trkpt lat="49.00881" lon="10.822245">
        <ele>569.5</ele>
        <time>2025-12-10T14:03:57.906000Z</time>
      </trkpt>
      <trkpt lat="49.008557" lon="10.821945">
        <ele>570.1</ele>
        <time>2025-12-10T14:04:32.135000Z</time>
      </trkpt>
      <trkpt lat="49.008303" lon="10.821559">
        <ele>571.1</ele>
        <time>2025-12-10T14:05:11.513000Z</time>
      </trkpt>
      <trkpt lat="49.007902" lon="10.820857">
        <ele>574.4</ele>
        <time>2025-12-10T14:06:23.937000Z</time>
      </trkpt>
      <trkpt lat="49.007843" lon="10.82074">
        <ele>575.1</ele>
        <time>2025-12-10T14:06:35.936000Z</time>
      </trkpt>
      <trkpt lat="49.00774" lon="10.820538">
        <ele>576.4</ele>
        <time>2025-12-10T14:06:57.218000Z</time>
      </trkpt>
      <trkpt lat="49.00769" lon="10.820323">
        <ele>577.6</ele>
        <time>2025-12-10T14:07:16.467000Z</time>
      </trkpt>
      <trkpt lat="49.007509" lon="10.819061">
        <ele>586.3</ele>
        <time>2025-12-10T14:09:10.259000Z</time>
      </trkpt>
      <trkpt lat="49.007318" lon="10.818289">
        <ele>592.4</ele>
        <time>2025-12-10T14:10:25.403000Z</time>
      </trkpt>
      <trkpt lat="49.007245" lon="10.817576">
        <ele>597.2</ele>
        <time>2025-12-10T14:11:28.662000Z</time>
      </trkpt>
      <trkpt lat="49.007106" lon="10.81685">
        <ele>601.6</ele>
        <time>2025-12-10T14:12:33.149000Z</time>
      </trkpt>
      <trkpt lat="49.006674" lon="10.815205">
        <ele>609.4</ele>
        <time>2025-12-10T14:14:56.172000Z</time>
      </trkpt>
      <trkpt lat="49.006388" lon="10.81502">
        <ele>610.8</ele>
        <time>2025-12-10T14:15:32.269000Z</time>
      </trkpt>
      <trkpt lat="49.006077" lon="10.814918">
        <ele>612</ele>
        <time>2025-12-10T14:16:08.352000Z</time>
      </trkpt>
      <trkpt lat="49.005705" lon="10.814861">
        <ele>613.1</ele>
        <time>2025-12-10T14:16:49.509000Z</time>
      </trkpt>
      <trkpt lat="49.005435" lon="10.814898">
        <ele>613.7</ele>
        <time>2025-12-10T14:17:18.863000Z</time>
      </trkpt>
      <trkpt lat="49.005201" lon="10.814993">
        <ele>614.2</ele>
        <time>2025-12-10T14:17:44.765000Z</time>
      </trkpt>
      <trkpt lat="49.005127" lon="10.815027">
        <ele>614.3</ele>
        <time>2025-12-10T14:17:53.068000Z</time>
      </trkpt>
      <trkpt lat="49.00486" lon="10.815152">
        <ele>614.8</ele>
        <time>2025-12-10T14:18:22.813000Z</time>
      </trkpt>
      <trkpt lat="49.004016" lon="10.815671">
        <ele>615.9</ele>
        <time>2025-12-10T14:19:57.726000Z</time>
      </trkpt>
      <trkpt lat="49.003036" lon="10.81609">
        <ele>615.9</ele>
        <time>2025-12-10T14:21:39.639000Z</time>
      </trkpt>
      <trkpt lat="49.002035" lon="10.81647">
        <ele>614.3</ele>
        <time>2025-12-10T14:23:26.279000Z</time>
      </trkpt>
      <trkpt lat="49.001852" lon="10.81673">
        <ele>613.7</ele>
        <time>2025-12-10T14:23:52.484000Z</time>
      </trkpt>
      <trkpt lat="49.001649" lon="10.817548">
        <ele>611.9</ele>
        <time>2025-12-10T14:24:53.625000Z</time>
      </trkpt>
      <trkpt lat="49.001475" lon="10.81808">
        <ele>610.4</ele>
        <time>2025-12-10T14:25:35.759000Z</time>
      </trkpt>
      <trkpt lat="49.00111" lon="10.819421">
        <ele>605.7</ele>
        <time>2025-12-10T14:27:20.634000Z</time>
      </trkpt>
      <trkpt lat="49.000806" lon="10.820073">
        <ele>602.8</ele>
        <time>2025-12-10T14:28:19.096000Z</time>
      </trkpt>
      <trkpt lat="49.00053" lon="10.82082">
        <ele>599.7</ele>
        <time>2025-12-10T14:29:21.655000Z</time>
      </trkpt>
      <trkpt lat="48.999942" lon="10.822024">
        <ele>595.2</ele>
        <time>2025-12-10T14:31:09.307000Z</time>
      </trkpt>
      <trkpt lat="48.999807" lon="10.822444">
        <ele>593.9</ele>
        <time>2025-12-10T14:31:42.565000Z</time>
      </trkpt>
      <trkpt lat="48.999705" lon="10.822929">
        <ele>592.5</ele>
        <time>2025-12-10T14:32:18.978000Z</time>
      </trkpt>
      <trkpt lat="48.999535" lon="10.823721">
        <ele>589.5</ele>
        <time>2025-12-10T14:33:19.683000Z</time>
      </trkpt>
      <trkpt lat="48.999441" lon="10.824443">
        <ele>586.1</ele>
        <time>2025-12-10T14:34:14.890000Z</time>
      </trkpt>
      <trkpt lat="48.999263" lon="10.826282">
        <ele>574</ele>
        <time>2025-12-10T14:36:40.888000Z</time>
      </trkpt>
      <trkpt lat="48.999172" lon="10.826652">
        <ele>571</ele>
        <time>2025-12-10T14:37:12.653000Z</time>
      </trkpt>
      <trkpt lat="48.999229" lon="10.827063">
        <ele>567.7</ele>
        <time>2025-12-10T14:37:46.761000Z</time>
      </trkpt>
      <trkpt lat="48.999899" lon="10.829767">
        <ele>545.5</ele>
        <time>2025-12-10T14:41:39.816000Z</time>
      </trkpt>
      <trkpt lat="48.999966" lon="10.830231">
        <ele>543.1</ele>
        <time>2025-12-10T14:42:15.957000Z</time>
      </trkpt>
      <trkpt lat="49" lon="10.831038">
        <ele>539.6</ele>
        <time>2025-12-10T14:43:15.957000Z</time>
      </trkpt>
      <trkpt lat="49.000034" lon="10.831381">
        <ele>538.3</ele>
        <time>2025-12-10T14:43:41.333000Z</time>
      </trkpt>
      <trkpt lat="49.000186" lon="10.832572">
        <ele>534.2</ele>
        <time>2025-12-10T14:45:09.485000Z</time>
      </trkpt>
      <trkpt lat="49.000288" lon="10.833027">
        <ele>532.3</ele>
        <time>2025-12-10T14:45:44.807000Z</time>
      </trkpt>
      <trkpt lat="49.000447" lon="10.834851">
        <ele>525.7</ele>
        <time>2025-12-10T14:47:59.038000Z</time>
      </trkpt>
      <trkpt lat="49.0005" lon="10.836374">
        <ele>522.2</ele>
        <time>2025-12-10T14:49:46.351000Z</time>
      </trkpt>
      <trkpt lat="49.000619" lon="10.836948">
        <ele>521.7</ele>
        <time>2025-12-10T14:50:26.792000Z</time>
      </trkpt>
      <trkpt lat="49.000732" lon="10.837275">
        <ele>521.8</ele>
        <time>2025-12-10T14:50:51.147000Z</time>
      </trkpt>
      <trkpt lat="49.000908" lon="10.838037">
        <ele>521.2</ele>
        <time>2025-12-10T14:51:45.410000Z</time>
      </trkpt>
      <trkpt lat="49.000954" lon="10.838402">
        <ele>520.5</ele>
        <time>2025-12-10T14:52:11.207000Z</time>
      </trkpt>
      <trkpt lat="49.000958" lon="10.838831">
        <ele>519.5</ele>
        <time>2025-12-10T14:52:41.290000Z</time>
      </trkpt>
      <trkpt lat="49.000998" lon="10.83908">
        <ele>518.9</ele>
        <time>2025-12-10T14:52:59.456000Z</time>
      </trkpt>
      <trkpt lat="49.00111" lon="10.839377">
        <ele>517.9</ele>
        <time>2025-12-10T14:53:24Z</time>
      </trkpt>
      <trkpt lat="49.001182" lon="10.839723">
        <ele>516.8</ele>
        <time>2025-12-10T14:53:49.981000Z</time>
      </trkpt>
      <trkpt lat="49.001378" lon="10.841056">
        <ele>512.4</ele>
        <time>2025-12-10T14:55:28.789000Z</time>
      </trkpt>
      <trkpt lat="49.00132" lon="10.841106">
        <ele>512.2</ele>
        <time>2025-12-10T14:55:35.723000Z</time>
      </trkpt>
      <trkpt lat="49.001291" lon="10.841342">
        <ele>511.8</ele>
        <time>2025-12-10T14:55:52.308000Z</time>
      </trkpt>
      <trkpt lat="49.001201" lon="10.842819">
        <ele>510.7</ele>
        <time>2025-12-10T14:57:32.089000Z</time>
      </trkpt>
      <trkpt lat="49.001277" lon="10.84334">
        <ele>510.3</ele>
        <time>2025-12-10T14:58:07.885000Z</time>
      </trkpt>
      <trkpt lat="49.00127" lon="10.843887">
        <ele>509.7</ele>
        <time>2025-12-10T14:58:45.077000Z</time>
      </trkpt>
      <trkpt lat="49.001191" lon="10.844582">
        <ele>508.6</ele>
        <time>2025-12-10T14:59:33.678000Z</time>
      </trkpt>
      <trkpt lat="49.001149" lon="10.845874">
        <ele>505.7</ele>
        <time>2025-12-10T15:01:04.469000Z</time>
      </trkpt>
      <trkpt lat="49.001203" lon="10.846746">
        <ele>504.6</ele>
        <time>2025-12-10T15:02:04.271000Z</time>
      </trkpt>
      <trkpt lat="49.001246" lon="10.846939">
        <ele>504.5</ele>
        <time>2025-12-10T15:02:17.853000Z</time>
      </trkpt>
      <trkpt lat="49.001171" lon="10.84709">
        <ele>504.5</ele>
        <time>2025-12-10T15:02:30.303000Z</time>
      </trkpt>
      <trkpt lat="49.001105" lon="10.847188">
        <ele>504.5</ele>
        <time>2025-12-10T15:02:39.578000Z</time>
      </trkpt>
      <trkpt lat="49.001082" lon="10.847428">
        <ele>504.6</ele>
        <time>2025-12-10T15:02:55.833000Z</time>
      </trkpt>
      <trkpt lat="49.001048" lon="10.847497">
        <ele>504.6</ele>
        <time>2025-12-10T15:03:01.654000Z</time>
      </trkpt>
      <trkpt lat="49.000942" lon="10.847514">
        <ele>504.8</ele>
        <time>2025-12-10T15:03:12.844000Z</time>
      </trkpt>
      <trkpt lat="49.000175" lon="10.848478">
        <ele>506.8</ele>
        <time>2025-12-10T15:04:59.391000Z</time>
      </trkpt>
      <trkpt lat="49.00002" lon="10.848629">
        <ele>506.9</ele>
        <time>2025-12-10T15:05:18.393000Z</time>
      </trkpt>
      <trkpt lat="48.999863" lon="10.84874">
        <ele>506.8</ele>
        <time>2025-12-10T15:05:35.986000Z</time>
      </trkpt>
      <trkpt lat="48.999387" lon="10.848947">
        <ele>506</ele>
        <time>2025-12-10T15:06:27.152000Z</time>
      </trkpt>
      <trkpt lat="48.999251" lon="10.849053">
        <ele>505.7</ele>
        <time>2025-12-10T15:06:43.145000Z</time>
      </trkpt>
      <trkpt lat="48.999052" lon="10.849082">
        <ele>505.1</ele>
        <time>2025-12-10T15:07:04.244000Z</time>
      </trkpt>
      <trkpt lat="48.998937" lon="10.849059">
        <ele>504.8</ele>
        <time>2025-12-10T15:07:16.594000Z</time>
      </trkpt>
      <trkpt lat="48.998933" lon="10.849261">
        <ele>504.4</ele>
        <time>2025-12-10T15:07:30.687000Z</time>
      </trkpt>
      <trkpt lat="48.998799" lon="10.849107">
        <ele>503.9</ele>
        <time>2025-12-10T15:07:48.405000Z</time>
      </trkpt>
    </trkseg>
  </trk>
</gpx>