<?xml version="1.0" encoding="UTF-8"?>
<gpx xmlns="http://www.topografix.com/GPX/1/1" xmlns:xsi="http://www.w3.org/2001/XMLSchema-instance" xsi:schemaLocation="http://www.topografix.com/GPX/1/1 http://www.topografix.com/GPX/1/1/gpx.xsd" version="1.1" creator="Robert Kampf">
  <metadata>
    <name>Ufer der Würm – Würmarm Runde von Leutstetten</name>
    <desc>Distance: 5.942km, Estimated duration: 1.53h, Elevation up: 26.567808772533112m, Elevation down: 26.881764035781202m, Grade: easy</desc>
    <author>
      <name>Robert Kampf</name>
      <link href="https://www.komoot.de/user/4125295338453">
        <text>View Robert Kampf's Profile on Komoot</text>
      </link>
    </author>
    <link href="https://www.komoot.de/tour/3238645871">
      <text>View tour on Komoot</text>
    </link>
  </metadata>
  <wpt lat="48.03831" lon="11.370364">
    <name>Parking</name>
    <cmt></cmt>
    <desc>Free</desc>
    <src>Komoot</src>
    <type>POI</type>
  </wpt>
  <wpt lat="48.038144" lon="11.370871">
    <ele>598.7</ele>
    <name>View of the Würm River from the bridge</name>
    <cmt>https://d2exd72xrrp1s7.cloudfront.net/www/000/1k7/1g/1gsqo2j8bapzeid0ypmhgvz384hx1dbnz-uhi58018027/0</cmt>
    <desc>Mobilat: Herrlicher Blick auf die Würm und gute Gelegenheit den Fluss zu überqueren.
――――――――――
LandLiebe: einfach mal kurz stehen bleiben und dem Wasser zuschauen - genießen 
:-)
――――――――――
kathrinsworld: Ein  wunderschön idyllischer Abschnitt die Würm entlang.
――――――――――
Niklas: Auch im Winter durchaus einen Ausflug wert. Gut vorbei kommt man hier auf einer Wanderung von Starnberg nach Gauting. Dazu habe ich auch eine Beschreibung auf meiner Website: https://www.adventtour.net/post/wandern-von-starnberg-nach-m%C3%BCnchen-gauting-f%C3%BCrstenried
――――――――――
Tomas [📍Gilching]: Das Würmtahl is zu jeder Jahreszeit richtig schön.
――――――――――
TomB: Schöner Überblick über den Fluss
――――――――――
N.H.71: Sehr schöner Blick über die Würm
――――――――――
Christoph Stoffel Bö: Schöner Blick auf die Würm von der Brücke</desc>
    <src>Komoot</src>
    <link href="https://www.komoot.de/highlight/477800">
      <text>View POI on Komoot</text>
    </link>
    <type>Highlight</type>
  </wpt>
  <wpt lat="48.040509" lon="11.373637">
    <ele>625.7</ele>
    <name>River and forest area in Moore und Wälder der Endmoräne bei Starnberg</name>
    <cmt>https://d2exd72xrrp1s7.cloudfront.net/www/000/1k9/14/14790ri12t7v13zftjsv4q1yc5auy3z7u-uhi83794249/0</cmt>
    <desc>Frank: Biotop im Wald mit 2 Graskarpfen
――――――――――
Alnobbi: Ich mag dieses Stück von der Umrundung des Starnberger Sees besonders gern.
Der Aufenthalt im Biergarten "Gasthaus zum Fischmeister" war entspannend und bot einen tollen Blick auf den See.
――――――――――
HAIBIKE 🇩🇪: wunderbarer Streckenabschnitt mit zahlreichen interessanten Sehenswürdigkeiten</desc>
    <src>Komoot</src>
    <link href="https://www.komoot.de/highlight/7295424">
      <text>View POI on Komoot</text>
    </link>
    <type>Highlight</type>
  </wpt>
  <wpt lat="48.04167" lon="11.372712">
    <ele>579.5</ele>
    <name>Würmtal Riverbank</name>
    <cmt>https://d2exd72xrrp1s7.cloudfront.net/www/000/1k7/1t/1t3jgbkoo6nr21v62b0f8hvkk84l1ogtbu-uhi60288213/0</cmt>
    <desc>Franzl: Auf dem Weg von Starnberg nach München haben wir auch dieses Highlight an der Würm sehr genossen.
――――――――――
🇨🇭Biker: Tolle Picknick Stellen an der Würm
――――――――――
Hanky 🍁: Traumhaftes Tal, idyllischer naturbelassener Bach
――――――――――
Reinhold Koch: Viel Natur, sonntags mit vielen Ausflüglern
――――――――――
Christoph Stoffel Bö: immer wieder schön durch das Würmtal zu laufen oder zu radeln ... mit dem Fahrrad aber lieber unter der Woche und nicht am Wochenende (da ist es recht voll hier)
――――――――――
Jasper: Forsthaus Mühltal,
Abends Club, tagsüber schöner Biergarten umgeben von gesammelten Trödel machen diese Location zu einen authentischen unverwechselbaren Ziel
――――――――――
Chrigi: Sehr schöner Radweg direkt am Wasser in schöner Natur. Toller Ausgleich zur Großstadt.
――――――――――
Dachdenker: Sehr schöner Streckenabschnitt, hier fährst du direkt am Wasser, wer kann, sollte diese Strecke mit einplanen, du wirst begeistert sein. Meine uneingeschränkte Empfehlung.
――――――――――
Hans: Es ist hier sehr schön, allerdings wissen das auch andere. 🙈 Schaut lieber während der Woche vorbei!
――――――――――
Bernhard Botters: Ein traumhafter Ort, ruhig und idyllisch.
――――――――――
Karolina: Wirklich eine super schöne Strecke.
――――――――――
Dr. Hartmut Gaulrapp: Aktuell 30 cm warmes Würmwasser und tolle Algenblüte...
――――――――――
DakenH: Eine tolle Tour durch eine idyllische (Wald und Fluss-) Landschaft, eine sehr abwechslungsreiche Variante dieser Route. Sehr entspannt zu fahren, ein schöner Streckenabschnitt am Wasser, der sich prima und ohne Probleme bzw. ohne weiteren Schwierigkeitsgrad befahren lässt. Natur pur.
――――――――――
🇨🇭Biker: Einfach schön an der Würm ob zu Fuss oder mit dem Rad
――――――――――
Frederik: An der Würm immer sehr schön zu fahren
――――――――――
Monal: So schön hier an der Würm
――――――――――
Angelika Blitzer: fernab der Grossstadt München, herrliche Frühlingsblumen am Wegesrand
――――――――――
Monal: Abenteuer pur und spannend
――――――――――
TOMderKATZE: Sehr idyllisch, aber nicht ganz ohne. Die Bereifung und er Typ des Fahrrads sollten zu diesem Trail passen. Wenn es naß ist, würde ich diesen Trail nicht unbedingt fahren. Besonders anspruchsvoll ist der Weg aber nun auch wieder nicht.
――――――――――
Stefan: Hier ist es sehr schön.
――――――――――
Markus: Schöne Natur und wer Lust hat kann sich auf die ausgeschilderten Trails wagen
――――――――――
Michael &amp; Räubertochter: Würmtal
――――――――――
CatiaS: die Würm ist c.a. 35km lang
――――――――――
drahnierberg: das ist ein schöner Trail</desc>
    <src>Komoot</src>
    <link href="https://www.komoot.de/highlight/840590">
      <text>View POI on Komoot</text>
    </link>
    <type>Highlight</type>
  </wpt>
  <wpt lat="48.04235" lon="11.366643">
    <ele>633.3</ele>
    <name>Riverside Rest Area in Moore und Wälder der Endmoräne bei Starnberg</name>
    <cmt>https://d2exd72xrrp1s7.cloudfront.net/www/000/1k3/1u/1uvi66x0c6bdp10gkby8479z8k2yzpc294-uhi5757121/0</cmt>
    <desc>kathrinsworld: Idylle pur! Schön zum Anhalten, Innehalten und Seele baumeln lassen
――――――――――
〽️Chris〽️: Super zum rasten und die Natur zu genießen
――――――――――
RITTER MARTON 🐑 🐿: ein großer rastplatz
――――――――――
Didi: Schöner Platz, auch zum Baden und schwimmen für Hunde geeignet.</desc>
    <src>Komoot</src>
    <link href="https://www.komoot.de/highlight/704427">
      <text>View POI on Komoot</text>
    </link>
    <type>Highlight</type>
  </wpt>
  <wpt lat="48.055777" lon="11.373807">
    <ele>621.9</ele>
    <name>Sculpture Trail at Kunstateliers Reismühle Gauting</name>
    <cmt>https://d2exd72xrrp1s7.cloudfront.net/www/000/1k6/1h/1hg3nly6b8hn49xe8z37dkja84chxw9lf-uhi55470859/0</cmt>
    <desc>Chris: Die Ateliers sind für Kunstinteressierte bestimmt einen Besuch wert https://geoeffnet.eu/</desc>
    <src>Komoot</src>
    <link href="https://www.komoot.de/highlight/5144874">
      <text>View POI on Komoot</text>
    </link>
    <type>Highlight</type>
  </wpt>
  <wpt lat="48.048573" lon="11.368406">
    <name>Siedlung der Latènezeit</name>
    <cmt></cmt>
    <desc></desc>
    <src>Komoot</src>
    <type>POI</type>
  </wpt>
  <wpt lat="48.04516" lon="11.366011">
    <ele>583.4</ele>
    <name>Beech tree with mangrove-like roots by the river</name>
    <cmt>https://d2exd72xrrp1s7.cloudfront.net/www/000/1k4/1x/1xh9434wfj413ngjcbuc0syc13eh228pk-uhi14847496/0</cmt>
    <desc></desc>
    <src>Komoot</src>
    <link href="https://www.komoot.de/highlight/1546825">
      <text>View POI on Komoot</text>
    </link>
    <type>Highlight</type>
  </wpt>
  <wpt lat="48.042244" lon="11.366125">
    <ele>574.4</ele>
    <name>Würmarm Stream</name>
    <cmt>https://d2exd72xrrp1s7.cloudfront.net/www/000/1k8/14/14gxqadotqfeg12vkji07cv5864xsvydla-uhi70613107/0</cmt>
    <desc></desc>
    <src>Komoot</src>
    <link href="https://www.komoot.de/highlight/6518674">
      <text>View POI on Komoot</text>
    </link>
    <type>Highlight</type>
  </wpt>
  <trk>
    <name>Ufer der Würm – Würmarm Runde von Leutstetten</name>
    <desc>Distance: 5.942km, Estimated duration: 1.53h, Elevation up: 26.567808772533112m, Elevation down: 26.881764035781202m, Grade: easy</desc>
    <link href="https://www.komoot.de/tour/3238645871">
      <text>View tour on Komoot</text>
    </link>
    <trkseg>
      <trkpt lat="48.038393" lon="11.370282">
        <ele>583.2</ele>
        <time>2026-08-28T20:32:14.738000Z</time>
      </trkpt>
      <trkpt lat="48.038489" lon="11.370498">
        <ele>583.2</ele>
        <time>2026-08-28T20:32:32.237000Z</time>
      </trkpt>
      <trkpt lat="48.038275" lon="11.370749">
        <ele>583.1</ele>
        <time>2026-08-28T20:32:59.619000Z</time>
      </trkpt>
      <trkpt lat="48.038247" lon="11.370781">
        <ele>583.1</ele>
        <time>2026-08-28T20:33:03.180000Z</time>
      </trkpt>
      <trkpt lat="48.038132" lon="11.370893">
        <ele>583.1</ele>
        <time>2026-08-28T20:33:16.970000Z</time>
      </trkpt>
      <trkpt lat="48.038072" lon="11.370951">
        <ele>583.1</ele>
        <time>2026-08-28T20:33:24.127000Z</time>
      </trkpt>
      <trkpt lat="48.03815" lon="11.371147">
        <ele>583</ele>
        <time>2026-08-28T20:33:39.446000Z</time>
      </trkpt>
      <trkpt lat="48.038432" lon="11.371743">
        <ele>583</ele>
        <time>2026-08-28T20:34:28.532000Z</time>
      </trkpt>
      <trkpt lat="48.038643" lon="11.37208">
        <ele>583.2</ele>
        <time>2026-08-28T20:35:00.250000Z</time>
      </trkpt>
      <trkpt lat="48.039222" lon="11.372766">
        <ele>583.3</ele>
        <time>2026-08-28T20:36:14.611000Z</time>
      </trkpt>
      <trkpt lat="48.039493" lon="11.373143">
        <ele>583.2</ele>
        <time>2026-08-28T20:36:51.875000Z</time>
      </trkpt>
      <trkpt lat="48.039834" lon="11.373218">
        <ele>583</ele>
        <time>2026-08-28T20:37:26.826000Z</time>
      </trkpt>
      <trkpt lat="48.040055" lon="11.373301">
        <ele>582.8</ele>
        <time>2026-08-28T20:37:50.035000Z</time>
      </trkpt>
      <trkpt lat="48.040251" lon="11.373401">
        <ele>582.6</ele>
        <time>2026-08-28T20:38:11.242000Z</time>
      </trkpt>
      <trkpt lat="48.040343" lon="11.373496">
        <ele>582.4</ele>
        <time>2026-08-28T20:38:22.721000Z</time>
      </trkpt>
      <trkpt lat="48.040496" lon="11.373664">
        <ele>582.1</ele>
        <time>2026-08-28T20:38:42.379000Z</time>
      </trkpt>
      <trkpt lat="48.040534" lon="11.373706">
        <ele>582</ele>
        <time>2026-08-28T20:38:47.325000Z</time>
      </trkpt>
      <trkpt lat="48.040754" lon="11.373888">
        <ele>581.5</ele>
        <time>2026-08-28T20:39:13.567000Z</time>
      </trkpt>
      <trkpt lat="48.040821" lon="11.373904">
        <ele>581.4</ele>
        <time>2026-08-28T20:39:20.582000Z</time>
      </trkpt>
      <trkpt lat="48.040963" lon="11.37381">
        <ele>581.1</ele>
        <time>2026-08-28T20:39:36.712000Z</time>
      </trkpt>
      <trkpt lat="48.041118" lon="11.373611">
        <ele>580.8</ele>
        <time>2026-08-28T20:39:57.766000Z</time>
      </trkpt>
      <trkpt lat="48.041677" lon="11.372721">
        <ele>579.5</ele>
        <time>2026-08-28T20:41:22.180000Z</time>
      </trkpt>
      <trkpt lat="48.042255" lon="11.3718">
        <ele>578</ele>
        <time>2026-08-28T20:42:49.762000Z</time>
      </trkpt>
      <trkpt lat="48.042385" lon="11.371418">
        <ele>577.6</ele>
        <time>2026-08-28T20:43:19.349000Z</time>
      </trkpt>
      <trkpt lat="48.042434" lon="11.37091">
        <ele>577.1</ele>
        <time>2026-08-28T20:43:54.675000Z</time>
      </trkpt>
      <trkpt lat="48.042463" lon="11.370509">
        <ele>576.7</ele>
        <time>2026-08-28T20:44:22.378000Z</time>
      </trkpt>
      <trkpt lat="48.042471" lon="11.369554">
        <ele>576.1</ele>
        <time>2026-08-28T20:45:27.507000Z</time>
      </trkpt>
      <trkpt lat="48.042365" lon="11.368825">
        <ele>575.9</ele>
        <time>2026-08-28T20:46:17.927000Z</time>
      </trkpt>
      <trkpt lat="48.04228" lon="11.36855">
        <ele>575.9</ele>
        <time>2026-08-28T20:46:38.325000Z</time>
      </trkpt>
      <trkpt lat="48.042284" lon="11.368377">
        <ele>575.8</ele>
        <time>2026-08-28T20:46:50.021000Z</time>
      </trkpt>
      <trkpt lat="48.042098" lon="11.367642">
        <ele>575.8</ele>
        <time>2026-08-28T20:47:42.644000Z</time>
      </trkpt>
      <trkpt lat="48.0421" lon="11.367529">
        <ele>575.9</ele>
        <time>2026-08-28T20:47:50.293000Z</time>
      </trkpt>
      <trkpt lat="48.042216" lon="11.367089">
        <ele>576</ele>
        <time>2026-08-28T20:48:22.562000Z</time>
      </trkpt>
      <trkpt lat="48.042357" lon="11.366849">
        <ele>576.3</ele>
        <time>2026-08-28T20:48:44.816000Z</time>
      </trkpt>
      <trkpt lat="48.042415" lon="11.366792">
        <ele>576.4</ele>
        <time>2026-08-28T20:48:52.133000Z</time>
      </trkpt>
      <trkpt lat="48.042518" lon="11.366693">
        <ele>576.6</ele>
        <time>2026-08-28T20:49:05.091000Z</time>
      </trkpt>
      <trkpt lat="48.042668" lon="11.366632">
        <ele>576.9</ele>
        <time>2026-08-28T20:49:21.821000Z</time>
      </trkpt>
      <trkpt lat="48.042763" lon="11.366644">
        <ele>577.1</ele>
        <time>2026-08-28T20:49:32.014000Z</time>
      </trkpt>
      <trkpt lat="48.043011" lon="11.3668">
        <ele>577.7</ele>
        <time>2026-08-28T20:50:01.078000Z</time>
      </trkpt>
      <trkpt lat="48.043599" lon="11.367541">
        <ele>579.3</ele>
        <time>2026-08-28T20:51:23.655000Z</time>
      </trkpt>
      <trkpt lat="48.043754" lon="11.367888">
        <ele>579.7</ele>
        <time>2026-08-28T20:51:53.166000Z</time>
      </trkpt>
      <trkpt lat="48.044381" lon="11.368963">
        <ele>580.8</ele>
        <time>2026-08-28T20:53:32.619000Z</time>
      </trkpt>
      <trkpt lat="48.044572" lon="11.369162">
        <ele>580.9</ele>
        <time>2026-08-28T20:53:56.262000Z</time>
      </trkpt>
      <trkpt lat="48.045086" lon="11.369559">
        <ele>581.1</ele>
        <time>2026-08-28T20:54:54.655000Z</time>
      </trkpt>
      <trkpt lat="48.045299" lon="11.36984">
        <ele>581.1</ele>
        <time>2026-08-28T20:55:23.093000Z</time>
      </trkpt>
      <trkpt lat="48.04585" lon="11.37015">
        <ele>580.7</ele>
        <time>2026-08-28T20:56:22.749000Z</time>
      </trkpt>
      <trkpt lat="48.046743" lon="11.370712">
        <ele>579.4</ele>
        <time>2026-08-28T20:58:02.422000Z</time>
      </trkpt>
      <trkpt lat="48.046968" lon="11.370898">
        <ele>579</ele>
        <time>2026-08-28T20:58:28.996000Z</time>
      </trkpt>
      <trkpt lat="48.047278" lon="11.371094">
        <ele>578.4</ele>
        <time>2026-08-28T20:59:03.963000Z</time>
      </trkpt>
      <trkpt lat="48.047623" lon="11.371206">
        <ele>577.5</ele>
        <time>2026-08-28T20:59:41.121000Z</time>
      </trkpt>
      <trkpt lat="48.0479" lon="11.371319">
        <ele>576.7</ele>
        <time>2026-08-28T21:00:11.519000Z</time>
      </trkpt>
      <trkpt lat="48.048677" lon="11.371482">
        <ele>574.6</ele>
        <time>2026-08-28T21:01:34.317000Z</time>
      </trkpt>
      <trkpt lat="48.048989" lon="11.37149">
        <ele>573.8</ele>
        <time>2026-08-28T21:02:07.090000Z</time>
      </trkpt>
      <trkpt lat="48.049344" lon="11.37142">
        <ele>573.4</ele>
        <time>2026-08-28T21:02:43.963000Z</time>
      </trkpt>
      <trkpt lat="48.049486" lon="11.371392">
        <ele>573.3</ele>
        <time>2026-08-28T21:02:58.424000Z</time>
      </trkpt>
      <trkpt lat="48.049671" lon="11.371412">
        <ele>573.3</ele>
        <time>2026-08-28T21:03:17.077000Z</time>
      </trkpt>
      <trkpt lat="48.049961" lon="11.371502">
        <ele>573.4</ele>
        <time>2026-08-28T21:03:47.059000Z</time>
      </trkpt>
      <trkpt lat="48.050422" lon="11.371777">
        <ele>573.7</ele>
        <time>2026-08-28T21:04:37.894000Z</time>
      </trkpt>
      <trkpt lat="48.050609" lon="11.371837">
        <ele>573.9</ele>
        <time>2026-08-28T21:04:57.546000Z</time>
      </trkpt>
      <trkpt lat="48.050807" lon="11.371944">
        <ele>574</ele>
        <time>2026-08-28T21:05:19.048000Z</time>
      </trkpt>
      <trkpt lat="48.05099" lon="11.372129">
        <ele>574</ele>
        <time>2026-08-28T21:05:41.339000Z</time>
      </trkpt>
      <trkpt lat="48.051355" lon="11.372592">
        <ele>574.2</ele>
        <time>2026-08-28T21:06:29.778000Z</time>
      </trkpt>
      <trkpt lat="48.051546" lon="11.372848">
        <ele>574.3</ele>
        <time>2026-08-28T21:06:55.843000Z</time>
      </trkpt>
      <trkpt lat="48.051816" lon="11.37316">
        <ele>574.6</ele>
        <time>2026-08-28T21:07:31.089000Z</time>
      </trkpt>
      <trkpt lat="48.05202" lon="11.373672">
        <ele>575.3</ele>
        <time>2026-08-28T21:08:13.330000Z</time>
      </trkpt>
      <trkpt lat="48.053064" lon="11.374871">
        <ele>575</ele>
        <time>2026-08-28T21:10:25.614000Z</time>
      </trkpt>
      <trkpt lat="48.053115" lon="11.374882">
        <ele>574.9</ele>
        <time>2026-08-28T21:10:31.136000Z</time>
      </trkpt>
      <trkpt lat="48.053185" lon="11.374895">
        <ele>574.7</ele>
        <time>2026-08-28T21:10:38.559000Z</time>
      </trkpt>
      <trkpt lat="48.053449" lon="11.374803">
        <ele>573.8</ele>
        <time>2026-08-28T21:11:07.461000Z</time>
      </trkpt>
      <trkpt lat="48.053742" lon="11.374748">
        <ele>572.8</ele>
        <time>2026-08-28T21:11:39.182000Z</time>
      </trkpt>
      <trkpt lat="48.053961" lon="11.374818">
        <ele>571.9</ele>
        <time>2026-08-28T21:12:03.376000Z</time>
      </trkpt>
      <trkpt lat="48.054064" lon="11.374927">
        <ele>571.3</ele>
        <time>2026-08-28T21:12:17.251000Z</time>
      </trkpt>
      <trkpt lat="48.054174" lon="11.37511">
        <ele>570.5</ele>
        <time>2026-08-28T21:12:35.359000Z</time>
      </trkpt>
      <trkpt lat="48.054295" lon="11.375388">
        <ele>569.6</ele>
        <time>2026-08-28T21:12:59.263000Z</time>
      </trkpt>
      <trkpt lat="48.054414" lon="11.375654">
        <ele>568.9</ele>
        <time>2026-08-28T21:13:22.106000Z</time>
      </trkpt>
      <trkpt lat="48.054518" lon="11.375802">
        <ele>568.6</ele>
        <time>2026-08-28T21:13:37.181000Z</time>
      </trkpt>
      <trkpt lat="48.054653" lon="11.375937">
        <ele>568.3</ele>
        <time>2026-08-28T21:13:54.115000Z</time>
      </trkpt>
      <trkpt lat="48.05479" lon="11.375982">
        <ele>568</ele>
        <time>2026-08-28T21:14:08.668000Z</time>
      </trkpt>
      <trkpt lat="48.055193" lon="11.376492">
        <ele>567.1</ele>
        <time>2026-08-28T21:15:03.423000Z</time>
      </trkpt>
      <trkpt lat="48.055563" lon="11.376787">
        <ele>566.4</ele>
        <time>2026-08-28T21:15:46.699000Z</time>
      </trkpt>
      <trkpt lat="48.055606" lon="11.376776">
        <ele>566.4</ele>
        <time>2026-08-28T21:15:51.118000Z</time>
      </trkpt>
      <trkpt lat="48.055669" lon="11.3767">
        <ele>566.3</ele>
        <time>2026-08-28T21:15:59.400000Z</time>
      </trkpt>
      <trkpt lat="48.055678" lon="11.376383">
        <ele>566.1</ele>
        <time>2026-08-28T21:16:21.111000Z</time>
      </trkpt>
      <trkpt lat="48.055757" lon="11.376203">
        <ele>566</ele>
        <time>2026-08-28T21:16:35.667000Z</time>
      </trkpt>
      <trkpt lat="48.055817" lon="11.376108">
        <ele>566</ele>
        <time>2026-08-28T21:16:44.478000Z</time>
      </trkpt>
      <trkpt lat="48.055915" lon="11.375981">
        <ele>566</ele>
        <time>2026-08-28T21:16:57.396000Z</time>
      </trkpt>
      <trkpt lat="48.055959" lon="11.375836">
        <ele>566</ele>
        <time>2026-08-28T21:17:08.165000Z</time>
      </trkpt>
      <trkpt lat="48.056052" lon="11.37574">
        <ele>566</ele>
        <time>2026-08-28T21:17:19.679000Z</time>
      </trkpt>
      <trkpt lat="48.056264" lon="11.375684">
        <ele>566.1</ele>
        <time>2026-08-28T21:17:41.634000Z</time>
      </trkpt>
      <trkpt lat="48.056432" lon="11.375446">
        <ele>566.3</ele>
        <time>2026-08-28T21:18:05.274000Z</time>
      </trkpt>
      <trkpt lat="48.056496" lon="11.375335">
        <ele>566.4</ele>
        <time>2026-08-28T21:18:15.502000Z</time>
      </trkpt>
      <trkpt lat="48.056491" lon="11.375236">
        <ele>566.5</ele>
        <time>2026-08-28T21:18:22.455000Z</time>
      </trkpt>
      <trkpt lat="48.056163" lon="11.374723">
        <ele>567.1</ele>
        <time>2026-08-28T21:19:12.193000Z</time>
      </trkpt>
      <trkpt lat="48.056145" lon="11.374673">
        <ele>567.2</ele>
        <time>2026-08-28T21:19:16.176000Z</time>
      </trkpt>
      <trkpt lat="48.05601" lon="11.374298">
        <ele>567.5</ele>
        <time>2026-08-28T21:19:45.697000Z</time>
      </trkpt>
      <trkpt lat="48.055919" lon="11.373817">
        <ele>567.8</ele>
        <time>2026-08-28T21:20:20.300000Z</time>
      </trkpt>
      <trkpt lat="48.055821" lon="11.373811">
        <ele>567.8</ele>
        <time>2026-08-28T21:20:30.341000Z</time>
      </trkpt>
      <trkpt lat="48.055781" lon="11.373791">
        <ele>567.9</ele>
        <time>2026-08-28T21:20:34.654000Z</time>
      </trkpt>
      <trkpt lat="48.055168" lon="11.37348">
        <ele>567.9</ele>
        <time>2026-08-28T21:21:39.475000Z</time>
      </trkpt>
      <trkpt lat="48.054205" lon="11.373084">
        <ele>567.3</ele>
        <time>2026-08-28T21:23:20.638000Z</time>
      </trkpt>
      <trkpt lat="48.05389" lon="11.372923">
        <ele>567.1</ele>
        <time>2026-08-28T21:23:54.240000Z</time>
      </trkpt>
      <trkpt lat="48.053152" lon="11.37218">
        <ele>567.1</ele>
        <time>2026-08-28T21:25:23.389000Z</time>
      </trkpt>
      <trkpt lat="48.052104" lon="11.370992">
        <ele>567.6</ele>
        <time>2026-08-28T21:27:36.745000Z</time>
      </trkpt>
      <trkpt lat="48.051845" lon="11.370486">
        <ele>567.6</ele>
        <time>2026-08-28T21:28:19.374000Z</time>
      </trkpt>
      <trkpt lat="48.051661" lon="11.370292">
        <ele>567.5</ele>
        <time>2026-08-28T21:28:42.063000Z</time>
      </trkpt>
      <trkpt lat="48.051022" lon="11.369893">
        <ele>567.4</ele>
        <time>2026-08-28T21:29:51.620000Z</time>
      </trkpt>
      <trkpt lat="48.050928" lon="11.369796">
        <ele>567.4</ele>
        <time>2026-08-28T21:30:03.061000Z</time>
      </trkpt>
      <trkpt lat="48.050853" lon="11.369694">
        <ele>567.4</ele>
        <time>2026-08-28T21:30:13.289000Z</time>
      </trkpt>
      <trkpt lat="48.050663" lon="11.369527">
        <ele>567.5</ele>
        <time>2026-08-28T21:30:35.426000Z</time>
      </trkpt>
      <trkpt lat="48.050379" lon="11.369329">
        <ele>567.6</ele>
        <time>2026-08-28T21:31:07.404000Z</time>
      </trkpt>
      <trkpt lat="48.049866" lon="11.369066">
        <ele>568.1</ele>
        <time>2026-08-28T21:32:03.504000Z</time>
      </trkpt>
      <trkpt lat="48.049555" lon="11.369065">
        <ele>568.6</ele>
        <time>2026-08-28T21:32:36.104000Z</time>
      </trkpt>
      <trkpt lat="48.049108" lon="11.368995">
        <ele>569.1</ele>
        <time>2026-08-28T21:33:23.027000Z</time>
      </trkpt>
      <trkpt lat="48.048688" lon="11.36888">
        <ele>569.4</ele>
        <time>2026-08-28T21:34:06.821000Z</time>
      </trkpt>
      <trkpt lat="48.048495" lon="11.368794">
        <ele>569.5</ele>
        <time>2026-08-28T21:34:27.432000Z</time>
      </trkpt>
      <trkpt lat="48.048415" lon="11.368759">
        <ele>569.6</ele>
        <time>2026-08-28T21:34:35.989000Z</time>
      </trkpt>
      <trkpt lat="48.048301" lon="11.368751">
        <ele>569.7</ele>
        <time>2026-08-28T21:34:47.753000Z</time>
      </trkpt>
      <trkpt lat="48.048081" lon="11.368665">
        <ele>569.9</ele>
        <time>2026-08-28T21:35:11.498000Z</time>
      </trkpt>
      <trkpt lat="48.047641" lon="11.368433">
        <ele>570.7</ele>
        <time>2026-08-28T21:36:00.761000Z</time>
      </trkpt>
      <trkpt lat="48.047598" lon="11.368355">
        <ele>570.8</ele>
        <time>2026-08-28T21:36:07.993000Z</time>
      </trkpt>
      <trkpt lat="48.047554" lon="11.368277">
        <ele>570.9</ele>
        <time>2026-08-28T21:36:15.170000Z</time>
      </trkpt>
      <trkpt lat="48.047431" lon="11.368183">
        <ele>571.2</ele>
        <time>2026-08-28T21:36:29.930000Z</time>
      </trkpt>
      <trkpt lat="48.047058" lon="11.368023">
        <ele>571.9</ele>
        <time>2026-08-28T21:37:11.332000Z</time>
      </trkpt>
      <trkpt lat="48.046924" lon="11.367998">
        <ele>572.2</ele>
        <time>2026-08-28T21:37:25.878000Z</time>
      </trkpt>
      <trkpt lat="48.046792" lon="11.368031">
        <ele>572.5</ele>
        <time>2026-08-28T21:37:40.239000Z</time>
      </trkpt>
      <trkpt lat="48.04673" lon="11.368004">
        <ele>572.6</ele>
        <time>2026-08-28T21:37:47.193000Z</time>
      </trkpt>
      <trkpt lat="48.046497" lon="11.367655">
        <ele>573.3</ele>
        <time>2026-08-28T21:38:22.824000Z</time>
      </trkpt>
      <trkpt lat="48.046504" lon="11.367571">
        <ele>573.5</ele>
        <time>2026-08-28T21:38:28.912000Z</time>
      </trkpt>
      <trkpt lat="48.046447" lon="11.36733">
        <ele>573.8</ele>
        <time>2026-08-28T21:38:47.086000Z</time>
      </trkpt>
      <trkpt lat="48.046364" lon="11.367235">
        <ele>573.9</ele>
        <time>2026-08-28T21:38:58.050000Z</time>
      </trkpt>
      <trkpt lat="48.046139" lon="11.367081">
        <ele>574.1</ele>
        <time>2026-08-28T21:39:23.587000Z</time>
      </trkpt>
      <trkpt lat="48.045682" lon="11.366562">
        <ele>574.2</ele>
        <time>2026-08-28T21:40:21.111000Z</time>
      </trkpt>
      <trkpt lat="48.045156" lon="11.366021">
        <ele>573.8</ele>
        <time>2026-08-28T21:41:25.789000Z</time>
      </trkpt>
      <trkpt lat="48.045042" lon="11.365903">
        <ele>573.7</ele>
        <time>2026-08-28T21:41:39.816000Z</time>
      </trkpt>
      <trkpt lat="48.044976" lon="11.365805">
        <ele>573.7</ele>
        <time>2026-08-28T21:41:49.237000Z</time>
      </trkpt>
      <trkpt lat="48.044806" lon="11.365658">
        <ele>573.6</ele>
        <time>2026-08-28T21:42:08.997000Z</time>
      </trkpt>
      <trkpt lat="48.044697" lon="11.365462">
        <ele>573.6</ele>
        <time>2026-08-28T21:42:26.025000Z</time>
      </trkpt>
      <trkpt lat="48.044671" lon="11.365261">
        <ele>573.6</ele>
        <time>2026-08-28T21:42:39.845000Z</time>
      </trkpt>
      <trkpt lat="48.044602" lon="11.365094">
        <ele>573.7</ele>
        <time>2026-08-28T21:42:53.143000Z</time>
      </trkpt>
      <trkpt lat="48.044494" lon="11.364937">
        <ele>573.8</ele>
        <time>2026-08-28T21:43:08.609000Z</time>
      </trkpt>
      <trkpt lat="48.044374" lon="11.364798">
        <ele>573.9</ele>
        <time>2026-08-28T21:43:24.284000Z</time>
      </trkpt>
      <trkpt lat="48.044217" lon="11.364698">
        <ele>574</ele>
        <time>2026-08-28T21:43:41.697000Z</time>
      </trkpt>
      <trkpt lat="48.043721" lon="11.363934">
        <ele>574.3</ele>
        <time>2026-08-28T21:44:54.003000Z</time>
      </trkpt>
      <trkpt lat="48.043536" lon="11.363828">
        <ele>574.4</ele>
        <time>2026-08-28T21:45:13.988000Z</time>
      </trkpt>
      <trkpt lat="48.043326" lon="11.363932">
        <ele>574.4</ele>
        <time>2026-08-28T21:45:36.229000Z</time>
      </trkpt>
      <trkpt lat="48.043224" lon="11.364072">
        <ele>574.4</ele>
        <time>2026-08-28T21:45:50.156000Z</time>
      </trkpt>
      <trkpt lat="48.043038" lon="11.364439">
        <ele>574.4</ele>
        <time>2026-08-28T21:46:20.980000Z</time>
      </trkpt>
      <trkpt lat="48.043004" lon="11.364563">
        <ele>574.4</ele>
        <time>2026-08-28T21:46:29.952000Z</time>
      </trkpt>
      <trkpt lat="48.042951" lon="11.364646">
        <ele>574.4</ele>
        <time>2026-08-28T21:46:37.682000Z</time>
      </trkpt>
      <trkpt lat="48.042813" lon="11.364767">
        <ele>574.3</ele>
        <time>2026-08-28T21:46:53.822000Z</time>
      </trkpt>
      <trkpt lat="48.042635" lon="11.365099">
        <ele>574.1</ele>
        <time>2026-08-28T21:47:22.686000Z</time>
      </trkpt>
      <trkpt lat="48.04252" lon="11.365236">
        <ele>574.1</ele>
        <time>2026-08-28T21:47:37.460000Z</time>
      </trkpt>
      <trkpt lat="48.042414" lon="11.365537">
        <ele>574.1</ele>
        <time>2026-08-28T21:48:00.330000Z</time>
      </trkpt>
      <trkpt lat="48.042317" lon="11.365658">
        <ele>574.1</ele>
        <time>2026-08-28T21:48:13.051000Z</time>
      </trkpt>
      <trkpt lat="48.042237" lon="11.365828">
        <ele>574.2</ele>
        <time>2026-08-28T21:48:27.153000Z</time>
      </trkpt>
      <trkpt lat="48.042187" lon="11.366027">
        <ele>574.2</ele>
        <time>2026-08-28T21:48:41.599000Z</time>
      </trkpt>
      <trkpt lat="48.042188" lon="11.366127">
        <ele>574.3</ele>
        <time>2026-08-28T21:48:48.380000Z</time>
      </trkpt>
      <trkpt lat="48.042189" lon="11.366156">
        <ele>574.3</ele>
        <time>2026-08-28T21:48:50.372000Z</time>
      </trkpt>
      <trkpt lat="48.042025" lon="11.366556">
        <ele>574.4</ele>
        <time>2026-08-28T21:49:22.271000Z</time>
      </trkpt>
      <trkpt lat="48.041913" lon="11.366649">
        <ele>574.5</ele>
        <time>2026-08-28T21:49:35.268000Z</time>
      </trkpt>
      <trkpt lat="48.041839" lon="11.366758">
        <ele>574.5</ele>
        <time>2026-08-28T21:49:45.834000Z</time>
      </trkpt>
      <trkpt lat="48.041777" lon="11.366933">
        <ele>574.6</ele>
        <time>2026-08-28T21:49:59.173000Z</time>
      </trkpt>
      <trkpt lat="48.041754" lon="11.367137">
        <ele>574.6</ele>
        <time>2026-08-28T21:50:13.132000Z</time>
      </trkpt>
      <trkpt lat="48.041762" lon="11.367355">
        <ele>574.6</ele>
        <time>2026-08-28T21:50:27.909000Z</time>
      </trkpt>
      <trkpt lat="48.041844" lon="11.367897">
        <ele>574.7</ele>
        <time>2026-08-28T21:51:05.292000Z</time>
      </trkpt>
      <trkpt lat="48.042012" lon="11.368575">
        <ele>574.7</ele>
        <time>2026-08-28T21:51:53.821000Z</time>
      </trkpt>
      <trkpt lat="48.042093" lon="11.369087">
        <ele>574.6</ele>
        <time>2026-08-28T21:52:29.235000Z</time>
      </trkpt>
      <trkpt lat="48.042142" lon="11.369679">
        <ele>574.6</ele>
        <time>2026-08-28T21:53:09.145000Z</time>
      </trkpt>
      <trkpt lat="48.042154" lon="11.3699">
        <ele>574.6</ele>
        <time>2026-08-28T21:53:24.092000Z</time>
      </trkpt>
      <trkpt lat="48.042228" lon="11.370308">
        <ele>574.7</ele>
        <time>2026-08-28T21:53:52.645000Z</time>
      </trkpt>
      <trkpt lat="48.042224" lon="11.370495">
        <ele>574.7</ele>
        <time>2026-08-28T21:54:05.384000Z</time>
      </trkpt>
      <trkpt lat="48.04222" lon="11.370682">
        <ele>574.8</ele>
        <time>2026-08-28T21:54:18.119000Z</time>
      </trkpt>
      <trkpt lat="48.042127" lon="11.370831">
        <ele>574.9</ele>
        <time>2026-08-28T21:54:32.005000Z</time>
      </trkpt>
      <trkpt lat="48.042104" lon="11.371086">
        <ele>575</ele>
        <time>2026-08-28T21:54:49.618000Z</time>
      </trkpt>
      <trkpt lat="48.042127" lon="11.37133">
        <ele>575.1</ele>
        <time>2026-08-28T21:55:06.584000Z</time>
      </trkpt>
      <trkpt lat="48.041821" lon="11.371901">
        <ele>575.7</ele>
        <time>2026-08-28T21:55:57.795000Z</time>
      </trkpt>
      <trkpt lat="48.041697" lon="11.372054">
        <ele>576</ele>
        <time>2026-08-28T21:56:14.870000Z</time>
      </trkpt>
      <trkpt lat="48.041154" lon="11.372447">
        <ele>577.3</ele>
        <time>2026-08-28T21:57:19.807000Z</time>
      </trkpt>
      <trkpt lat="48.041107" lon="11.372453">
        <ele>577.4</ele>
        <time>2026-08-28T21:57:24.847000Z</time>
      </trkpt>
      <trkpt lat="48.040861" lon="11.372325">
        <ele>578</ele>
        <time>2026-08-28T21:57:52.899000Z</time>
      </trkpt>
      <trkpt lat="48.040571" lon="11.372175">
        <ele>578.6</ele>
        <time>2026-08-28T21:58:25.998000Z</time>
      </trkpt>
      <trkpt lat="48.040374" lon="11.372123">
        <ele>579.1</ele>
        <time>2026-08-28T21:58:47.529000Z</time>
      </trkpt>
      <trkpt lat="48.039937" lon="11.372132">
        <ele>580</ele>
        <time>2026-08-28T21:59:34.414000Z</time>
      </trkpt>
      <trkpt lat="48.039449" lon="11.372082">
        <ele>580.8</ele>
        <time>2026-08-28T22:00:26.302000Z</time>
      </trkpt>
      <trkpt lat="48.039272" lon="11.371991">
        <ele>581</ele>
        <time>2026-08-28T22:00:45.729000Z</time>
      </trkpt>
      <trkpt lat="48.039013" lon="11.371935">
        <ele>581.3</ele>
        <time>2026-08-28T22:01:12.970000Z</time>
      </trkpt>
      <trkpt lat="48.038771" lon="11.371657">
        <ele>581.6</ele>
        <time>2026-08-28T22:01:44.614000Z</time>
      </trkpt>
      <trkpt lat="48.038441" lon="11.371113">
        <ele>582.2</ele>
        <time>2026-08-28T22:02:35.777000Z</time>
      </trkpt>
      <trkpt lat="48.038275" lon="11.370749">
        <ele>582.5</ele>
        <time>2026-08-28T22:03:06.396000Z</time>
      </trkpt>
      <trkpt lat="48.038489" lon="11.370498">
        <ele>582.7</ele>
        <time>2026-08-28T22:03:34.666000Z</time>
      </trkpt>
      <trkpt lat="48.038393" lon="11.370282">
        <ele>582.9</ele>
        <time>2026-08-28T22:03:52.699000Z</time>
      </trkpt>
    </trkseg>
  </trk>
</gpx>