<?xml version="1.0" encoding="UTF-8"?>
<gpx xmlns="http://www.topografix.com/GPX/1/1" xmlns:xsi="http://www.w3.org/2001/XMLSchema-instance" xsi:schemaLocation="http://www.topografix.com/GPX/1/1 http://www.topografix.com/GPX/1/1/gpx.xsd" version="1.1" creator="Robert Kampf">
  <metadata>
    <name>View of Großer Alpsee – Uferpromenade Bühl (Alpsee) Runde von Bühl am Alpsee</name>
    <desc>Distance: 4.986km, Estimated duration: 1.48h, Elevation up: 134.34770063371639m, Elevation down: 134.41676729235166m, Grade: easy</desc>
    <author>
      <name>Robert Kampf</name>
      <link href="https://www.komoot.de/user/4125295338453">
        <text>View Robert Kampf's Profile on Komoot</text>
      </link>
    </author>
    <link href="https://www.komoot.de/tour/2694910430">
      <text>View tour on Komoot</text>
    </link>
  </metadata>
  <wpt lat="47.569463" lon="10.192685">
    <name>Bühl, AlpSeeHaus</name>
    <cmt></cmt>
    <desc>Not accessible</desc>
    <src>Komoot</src>
    <type>POI</type>
  </wpt>
  <wpt lat="47.569413" lon="10.193029">
    <ele>726.2</ele>
    <name>Nagelfluhkette Nature Park Center AlpSeeHaus</name>
    <cmt>https://d2exd72xrrp1s7.cloudfront.net/www/000/1k7/r4/r44gv6ucig8v17rurm19lp2wq4l2cjw1p-uhi60330205/0</cmt>
    <desc>Nationale Naturlandschaften: Wenn du den Naturpark Nagelfluhkette an einem Tag entdecken willst, solltest du ins Naturparkzentrum in Immenstadt-Bühl kommen. Dort führt dich eine Erlebnisausstellung durch die Lebensräume Wald, Wasser und Wiese und zeigt dir die vielfältige Tier- und Pflanzenwelt des Schutzgebiets. Eine zweite Ausstellung erklärt dir, warum Grund- und Trinkwasser so wichtig sind. Im Foyer kannst du regionale Spezialitäten wie Käse oder Weißtannen-Pesto kaufen. 

Am Infopoint bekommst du Tipps für spannende Wanderungen durch den Naturpark, der mit seiner einzigartigen Nagelfluh-Gesteinslandschaft und dem Hochgrat als höchstem Berg beeindruckt. 

So lernst du die Schönheit und Besonderheiten des Naturparks Nagelfluhkette ganz einfach kennen! Mehr Informationen gibt es hier: http://www.nagelfluhkette.info.
――――――――――
мσηѕιєυя ωαη∂єяƒℓαηєυя: Das Bühler AlpSeeHaus beherbergt u.a. das Naturparkzentrum Nagelfluhkette. Es hat Sommers täglich geöffnet. 

Mehr unter
https://nagelfluhkette.info/infozentrum
――――――――――
Rilo: Es gibt reichlich Informatiosmaterial und eine kleine Cafeteria
――――――――――
Patrick_Grundler_Oko: hier bekommt man alle Informationen die man für einen gelungen Urlaub braucht
――――――――――
Ralf Peter: und eine Ladestation für E-Bikes gibt es auch.
――――――――――
Burg-Berg: Architektonisch gut gelöst...leider nur von außen gesehen</desc>
    <src>Komoot</src>
    <link href="https://www.komoot.de/highlight/4794479">
      <text>View POI on Komoot</text>
    </link>
    <type>Highlight</type>
  </wpt>
  <wpt lat="47.573444" lon="10.192791">
    <ele>780.6</ele>
    <name>Großer Alpsee</name>
    <cmt>https://d2exd72xrrp1s7.cloudfront.net/www/000/1k9/1l/1llevw87nmrw81a4r7jm59mkh65giuj7nz-uhi90730210/0</cmt>
    <desc>Anna: Sehr empfehlenswert! Wunderschöne Gegend, 
Wasser , Wald, Natur pur…. Es verzaubert uns mit der Pracht und Schönheit für die Augen und Seele !!! 
――――――――――
Anna: Wo bekommt man diese wunderschöne Bild diese wunderschöne Natur mit diesen schönen Farben und Kulissen so zu sehen wie hier … es ist traumhaft schön hier </desc>
    <src>Komoot</src>
    <link href="https://www.komoot.de/highlight/7016263">
      <text>View POI on Komoot</text>
    </link>
    <type>Highlight</type>
  </wpt>
  <wpt lat="47.574682" lon="10.19367">
    <ele>775.5</ele>
    <name>Bench with a View of Großer Alpsee</name>
    <cmt>https://d2exd72xrrp1s7.cloudfront.net/www/000/1k7/bi/bioby6nzp1ty1ejdjv4k5n43k4memo9a2-uhi61789618/0</cmt>
    <desc>Charlie Brown: Schöne Aussichtsbank am See
――――――――――
Tosca Redler+Amira 🥾🐕🌳🌲: Schöne Sitzgelegenheit am Wasser
――――――――――
Patrick_Grundler_Oko: mehrere Bänke laden hier ein um die Aussicht zu genießen.
――――――――――
Rob T 🚶🏿‍♂️🚲: Prachtig groot meer tussen de bergen gelegen, voorzien van een uniek uitzicht op en rondom dit bergmeer. Er zijn voldoende eet- en drinkgelegenheden en er kan vlakbij geparkeerd worden. Als je wilt zijn er ook nog waterfietsen en andere watersport activiteiten te boeken.
――――――――――
Daniela E.: Herrlicher Rundweg, absolut zu empfehlen
――――――――――
Łukasz: Wzdłuż całego jeziora znaleźć można wiele ławek z cudownym widokiem na jezioro i góry</desc>
    <src>Komoot</src>
    <link href="https://www.komoot.de/highlight/5732595">
      <text>View POI on Komoot</text>
    </link>
    <type>Highlight</type>
  </wpt>
  <wpt lat="47.576067" lon="10.193788">
    <ele>711.3</ele>
    <name>Small beach at the Großer Alpsee with a beach bar</name>
    <cmt>https://d2exd72xrrp1s7.cloudfront.net/www/000/1k9/1e/1eyiy1njtedhmvawwjgepb1lu5brvu8y2-uhi84716518/0</cmt>
    <desc>Thomas Kohle: Schöne Tour,  erst durch den Wald,  bergauf und bergab, dann um den See herum und am Ende eine Gastwirtschaft zur Belohnung
――――――――――
Jürgen: Relaxen am See. Füße im Sand. Entspannung pur
――――――――――
CRT: Leckere Cockatils. Entspannende Musik. Sand für das perfekte Strandgefühl!
――――――――――
Patrick_Grundler_Oko: hier kommt man einfach und flach ins Wasser
――――――――――
Lazy &amp; crazy: Man kommt flach ins Wasser, da das Ufer steinig ist, empfehle ich Wasserschuhe, dann ist der Weg nicht so schmerzhaft.
――――――――――
Wolfgang H. 🥾🚴🏼‍♂️👨🏽‍🦯: Gilt für den Schotterweg bzw. Promenadenweg zw. Bahnlinie und Seeufer:

Der Weg ist als Sonderweg für Fußgänger ausgeschildert:
"Das Zeichen 239 zeigt, dass es hier einen Sonderweg für Fußgänger gibt. Für andere Verkehrsteilnehmer, ausgenommen Rad fahrende Kinder bis 10 Jahre, ist die Benutzung des Fußgängerweges verboten."

Also 🚲 schieben!</desc>
    <src>Komoot</src>
    <link href="https://www.komoot.de/highlight/6826568">
      <text>View POI on Komoot</text>
    </link>
    <type>Highlight</type>
  </wpt>
  <wpt lat="47.578568" lon="10.193153">
    <ele>785</ele>
    <name>Bench overlooking the Großer Alpsee</name>
    <cmt>https://d2exd72xrrp1s7.cloudfront.net/www/000/1k5/1g/1gxms602y5u891fuhlj4p4ixy13yscz29p-uhi44099680/0</cmt>
    <desc>Outdoornik: Toller Rastplatz am Alpsee
――――――――――
Susanne: mitten durch die Kuhherde
――――――――――
Patrick_Grundler_Oko: einfach nur herrlich. Ich könnte den ganzen Tag hier verbringen und einfach nur die Natur genießen</desc>
    <src>Komoot</src>
    <link href="https://www.komoot.de/highlight/3928738">
      <text>View POI on Komoot</text>
    </link>
    <type>Highlight</type>
  </wpt>
  <wpt lat="47.579276" lon="10.193651">
    <ele>802</ele>
    <name>View of the Großer Alpsee</name>
    <cmt>https://d2exd72xrrp1s7.cloudfront.net/www/000/1k4/gz/gzxsd7h9ildx1ag8fwylm5dq93kdflveb-uhi25441183/0</cmt>
    <desc>Anna: Eine traumhaft schöne Natur mit Berglandschaft Wasser und das tolle Grün….
――――――――――
Anna: Tolle Ausblicke auf wunderschöne Landschaft. Was will man mehr um sich zu erholen ?!
――――――――――
Armin: Tolle Wanderung mit schöner Aussicht auf die Alpen und den Alpsee
――――――――――
MiGo 62: Auf der Stecke gibt einige herausragende Ausblicke auf See und Allgäuer Alpen. Es sind Blicke die in die Seele gehen und einen die Schönheit der Natur und Kulturlandschaft zeigen !
――――――――――
🌍 Hey Tom: Der Alpsee ist wirklich traumhaft. Diese Wanderrunde empfiehlt sich für Liebhaber des Panoramas!
――――――――――
Juschu ( Jürgen &amp; Vicky): das Alpenpanorama ist einfach nur schön
――――――――――
Christopher: Weg hoch zur Alm mit Blick auf die Alpen und den Alpsee
――――――――――
Christopher: Blick auf den See. Nur die ersten Meter sind was "steiler"
――――――――――
Christopher: Weg hoch zur Alm mit tollem Blick auf den See
――――――――――
Dariusch: Bin begeistert, sehr tolle Wanderung  herzliche Panoramablick auf Alpsee und die Umgebung.
――――――――――
🌍 Hey Tom: Wieder hier. Immer ein tolles Erlebnis. 🔝
――――――――――
🌍 Hey Tom: Diese Aussicht ist wirklich wunderbar.
――――――――――
Christopher: HIER IST NICHT DIE ALM
――――――――――
Bergmoerder: Schöner Blick auf dem Alpsee
――――――――――
Daniel: Sonniger Ausblick auf den großen Alpsee</desc>
    <src>Komoot</src>
    <link href="https://www.komoot.de/highlight/2802302">
      <text>View POI on Komoot</text>
    </link>
    <type>Highlight</type>
  </wpt>
  <wpt lat="47.582222" lon="10.193153">
    <ele>882.6</ele>
    <name>View of Großer Alpsee and mountain panorama</name>
    <cmt>https://d2exd72xrrp1s7.cloudfront.net/www/000/1k8/13/131z2x9clmfo11vx0xyo0geltq4yogw4ur-uhi71482601/0</cmt>
    <desc></desc>
    <src>Komoot</src>
    <link href="https://www.komoot.de/highlight/6572242">
      <text>View POI on Komoot</text>
    </link>
    <type>Highlight</type>
  </wpt>
  <wpt lat="47.571064" lon="10.192161">
    <ele>766</ele>
    <name>Bühl lakeside promenade (Alpsee)</name>
    <cmt>https://d2exd72xrrp1s7.cloudfront.net/www/000/1k7/lr/lrtzjud4132crzowerjlo3oj4ktkaftj-uhi60059497/0</cmt>
    <desc>Hike with Maik⛰️🌲🏃: Boot fahren, schwimmen, radeln, wandern, Eis essen oder einfach nur am See relaxen und die Natur genießen. Hier ist alles möglich.
――――――――――
Armin: Wunderschöne Promenade, an schönen Tagen aber auch sehr voll.
Je weiter man nach hinten oder gar drum herum wandert desto weniger ist los
――――――――――
Anna: Der Alpsee lässt das Herz höher schlagen! In toller Landschaft eingebettet von den Allgäuer Bergen lässt es sich hier sehr gut erholen. Wassersport 💦 Boot fahren 🛶 Segeln ⛵️ schwimmen und Sonnen rund um den See. Natürlich lässt es sich auch toll rund um den See gut Wandern 🥾 und Radfahren 🚴‍♀️.
――――――――――
Armin: Auch eine Umrundung lohnt sich, nach der Promenade direkt am See entlang bis zum Ende ist der Rückweg auf der anderen Seite des Sees zwar bisschen anstrengender weil es durch den Wald eine weile Berg auf Berg ab geht, aber man wird mit einer tollen Aussicht belohnt
――――――――――
Sankt Andreas: zu jeder Tages und Jahreszeit ein beliebtes Ausflugsziel. Man kann schön am See flanieren, den Steg belagern und ausspannen. Es gibt immer etwas zu sehen. Im Sommer kann man gar mit der Santa Maria auf dem Alpsee herum schippern. Nachgebautes altes Segelschiff. Oder man leiht ein Ruderboot aus. Schwimmen im Sommer, Eislaufen im winter. Dazu atemberaubende Natur. Was will man mehr? Eis .... gibts auch und genug andere Einkehrmöglichkeiten.
――――――――――
Bubu7168: Sehr schöne Aussicht über den See auf die Berge
――――――――――
Silvia: Wir waren gleich morgens da. Kaum Menschen unterwegs und man kann die Ruhe am See geniessen.
――――――――――
Outdoorschwoaba (📍Kfurt 🇩🇪): Vom Campingplatz führt eine kleine Treppe zur Promenade.
Kleine Kiesliegefläche mit schönem Ausblick
――――――――――
Rilo: Der stolze Schwan aus Bronze steht an der Einfahrt zum kleinen Bühler Hafen
――――――――――
Johanna: Im Sommer lädt der Große Alpsee zum Baden ein. Entlang des Sees findest du unzählige kleine Buchten, an denen du gemütlich rasten und ins Wasser springen kannst. Größere Liegewiesen, Strände und Badestege gibt es am See ebenfalls. Auch FKK-Freunde finden zwischen Bühl und Trieblings eine Liegewiese, auf der sie entspannen können.
――――――――――
Suse: Der große Alpsee ist ist in beliebtest Segel-, Surf- und Baderevier. Am Steg beim Alpseehaus kann man Ruder- und Tretboote leihen (mit der besonderen Ausstattung Badeboot) für im Mittel 8€ Pro Stunde. Ganz in der Nähe kann man auch Fahrten Piratenkreuzfarten auf der San Loretta buchen. Klettergelegenheit, Spielplatz, Minigolf, Lokalitäten, Campingplatz und Badestrand sind in der Nähe.
――――――――――
Cathrin: Am Nachmittag bei schönem Wetter wahnsinnig überlaufen
――――――――――
Cathrin: Schöner Platz um sein Eis zu genießen. Die Eisdiele ist kurz vor der Brücke 😉
――――――――――
Manfred R.K.: Die Seepromenade lädt zum Flanieren ein mit schönem Blick über den See.
――――――――――
Jürgen Hild: Infos zum Alpsee finden sie hier:
https://www.alpsee-immenstadt.de/alpseegross.html
――――――――――
Jürgen Hild: Hier können Ruder- und Tretboote gemietet werden.
――――――――――
HPT: Neben dem ganzen Bade- und sonstigen Freizeitbetrieb ist am Großen Alpsee eine Bootsfahrt mit der „Lädine“ Santa Maria Loreto sehr empfehlenswert. Das einem mittelalterlichen Lastensegler nachgebaute Personenfahrgastschiff ist von Mitte Mai bis Mitte Oktober für Seerundfahrten im Einsatz.
――――――――――
Petra: Bei schönem Wetter abends wunderschönes  Sonnenuntergangsmotiv!
――――――――――
Suse: Seebad, Alpseehaus, Bootfahren, Segelschule und anderer Atraktionen vorhanden.
――――――――――
Petra: sehr schöner Spaziergang  direkt am Ufer
――――――――――
bububaer: Baden, Plantschen, Eis essen, einfach schön, am besten bei schlechtem Wetter, sonst überlaufen.
――――――――――
JoK: Schönes Ausflugsziel, vor allem im Sommer.
――――――――――
Armin: Traumhafter See, zum Baden zum wandern oder einfach nur zum chillen 😎
――――――――――
Bubu7168: Super schönes klares Wasser</desc>
    <src>Komoot</src>
    <link href="https://www.komoot.de/highlight/128023">
      <text>View POI on Komoot</text>
    </link>
    <type>Highlight</type>
  </wpt>
  <trk>
    <name>View of Großer Alpsee – Uferpromenade Bühl (Alpsee) Runde von Bühl am Alpsee</name>
    <desc>Distance: 4.986km, Estimated duration: 1.48h, Elevation up: 134.34770063371639m, Elevation down: 134.41676729235166m, Grade: easy</desc>
    <link href="https://www.komoot.de/tour/2694910430">
      <text>View tour on Komoot</text>
    </link>
    <trkseg>
      <trkpt lat="47.569438" lon="10.192723">
        <ele>726.2</ele>
        <time>2025-11-23T09:23:44.576000Z</time>
      </trkpt>
      <trkpt lat="47.569494" lon="10.192804">
        <ele>726.2</ele>
        <time>2025-11-23T09:23:52.532000Z</time>
      </trkpt>
      <trkpt lat="47.569391" lon="10.192972">
        <ele>726.1</ele>
        <time>2025-11-23T09:24:07.946000Z</time>
      </trkpt>
      <trkpt lat="47.569494" lon="10.192804">
        <ele>726.1</ele>
        <time>2025-11-23T09:24:23.307000Z</time>
      </trkpt>
      <trkpt lat="47.569569" lon="10.192914">
        <ele>726.1</ele>
        <time>2025-11-23T09:24:33.841000Z</time>
      </trkpt>
      <trkpt lat="47.569636" lon="10.19301">
        <ele>726.1</ele>
        <time>2025-11-23T09:24:43.191000Z</time>
      </trkpt>
      <trkpt lat="47.569667" lon="10.193055">
        <ele>726.1</ele>
        <time>2025-11-23T09:24:47.576000Z</time>
      </trkpt>
      <trkpt lat="47.569705" lon="10.19311">
        <ele>726.1</ele>
        <time>2025-11-23T09:24:52.916000Z</time>
      </trkpt>
      <trkpt lat="47.569791" lon="10.193236">
        <ele>726.1</ele>
        <time>2025-11-23T09:25:04.970000Z</time>
      </trkpt>
      <trkpt lat="47.569837" lon="10.193301">
        <ele>726.1</ele>
        <time>2025-11-23T09:25:11.373000Z</time>
      </trkpt>
      <trkpt lat="47.569898" lon="10.193533">
        <ele>726</ele>
        <time>2025-11-23T09:25:28.380000Z</time>
      </trkpt>
      <trkpt lat="47.570341" lon="10.192883">
        <ele>725.8</ele>
        <time>2025-11-23T09:26:31.118000Z</time>
      </trkpt>
      <trkpt lat="47.570348" lon="10.192872">
        <ele>725.8</ele>
        <time>2025-11-23T09:26:32.156000Z</time>
      </trkpt>
      <trkpt lat="47.570419" lon="10.192769">
        <ele>725.8</ele>
        <time>2025-11-23T09:26:42.121000Z</time>
      </trkpt>
      <trkpt lat="47.570686" lon="10.192373">
        <ele>726</ele>
        <time>2025-11-23T09:27:20.414000Z</time>
      </trkpt>
      <trkpt lat="47.570738" lon="10.192237">
        <ele>726.1</ele>
        <time>2025-11-23T09:27:31.255000Z</time>
      </trkpt>
      <trkpt lat="47.570791" lon="10.192172">
        <ele>726.1</ele>
        <time>2025-11-23T09:27:38.214000Z</time>
      </trkpt>
      <trkpt lat="47.570936" lon="10.192108">
        <ele>726.2</ele>
        <time>2025-11-23T09:27:53.660000Z</time>
      </trkpt>
      <trkpt lat="47.570951" lon="10.192107">
        <ele>726.2</ele>
        <time>2025-11-23T09:27:55.236000Z</time>
      </trkpt>
      <trkpt lat="47.570968" lon="10.192106">
        <ele>726.2</ele>
        <time>2025-11-23T09:27:56.945000Z</time>
      </trkpt>
      <trkpt lat="47.570968" lon="10.192106">
        <ele>726.2</ele>
        <time>2025-11-23T09:27:56.945000Z</time>
      </trkpt>
      <trkpt lat="47.571066" lon="10.192118">
        <ele>726.2</ele>
        <time>2025-11-23T09:28:06.919000Z</time>
      </trkpt>
      <trkpt lat="47.572125" lon="10.192255">
        <ele>726.8</ele>
        <time>2025-11-23T09:29:55.462000Z</time>
      </trkpt>
      <trkpt lat="47.5728" lon="10.192514">
        <ele>727.2</ele>
        <time>2025-11-23T09:31:06.524000Z</time>
      </trkpt>
      <trkpt lat="47.573447" lon="10.192767">
        <ele>727.2</ele>
        <time>2025-11-23T09:32:13.507000Z</time>
      </trkpt>
      <trkpt lat="47.573452" lon="10.192771">
        <ele>727.2</ele>
        <time>2025-11-23T09:32:14.108000Z</time>
      </trkpt>
      <trkpt lat="47.573769" lon="10.193028">
        <ele>726.9</ele>
        <time>2025-11-23T09:32:50.805000Z</time>
      </trkpt>
      <trkpt lat="47.573863" lon="10.193134">
        <ele>726.8</ele>
        <time>2025-11-23T09:33:02.844000Z</time>
      </trkpt>
      <trkpt lat="47.573863" lon="10.193134">
        <ele>726.8</ele>
        <time>2025-11-23T09:33:02.844000Z</time>
      </trkpt>
      <trkpt lat="47.574248" lon="10.193579">
        <ele>726.3</ele>
        <time>2025-11-23T09:33:52.728000Z</time>
      </trkpt>
      <trkpt lat="47.574323" lon="10.193629">
        <ele>726.2</ele>
        <time>2025-11-23T09:34:01.119000Z</time>
      </trkpt>
      <trkpt lat="47.574674" lon="10.193729">
        <ele>725.9</ele>
        <time>2025-11-23T09:34:37.585000Z</time>
      </trkpt>
      <trkpt lat="47.574865" lon="10.193783">
        <ele>725.7</ele>
        <time>2025-11-23T09:34:57.360000Z</time>
      </trkpt>
      <trkpt lat="47.575598" lon="10.194062">
        <ele>725.5</ele>
        <time>2025-11-23T09:36:13.552000Z</time>
      </trkpt>
      <trkpt lat="47.575703" lon="10.194047">
        <ele>725.6</ele>
        <time>2025-11-23T09:36:24.368000Z</time>
      </trkpt>
      <trkpt lat="47.576086" lon="10.193895">
        <ele>725.9</ele>
        <time>2025-11-23T09:37:05.154000Z</time>
      </trkpt>
      <trkpt lat="47.57618" lon="10.193858">
        <ele>726</ele>
        <time>2025-11-23T09:37:15.154000Z</time>
      </trkpt>
      <trkpt lat="47.576261" lon="10.193858">
        <ele>726</ele>
        <time>2025-11-23T09:37:23.596000Z</time>
      </trkpt>
      <trkpt lat="47.576316" lon="10.193897">
        <ele>726.1</ele>
        <time>2025-11-23T09:37:29.899000Z</time>
      </trkpt>
      <trkpt lat="47.576562" lon="10.194241">
        <ele>726.4</ele>
        <time>2025-11-23T09:38:04.852000Z</time>
      </trkpt>
      <trkpt lat="47.57666" lon="10.194329">
        <ele>726.5</ele>
        <time>2025-11-23T09:38:16.693000Z</time>
      </trkpt>
      <trkpt lat="47.576809" lon="10.194348">
        <ele>726.7</ele>
        <time>2025-11-23T09:38:32.156000Z</time>
      </trkpt>
      <trkpt lat="47.57689" lon="10.19432">
        <ele>726.7</ele>
        <time>2025-11-23T09:38:40.725000Z</time>
      </trkpt>
      <trkpt lat="47.577145" lon="10.194012">
        <ele>726.9</ele>
        <time>2025-11-23T09:39:14.225000Z</time>
      </trkpt>
      <trkpt lat="47.577342" lon="10.193725">
        <ele>727</ele>
        <time>2025-11-23T09:39:42.488000Z</time>
      </trkpt>
      <trkpt lat="47.577489" lon="10.193484">
        <ele>727.2</ele>
        <time>2025-11-23T09:40:04.820000Z</time>
      </trkpt>
      <trkpt lat="47.577535" lon="10.19336">
        <ele>727.2</ele>
        <time>2025-11-23T09:40:14.429000Z</time>
      </trkpt>
      <trkpt lat="47.577737" lon="10.192957">
        <ele>727.5</ele>
        <time>2025-11-23T09:40:49.438000Z</time>
      </trkpt>
      <trkpt lat="47.577766" lon="10.1929">
        <ele>727.6</ele>
        <time>2025-11-23T09:40:54.687000Z</time>
      </trkpt>
      <trkpt lat="47.577796" lon="10.192881">
        <ele>727.7</ele>
        <time>2025-11-23T09:40:58.177000Z</time>
      </trkpt>
      <trkpt lat="47.577823" lon="10.192904">
        <ele>727.7</ele>
        <time>2025-11-23T09:41:01.487000Z</time>
      </trkpt>
      <trkpt lat="47.577905" lon="10.19298">
        <ele>728</ele>
        <time>2025-11-23T09:41:12.004000Z</time>
      </trkpt>
      <trkpt lat="47.577912" lon="10.193019">
        <ele>728</ele>
        <time>2025-11-23T09:41:14.963000Z</time>
      </trkpt>
      <trkpt lat="47.577819" lon="10.193284">
        <ele>728.7</ele>
        <time>2025-11-23T09:41:37.358000Z</time>
      </trkpt>
      <trkpt lat="47.577814" lon="10.193329">
        <ele>728.8</ele>
        <time>2025-11-23T09:41:40.900000Z</time>
      </trkpt>
      <trkpt lat="47.577842" lon="10.193376">
        <ele>729</ele>
        <time>2025-11-23T09:41:45.739000Z</time>
      </trkpt>
      <trkpt lat="47.577923" lon="10.193218">
        <ele>729.7</ele>
        <time>2025-11-23T09:42:01.424000Z</time>
      </trkpt>
      <trkpt lat="47.577979" lon="10.193049">
        <ele>730.4</ele>
        <time>2025-11-23T09:42:16.744000Z</time>
      </trkpt>
      <trkpt lat="47.578092" lon="10.19312">
        <ele>731.3</ele>
        <time>2025-11-23T09:42:31.970000Z</time>
      </trkpt>
      <trkpt lat="47.578092" lon="10.19312">
        <ele>731.3</ele>
        <time>2025-11-23T09:42:31.970000Z</time>
      </trkpt>
      <trkpt lat="47.578315" lon="10.193224">
        <ele>733.4</ele>
        <time>2025-11-23T09:43:02.516000Z</time>
      </trkpt>
      <trkpt lat="47.578378" lon="10.193224">
        <ele>734.1</ele>
        <time>2025-11-23T09:43:11.176000Z</time>
      </trkpt>
      <trkpt lat="47.578565" lon="10.193137">
        <ele>736.5</ele>
        <time>2025-11-23T09:43:39.405000Z</time>
      </trkpt>
      <trkpt lat="47.57861" lon="10.193116">
        <ele>737.1</ele>
        <time>2025-11-23T09:43:46.588000Z</time>
      </trkpt>
      <trkpt lat="47.578724" lon="10.193115">
        <ele>738.6</ele>
        <time>2025-11-23T09:44:04.285000Z</time>
      </trkpt>
      <trkpt lat="47.578904" lon="10.19335">
        <ele>741.9</ele>
        <time>2025-11-23T09:44:41.539000Z</time>
      </trkpt>
      <trkpt lat="47.579143" lon="10.19342">
        <ele>745.4</ele>
        <time>2025-11-23T09:45:20.350000Z</time>
      </trkpt>
      <trkpt lat="47.579285" lon="10.193637">
        <ele>748.4</ele>
        <time>2025-11-23T09:45:53.895000Z</time>
      </trkpt>
      <trkpt lat="47.5794" lon="10.193813">
        <ele>751.1</ele>
        <time>2025-11-23T09:46:21.972000Z</time>
      </trkpt>
      <trkpt lat="47.579604" lon="10.193635">
        <ele>755</ele>
        <time>2025-11-23T09:47:03.643000Z</time>
      </trkpt>
      <trkpt lat="47.57963" lon="10.193586">
        <ele>755.7</ele>
        <time>2025-11-23T09:47:11.211000Z</time>
      </trkpt>
      <trkpt lat="47.57963" lon="10.193483">
        <ele>757</ele>
        <time>2025-11-23T09:47:23.870000Z</time>
      </trkpt>
      <trkpt lat="47.579718" lon="10.193293">
        <ele>759.7</ele>
        <time>2025-11-23T09:47:52.147000Z</time>
      </trkpt>
      <trkpt lat="47.579741" lon="10.19318">
        <ele>761.1</ele>
        <time>2025-11-23T09:48:06.761000Z</time>
      </trkpt>
      <trkpt lat="47.579761" lon="10.193089">
        <ele>762.2</ele>
        <time>2025-11-23T09:48:18.575000Z</time>
      </trkpt>
      <trkpt lat="47.57978" lon="10.193006">
        <ele>763.3</ele>
        <time>2025-11-23T09:48:29.316000Z</time>
      </trkpt>
      <trkpt lat="47.579978" lon="10.19246">
        <ele>770.7</ele>
        <time>2025-11-23T09:49:46.063000Z</time>
      </trkpt>
      <trkpt lat="47.580104" lon="10.192262">
        <ele>773.7</ele>
        <time>2025-11-23T09:50:17.983000Z</time>
      </trkpt>
      <trkpt lat="47.580139" lon="10.192012">
        <ele>776.5</ele>
        <time>2025-11-23T09:50:47.810000Z</time>
      </trkpt>
      <trkpt lat="47.580283" lon="10.191493">
        <ele>783.5</ele>
        <time>2025-11-23T09:51:58.615000Z</time>
      </trkpt>
      <trkpt lat="47.58034" lon="10.191372">
        <ele>785.4</ele>
        <time>2025-11-23T09:52:17.921000Z</time>
      </trkpt>
      <trkpt lat="47.580412" lon="10.191321">
        <ele>787</ele>
        <time>2025-11-23T09:52:33.565000Z</time>
      </trkpt>
      <trkpt lat="47.580444" lon="10.191334">
        <ele>787.6</ele>
        <time>2025-11-23T09:52:40.058000Z</time>
      </trkpt>
      <trkpt lat="47.58046" lon="10.191408">
        <ele>788.6</ele>
        <time>2025-11-23T09:52:50.289000Z</time>
      </trkpt>
      <trkpt lat="47.58046" lon="10.191643">
        <ele>791.8</ele>
        <time>2025-11-23T09:53:21.642000Z</time>
      </trkpt>
      <trkpt lat="47.580483" lon="10.191782">
        <ele>793.8</ele>
        <time>2025-11-23T09:53:40.870000Z</time>
      </trkpt>
      <trkpt lat="47.580951" lon="10.192861">
        <ele>810.8</ele>
        <time>2025-11-23T09:56:30.348000Z</time>
      </trkpt>
      <trkpt lat="47.581184" lon="10.19309">
        <ele>816.1</ele>
        <time>2025-11-23T09:57:24.097000Z</time>
      </trkpt>
      <trkpt lat="47.581283" lon="10.193145">
        <ele>818.1</ele>
        <time>2025-11-23T09:57:44.464000Z</time>
      </trkpt>
      <trkpt lat="47.581434" lon="10.193196">
        <ele>821</ele>
        <time>2025-11-23T09:58:13.788000Z</time>
      </trkpt>
      <trkpt lat="47.581617" lon="10.19319">
        <ele>824.3</ele>
        <time>2025-11-23T09:58:47.345000Z</time>
      </trkpt>
      <trkpt lat="47.581928" lon="10.193181">
        <ele>829.5</ele>
        <time>2025-11-23T09:59:42.010000Z</time>
      </trkpt>
      <trkpt lat="47.582068" lon="10.193233">
        <ele>831.7</ele>
        <time>2025-11-23T10:00:06.218000Z</time>
      </trkpt>
      <trkpt lat="47.582226" lon="10.193197">
        <ele>834</ele>
        <time>2025-11-23T10:00:32.023000Z</time>
      </trkpt>
      <trkpt lat="47.582498" lon="10.193136">
        <ele>837.6</ele>
        <time>2025-11-23T10:01:13.497000Z</time>
      </trkpt>
      <trkpt lat="47.582702" lon="10.193222">
        <ele>840.1</ele>
        <time>2025-11-23T10:01:43.642000Z</time>
      </trkpt>
      <trkpt lat="47.582945" lon="10.193279">
        <ele>842.9</ele>
        <time>2025-11-23T10:02:17.707000Z</time>
      </trkpt>
      <trkpt lat="47.583449" lon="10.193239">
        <ele>848.1</ele>
        <time>2025-11-23T10:03:25.545000Z</time>
      </trkpt>
      <trkpt lat="47.583803" lon="10.193384">
        <ele>851.3</ele>
        <time>2025-11-23T10:04:13.368000Z</time>
      </trkpt>
      <trkpt lat="47.583993" lon="10.193428">
        <ele>852.9</ele>
        <time>2025-11-23T10:04:37.840000Z</time>
      </trkpt>
      <trkpt lat="47.584177" lon="10.193438">
        <ele>854.1</ele>
        <time>2025-11-23T10:05:00.539000Z</time>
      </trkpt>
      <trkpt lat="47.58445" lon="10.193325">
        <ele>855.5</ele>
        <time>2025-11-23T10:05:33.853000Z</time>
      </trkpt>
      <trkpt lat="47.584472" lon="10.193647">
        <ele>856.2</ele>
        <time>2025-11-23T10:05:57.916000Z</time>
      </trkpt>
      <trkpt lat="47.584492" lon="10.194033">
        <ele>856.5</ele>
        <time>2025-11-23T10:06:25.187000Z</time>
      </trkpt>
      <trkpt lat="47.584492" lon="10.194202">
        <ele>856.5</ele>
        <time>2025-11-23T10:06:36.614000Z</time>
      </trkpt>
      <trkpt lat="47.584409" lon="10.194007">
        <ele>856.3</ele>
        <time>2025-11-23T10:06:52.587000Z</time>
      </trkpt>
      <trkpt lat="47.584295" lon="10.193821">
        <ele>855.9</ele>
        <time>2025-11-23T10:07:10.347000Z</time>
      </trkpt>
      <trkpt lat="47.58416" lon="10.193668">
        <ele>855.3</ele>
        <time>2025-11-23T10:07:28.498000Z</time>
      </trkpt>
      <trkpt lat="47.583994" lon="10.193593">
        <ele>854.6</ele>
        <time>2025-11-23T10:07:47.327000Z</time>
      </trkpt>
      <trkpt lat="47.583717" lon="10.193536">
        <ele>853.3</ele>
        <time>2025-11-23T10:08:18.010000Z</time>
      </trkpt>
      <trkpt lat="47.583622" lon="10.193516">
        <ele>852.8</ele>
        <time>2025-11-23T10:08:28.602000Z</time>
      </trkpt>
      <trkpt lat="47.583535" lon="10.193537">
        <ele>852.3</ele>
        <time>2025-11-23T10:08:38.394000Z</time>
      </trkpt>
      <trkpt lat="47.583486" lon="10.193598">
        <ele>851.9</ele>
        <time>2025-11-23T10:08:45.476000Z</time>
      </trkpt>
      <trkpt lat="47.583422" lon="10.19383">
        <ele>851</ele>
        <time>2025-11-23T10:09:04.273000Z</time>
      </trkpt>
      <trkpt lat="47.583316" lon="10.194649">
        <ele>848.5</ele>
        <time>2025-11-23T10:10:05.631000Z</time>
      </trkpt>
      <trkpt lat="47.583189" lon="10.196197">
        <ele>845.2</ele>
        <time>2025-11-23T10:11:57.710000Z</time>
      </trkpt>
      <trkpt lat="47.58317" lon="10.197044">
        <ele>843.2</ele>
        <time>2025-11-23T10:12:59.048000Z</time>
      </trkpt>
      <trkpt lat="47.583188" lon="10.198177">
        <ele>840.1</ele>
        <time>2025-11-23T10:14:21.981000Z</time>
      </trkpt>
      <trkpt lat="47.58316" lon="10.19896">
        <ele>837.9</ele>
        <time>2025-11-23T10:15:19.361000Z</time>
      </trkpt>
      <trkpt lat="47.583105" lon="10.199279">
        <ele>837</ele>
        <time>2025-11-23T10:15:43.471000Z</time>
      </trkpt>
      <trkpt lat="47.583045" lon="10.199491">
        <ele>836.3</ele>
        <time>2025-11-23T10:16:00.272000Z</time>
      </trkpt>
      <trkpt lat="47.58295" lon="10.199651">
        <ele>835.7</ele>
        <time>2025-11-23T10:16:15.885000Z</time>
      </trkpt>
      <trkpt lat="47.582792" lon="10.199803">
        <ele>834.9</ele>
        <time>2025-11-23T10:16:36.356000Z</time>
      </trkpt>
      <trkpt lat="47.582607" lon="10.199983">
        <ele>834</ele>
        <time>2025-11-23T10:17:00.452000Z</time>
      </trkpt>
      <trkpt lat="47.582497" lon="10.200044">
        <ele>833.5</ele>
        <time>2025-11-23T10:17:13.216000Z</time>
      </trkpt>
      <trkpt lat="47.581809" lon="10.200223">
        <ele>830.2</ele>
        <time>2025-11-23T10:18:29.771000Z</time>
      </trkpt>
      <trkpt lat="47.581564" lon="10.200319">
        <ele>828.9</ele>
        <time>2025-11-23T10:18:57.848000Z</time>
      </trkpt>
      <trkpt lat="47.581393" lon="10.20045">
        <ele>827.7</ele>
        <time>2025-11-23T10:19:19.367000Z</time>
      </trkpt>
      <trkpt lat="47.581213" lon="10.200666">
        <ele>826.3</ele>
        <time>2025-11-23T10:19:45.483000Z</time>
      </trkpt>
      <trkpt lat="47.581045" lon="10.200988">
        <ele>824.4</ele>
        <time>2025-11-23T10:20:16.709000Z</time>
      </trkpt>
      <trkpt lat="47.580904" lon="10.201432">
        <ele>821.8</ele>
        <time>2025-11-23T10:20:54.957000Z</time>
      </trkpt>
      <trkpt lat="47.58082" lon="10.201818">
        <ele>819.3</ele>
        <time>2025-11-23T10:21:27.417000Z</time>
      </trkpt>
      <trkpt lat="47.58068" lon="10.202224">
        <ele>816.2</ele>
        <time>2025-11-23T10:22:04.266000Z</time>
      </trkpt>
      <trkpt lat="47.580514" lon="10.202146">
        <ele>814.4</ele>
        <time>2025-11-23T10:22:25.317000Z</time>
      </trkpt>
      <trkpt lat="47.580398" lon="10.202246">
        <ele>813</ele>
        <time>2025-11-23T10:22:41.491000Z</time>
      </trkpt>
      <trkpt lat="47.580223" lon="10.202315">
        <ele>811</ele>
        <time>2025-11-23T10:23:03.563000Z</time>
      </trkpt>
      <trkpt lat="47.580086" lon="10.202267">
        <ele>809.4</ele>
        <time>2025-11-23T10:23:20.679000Z</time>
      </trkpt>
      <trkpt lat="47.579885" lon="10.201988">
        <ele>806.2</ele>
        <time>2025-11-23T10:23:54.536000Z</time>
      </trkpt>
      <trkpt lat="47.579428" lon="10.200683">
        <ele>793.3</ele>
        <time>2025-11-23T10:25:59Z</time>
      </trkpt>
      <trkpt lat="47.579304" lon="10.200411">
        <ele>790.1</ele>
        <time>2025-11-23T10:26:27.286000Z</time>
      </trkpt>
      <trkpt lat="47.579124" lon="10.200161">
        <ele>786.3</ele>
        <time>2025-11-23T10:26:59.315000Z</time>
      </trkpt>
      <trkpt lat="47.578682" lon="10.199896">
        <ele>778.2</ele>
        <time>2025-11-23T10:28:02.771000Z</time>
      </trkpt>
      <trkpt lat="47.57848" lon="10.199713">
        <ele>773.9</ele>
        <time>2025-11-23T10:28:35.818000Z</time>
      </trkpt>
      <trkpt lat="47.578051" lon="10.198961">
        <ele>761.7</ele>
        <time>2025-11-23T10:30:08.389000Z</time>
      </trkpt>
      <trkpt lat="47.577882" lon="10.198576">
        <ele>756.2</ele>
        <time>2025-11-23T10:30:50.707000Z</time>
      </trkpt>
      <trkpt lat="47.577908" lon="10.19751">
        <ele>745.8</ele>
        <time>2025-11-23T10:32:22.783000Z</time>
      </trkpt>
      <trkpt lat="47.577919" lon="10.197043">
        <ele>742.1</ele>
        <time>2025-11-23T10:33:01.484000Z</time>
      </trkpt>
      <trkpt lat="47.577978" lon="10.196891">
        <ele>740.9</ele>
        <time>2025-11-23T10:33:15.724000Z</time>
      </trkpt>
      <trkpt lat="47.578079" lon="10.196858">
        <ele>739.9</ele>
        <time>2025-11-23T10:33:28.108000Z</time>
      </trkpt>
      <trkpt lat="47.578142" lon="10.196793">
        <ele>739.1</ele>
        <time>2025-11-23T10:33:37.312000Z</time>
      </trkpt>
      <trkpt lat="47.578185" lon="10.196669">
        <ele>738.3</ele>
        <time>2025-11-23T10:33:48.352000Z</time>
      </trkpt>
      <trkpt lat="47.578085" lon="10.196342">
        <ele>736.2</ele>
        <time>2025-11-23T10:34:16.741000Z</time>
      </trkpt>
      <trkpt lat="47.578085" lon="10.196342">
        <ele>736.2</ele>
        <time>2025-11-23T10:34:16.741000Z</time>
      </trkpt>
      <trkpt lat="47.577597" lon="10.196031">
        <ele>732.8</ele>
        <time>2025-11-23T10:35:16.778000Z</time>
      </trkpt>
      <trkpt lat="47.577318" lon="10.195766">
        <ele>731.2</ele>
        <time>2025-11-23T10:35:53.079000Z</time>
      </trkpt>
      <trkpt lat="47.577219" lon="10.195583">
        <ele>730.5</ele>
        <time>2025-11-23T10:36:10.559000Z</time>
      </trkpt>
      <trkpt lat="47.576796" lon="10.19481">
        <ele>728.1</ele>
        <time>2025-11-23T10:37:22.558000Z</time>
      </trkpt>
      <trkpt lat="47.576674" lon="10.194934">
        <ele>727.8</ele>
        <time>2025-11-23T10:37:38.080000Z</time>
      </trkpt>
      <trkpt lat="47.576644" lon="10.194877">
        <ele>727.7</ele>
        <time>2025-11-23T10:37:43.172000Z</time>
      </trkpt>
      <trkpt lat="47.576719" lon="10.194798">
        <ele>727.5</ele>
        <time>2025-11-23T10:37:52.768000Z</time>
      </trkpt>
      <trkpt lat="47.576729" lon="10.194761">
        <ele>727.4</ele>
        <time>2025-11-23T10:37:55.529000Z</time>
      </trkpt>
      <trkpt lat="47.5767" lon="10.194702">
        <ele>727.4</ele>
        <time>2025-11-23T10:38:00.616000Z</time>
      </trkpt>
      <trkpt lat="47.576642" lon="10.194587">
        <ele>727.2</ele>
        <time>2025-11-23T10:38:10.685000Z</time>
      </trkpt>
      <trkpt lat="47.576631" lon="10.194535">
        <ele>727.1</ele>
        <time>2025-11-23T10:38:14.533000Z</time>
      </trkpt>
      <trkpt lat="47.57666" lon="10.194329">
        <ele>726.9</ele>
        <time>2025-11-23T10:38:29.169000Z</time>
      </trkpt>
      <trkpt lat="47.576562" lon="10.194241">
        <ele>726.7</ele>
        <time>2025-11-23T10:38:40.960000Z</time>
      </trkpt>
      <trkpt lat="47.576316" lon="10.193897">
        <ele>726.3</ele>
        <time>2025-11-23T10:39:15.764000Z</time>
      </trkpt>
      <trkpt lat="47.576261" lon="10.193858">
        <ele>726.2</ele>
        <time>2025-11-23T10:39:22.019000Z</time>
      </trkpt>
      <trkpt lat="47.57618" lon="10.193858">
        <ele>726.1</ele>
        <time>2025-11-23T10:39:30.417000Z</time>
      </trkpt>
      <trkpt lat="47.575703" lon="10.194047">
        <ele>725.6</ele>
        <time>2025-11-23T10:40:20.884000Z</time>
      </trkpt>
      <trkpt lat="47.575598" lon="10.194062">
        <ele>725.5</ele>
        <time>2025-11-23T10:40:31.612000Z</time>
      </trkpt>
      <trkpt lat="47.574865" lon="10.193783">
        <ele>725.7</ele>
        <time>2025-11-23T10:41:48.131000Z</time>
      </trkpt>
      <trkpt lat="47.574323" lon="10.193629">
        <ele>726.2</ele>
        <time>2025-11-23T10:42:45.099000Z</time>
      </trkpt>
      <trkpt lat="47.574248" lon="10.193579">
        <ele>726.3</ele>
        <time>2025-11-23T10:42:53.611000Z</time>
      </trkpt>
      <trkpt lat="47.573863" lon="10.193134">
        <ele>726.8</ele>
        <time>2025-11-23T10:43:44.221000Z</time>
      </trkpt>
      <trkpt lat="47.573863" lon="10.193134">
        <ele>726.8</ele>
        <time>2025-11-23T10:43:44.221000Z</time>
      </trkpt>
      <trkpt lat="47.573769" lon="10.193028">
        <ele>726.9</ele>
        <time>2025-11-23T10:43:56.433000Z</time>
      </trkpt>
      <trkpt lat="47.573447" lon="10.192767">
        <ele>727.2</ele>
        <time>2025-11-23T10:44:34.104000Z</time>
      </trkpt>
      <trkpt lat="47.5728" lon="10.192514">
        <ele>727.2</ele>
        <time>2025-11-23T10:45:41.132000Z</time>
      </trkpt>
      <trkpt lat="47.572125" lon="10.192255">
        <ele>726.8</ele>
        <time>2025-11-23T10:46:51.680000Z</time>
      </trkpt>
      <trkpt lat="47.571066" lon="10.192118">
        <ele>726.2</ele>
        <time>2025-11-23T10:48:39.314000Z</time>
      </trkpt>
      <trkpt lat="47.570968" lon="10.192106">
        <ele>726.2</ele>
        <time>2025-11-23T10:48:49.237000Z</time>
      </trkpt>
      <trkpt lat="47.570968" lon="10.192106">
        <ele>726.2</ele>
        <time>2025-11-23T10:48:49.237000Z</time>
      </trkpt>
      <trkpt lat="47.570951" lon="10.192107">
        <ele>726.2</ele>
        <time>2025-11-23T10:48:50.931000Z</time>
      </trkpt>
      <trkpt lat="47.570936" lon="10.192108">
        <ele>726.2</ele>
        <time>2025-11-23T10:48:52.493000Z</time>
      </trkpt>
      <trkpt lat="47.570791" lon="10.192172">
        <ele>726.1</ele>
        <time>2025-11-23T10:49:07.824000Z</time>
      </trkpt>
      <trkpt lat="47.570738" lon="10.192237">
        <ele>726.1</ele>
        <time>2025-11-23T10:49:14.728000Z</time>
      </trkpt>
      <trkpt lat="47.570686" lon="10.192373">
        <ele>726</ele>
        <time>2025-11-23T10:49:25.465000Z</time>
      </trkpt>
      <trkpt lat="47.570419" lon="10.192769">
        <ele>725.8</ele>
        <time>2025-11-23T10:50:03.528000Z</time>
      </trkpt>
      <trkpt lat="47.570348" lon="10.192872">
        <ele>725.8</ele>
        <time>2025-11-23T10:50:13.482000Z</time>
      </trkpt>
      <trkpt lat="47.570341" lon="10.192883">
        <ele>725.8</ele>
        <time>2025-11-23T10:50:14.518000Z</time>
      </trkpt>
      <trkpt lat="47.569898" lon="10.193533">
        <ele>726</ele>
        <time>2025-11-23T10:51:17.676000Z</time>
      </trkpt>
      <trkpt lat="47.569837" lon="10.193301">
        <ele>726.1</ele>
        <time>2025-11-23T10:51:34.775000Z</time>
      </trkpt>
      <trkpt lat="47.569791" lon="10.193236">
        <ele>726.1</ele>
        <time>2025-11-23T10:51:41.209000Z</time>
      </trkpt>
      <trkpt lat="47.569705" lon="10.19311">
        <ele>726.1</ele>
        <time>2025-11-23T10:51:53.278000Z</time>
      </trkpt>
      <trkpt lat="47.569667" lon="10.193055">
        <ele>726.1</ele>
        <time>2025-11-23T10:51:58.627000Z</time>
      </trkpt>
      <trkpt lat="47.569636" lon="10.19301">
        <ele>726.1</ele>
        <time>2025-11-23T10:52:02.998000Z</time>
      </trkpt>
      <trkpt lat="47.569569" lon="10.192914">
        <ele>726.1</ele>
        <time>2025-11-23T10:52:12.349000Z</time>
      </trkpt>
      <trkpt lat="47.569494" lon="10.192804">
        <ele>726.1</ele>
        <time>2025-11-23T10:52:22.881000Z</time>
      </trkpt>
      <trkpt lat="47.569438" lon="10.192723">
        <ele>726.2</ele>
        <time>2025-11-23T10:52:30.818000Z</time>
      </trkpt>
    </trkseg>
  </trk>
</gpx>