<?xml version="1.0" encoding="UTF-8"?>
<gpx xmlns="http://www.topografix.com/GPX/1/1" xmlns:xsi="http://www.w3.org/2001/XMLSchema-instance" xsi:schemaLocation="http://www.topografix.com/GPX/1/1 http://www.topografix.com/GPX/1/1/gpx.xsd" version="1.1" creator="Robert Kampf">
  <metadata>
    <name>Wanderrunde von Altenkünsberg</name>
    <desc>Distance: 5.222km, Estimated duration: 1.39h, Elevation up: 55.589424190591615m, Elevation down: 54.92355295615664m, Grade: easy</desc>
    <author>
      <name>Robert Kampf</name>
      <link href="https://www.komoot.de/user/4125295338453">
        <text>View Robert Kampf's Profile on Komoot</text>
      </link>
    </author>
    <link href="https://www.komoot.de/tour/3191154318">
      <text>View tour on Komoot</text>
    </link>
  </metadata>
  <wpt lat="49.873482" lon="11.624145">
    <ele>490.4</ele>
    <name>Millstone Rest Area Near Hagenohe</name>
    <cmt>https://d2exd72xrrp1s7.cloudfront.net/www/000/1k6/1n/1n50fpj0hlvncxg944ttziqkr44e354n8-uhi48157860/0</cmt>
    <desc>Gerhard 👣 ( Barfuß Wanderer ): Den Rastplatz gab's vor 50 Jahren schon - und so schaut er auch aus! Einen Geocache gibt's hier auch.
Update 2024: Der Rastplatz wurde renoviert
――――――――――
Gehlee: Hat schon bessere Zeiten gesehen und müsste mal auf Vordermann gebracht werden :o)
――――――――――
Gehlee: Wie es scheint, hat sich jemand gekümmert. Die Sitzflächen wurden erneuert und das Gestrüpp entfernt. Liegt an einer wenig befahrenen Strasse und bietet schönen Ausblick.</desc>
    <src>Komoot</src>
    <link href="https://www.komoot.de/highlight/4242447">
      <text>View POI on Komoot</text>
    </link>
    <type>Highlight</type>
  </wpt>
  <wpt lat="49.88484" lon="11.642497">
    <ele>527.6</ele>
    <name>Playground and parking lot at the Emtmannsberg sports home</name>
    <cmt>https://d2exd72xrrp1s7.cloudfront.net/www/000/1k8/h8/h8ojdy2tzt8j1ajugt800gtic4v7yycfw-uhi68698036/0</cmt>
    <desc>Mo: Super Parkplatz für Wanderungen und Radtouren </desc>
    <src>Komoot</src>
    <link href="https://www.komoot.de/highlight/6395800">
      <text>View POI on Komoot</text>
    </link>
    <type>Highlight</type>
  </wpt>
  <trk>
    <name>Wanderrunde von Altenkünsberg</name>
    <desc>Distance: 5.222km, Estimated duration: 1.39h, Elevation up: 55.589424190591615m, Elevation down: 54.92355295615664m, Grade: easy</desc>
    <link href="https://www.komoot.de/tour/3191154318">
      <text>View tour on Komoot</text>
    </link>
    <trkseg>
      <trkpt lat="49.872906" lon="11.638147">
        <ele>479.6</ele>
        <time>2026-08-11T15:22:07.003000Z</time>
      </trkpt>
      <trkpt lat="49.872733" lon="11.63791">
        <ele>479.2</ele>
        <time>2026-08-11T15:22:30.779000Z</time>
      </trkpt>
      <trkpt lat="49.872679" lon="11.63621">
        <ele>476.3</ele>
        <time>2026-08-11T15:24:26.629000Z</time>
      </trkpt>
      <trkpt lat="49.872559" lon="11.635305">
        <ele>473.3</ele>
        <time>2026-08-11T15:25:32.315000Z</time>
      </trkpt>
      <trkpt lat="49.872454" lon="11.634655">
        <ele>470.7</ele>
        <time>2026-08-11T15:26:20.703000Z</time>
      </trkpt>
      <trkpt lat="49.872306" lon="11.633352">
        <ele>466.2</ele>
        <time>2026-08-11T15:27:55.223000Z</time>
      </trkpt>
      <trkpt lat="49.872264" lon="11.628637">
        <ele>463.8</ele>
        <time>2026-08-11T15:33:04.396000Z</time>
      </trkpt>
      <trkpt lat="49.872271" lon="11.627202">
        <ele>465.5</ele>
        <time>2026-08-11T15:34:43.074000Z</time>
      </trkpt>
      <trkpt lat="49.87224" lon="11.626748">
        <ele>465.9</ele>
        <time>2026-08-11T15:35:14.044000Z</time>
      </trkpt>
      <trkpt lat="49.871924" lon="11.626273">
        <ele>466.1</ele>
        <time>2026-08-11T15:35:58.713000Z</time>
      </trkpt>
      <trkpt lat="49.87188" lon="11.626118">
        <ele>466</ele>
        <time>2026-08-11T15:36:09.871000Z</time>
      </trkpt>
      <trkpt lat="49.871884" lon="11.625744">
        <ele>465.5</ele>
        <time>2026-08-11T15:36:35.034000Z</time>
      </trkpt>
      <trkpt lat="49.872045" lon="11.624827">
        <ele>463</ele>
        <time>2026-08-11T15:37:41.386000Z</time>
      </trkpt>
      <trkpt lat="49.872507" lon="11.624634">
        <ele>460.5</ele>
        <time>2026-08-11T15:38:34.430000Z</time>
      </trkpt>
      <trkpt lat="49.872861" lon="11.624188">
        <ele>458.4</ele>
        <time>2026-08-11T15:39:24.435000Z</time>
      </trkpt>
      <trkpt lat="49.873164" lon="11.624141">
        <ele>457.1</ele>
        <time>2026-08-11T15:39:57.543000Z</time>
      </trkpt>
      <trkpt lat="49.873341" lon="11.624044">
        <ele>456.4</ele>
        <time>2026-08-11T15:40:17.752000Z</time>
      </trkpt>
      <trkpt lat="49.873479" lon="11.623906">
        <ele>455.9</ele>
        <time>2026-08-11T15:40:35.265000Z</time>
      </trkpt>
      <trkpt lat="49.873555" lon="11.623994">
        <ele>455.5</ele>
        <time>2026-08-11T15:40:45.389000Z</time>
      </trkpt>
      <trkpt lat="49.873871" lon="11.624364">
        <ele>454.3</ele>
        <time>2026-08-11T15:41:27.512000Z</time>
      </trkpt>
      <trkpt lat="49.874166" lon="11.624607">
        <ele>453.3</ele>
        <time>2026-08-11T15:42:02.995000Z</time>
      </trkpt>
      <trkpt lat="49.87439" lon="11.624761">
        <ele>452.5</ele>
        <time>2026-08-11T15:42:29.299000Z</time>
      </trkpt>
      <trkpt lat="49.874651" lon="11.624838">
        <ele>451.4</ele>
        <time>2026-08-11T15:42:58.095000Z</time>
      </trkpt>
      <trkpt lat="49.874917" lon="11.624716">
        <ele>450</ele>
        <time>2026-08-11T15:43:28.648000Z</time>
      </trkpt>
      <trkpt lat="49.875556" lon="11.623976">
        <ele>446.2</ele>
        <time>2026-08-11T15:44:56.160000Z</time>
      </trkpt>
      <trkpt lat="49.875678" lon="11.623886">
        <ele>445.7</ele>
        <time>2026-08-11T15:45:10.739000Z</time>
      </trkpt>
      <trkpt lat="49.875885" lon="11.623946">
        <ele>445</ele>
        <time>2026-08-11T15:45:33.162000Z</time>
      </trkpt>
      <trkpt lat="49.87595" lon="11.623923">
        <ele>444.8</ele>
        <time>2026-08-11T15:45:40.306000Z</time>
      </trkpt>
      <trkpt lat="49.876383" lon="11.624777">
        <ele>443.3</ele>
        <time>2026-08-11T15:46:53.581000Z</time>
      </trkpt>
      <trkpt lat="49.87643" lon="11.625011">
        <ele>443</ele>
        <time>2026-08-11T15:47:09.851000Z</time>
      </trkpt>
      <trkpt lat="49.876377" lon="11.626032">
        <ele>442</ele>
        <time>2026-08-11T15:48:18.037000Z</time>
      </trkpt>
      <trkpt lat="49.876387" lon="11.6264">
        <ele>441.6</ele>
        <time>2026-08-11T15:48:42.525000Z</time>
      </trkpt>
      <trkpt lat="49.876432" lon="11.627022">
        <ele>441</ele>
        <time>2026-08-11T15:49:24.179000Z</time>
      </trkpt>
      <trkpt lat="49.876513" lon="11.62748">
        <ele>440.6</ele>
        <time>2026-08-11T15:49:55.700000Z</time>
      </trkpt>
      <trkpt lat="49.876387" lon="11.628593">
        <ele>439.6</ele>
        <time>2026-08-11T15:51:10.666000Z</time>
      </trkpt>
      <trkpt lat="49.87638" lon="11.629395">
        <ele>438.9</ele>
        <time>2026-08-11T15:52:03.931000Z</time>
      </trkpt>
      <trkpt lat="49.876316" lon="11.629862">
        <ele>438.4</ele>
        <time>2026-08-11T15:52:35.620000Z</time>
      </trkpt>
      <trkpt lat="49.876505" lon="11.630588">
        <ele>437.9</ele>
        <time>2026-08-11T15:53:27.140000Z</time>
      </trkpt>
      <trkpt lat="49.876606" lon="11.630871">
        <ele>438</ele>
        <time>2026-08-11T15:53:48.161000Z</time>
      </trkpt>
      <trkpt lat="49.876712" lon="11.631079">
        <ele>438.1</ele>
        <time>2026-08-11T15:54:05.705000Z</time>
      </trkpt>
      <trkpt lat="49.876761" lon="11.631136">
        <ele>438.1</ele>
        <time>2026-08-11T15:54:12.070000Z</time>
      </trkpt>
      <trkpt lat="49.877184" lon="11.63107">
        <ele>438.6</ele>
        <time>2026-08-11T15:54:56.403000Z</time>
      </trkpt>
      <trkpt lat="49.877385" lon="11.631132">
        <ele>438.9</ele>
        <time>2026-08-11T15:55:18.012000Z</time>
      </trkpt>
      <trkpt lat="49.877569" lon="11.631254">
        <ele>439.3</ele>
        <time>2026-08-11T15:55:39.249000Z</time>
      </trkpt>
      <trkpt lat="49.877791" lon="11.631262">
        <ele>439.7</ele>
        <time>2026-08-11T15:56:02.848000Z</time>
      </trkpt>
      <trkpt lat="49.877963" lon="11.631235">
        <ele>439.9</ele>
        <time>2026-08-11T15:56:21.158000Z</time>
      </trkpt>
      <trkpt lat="49.878369" lon="11.631299">
        <ele>440.6</ele>
        <time>2026-08-11T15:57:04.201000Z</time>
      </trkpt>
      <trkpt lat="49.87898" lon="11.631247">
        <ele>441.4</ele>
        <time>2026-08-11T15:58:08.383000Z</time>
      </trkpt>
      <trkpt lat="49.879808" lon="11.631533">
        <ele>444.5</ele>
        <time>2026-08-11T15:59:44.237000Z</time>
      </trkpt>
      <trkpt lat="49.880008" lon="11.631825">
        <ele>446</ele>
        <time>2026-08-11T16:00:16.947000Z</time>
      </trkpt>
      <trkpt lat="49.880854" lon="11.632448">
        <ele>451.9</ele>
        <time>2026-08-11T16:02:10.720000Z</time>
      </trkpt>
      <trkpt lat="49.882635" lon="11.634531">
        <ele>460</ele>
        <time>2026-08-11T16:06:22.290000Z</time>
      </trkpt>
      <trkpt lat="49.88534" lon="11.637789">
        <ele>458.5</ele>
        <time>2026-08-11T16:12:08.028000Z</time>
      </trkpt>
      <trkpt lat="49.885432" lon="11.637871">
        <ele>458.6</ele>
        <time>2026-08-11T16:12:18.916000Z</time>
      </trkpt>
      <trkpt lat="49.886105" lon="11.638475">
        <ele>460.1</ele>
        <time>2026-08-11T16:13:42.173000Z</time>
      </trkpt>
      <trkpt lat="49.885375" lon="11.639225">
        <ele>464.8</ele>
        <time>2026-08-11T16:15:25.849000Z</time>
      </trkpt>
      <trkpt lat="49.884488" lon="11.63986">
        <ele>472.7</ele>
        <time>2026-08-11T16:17:30.512000Z</time>
      </trkpt>
      <trkpt lat="49.884052" lon="11.640367">
        <ele>476.4</ele>
        <time>2026-08-11T16:18:37.905000Z</time>
      </trkpt>
      <trkpt lat="49.883926" lon="11.640638">
        <ele>477.4</ele>
        <time>2026-08-11T16:19:02.701000Z</time>
      </trkpt>
      <trkpt lat="49.883884" lon="11.640876">
        <ele>477.9</ele>
        <time>2026-08-11T16:19:20.417000Z</time>
      </trkpt>
      <trkpt lat="49.883871" lon="11.640986">
        <ele>478.1</ele>
        <time>2026-08-11T16:19:28.310000Z</time>
      </trkpt>
      <trkpt lat="49.883893" lon="11.641154">
        <ele>478.3</ele>
        <time>2026-08-11T16:19:40.140000Z</time>
      </trkpt>
      <trkpt lat="49.884183" lon="11.641556">
        <ele>478.6</ele>
        <time>2026-08-11T16:20:20.318000Z</time>
      </trkpt>
      <trkpt lat="49.884308" lon="11.641669">
        <ele>478.6</ele>
        <time>2026-08-11T16:20:34.819000Z</time>
      </trkpt>
      <trkpt lat="49.884366" lon="11.641716">
        <ele>478.6</ele>
        <time>2026-08-11T16:20:41.430000Z</time>
      </trkpt>
      <trkpt lat="49.884482" lon="11.641873">
        <ele>478.5</ele>
        <time>2026-08-11T16:20:57.048000Z</time>
      </trkpt>
      <trkpt lat="49.884704" lon="11.642248">
        <ele>478.3</ele>
        <time>2026-08-11T16:21:30.235000Z</time>
      </trkpt>
      <trkpt lat="49.884789" lon="11.642451">
        <ele>478.3</ele>
        <time>2026-08-11T16:21:45.951000Z</time>
      </trkpt>
      <trkpt lat="49.884842" lon="11.64249">
        <ele>478.3</ele>
        <time>2026-08-11T16:21:51.862000Z</time>
      </trkpt>
      <trkpt lat="49.884789" lon="11.642451">
        <ele>478.3</ele>
        <time>2026-08-11T16:21:57.775000Z</time>
      </trkpt>
      <trkpt lat="49.884704" lon="11.642248">
        <ele>478.3</ele>
        <time>2026-08-11T16:22:13.582000Z</time>
      </trkpt>
      <trkpt lat="49.884482" lon="11.641873">
        <ele>478.7</ele>
        <time>2026-08-11T16:22:47.720000Z</time>
      </trkpt>
      <trkpt lat="49.884366" lon="11.641716">
        <ele>479</ele>
        <time>2026-08-11T16:23:04.114000Z</time>
      </trkpt>
      <trkpt lat="49.884308" lon="11.641669">
        <ele>479.1</ele>
        <time>2026-08-11T16:23:11.134000Z</time>
      </trkpt>
      <trkpt lat="49.884183" lon="11.641556">
        <ele>479.4</ele>
        <time>2026-08-11T16:23:26.629000Z</time>
      </trkpt>
      <trkpt lat="49.883753" lon="11.641365">
        <ele>480.3</ele>
        <time>2026-08-11T16:24:14.449000Z</time>
      </trkpt>
      <trkpt lat="49.883426" lon="11.641233">
        <ele>480.7</ele>
        <time>2026-08-11T16:24:49.789000Z</time>
      </trkpt>
      <trkpt lat="49.883228" lon="11.641049">
        <ele>480.8</ele>
        <time>2026-08-11T16:25:13.238000Z</time>
      </trkpt>
      <trkpt lat="49.883014" lon="11.64075">
        <ele>480.6</ele>
        <time>2026-08-11T16:25:42.447000Z</time>
      </trkpt>
      <trkpt lat="49.882703" lon="11.640636">
        <ele>480.2</ele>
        <time>2026-08-11T16:26:15.203000Z</time>
      </trkpt>
      <trkpt lat="49.88227" lon="11.640627">
        <ele>479.6</ele>
        <time>2026-08-11T16:26:59.886000Z</time>
      </trkpt>
      <trkpt lat="49.882002" lon="11.640416">
        <ele>479.1</ele>
        <time>2026-08-11T16:27:30.891000Z</time>
      </trkpt>
      <trkpt lat="49.880697" lon="11.638918">
        <ele>478</ele>
        <time>2026-08-11T16:30:15.792000Z</time>
      </trkpt>
      <trkpt lat="49.879882" lon="11.638015">
        <ele>477.1</ele>
        <time>2026-08-11T16:31:57.837000Z</time>
      </trkpt>
      <trkpt lat="49.878874" lon="11.636927">
        <ele>473.7</ele>
        <time>2026-08-11T16:34:07.670000Z</time>
      </trkpt>
      <trkpt lat="49.878395" lon="11.636642">
        <ele>472.4</ele>
        <time>2026-08-11T16:35:01.769000Z</time>
      </trkpt>
      <trkpt lat="49.878223" lon="11.636593">
        <ele>472.1</ele>
        <time>2026-08-11T16:35:19.881000Z</time>
      </trkpt>
      <trkpt lat="49.878103" lon="11.636645">
        <ele>471.9</ele>
        <time>2026-08-11T16:35:32.734000Z</time>
      </trkpt>
      <trkpt lat="49.877597" lon="11.637039">
        <ele>471.7</ele>
        <time>2026-08-11T16:36:29.869000Z</time>
      </trkpt>
      <trkpt lat="49.876841" lon="11.637732">
        <ele>473.4</ele>
        <time>2026-08-11T16:38:03.999000Z</time>
      </trkpt>
      <trkpt lat="49.876042" lon="11.63839">
        <ele>475.8</ele>
        <time>2026-08-11T16:39:42.787000Z</time>
      </trkpt>
      <trkpt lat="49.875264" lon="11.638823">
        <ele>477.6</ele>
        <time>2026-08-11T16:41:12.015000Z</time>
      </trkpt>
      <trkpt lat="49.875057" lon="11.638871">
        <ele>478</ele>
        <time>2026-08-11T16:41:34.245000Z</time>
      </trkpt>
      <trkpt lat="49.873566" lon="11.638739">
        <ele>479.8</ele>
        <time>2026-08-11T16:44:10.409000Z</time>
      </trkpt>
      <trkpt lat="49.873325" lon="11.638721">
        <ele>480</ele>
        <time>2026-08-11T16:44:35.130000Z</time>
      </trkpt>
      <trkpt lat="49.872906" lon="11.638147">
        <ele>480.2</ele>
        <time>2026-08-11T16:45:31.848000Z</time>
      </trkpt>
    </trkseg>
  </trk>
</gpx>