<?xml version="1.0" encoding="UTF-8"?>
<gpx xmlns="http://www.topografix.com/GPX/1/1" xmlns:xsi="http://www.w3.org/2001/XMLSchema-instance" xsi:schemaLocation="http://www.topografix.com/GPX/1/1 http://www.topografix.com/GPX/1/1/gpx.xsd" version="1.1" creator="Robert Kampf">
  <metadata>
    <name>Wertachbrücke Türkheim – Walterwehr an der Wertach Runde von Türkheim</name>
    <desc>Distance: 5.74km, Estimated duration: 1.46h, Elevation up: 13.711287390226971m, Elevation down: 13.711287390227085m, Grade: easy</desc>
    <author>
      <name>Robert Kampf</name>
      <link href="https://www.komoot.de/user/4125295338453">
        <text>View Robert Kampf's Profile on Komoot</text>
      </link>
    </author>
    <link href="https://www.komoot.de/tour/2878793266">
      <text>View tour on Komoot</text>
    </link>
  </metadata>
  <wpt lat="48.061208" lon="10.648188">
    <name>Türkheim, Jakob-Sigle-Straße</name>
    <cmt></cmt>
    <desc></desc>
    <src>Komoot</src>
    <type>POI</type>
  </wpt>
  <wpt lat="48.061207" lon="10.651161">
    <ele>601</ele>
    <name>Wertach Bridge, Türkheim</name>
    <cmt>https://d2exd72xrrp1s7.cloudfront.net/www/000/1k7/16/1615ty91nm24b1xaloilkdovjd4szwaz88-uhi67605418/0</cmt>
    <desc>SpeedyRosi🫶: Einfach mal fließen lassen. An der Wertach gibt es schöne Radwege.
――――――――――
SpeedyRosi🫶: Ein herrlicher Radweg entlang der Wertach.
――――――――――
Willy Sommer: Hier noch ein kleines Bacherl wird es später ein großes Bacherl und landet dann in Augsburg im Lech.</desc>
    <src>Komoot</src>
    <link href="https://www.komoot.de/highlight/2356389">
      <text>View POI on Komoot</text>
    </link>
    <type>Highlight</type>
  </wpt>
  <wpt lat="48.054368" lon="10.654084">
    <ele>600.7</ele>
    <name>Mühlbach near Türkheim</name>
    <cmt>https://d2exd72xrrp1s7.cloudfront.net/www/000/1k6/17/177dp3bvhnyu4ov8hhbwkxpqh4a1xn071-uhi53356391/0</cmt>
    <desc>Annette: Der Mühlbach bei Türkheim fließt kurz darauf in die Wertach. </desc>
    <src>Komoot</src>
    <link href="https://www.komoot.de/highlight/4820643">
      <text>View POI on Komoot</text>
    </link>
    <type>Highlight</type>
  </wpt>
  <wpt lat="48.041511" lon="10.644265">
    <ele>654</ele>
    <name>Bridge Over the Wertach</name>
    <cmt>https://d2exd72xrrp1s7.cloudfront.net/www/000/1k5/1a/1aaw8y3kgaz04zfvmgd9l6h2d40ny9d9u-uhi45338893/0</cmt>
    <desc></desc>
    <src>Komoot</src>
    <link href="https://www.komoot.de/highlight/3536705">
      <text>View POI on Komoot</text>
    </link>
    <type>Highlight</type>
  </wpt>
  <wpt lat="48.04954" lon="10.646328">
    <ele>657.6</ele>
    <name>Walterwehr on the Wertach</name>
    <cmt>https://d2exd72xrrp1s7.cloudfront.net/www/000/1k4/1m/1m0upojkagfpzcv6iu4hwh53f3f72czr6-uhi16002774/0</cmt>
    <desc>Carsten (📍FFB): Hier ist auch eine Bank für eine Pause. Und ein ein schöner Blick auf die Terrassen.👍📸</desc>
    <src>Komoot</src>
    <link href="https://www.komoot.de/highlight/1256813">
      <text>View POI on Komoot</text>
    </link>
    <type>Highlight</type>
  </wpt>
  <wpt lat="48.04963" lon="10.646447">
    <ele>644</ele>
    <name>Wertach weir near Waltermühle (Türkheim)</name>
    <cmt>https://d2exd72xrrp1s7.cloudfront.net/www/000/1k1/14/14ai2vdjekymkd8ikzkgsg2cf2ab32z1x-uhi1478710/0</cmt>
    <desc>Robi: Ein Wehr entlang der Wertach, welches keine Wasserkraftnutzung hat. Bei hohem Wasserstand, z.B. nach Regen, bietet sich ein schöner Blick auf eine tosende Wertach.

Mehr Informationen finden sich hier:
https://de.wikipedia.org/wiki/Wasserkraftnutzung_entlang_der_Wertach
――――――――――
Loockes: Die Ostseite wird immer wieder von den Türkheimer Kindergarten Kinder dekoriert.z.b.Weihnachtsdeko, Osterdeko
――――――――――
Steelrose: Ideal um für ein paar Minuten auf der sonnengewärmten Mauer dem Rauschen des Wassers zu lauschen und die Seele baumeln zu lassen
――――――――――
p.xcam: Die Wertach hat in ihrem Verlauf sehr starkes,Gefälle. Das,merkt man auc an den vielen Staustufen.
🐸😎
――――――――――
Matthias: Wertach Wehr. Ideal für eine kleine Pause
――――――――――
Michael: Überlaufwehr</desc>
    <src>Komoot</src>
    <link href="https://www.komoot.de/highlight/215027">
      <text>View POI on Komoot</text>
    </link>
    <type>Highlight</type>
  </wpt>
  <wpt lat="48.050219" lon="10.646945">
    <ele>597.8</ele>
    <name>Stepped weir waterfall in the Auwald floodplain forest</name>
    <cmt>https://d2exd72xrrp1s7.cloudfront.net/www/000/1k7/xm/xmr1gnfmhewgpi7v9ajhvrxh4jvq8u0z-uhi59253585/0</cmt>
    <desc>Nadine: Schöne Staustufen direkt am Wegesrand. Hier lohnt sich eine Pause.</desc>
    <src>Komoot</src>
    <link href="https://www.komoot.de/highlight/3898114">
      <text>View POI on Komoot</text>
    </link>
    <type>Highlight</type>
  </wpt>
  <wpt lat="48.051848" lon="10.646831">
    <ele>603.1</ele>
    <name>Wertach Trail</name>
    <cmt>https://d2exd72xrrp1s7.cloudfront.net/www/000/1k4/ur/urgk6oj1rb031e5rr6m4hic9x3jtodfdh-uhi24714563/0</cmt>
    <desc>breddy: Immer wieder gute Abstecher in das Gelände
――――――――――
MartinR: Alos das Bild von breddy ist an der Wertach in der nähe von Nesselwang, 60km entfernt. Hat hier nix zu suchen.</desc>
    <src>Komoot</src>
    <link href="https://www.komoot.de/highlight/2711260">
      <text>View POI on Komoot</text>
    </link>
    <type>Highlight</type>
  </wpt>
  <trk>
    <name>Wertachbrücke Türkheim – Walterwehr an der Wertach Runde von Türkheim</name>
    <desc>Distance: 5.74km, Estimated duration: 1.46h, Elevation up: 13.711287390226971m, Elevation down: 13.711287390227085m, Grade: easy</desc>
    <link href="https://www.komoot.de/tour/2878793266">
      <text>View tour on Komoot</text>
    </link>
    <trkseg>
      <trkpt lat="48.061266" lon="10.648161">
        <ele>597.5</ele>
        <time>2026-04-11T12:00:57.126000Z</time>
      </trkpt>
      <trkpt lat="48.061353" lon="10.64857">
        <ele>597.4</ele>
        <time>2026-04-11T12:01:26.048000Z</time>
      </trkpt>
      <trkpt lat="48.061423" lon="10.648889">
        <ele>597.3</ele>
        <time>2026-04-11T12:01:48.846000Z</time>
      </trkpt>
      <trkpt lat="48.061469" lon="10.649267">
        <ele>597.2</ele>
        <time>2026-04-11T12:02:14.810000Z</time>
      </trkpt>
      <trkpt lat="48.061446" lon="10.649709">
        <ele>597</ele>
        <time>2026-04-11T12:02:44.665000Z</time>
      </trkpt>
      <trkpt lat="48.061367" lon="10.65013">
        <ele>597</ele>
        <time>2026-04-11T12:03:14.058000Z</time>
      </trkpt>
      <trkpt lat="48.061274" lon="10.650635">
        <ele>597.2</ele>
        <time>2026-04-11T12:03:49.977000Z</time>
      </trkpt>
      <trkpt lat="48.061248" lon="10.65078">
        <ele>597.4</ele>
        <time>2026-04-11T12:04:00.482000Z</time>
      </trkpt>
      <trkpt lat="48.061238" lon="10.650834">
        <ele>597.4</ele>
        <time>2026-04-11T12:04:04.430000Z</time>
      </trkpt>
      <trkpt lat="48.061179" lon="10.651141">
        <ele>597.7</ele>
        <time>2026-04-11T12:04:26.887000Z</time>
      </trkpt>
      <trkpt lat="48.061178" lon="10.651149">
        <ele>597.7</ele>
        <time>2026-04-11T12:04:27.464000Z</time>
      </trkpt>
      <trkpt lat="48.061097" lon="10.651573">
        <ele>598.3</ele>
        <time>2026-04-11T12:04:58.924000Z</time>
      </trkpt>
      <trkpt lat="48.06096" lon="10.652098">
        <ele>599</ele>
        <time>2026-04-11T12:05:39.225000Z</time>
      </trkpt>
      <trkpt lat="48.060917" lon="10.652187">
        <ele>599.1</ele>
        <time>2026-04-11T12:05:46.981000Z</time>
      </trkpt>
      <trkpt lat="48.060782" lon="10.652295">
        <ele>599.3</ele>
        <time>2026-04-11T12:06:03.054000Z</time>
      </trkpt>
      <trkpt lat="48.060662" lon="10.652441">
        <ele>599.5</ele>
        <time>2026-04-11T12:06:19.197000Z</time>
      </trkpt>
      <trkpt lat="48.060557" lon="10.652678">
        <ele>599.7</ele>
        <time>2026-04-11T12:06:38.898000Z</time>
      </trkpt>
      <trkpt lat="48.060557" lon="10.652803">
        <ele>599.8</ele>
        <time>2026-04-11T12:06:47.564000Z</time>
      </trkpt>
      <trkpt lat="48.060382" lon="10.653289">
        <ele>600</ele>
        <time>2026-04-11T12:07:25.300000Z</time>
      </trkpt>
      <trkpt lat="48.060352" lon="10.653523">
        <ele>600</ele>
        <time>2026-04-11T12:07:41.223000Z</time>
      </trkpt>
      <trkpt lat="48.060286" lon="10.653751">
        <ele>599.9</ele>
        <time>2026-04-11T12:07:57.993000Z</time>
      </trkpt>
      <trkpt lat="48.060214" lon="10.653907">
        <ele>599.9</ele>
        <time>2026-04-11T12:08:10.860000Z</time>
      </trkpt>
      <trkpt lat="48.060064" lon="10.654064">
        <ele>599.7</ele>
        <time>2026-04-11T12:08:29.486000Z</time>
      </trkpt>
      <trkpt lat="48.05976" lon="10.654188">
        <ele>599.5</ele>
        <time>2026-04-11T12:09:01.595000Z</time>
      </trkpt>
      <trkpt lat="48.058911" lon="10.654929">
        <ele>599.6</ele>
        <time>2026-04-11T12:10:40.385000Z</time>
      </trkpt>
      <trkpt lat="48.058727" lon="10.654389">
        <ele>599.8</ele>
        <time>2026-04-11T12:11:21.733000Z</time>
      </trkpt>
      <trkpt lat="48.058474" lon="10.65383">
        <ele>600</ele>
        <time>2026-04-11T12:12:07.441000Z</time>
      </trkpt>
      <trkpt lat="48.058415" lon="10.6537">
        <ele>600</ele>
        <time>2026-04-11T12:12:18.066000Z</time>
      </trkpt>
      <trkpt lat="48.058335" lon="10.653518">
        <ele>600</ele>
        <time>2026-04-11T12:12:32.754000Z</time>
      </trkpt>
      <trkpt lat="48.058293" lon="10.653423">
        <ele>600</ele>
        <time>2026-04-11T12:12:40.373000Z</time>
      </trkpt>
      <trkpt lat="48.05801" lon="10.653651">
        <ele>600</ele>
        <time>2026-04-11T12:13:12.614000Z</time>
      </trkpt>
      <trkpt lat="48.057395" lon="10.653117">
        <ele>599.8</ele>
        <time>2026-04-11T12:14:24.247000Z</time>
      </trkpt>
      <trkpt lat="48.057077" lon="10.653021">
        <ele>599.6</ele>
        <time>2026-04-11T12:14:56.989000Z</time>
      </trkpt>
      <trkpt lat="48.056862" lon="10.652978">
        <ele>599.5</ele>
        <time>2026-04-11T12:15:18.885000Z</time>
      </trkpt>
      <trkpt lat="48.056351" lon="10.652903">
        <ele>599.4</ele>
        <time>2026-04-11T12:16:10.588000Z</time>
      </trkpt>
      <trkpt lat="48.05623" lon="10.653179">
        <ele>599.3</ele>
        <time>2026-04-11T12:16:32.825000Z</time>
      </trkpt>
      <trkpt lat="48.05512" lon="10.653005">
        <ele>599.5</ele>
        <time>2026-04-11T12:18:25.054000Z</time>
      </trkpt>
      <trkpt lat="48.055002" lon="10.652984">
        <ele>599.5</ele>
        <time>2026-04-11T12:18:37.001000Z</time>
      </trkpt>
      <trkpt lat="48.054966" lon="10.65345">
        <ele>599.6</ele>
        <time>2026-04-11T12:19:08.535000Z</time>
      </trkpt>
      <trkpt lat="48.054937" lon="10.653576">
        <ele>599.6</ele>
        <time>2026-04-11T12:19:17.507000Z</time>
      </trkpt>
      <trkpt lat="48.054876" lon="10.653662">
        <ele>599.6</ele>
        <time>2026-04-11T12:19:25.952000Z</time>
      </trkpt>
      <trkpt lat="48.054544" lon="10.65379">
        <ele>599.7</ele>
        <time>2026-04-11T12:20:00.573000Z</time>
      </trkpt>
      <trkpt lat="48.054399" lon="10.653804">
        <ele>599.7</ele>
        <time>2026-04-11T12:20:15.289000Z</time>
      </trkpt>
      <trkpt lat="48.054413" lon="10.654046">
        <ele>599.8</ele>
        <time>2026-04-11T12:20:31.767000Z</time>
      </trkpt>
      <trkpt lat="48.054366" lon="10.654054">
        <ele>599.8</ele>
        <time>2026-04-11T12:20:36.590000Z</time>
      </trkpt>
      <trkpt lat="48.054244" lon="10.654074">
        <ele>599.8</ele>
        <time>2026-04-11T12:20:48.999000Z</time>
      </trkpt>
      <trkpt lat="48.053939" lon="10.654031">
        <ele>599.9</ele>
        <time>2026-04-11T12:21:19.814000Z</time>
      </trkpt>
      <trkpt lat="48.053378" lon="10.653601">
        <ele>600</ele>
        <time>2026-04-11T12:22:23.186000Z</time>
      </trkpt>
      <trkpt lat="48.053238" lon="10.653318">
        <ele>600</ele>
        <time>2026-04-11T12:22:46.899000Z</time>
      </trkpt>
      <trkpt lat="48.052705" lon="10.651027">
        <ele>599.8</ele>
        <time>2026-04-11T12:25:29.582000Z</time>
      </trkpt>
      <trkpt lat="48.052511" lon="10.649998">
        <ele>599.6</ele>
        <time>2026-04-11T12:26:41.658000Z</time>
      </trkpt>
      <trkpt lat="48.052024" lon="10.649637">
        <ele>599.2</ele>
        <time>2026-04-11T12:27:36.691000Z</time>
      </trkpt>
      <trkpt lat="48.051201" lon="10.648924">
        <ele>598.8</ele>
        <time>2026-04-11T12:29:12.813000Z</time>
      </trkpt>
      <trkpt lat="48.050669" lon="10.648189">
        <ele>599.1</ele>
        <time>2026-04-11T12:30:26.339000Z</time>
      </trkpt>
      <trkpt lat="48.050382" lon="10.647732">
        <ele>599.6</ele>
        <time>2026-04-11T12:31:10.220000Z</time>
      </trkpt>
      <trkpt lat="48.050261" lon="10.647704">
        <ele>599.8</ele>
        <time>2026-04-11T12:31:23.175000Z</time>
      </trkpt>
      <trkpt lat="48.049884" lon="10.647887">
        <ele>600.5</ele>
        <time>2026-04-11T12:32:05.518000Z</time>
      </trkpt>
      <trkpt lat="48.049531" lon="10.647763">
        <ele>601.3</ele>
        <time>2026-04-11T12:32:44.533000Z</time>
      </trkpt>
      <trkpt lat="48.049291" lon="10.647597">
        <ele>601.9</ele>
        <time>2026-04-11T12:33:13.006000Z</time>
      </trkpt>
      <trkpt lat="48.048514" lon="10.64693">
        <ele>603.2</ele>
        <time>2026-04-11T12:34:47.299000Z</time>
      </trkpt>
      <trkpt lat="48.048073" lon="10.64666">
        <ele>603.4</ele>
        <time>2026-04-11T12:35:35.624000Z</time>
      </trkpt>
      <trkpt lat="48.047479" lon="10.646232">
        <ele>603.2</ele>
        <time>2026-04-11T12:36:41.958000Z</time>
      </trkpt>
      <trkpt lat="48.046825" lon="10.645841">
        <ele>603.1</ele>
        <time>2026-04-11T12:37:52.735000Z</time>
      </trkpt>
      <trkpt lat="48.045119" lon="10.645145">
        <ele>604.5</ele>
        <time>2026-04-11T12:40:54.794000Z</time>
      </trkpt>
      <trkpt lat="48.043756" lon="10.644765">
        <ele>605.4</ele>
        <time>2026-04-11T12:43:16.781000Z</time>
      </trkpt>
      <trkpt lat="48.043217" lon="10.644707">
        <ele>605.4</ele>
        <time>2026-04-11T12:44:10.876000Z</time>
      </trkpt>
      <trkpt lat="48.042127" lon="10.644639">
        <ele>605.4</ele>
        <time>2026-04-11T12:46:00.110000Z</time>
      </trkpt>
      <trkpt lat="48.041859" lon="10.644738">
        <ele>605.4</ele>
        <time>2026-04-11T12:46:27.780000Z</time>
      </trkpt>
      <trkpt lat="48.041715" lon="10.644934">
        <ele>605.4</ele>
        <time>2026-04-11T12:46:47.334000Z</time>
      </trkpt>
      <trkpt lat="48.041499" lon="10.645316">
        <ele>605.3</ele>
        <time>2026-04-11T12:47:21.005000Z</time>
      </trkpt>
      <trkpt lat="48.041479" lon="10.645591">
        <ele>605.2</ele>
        <time>2026-04-11T12:47:39.611000Z</time>
      </trkpt>
      <trkpt lat="48.041412" lon="10.645641">
        <ele>605.2</ele>
        <time>2026-04-11T12:47:47.092000Z</time>
      </trkpt>
      <trkpt lat="48.041483" lon="10.644732">
        <ele>605.4</ele>
        <time>2026-04-11T12:48:49.039000Z</time>
      </trkpt>
      <trkpt lat="48.041516" lon="10.644266">
        <ele>605.5</ele>
        <time>2026-04-11T12:49:20.578000Z</time>
      </trkpt>
      <trkpt lat="48.041544" lon="10.643874">
        <ele>605.3</ele>
        <time>2026-04-11T12:49:47.217000Z</time>
      </trkpt>
      <trkpt lat="48.041583" lon="10.643277">
        <ele>605.2</ele>
        <time>2026-04-11T12:50:27.595000Z</time>
      </trkpt>
      <trkpt lat="48.04164" lon="10.643286">
        <ele>605.2</ele>
        <time>2026-04-11T12:50:33.390000Z</time>
      </trkpt>
      <trkpt lat="48.041687" lon="10.643299">
        <ele>605.2</ele>
        <time>2026-04-11T12:50:38.134000Z</time>
      </trkpt>
      <trkpt lat="48.041742" lon="10.643368">
        <ele>605.2</ele>
        <time>2026-04-11T12:50:45.389000Z</time>
      </trkpt>
      <trkpt lat="48.041742" lon="10.643858">
        <ele>605.2</ele>
        <time>2026-04-11T12:51:18.159000Z</time>
      </trkpt>
      <trkpt lat="48.042797" lon="10.643863">
        <ele>604.3</ele>
        <time>2026-04-11T12:53:05.680000Z</time>
      </trkpt>
      <trkpt lat="48.043644" lon="10.643973">
        <ele>603.4</ele>
        <time>2026-04-11T12:54:32.650000Z</time>
      </trkpt>
      <trkpt lat="48.04511" lon="10.644343">
        <ele>601.6</ele>
        <time>2026-04-11T12:57:05.067000Z</time>
      </trkpt>
      <trkpt lat="48.045761" lon="10.644565">
        <ele>601.1</ele>
        <time>2026-04-11T12:58:13.025000Z</time>
      </trkpt>
      <trkpt lat="48.047005" lon="10.645114">
        <ele>600.5</ele>
        <time>2026-04-11T13:00:24.086000Z</time>
      </trkpt>
      <trkpt lat="48.048257" lon="10.645615">
        <ele>600.3</ele>
        <time>2026-04-11T13:02:34.082000Z</time>
      </trkpt>
      <trkpt lat="48.048738" lon="10.645775">
        <ele>600.5</ele>
        <time>2026-04-11T13:03:24.109000Z</time>
      </trkpt>
      <trkpt lat="48.048994" lon="10.645926">
        <ele>600.6</ele>
        <time>2026-04-11T13:03:51.981000Z</time>
      </trkpt>
      <trkpt lat="48.049235" lon="10.646137">
        <ele>600.7</ele>
        <time>2026-04-11T13:04:20.117000Z</time>
      </trkpt>
      <trkpt lat="48.049415" lon="10.646193">
        <ele>600.7</ele>
        <time>2026-04-11T13:04:38.497000Z</time>
      </trkpt>
      <trkpt lat="48.049525" lon="10.646255">
        <ele>600.7</ele>
        <time>2026-04-11T13:04:50.308000Z</time>
      </trkpt>
      <trkpt lat="48.049656" lon="10.646311">
        <ele>600.7</ele>
        <time>2026-04-11T13:05:03.993000Z</time>
      </trkpt>
      <trkpt lat="48.049913" lon="10.646421">
        <ele>600.5</ele>
        <time>2026-04-11T13:05:31.004000Z</time>
      </trkpt>
      <trkpt lat="48.050056" lon="10.646459">
        <ele>600.4</ele>
        <time>2026-04-11T13:05:45.773000Z</time>
      </trkpt>
      <trkpt lat="48.05022" lon="10.646459">
        <ele>600.2</ele>
        <time>2026-04-11T13:06:02.625000Z</time>
      </trkpt>
      <trkpt lat="48.050288" lon="10.646459">
        <ele>600.1</ele>
        <time>2026-04-11T13:06:09.679000Z</time>
      </trkpt>
      <trkpt lat="48.050376" lon="10.646452">
        <ele>600</ele>
        <time>2026-04-11T13:06:18.724000Z</time>
      </trkpt>
      <trkpt lat="48.050794" lon="10.646585">
        <ele>599.2</ele>
        <time>2026-04-11T13:07:03.084000Z</time>
      </trkpt>
      <trkpt lat="48.051462" lon="10.646852">
        <ele>598.1</ele>
        <time>2026-04-11T13:08:14.578000Z</time>
      </trkpt>
      <trkpt lat="48.051818" lon="10.646996">
        <ele>597.5</ele>
        <time>2026-04-11T13:08:52.659000Z</time>
      </trkpt>
      <trkpt lat="48.053095" lon="10.647508">
        <ele>596.6</ele>
        <time>2026-04-11T13:11:06.971000Z</time>
      </trkpt>
      <trkpt lat="48.053843" lon="10.647808">
        <ele>596.5</ele>
        <time>2026-04-11T13:12:24.617000Z</time>
      </trkpt>
      <trkpt lat="48.057727" lon="10.649348">
        <ele>596.4</ele>
        <time>2026-04-11T13:19:07.010000Z</time>
      </trkpt>
      <trkpt lat="48.059385" lon="10.650061">
        <ele>595.7</ele>
        <time>2026-04-11T13:22:01.106000Z</time>
      </trkpt>
      <trkpt lat="48.060327" lon="10.650443">
        <ele>596.1</ele>
        <time>2026-04-11T13:23:40.049000Z</time>
      </trkpt>
      <trkpt lat="48.061117" lon="10.650762">
        <ele>596.6</ele>
        <time>2026-04-11T13:25:03.918000Z</time>
      </trkpt>
      <trkpt lat="48.061248" lon="10.65078">
        <ele>596.7</ele>
        <time>2026-04-11T13:25:17.346000Z</time>
      </trkpt>
      <trkpt lat="48.061274" lon="10.650635">
        <ele>596.7</ele>
        <time>2026-04-11T13:25:27.591000Z</time>
      </trkpt>
      <trkpt lat="48.061367" lon="10.65013">
        <ele>596.9</ele>
        <time>2026-04-11T13:26:03.185000Z</time>
      </trkpt>
      <trkpt lat="48.061446" lon="10.649709">
        <ele>597</ele>
        <time>2026-04-11T13:26:32.954000Z</time>
      </trkpt>
      <trkpt lat="48.061469" lon="10.649267">
        <ele>597.2</ele>
        <time>2026-04-11T13:27:02.984000Z</time>
      </trkpt>
      <trkpt lat="48.061423" lon="10.648889">
        <ele>597.3</ele>
        <time>2026-04-11T13:27:29.136000Z</time>
      </trkpt>
      <trkpt lat="48.061353" lon="10.64857">
        <ele>597.4</ele>
        <time>2026-04-11T13:27:52.130000Z</time>
      </trkpt>
      <trkpt lat="48.061266" lon="10.648161">
        <ele>597.5</ele>
        <time>2026-04-11T13:28:21.232000Z</time>
      </trkpt>
    </trkseg>
  </trk>
</gpx>