<?xml version="1.0" encoding="UTF-8"?>
<kml xmlns="http://www.opengis.net/kml/2.2" xmlns:gx="http://www.google.com/kml/ext/2.2">
    <Document id="11">
        <name>Aidlinger Höhe – Aidlinger Höhenweg Runde von Aidling-2000093124.gpx</name>
        <Placemark id="13">
            <name>Aidlinger Höhe – Aidlinger Höhenweg Runde von Aidling</name>
            <MultiGeometry id="12">
                <LineString id="14">
                    <coordinates>11.283186,47.712183,683.7 11.282952,47.712018,683.5 11.281578,47.710808,682.9 11.281399,47.710677,682.9 11.280853,47.710503,682.9 11.280609,47.710467,683.0 11.280575,47.710462,683.1 11.279266,47.710421,684.8 11.279083,47.710407,685.2 11.278646,47.71032,686.5 11.278275,47.710468,687.9 11.278118,47.710472,688.5 11.277417,47.71026,692.6 11.277266,47.710247,693.6 11.277022,47.710259,695.5 11.27668,47.710311,698.3 11.276341,47.710372,701.3 11.276224,47.710418,702.6 11.276043,47.710487,704.5 11.275621,47.710724,709.8 11.275313,47.710764,712.9 11.275034,47.710898,716.2 11.274141,47.711483,725.0 11.273895,47.711619,726.5 11.273593,47.71188,728.7 11.273421,47.712095,730.3 11.27322,47.712283,731.9 11.273101,47.712751,735.6 11.273198,47.713271,740.8 11.273485,47.713803,746.4 11.273485,47.714275,750.1 11.273457,47.714393,750.9 11.273343,47.714453,751.4 11.273269,47.714455,751.7 11.272811,47.714156,753.6 11.272239,47.713993,754.5 11.272052,47.71396,754.7 11.271295,47.713922,755.5 11.271186,47.71391,755.6 11.270886,47.713876,755.9 11.270721,47.71387,756.1 11.270612,47.713908,756.2 11.270263,47.71412,756.9 11.27015,47.714141,757.0 11.269314,47.714237,758.0 11.269142,47.714174,758.2 11.269029,47.714202,758.2 11.268765,47.714325,758.4 11.26821,47.714281,758.5 11.268043,47.714286,758.5 11.267621,47.714362,758.4 11.267175,47.714399,758.0 11.266538,47.714325,757.2 11.265751,47.714294,756.5 11.265523,47.714294,756.4 11.265139,47.714331,756.5 11.264963,47.714324,756.6 11.26436,47.7143,757.2 11.26357,47.714319,758.3 11.263166,47.714284,758.8 11.262871,47.714258,759.0 11.262511,47.714295,759.1 11.26137,47.714352,758.1 11.260772,47.714361,756.8 11.260171,47.714456,755.2 11.259429,47.714538,754.4 11.258515,47.714506,755.9 11.259215,47.714727,759.3 11.25972,47.714936,763.1 11.260384,47.715145,768.5 11.260537,47.715237,769.9 11.260708,47.715486,772.5 11.260816,47.715583,773.6 11.260847,47.715614,773.9 11.260816,47.715583,774.2 11.261861,47.715759,778.8 11.262219,47.715738,779.7 11.26255,47.71566,780.4 11.262788,47.715604,780.9 11.263095,47.715597,781.4 11.264008,47.715653,782.5 11.26454,47.715654,783.1 11.265277,47.71572,784.2 11.265458,47.715718,784.5 11.266274,47.715897,786.0 11.266709,47.715942,787.0 11.267553,47.716172,789.4 11.267905,47.716356,790.6 11.268189,47.716436,791.4 11.268497,47.716475,792.3 11.268987,47.716414,793.7 11.26913,47.71635,794.1 11.269439,47.71628,794.8 11.26968,47.716268,795.2 11.269738,47.716272,795.3 11.269932,47.716285,795.4 11.270315,47.716314,795.5 11.27075,47.716385,795.2 11.270884,47.716419,795.0 11.271396,47.716444,793.9 11.271814,47.716415,792.7 11.272407,47.716451,790.7 11.273205,47.716385,788.3 11.273313,47.716347,788.0 11.273843,47.71629,787.2 11.27428,47.716244,787.0 11.274861,47.716206,787.3 11.27501,47.716248,787.5 11.275233,47.71624,787.8 11.276011,47.71616,788.9 11.276556,47.716179,789.6 11.276707,47.716145,789.7 11.277178,47.716129,789.9 11.277321,47.716103,789.9 11.277449,47.71611,789.8 11.278473,47.715939,787.5 11.278737,47.715847,786.2 11.278936,47.71582,785.2 11.279482,47.715668,781.8 11.279569,47.715664,781.2 11.279813,47.715488,778.6 11.27999,47.715466,777.2 11.280288,47.715477,774.7 11.281386,47.715126,763.3 11.281481,47.715111,762.3 11.281587,47.71513,761.2 11.281783,47.71508,759.0 11.281953,47.715065,757.1 11.282015,47.715015,756.1 11.282174,47.71497,754.2 11.282348,47.715016,752.0 11.282483,47.714962,750.2 11.282631,47.714796,746.7 11.283031,47.714561,740.0 11.283057,47.71429,734.7 11.28317,47.714019,729.4 11.282904,47.71362,721.7 11.282886,47.713437,718.5 11.282792,47.713282,715.5 11.282105,47.713171,706.9 11.281959,47.713119,704.9 11.281853,47.71305,703.2 11.281939,47.712963,701.6 11.282162,47.712834,698.8 11.282362,47.712614,695.5 11.282558,47.712445,693.0 11.282697,47.712232,690.5 11.282775,47.712181,689.7 11.282892,47.712171,688.9 11.282974,47.712186,688.4 11.283274,47.712245,686.7 11.283186,47.712183,686.1</coordinates>
                </LineString>
            </MultiGeometry>
        </Placemark>
        <Placemark id="17">
            <name>Parking</name>
            <Point id="16">
                <coordinates>11.283238,47.712149,0</coordinates>
            </Point>
        </Placemark>
        <Placemark id="19">
            <name>Lothdorfer Bach</name>
            <Point id="18">
                <coordinates>11.280593,47.710515,735.7</coordinates>
            </Point>
        </Placemark>
        <Placemark id="21">
            <name>View of Zugspitze</name>
            <Point id="20">
                <coordinates>11.2712,47.713855,765.0</coordinates>
            </Point>
        </Placemark>
        <Placemark id="23">
            <name>View of Riegsee and the Alps near Aidling</name>
            <Point id="22">
                <coordinates>11.264962,47.714335,758.4</coordinates>
            </Point>
        </Placemark>
        <Placemark id="25">
            <name>View of the Alps from the Bench</name>
            <Point id="24">
                <coordinates>11.263287,47.714297,760.5</coordinates>
            </Point>
        </Placemark>
        <Placemark id="27">
            <name>View of Riegsee and the Alps from Aidlinger Höhe</name>
            <Point id="26">
                <coordinates>11.260855,47.71561,821.0</coordinates>
            </Point>
        </Placemark>
        <Placemark id="29">
            <name>View of the Bavarian Alps</name>
            <Point id="28">
                <coordinates>11.262511,47.715585,833.0</coordinates>
            </Point>
        </Placemark>
        <Placemark id="31">
            <name>Forest on the Panorama Trail</name>
            <Point id="30">
                <coordinates>11.269748,47.716207,838.7</coordinates>
            </Point>
        </Placemark>
        <Placemark id="33">
            <name>Aidlinger Ridge Trail</name>
            <Point id="32">
                <coordinates>11.273852,47.71633,857.7</coordinates>
            </Point>
        </Placemark>
    </Document>
</kml>
