<?xml version="1.0" encoding="UTF-8"?>
<kml xmlns="http://www.opengis.net/kml/2.2" xmlns:gx="http://www.google.com/kml/ext/2.2">
    <Document id="35">
        <name>Allee zum Jagdschloss Grünau – Allee zum Jagdschloss Grünau Runde von Rohrenfeld Rf-3051909090.gpx</name>
        <Placemark id="37">
            <name>Allee zum Jagdschloss Grünau – Allee zum Jagdschloss Grünau Runde von Rohrenfeld Rf</name>
            <MultiGeometry id="36">
                <LineString id="38">
                    <coordinates>11.274616,48.726437,378.2 11.27424,48.726463,378.0 11.274307,48.726637,377.9 11.274634,48.727335,377.1 11.274658,48.727383,377.1 11.274908,48.72789,376.3 11.274995,48.728126,376.0 11.275026,48.728596,375.5 11.275063,48.728709,375.4 11.275211,48.728921,375.3 11.276348,48.729892,374.8 11.277403,48.730903,374.9 11.27745,48.731034,374.9 11.277444,48.731215,374.9 11.277432,48.731346,374.9 11.277206,48.731455,374.9 11.27692,48.731633,374.8 11.276303,48.732234,374.7 11.276124,48.73258,374.5 11.276077,48.732917,374.2 11.276067,48.733156,374.0 11.275783,48.733777,373.3 11.275733,48.734003,373.0 11.275755,48.734126,372.8 11.276069,48.734901,372.3 11.276189,48.735513,372.5 11.2762,48.735927,372.8 11.27616,48.736194,372.9 11.276068,48.736364,373.0 11.275967,48.736563,373.0 11.275811,48.737213,373.0 11.275803,48.737604,372.8 11.275712,48.737802,372.8 11.275429,48.738047,372.7 11.274965,48.738319,372.8 11.274574,48.738462,372.8 11.274186,48.738548,372.9 11.273847,48.738596,372.9 11.273122,48.738629,372.9 11.273024,48.738687,372.9 11.272975,48.738762,372.9 11.272989,48.738834,372.9 11.273217,48.739098,372.8 11.273217,48.73915,372.7 11.273024,48.739407,372.6 11.273008,48.739523,372.5 11.273228,48.739926,372.3 11.273236,48.740043,372.3 11.273275,48.740106,372.2 11.273552,48.740282,372.2 11.273636,48.740364,372.1 11.273792,48.740707,372.1 11.274112,48.741059,372.1 11.273851,48.741098,372.0 11.272844,48.741394,371.6 11.272277,48.741464,371.3 11.271782,48.741248,371.2 11.271712,48.741138,371.1 11.271644,48.740817,371.0 11.271574,48.74065,371.0 11.271541,48.740399,371.0 11.271475,48.740273,371.1 11.271348,48.740189,371.1 11.270975,48.7401,371.1 11.270745,48.74011,371.1 11.27019,48.740293,371.3 11.269953,48.740329,371.4 11.269958,48.740368,371.4 11.270155,48.740549,371.6 11.270108,48.740621,371.6 11.270155,48.740549,371.6 11.269958,48.740368,371.7 11.269953,48.740329,371.8 11.269679,48.740261,371.9 11.26947,48.740156,371.9 11.269168,48.739973,372.1 11.268877,48.739753,372.5 11.268776,48.739665,372.6 11.268464,48.739187,373.0 11.268256,48.73894,373.3 11.268108,48.738459,374.0 11.268008,48.738331,374.3 11.2679,48.738252,374.5 11.267332,48.737976,375.3 11.266653,48.73782,376.0 11.266402,48.737884,376.2 11.266024,48.738025,376.4 11.265822,48.738052,376.5 11.265735,48.737794,376.6 11.265602,48.737559,376.6 11.265034,48.737075,376.4 11.265028,48.736901,376.4 11.265481,48.736331,376.5 11.267967,48.733199,377.2 11.268621,48.733638,377.2 11.267967,48.733199,377.2 11.2723,48.727619,376.5 11.272689,48.727472,376.7 11.273341,48.726853,377.4 11.273607,48.726643,377.6 11.27367,48.726594,377.7 11.273809,48.726543,377.8 11.27424,48.726463,378.1 11.274616,48.726437,378.3</coordinates>
                </LineString>
            </MultiGeometry>
        </Placemark>
        <Placemark id="41">
            <name>Gut Rohrenfeld</name>
            <Point id="40">
                <coordinates>11.274616,48.726437,0</coordinates>
            </Point>
        </Placemark>
        <Placemark id="43">
            <name>Chapel of the Holy Communion at Gut Rohrenfeld</name>
            <Point id="42">
                <coordinates>11.2742,48.726462,421.5</coordinates>
            </Point>
        </Placemark>
        <Placemark id="45">
            <name>Lake in the Auwald Forest</name>
            <Point id="44">
                <coordinates>11.270236,48.740623,429.0</coordinates>
            </Point>
        </Placemark>
        <Placemark id="47">
            <name>Avenue to Grünau Hunting Lodge</name>
            <Point id="46">
                <coordinates>11.265525,48.736347,375.9</coordinates>
            </Point>
        </Placemark>
        <Placemark id="49">
            <name>Avenue to Grünau Hunting Lodge</name>
            <Point id="48">
                <coordinates>11.267931,48.733152,419.7</coordinates>
            </Point>
        </Placemark>
        <Placemark id="51">
            <name>Stone Bridge Over the Zeller Canal</name>
            <Point id="50">
                <coordinates>11.268958,48.73342,379.3</coordinates>
            </Point>
        </Placemark>
        <Placemark id="53">
            <name>Gut Rohrenfeld</name>
            <Point id="52">
                <coordinates>11.273623,48.726652,359.7</coordinates>
            </Point>
        </Placemark>
    </Document>
</kml>
