<?xml version="1.0" encoding="UTF-8"?>
<kml xmlns="http://www.opengis.net/kml/2.2" xmlns:gx="http://www.google.com/kml/ext/2.2">
    <Document id="173">
        <name>Altes Schleusentor Runde von Ellgau-2758052713.gpx</name>
        <Placemark id="175">
            <name>Altes Schleusentor Runde von Ellgau</name>
            <MultiGeometry id="174">
                <LineString id="176">
                    <coordinates>10.875891,48.599817,419.9 10.875621,48.599417,419.8 10.875696,48.59922,419.7 10.875813,48.599139,419.7 10.876091,48.599047,419.6 10.876269,48.599017,419.6 10.876467,48.599027,419.5 10.876642,48.599133,419.4 10.876842,48.599059,419.3 10.876993,48.59935,419.0 10.877557,48.601053,418.3 10.877757,48.601554,418.1 10.877475,48.601663,418.1 10.87601,48.601925,417.6 10.875956,48.601989,417.6 10.875999,48.602144,417.4 10.876279,48.602604,417.1 10.876413,48.60312,416.9 10.876388,48.60344,416.8 10.876319,48.603782,416.8 10.876096,48.60421,416.8 10.876097,48.604234,416.8 10.876101,48.604373,416.8 10.877465,48.607268,417.6 10.877638,48.607975,417.9 10.877794,48.608899,418.1 10.877802,48.609907,417.7 10.877745,48.610442,417.3 10.877839,48.610523,417.2 10.878656,48.610375,416.9 10.87925,48.610471,416.9 10.881425,48.610188,417.6 10.881208,48.610686,418.0 10.88159,48.610751,418.1 10.881613,48.610767,418.1 10.881597,48.610856,418.2 10.881906,48.610429,418.3 10.88198,48.610216,418.4 10.882321,48.609604,418.4 10.882431,48.609221,418.4 10.882555,48.608663,418.5 10.882587,48.607918,418.6 10.882727,48.607022,418.3 10.882688,48.606279,418.0 10.882075,48.603767,418.5 10.881422,48.602227,417.9 10.880893,48.601121,416.7 10.880075,48.599267,415.2 10.879826,48.598684,415.8 10.879556,48.598142,416.9 10.879478,48.598157,417.0 10.879398,48.597964,417.5 10.879305,48.597894,417.7 10.878976,48.597598,418.7 10.878582,48.597118,419.6 10.878413,48.596996,419.7 10.878251,48.596897,419.7 10.877942,48.596915,419.7 10.877816,48.596967,419.6 10.877437,48.597422,419.4 10.877083,48.597679,419.0 10.87678,48.597756,418.8 10.87616,48.59788,418.5 10.876523,48.598583,418.8 10.876681,48.598814,419.0 10.876842,48.599059,419.2 10.876642,48.599133,419.4 10.876467,48.599027,419.5 10.876269,48.599017,419.5 10.876091,48.599047,419.6 10.875813,48.599139,419.7 10.875696,48.59922,419.7 10.875621,48.599417,419.8 10.875891,48.599817,419.9</coordinates>
                </LineString>
            </MultiGeometry>
        </Placemark>
        <Placemark id="179">
            <name>Old Sluice Gate</name>
            <Point id="178">
                <coordinates>10.875894,48.604237,462.7</coordinates>
            </Point>
        </Placemark>
        <Placemark id="181">
            <name>Information Board: History of Rafting on the Lech River</name>
            <Point id="180">
                <coordinates>10.878574,48.597118,492.2</coordinates>
            </Point>
        </Placemark>
    </Document>
</kml>
