<?xml version="1.0" encoding="UTF-8"?>
<kml xmlns="http://www.opengis.net/kml/2.2" xmlns:gx="http://www.google.com/kml/ext/2.2">
    <Document id="125">
        <name>Alte Burg Neuburg an der Donau – Ruine Alte Burg Neuburg Runde von Unterhausen (Bay)-3049313078.gpx</name>
        <Placemark id="127">
            <name>Alte Burg Neuburg an der Donau – Ruine Alte Burg Neuburg Runde von Unterhausen (Bay)</name>
            <MultiGeometry id="126">
                <LineString id="128">
                    <coordinates>11.109492,48.719547,436.6 11.109772,48.719542,436.3 11.10982,48.719602,436.1 11.11025,48.71958,435.4 11.110368,48.719889,434.3 11.110339,48.720206,432.8 11.110138,48.720514,431.0 11.1101,48.720718,429.8 11.11011,48.720867,428.9 11.110272,48.721471,426.0 11.110317,48.721644,425.5 11.1104,48.721843,425.0 11.110481,48.721941,424.8 11.110709,48.722074,424.5 11.11096,48.722294,424.1 11.111115,48.722453,423.8 11.111252,48.722592,423.7 11.111398,48.72274,423.5 11.111553,48.722898,423.3 11.111685,48.723036,423.1 11.111805,48.723168,422.8 11.111932,48.723306,422.5 11.112165,48.723591,421.7 11.112246,48.723741,421.2 11.112307,48.723854,420.9 11.112425,48.724073,420.2 11.112572,48.724343,419.3 11.112692,48.724712,418.0 11.112683,48.724834,417.6 11.112683,48.725027,416.8 11.114634,48.725521,410.7 11.115666,48.725774,407.8 11.116698,48.726026,406.9 11.116991,48.726018,407.2 11.117946,48.725681,409.9 11.118919,48.725435,412.1 11.119213,48.7254,412.4 11.119625,48.725595,412.6 11.120265,48.72599,411.4 11.121671,48.727019,406.2 11.121821,48.727019,406.0 11.121998,48.727067,405.7 11.122171,48.727143,405.4 11.122367,48.727326,405.1 11.123311,48.727724,404.9 11.124232,48.727663,404.4 11.12471,48.727639,404.0 11.125535,48.727625,403.0 11.126533,48.727682,400.9 11.127059,48.72768,399.6 11.12827,48.727725,396.3 11.128666,48.727841,395.1 11.129378,48.728201,393.5 11.129636,48.72833,393.2 11.129952,48.728406,392.9 11.130067,48.728411,392.9 11.130069,48.728455,392.8 11.130067,48.728411,392.8 11.13015,48.728309,392.7 11.1305,48.728234,392.9 11.130694,48.728202,393.1 11.130792,48.727893,393.9 11.130694,48.728202,395.2 11.130826,48.728262,395.7 11.130884,48.72834,396.1 11.130966,48.728451,396.8 11.131307,48.728651,398.5 11.131639,48.728697,399.8 11.132355,48.728734,402.6 11.132524,48.728771,403.3 11.132853,48.728762,404.4 11.13335,48.728527,406.1 11.133465,48.728407,406.5 11.133574,48.728352,406.7 11.13368,48.728329,406.8 11.133737,48.728343,406.9 11.133691,48.728272,407.0 11.133507,48.728133,407.2 11.133947,48.728145,407.5 11.134256,48.728194,407.9 11.134454,48.728249,408.2 11.134844,48.728456,409.4 11.135366,48.728553,411.3 11.135618,48.7286,412.3 11.135705,48.728708,412.9 11.1358,48.728767,413.5 11.135901,48.728806,414.0 11.136213,48.728828,415.4 11.136335,48.728899,416.2 11.136391,48.728992,417.0 11.136324,48.729059,417.5 11.136069,48.729196,418.9 11.136414,48.729135,420.3 11.136595,48.729059,421.0 11.136877,48.729087,421.9 11.137255,48.729158,422.9 11.137792,48.729211,424.1 11.138091,48.729202,424.7 11.138659,48.728883,426.2 11.139107,48.728872,427.0 11.139994,48.728662,429.0 11.140137,48.728628,429.4 11.141003,48.728538,431.4 11.143256,48.728609,437.3 11.143902,48.728647,438.2 11.143676,48.728716,438.4 11.143348,48.728912,438.6 11.142984,48.729196,438.3 11.142789,48.729348,437.7 11.142678,48.729683,436.3 11.142781,48.729759,436.0 11.143433,48.729918,434.7 11.143805,48.730033,433.9 11.143728,48.730062,433.7 11.143493,48.730037,433.2 11.143376,48.730088,432.8 11.143257,48.730214,432.3 11.143135,48.730212,432.0 11.143059,48.730187,431.8 11.14277,48.730184,430.9 11.143059,48.730187,429.9 11.143135,48.730212,429.5 11.143257,48.730214,429.0 11.143336,48.730221,428.8 11.143422,48.730307,428.3 11.143494,48.730334,428.1 11.143615,48.730306,427.6 11.143494,48.730334,427.1 11.143532,48.730368,426.8 11.143675,48.730371,426.1 11.1438,48.730404,425.3 11.143538,48.730676,421.3 11.143371,48.730818,418.5 11.143538,48.730676,415.8 11.143553,48.730751,414.7 11.143766,48.730815,412.5 11.143928,48.730826,411.1 11.144055,48.730898,409.6 11.14403,48.731035,407.7 11.143996,48.731213,405.4 11.144019,48.73129,404.3 11.143632,48.731281,401.1 11.143468,48.731278,399.6 11.14298,48.731346,395.2 11.143214,48.732225,389.4 11.143253,48.73275,386.8 11.143295,48.7331,385.7 11.142775,48.733264,385.2 11.142523,48.733282,385.1 11.141325,48.733235,384.9 11.140596,48.733253,384.8 11.139893,48.733318,384.7 11.139196,48.733428,384.5 11.137637,48.733727,384.1 11.13608,48.734085,383.4 11.134644,48.734473,382.8 11.133327,48.734861,382.8 11.130601,48.735726,384.1 11.128274,48.736433,385.1 11.125786,48.737115,385.1 11.12525,48.737245,384.9 11.124317,48.737399,384.3 11.123695,48.737471,383.9 11.122531,48.737496,383.2 11.121919,48.737475,383.2 11.12071,48.737335,384.0 11.119913,48.737189,384.8 11.118955,48.73698,385.8 11.117105,48.736578,387.1 11.112191,48.735336,390.5 11.110717,48.73489,399.6 11.110635,48.734814,400.7 11.110644,48.734624,402.7 11.110868,48.73425,407.0 11.111062,48.734151,408.7 11.111512,48.733458,415.2 11.112188,48.732814,420.5 11.112735,48.731611,425.7 11.113095,48.731045,427.9 11.112338,48.730684,429.8 11.112006,48.730578,430.4 11.111738,48.730457,431.0 11.111394,48.730125,432.1 11.111298,48.729948,432.5 11.111233,48.729693,432.9 11.111324,48.729205,433.3 11.111324,48.728971,433.5 11.111287,48.728834,433.6 11.111213,48.728729,433.7 11.111457,48.728689,433.9 11.111357,48.72861,434.0 11.111225,48.728307,434.4 11.111001,48.728077,434.7 11.110487,48.727624,435.6 11.110185,48.727269,436.8 11.109993,48.727139,437.4 11.109815,48.727068,437.9 11.109647,48.727037,438.3 11.108484,48.72703,440.4 11.108397,48.727009,440.5 11.10833,48.726953,440.6 11.108394,48.726561,440.9 11.108453,48.725767,439.8 11.108426,48.725047,438.9 11.108178,48.725047,438.8 11.108109,48.724882,438.9 11.108184,48.724426,439.5 11.108084,48.723967,440.4 11.107999,48.723815,440.6 11.107564,48.723509,440.7 11.107157,48.723162,440.0 11.106753,48.722893,438.9 11.107095,48.722708,437.6 11.107477,48.72261,436.1 11.108628,48.722087,430.8 11.108673,48.722063,430.6 11.108784,48.722005,430.2 11.109056,48.721859,429.3 11.109417,48.721648,428.6 11.109462,48.721618,428.5 11.10961,48.72152,428.4 11.109841,48.721309,428.4 11.10989,48.721154,428.7 11.109888,48.721021,428.9 11.109859,48.720873,429.3 11.11011,48.720867,429.8 11.1101,48.720718,430.4 11.110138,48.720514,431.4 11.110339,48.720206,433.0 11.110368,48.719889,434.3 11.11025,48.71958,435.4 11.10982,48.719602,436.1 11.109772,48.719542,436.3 11.109492,48.719547,436.6</coordinates>
                </LineString>
            </MultiGeometry>
        </Placemark>
        <Placemark id="131">
            <name>Oberhausen, Hauptstraße</name>
            <Point id="130">
                <coordinates>11.109478,48.719571,0</coordinates>
            </Point>
        </Placemark>
        <Placemark id="133">
            <name>University of Applied Sciences Building</name>
            <Point id="132">
                <coordinates>11.130033,48.728455,400.0</coordinates>
            </Point>
        </Placemark>
        <Placemark id="135">
            <name>Fischerheim and Chapel</name>
            <Point id="134">
                <coordinates>11.130809,48.727895,421.5</coordinates>
            </Point>
        </Placemark>
        <Placemark id="137">
            <name>Chapel in Upper Bavaria</name>
            <Point id="136">
                <coordinates>11.130885,48.72834,394.3</coordinates>
            </Point>
        </Placemark>
        <Placemark id="139">
            <name>Silbersee</name>
            <Point id="138">
                <coordinates>11.135416,48.728439,416.9</coordinates>
            </Point>
        </Placemark>
        <Placemark id="141">
            <name>Old Castle Neuburg on the Danube</name>
            <Point id="140">
                <coordinates>11.142691,48.730148,452.4</coordinates>
            </Point>
        </Placemark>
        <Placemark id="143">
            <name>Alte Burg Neuburg Ruins</name>
            <Point id="142">
                <coordinates>11.143579,48.730236,429.5</coordinates>
            </Point>
        </Placemark>
        <Placemark id="145">
            <name>Alte Burg Ruins</name>
            <Point id="144">
                <coordinates>11.143371,48.730818,435.0</coordinates>
            </Point>
        </Placemark>
        <Placemark id="147">
            <name>Ascent Trail to the Old Castle</name>
            <Point id="146">
                <coordinates>11.144016,48.731034,387.4</coordinates>
            </Point>
        </Placemark>
    </Document>
</kml>
