<?xml version="1.0" encoding="UTF-8"?>
<kml xmlns="http://www.opengis.net/kml/2.2" xmlns:gx="http://www.google.com/kml/ext/2.2">
    <Document id="257">
        <name>Amper bei Geiselbullach – Blick auf den Mühlbach Runde von Olching-2829815922.gpx</name>
        <Placemark id="259">
            <name>Amper bei Geiselbullach – Blick auf den Mühlbach Runde von Olching</name>
            <MultiGeometry id="258">
                <LineString id="260">
                    <coordinates>11.326869,48.206606,504.7 11.326952,48.206688,504.6 11.327063,48.206819,504.5 11.327084,48.206966,504.4 11.327057,48.206976,504.3 11.326925,48.207029,504.2 11.326879,48.207052,504.2 11.326909,48.207171,504.1 11.326991,48.207303,503.9 11.327015,48.207314,503.9 11.326973,48.20739,503.8 11.326835,48.207492,503.7 11.326709,48.207595,503.6 11.326461,48.207781,503.3 11.326106,48.208043,502.9 11.325774,48.208233,502.6 11.325695,48.208283,502.6 11.32555,48.208392,502.5 11.325283,48.20829,502.5 11.325178,48.208253,502.5 11.324645,48.208093,502.6 11.32458,48.208073,502.6 11.32392,48.207957,502.7 11.322935,48.207699,503.1 11.322461,48.207483,503.5 11.322122,48.207291,503.6 11.321989,48.207206,503.6 11.321974,48.207191,503.6 11.321916,48.207148,503.6 11.321765,48.207028,503.5 11.321635,48.206888,503.5 11.32144,48.206695,503.3 11.320655,48.20616,502.6 11.320524,48.206108,502.5 11.320148,48.206033,502.1 11.31956,48.20587,501.7 11.318916,48.205796,501.4 11.318258,48.205653,501.4 11.317934,48.205462,501.4 11.317558,48.205297,501.6 11.316957,48.204766,502.0 11.316808,48.204662,502.1 11.316483,48.204535,502.3 11.316331,48.204485,502.4 11.316225,48.204211,502.7 11.316048,48.203893,502.9 11.315734,48.203614,503.0 11.31511,48.202961,503.6 11.314981,48.202725,503.7 11.314872,48.202395,503.9 11.314888,48.2022,504.0 11.314352,48.202311,504.3 11.313314,48.202785,504.8 11.313155,48.202905,504.8 11.313048,48.20305,504.8 11.313013,48.203253,504.8 11.313147,48.203504,504.8 11.31331,48.203679,504.7 11.313513,48.203787,504.6 11.314301,48.203917,504.1 11.314865,48.204207,503.5 11.315045,48.204447,503.2 11.315022,48.204772,502.8 11.315048,48.204927,502.6 11.315168,48.205079,502.3 11.315705,48.205249,501.9 11.316083,48.205466,501.5 11.316478,48.205901,501.1 11.316569,48.205962,501.1 11.316937,48.206208,500.9 11.318014,48.206544,501.1 11.318139,48.206601,501.1 11.318578,48.207262,501.5 11.318587,48.207608,501.7 11.318241,48.2081,502.0 11.318309,48.208301,502.0 11.318426,48.208494,502.0 11.318805,48.208679,502.0 11.319286,48.20883,501.9 11.31981,48.208744,501.7 11.321556,48.20859,501.6 11.322107,48.208586,501.8 11.322095,48.208554,501.8 11.322095,48.208554,501.8 11.321735,48.208201,502.2 11.32158,48.208239,502.3 11.32139,48.208187,502.5 11.321438,48.208044,502.7 11.321376,48.207877,502.9 11.321461,48.207698,503.1 11.321784,48.207368,503.2 11.321916,48.207148,503.3 11.321974,48.207191,503.3 11.321989,48.207206,503.3 11.321935,48.207307,503.3 11.321952,48.207345,503.3 11.321959,48.207491,503.3 11.322076,48.207852,503.2 11.322235,48.207949,503.1 11.322477,48.208228,502.9 11.3226,48.208486,502.8 11.322671,48.208641,502.7 11.322696,48.208697,502.7 11.322866,48.208976,502.6 11.322942,48.209046,502.7 11.323074,48.209296,502.8 11.323226,48.209499,502.9 11.323226,48.20958,502.9 11.323341,48.209657,503.0 11.323388,48.209806,503.1 11.32356,48.209759,503.1 11.323981,48.209964,503.2 11.324179,48.210154,503.2 11.324436,48.210628,503.2 11.324423,48.210844,503.1 11.324466,48.211025,502.9 11.324574,48.211215,502.7 11.324675,48.211484,502.3 11.324749,48.21175,501.9 11.32489,48.211997,501.5 11.324991,48.212091,501.3 11.325845,48.212551,500.1 11.326145,48.212874,499.6 11.32612,48.213001,499.5 11.326228,48.213931,498.6 11.326564,48.215676,498.3 11.326765,48.216072,498.6 11.327131,48.216273,498.9 11.32736,48.216314,499.0 11.327593,48.216355,499.1 11.328745,48.216169,499.6 11.328597,48.215973,499.7 11.328581,48.21584,499.6 11.328763,48.21578,499.6 11.328929,48.216107,499.2 11.329034,48.216341,498.8 11.329035,48.216357,498.8 11.329148,48.216343,498.6 11.329304,48.216291,498.4 11.3297,48.216261,497.9 11.330497,48.216136,496.9 11.331573,48.216315,495.8 11.332088,48.216258,495.7 11.332988,48.215845,495.8 11.333412,48.215582,495.9 11.333975,48.215432,496.0 11.334051,48.215435,495.9 11.334198,48.215441,495.9 11.334414,48.215485,495.8 11.335023,48.21579,495.4 11.335272,48.215964,495.1 11.3359,48.216251,494.3 11.336082,48.216532,493.9 11.336192,48.216934,493.4 11.336361,48.21726,493.2 11.336705,48.217558,493.2 11.337588,48.217875,493.5 11.338309,48.217992,493.9 11.339164,48.217993,494.5 11.339452,48.218063,494.6 11.3397,48.21826,494.9 11.339821,48.218554,495.1 11.339812,48.218833,495.3 11.339885,48.219141,495.4 11.340274,48.219419,495.6 11.340596,48.219522,495.6 11.341132,48.219543,495.7 11.342057,48.219332,495.7 11.343224,48.219669,495.8 11.343655,48.219757,495.8 11.343851,48.219828,495.8 11.343974,48.219938,495.8 11.344141,48.22017,495.8 11.344155,48.220847,495.7 11.344013,48.221077,495.8 11.343738,48.221288,495.8 11.342969,48.22152,495.9 11.34231,48.221637,496.2 11.341948,48.221736,496.4 11.341867,48.221786,496.5 11.341818,48.221817,496.5 11.341626,48.221938,496.7 11.341472,48.222139,496.8 11.341314,48.222346,496.9 11.341242,48.222575,497.0 11.341254,48.223013,497.2 11.341642,48.223467,497.2 11.342197,48.223726,497.2 11.342689,48.223863,497.2 11.343141,48.224024,497.3 11.343619,48.224401,497.6 11.343758,48.224676,497.8 11.34386,48.224796,497.8 11.343967,48.224862,497.9 11.344048,48.224821,497.9 11.344401,48.224639,498.0 11.344542,48.224564,498.1 11.34457,48.224603,498.1 11.344652,48.224558,498.1 11.344665,48.224604,498.1 11.344473,48.2247,498.1 11.344291,48.224792,498.1 11.344473,48.2247,498.1 11.344665,48.224604,498.1 11.344652,48.224558,498.1 11.34457,48.224603,498.1 11.344542,48.224564,498.1 11.344497,48.224441,498.0 11.344504,48.224332,498.0 11.344565,48.22423,498.0 11.344643,48.22417,498.0 11.344836,48.224014,497.9 11.344934,48.223875,497.8 11.344905,48.22329,497.5 11.344947,48.223069,497.4 11.34492,48.222937,497.4 11.344682,48.222694,497.3 11.344062,48.222348,497.1 11.343792,48.222127,496.9 11.34375,48.222062,496.9 11.343761,48.221968,496.9 11.34381,48.221867,496.8 11.343969,48.221706,496.8 11.344564,48.221401,496.6 11.344751,48.221218,496.5 11.34482,48.221066,496.4 11.344865,48.220906,496.4 11.344819,48.220695,496.4 11.344581,48.220274,496.4 11.344496,48.219513,496.8 11.344317,48.219277,496.9 11.344075,48.219042,497.1 11.343312,48.218531,497.5 11.342925,48.218324,497.7 11.342347,48.217955,497.7 11.341919,48.217798,497.5 11.34131,48.217417,496.9 11.340549,48.217017,496.2 11.34005,48.216808,496.0 11.339931,48.216706,496.0 11.339623,48.216607,496.0 11.33935,48.216575,496.2 11.339134,48.216462,496.4 11.338991,48.216292,496.6 11.33841,48.216011,497.4 11.33785,48.215813,498.1 11.337708,48.215807,498.3 11.335652,48.214802,500.0 11.335625,48.214833,500.1 11.335463,48.214977,500.2 11.335374,48.215048,500.2 11.335144,48.214948,500.2 11.334876,48.214817,500.2 11.334609,48.214672,500.1 11.334262,48.214589,500.1 11.333707,48.214235,500.1 11.333144,48.213886,500.0 11.33265,48.213512,499.7 11.332441,48.213294,499.7 11.331657,48.212631,499.9 11.33063,48.211693,501.2 11.330521,48.21155,501.4 11.330383,48.211259,501.6 11.33027,48.210806,501.8 11.330213,48.21074,501.8 11.330094,48.210601,501.8 11.329976,48.210491,501.8 11.329746,48.210343,501.8 11.329366,48.210228,501.8 11.329116,48.210213,501.7 11.328242,48.210254,501.9 11.32785,48.210253,502.0 11.327409,48.210195,502.1 11.326957,48.210065,502.2 11.326694,48.209949,502.3 11.326448,48.209801,502.4 11.326097,48.209494,502.5 11.325921,48.209225,502.6 11.325873,48.209078,502.6 11.325704,48.208323,502.8 11.325695,48.208283,502.8 11.325682,48.208199,502.8 11.325618,48.207803,502.9 11.325239,48.20727,503.1 11.325113,48.206942,503.2 11.325106,48.206558,503.4 11.325144,48.206298,503.5 11.325062,48.20616,503.5 11.325013,48.206105,503.5 11.324713,48.205768,503.4 11.324559,48.205786,503.4 11.324258,48.205683,503.3 11.324025,48.205284,502.9 11.322439,48.204999,502.1 11.319533,48.204501,502.7 11.319282,48.204417,502.7 11.319101,48.20435,502.7 11.318916,48.20428,502.7 11.317638,48.203451,502.5 11.317023,48.203053,502.4 11.316277,48.202666,502.3 11.317255,48.203543,502.1 11.317322,48.203603,502.1 11.317344,48.203882,502.0 11.317215,48.204203,501.9 11.317141,48.204638,501.8 11.317042,48.204631,501.8 11.316957,48.204766,501.7 11.317558,48.205297,501.5 11.317934,48.205462,501.4 11.318258,48.205653,501.4 11.318916,48.205796,501.4 11.31956,48.20587,501.7 11.320148,48.206033,502.1 11.320524,48.206108,502.5 11.320655,48.20616,502.6 11.32144,48.206695,503.3 11.321635,48.206888,503.5 11.321765,48.207028,503.5 11.321916,48.207148,503.6 11.321974,48.207191,503.6 11.321989,48.207206,503.6 11.322122,48.207291,503.6 11.322461,48.207483,503.5 11.322935,48.207699,503.1 11.32392,48.207957,502.7 11.32458,48.208073,502.6 11.324645,48.208093,502.6 11.325178,48.208253,502.5 11.325283,48.20829,502.5 11.32555,48.208392,502.5 11.325695,48.208283,502.6 11.325774,48.208233,502.6 11.326106,48.208043,502.9 11.326461,48.207781,503.3 11.326709,48.207595,503.6 11.326835,48.207492,503.7 11.326973,48.20739,503.8 11.327015,48.207314,503.9 11.326991,48.207303,503.9 11.326909,48.207171,504.1 11.326879,48.207052,504.2 11.326925,48.207029,504.2 11.327057,48.206976,504.3 11.327084,48.206966,504.4 11.327063,48.206819,504.5 11.326952,48.206688,504.6 11.326869,48.206606,504.7</coordinates>
                </LineString>
            </MultiGeometry>
        </Placemark>
        <Placemark id="263">
            <name>Auf der Insel</name>
            <Point id="262">
                <coordinates>11.326812,48.206631,0</coordinates>
            </Point>
        </Placemark>
        <Placemark id="265">
            <name>Maypole at Olching marketplace</name>
            <Point id="264">
                <coordinates>11.327268,48.207011,544.0</coordinates>
            </Point>
        </Placemark>
        <Placemark id="267">
            <name>Viewpoint</name>
            <Point id="266">
                <coordinates>11.32356,48.209759,0</coordinates>
            </Point>
        </Placemark>
        <Placemark id="269">
            <name>View of the Amper River</name>
            <Point id="268">
                <coordinates>11.334055,48.215397,503.0</coordinates>
            </Point>
        </Placemark>
        <Placemark id="271">
            <name>Amper River</name>
            <Point id="270">
                <coordinates>11.341477,48.222141,548.0</coordinates>
            </Point>
        </Placemark>
        <Placemark id="273">
            <name>Amper River near Geiselbullach</name>
            <Point id="272">
                <coordinates>11.344302,48.224802,549.6</coordinates>
            </Point>
        </Placemark>
        <Placemark id="275">
            <name>Golf course on the Amper Trail</name>
            <Point id="274">
                <coordinates>11.343943,48.222396,497.5</coordinates>
            </Point>
        </Placemark>
        <Placemark id="277">
            <name>View of the Mühlbach</name>
            <Point id="276">
                <coordinates>11.335433,48.214955,518.8</coordinates>
            </Point>
        </Placemark>
        <Placemark id="279">
            <name>Mühlbach (Olching Power Plant)</name>
            <Point id="278">
                <coordinates>11.324715,48.205775,503.8</coordinates>
            </Point>
        </Placemark>
        <Placemark id="281">
            <name>Amperauen Olching South</name>
            <Point id="280">
                <coordinates>11.31722,48.20356,504.9</coordinates>
            </Point>
        </Placemark>
    </Document>
</kml>
