<?xml version="1.0" encoding="UTF-8"?>
<kml xmlns="http://www.opengis.net/kml/2.2" xmlns:gx="http://www.google.com/kml/ext/2.2">
    <Document id="233">
        <name>Amper bei Geiselbullach – Blick auf den Mühlbach Runde von Olching-2829815535.gpx</name>
        <Placemark id="235">
            <name>Amper bei Geiselbullach – Blick auf den Mühlbach Runde von Olching</name>
            <MultiGeometry id="234">
                <LineString id="236">
                    <coordinates>11.337601,48.212621,503.6 11.337549,48.212602,503.6 11.337601,48.212621,503.6 11.337806,48.212696,503.6 11.337868,48.212747,503.6 11.337866,48.212798,503.6 11.337676,48.212972,503.5 11.337105,48.213492,502.8 11.336919,48.213652,502.5 11.336411,48.214098,501.7 11.336448,48.214141,501.7 11.336426,48.214199,501.6 11.336951,48.214411,501.1 11.336976,48.21442,501.0 11.337195,48.214499,500.8 11.337494,48.214649,500.6 11.338003,48.214903,500.2 11.33819,48.215009,500.0 11.338261,48.215115,499.9 11.338332,48.215222,499.8 11.338415,48.215295,499.7 11.338191,48.215515,499.3 11.33785,48.215813,498.5 11.338361,48.215994,497.7 11.33841,48.216011,497.7 11.338991,48.216292,496.6 11.339134,48.216462,496.4 11.33935,48.216575,496.2 11.339623,48.216607,496.0 11.339931,48.216706,496.0 11.34005,48.216808,496.0 11.340549,48.217017,496.2 11.34131,48.217417,496.9 11.341919,48.217798,497.5 11.342347,48.217955,497.7 11.342925,48.218324,497.7 11.343312,48.218531,497.5 11.344075,48.219042,497.1 11.344317,48.219277,496.9 11.344496,48.219513,496.8 11.344581,48.220274,496.4 11.344819,48.220695,496.4 11.344865,48.220906,496.4 11.34482,48.221066,496.4 11.344751,48.221218,496.5 11.344564,48.221401,496.6 11.343969,48.221706,496.8 11.34381,48.221867,496.8 11.343761,48.221968,496.9 11.34375,48.222062,496.9 11.343792,48.222127,496.9 11.344062,48.222348,497.1 11.344682,48.222694,497.3 11.34492,48.222937,497.4 11.344947,48.223069,497.4 11.344905,48.22329,497.5 11.344934,48.223875,497.8 11.344836,48.224014,497.9 11.344643,48.22417,498.0 11.344565,48.22423,498.0 11.344504,48.224332,498.0 11.344497,48.224441,498.0 11.344542,48.224564,498.1 11.34457,48.224603,498.1 11.344652,48.224558,498.1 11.344665,48.224604,498.1 11.344473,48.2247,498.1 11.344291,48.224792,498.1 11.344473,48.2247,498.1 11.344665,48.224604,498.1 11.344652,48.224558,498.1 11.34457,48.224603,498.1 11.344542,48.224564,498.1 11.344401,48.224639,498.0 11.344048,48.224821,497.9 11.343967,48.224862,497.9 11.34386,48.224796,497.8 11.343758,48.224676,497.8 11.343619,48.224401,497.6 11.343141,48.224024,497.3 11.342689,48.223863,497.2 11.342197,48.223726,497.2 11.341642,48.223467,497.2 11.341254,48.223013,497.2 11.341242,48.222575,497.0 11.341314,48.222346,496.9 11.341472,48.222139,496.8 11.341626,48.221938,496.7 11.341818,48.221817,496.5 11.341867,48.221786,496.5 11.341948,48.221736,496.4 11.34231,48.221637,496.2 11.342969,48.22152,495.9 11.343738,48.221288,495.8 11.344013,48.221077,495.8 11.344155,48.220847,495.7 11.344141,48.22017,495.8 11.343974,48.219938,495.8 11.343851,48.219828,495.8 11.343655,48.219757,495.8 11.343224,48.219669,495.8 11.342057,48.219332,495.7 11.341132,48.219543,495.7 11.340596,48.219522,495.6 11.340274,48.219419,495.6 11.339885,48.219141,495.4 11.339812,48.218833,495.3 11.339821,48.218554,495.1 11.3397,48.21826,494.9 11.339452,48.218063,494.6 11.339164,48.217993,494.5 11.338309,48.217992,493.9 11.337588,48.217875,493.5 11.336705,48.217558,493.2 11.336361,48.21726,493.2 11.336192,48.216934,493.4 11.336082,48.216532,493.9 11.3359,48.216251,494.3 11.335272,48.215964,495.1 11.335023,48.21579,495.4 11.334414,48.215485,495.8 11.334198,48.215441,495.9 11.334051,48.215435,495.9 11.333975,48.215432,496.0 11.333412,48.215582,495.9 11.332988,48.215845,495.8 11.332088,48.216258,495.7 11.331573,48.216315,495.8 11.330497,48.216136,496.9 11.3297,48.216261,497.9 11.329304,48.216291,498.3 11.329148,48.216343,498.4 11.329035,48.216357,498.5 11.329034,48.216341,498.6 11.328929,48.216107,498.8 11.328763,48.21578,498.7 11.328838,48.215727,498.7 11.328926,48.215756,498.6 11.329199,48.216015,498.1 11.329289,48.21604,498.0 11.330627,48.21584,496.0 11.331141,48.215945,495.5 11.331431,48.216012,495.2 11.331776,48.216033,495.1 11.332334,48.215862,495.1 11.332789,48.215592,495.4 11.333681,48.215203,496.9 11.334141,48.215209,497.7 11.334212,48.215056,498.0 11.334262,48.214589,498.9 11.334441,48.214632,499.2 11.334609,48.214672,499.4 11.334876,48.214817,499.9 11.335144,48.214948,500.2 11.335374,48.215048,500.4 11.335463,48.214977,500.5 11.335625,48.214833,500.6 11.335652,48.214802,500.6 11.3357,48.214756,500.7 11.335755,48.214686,500.7 11.335829,48.214615,500.8 11.336266,48.214208,501.5 11.336232,48.214167,501.6 11.336241,48.214121,501.7 11.336217,48.214112,501.7 11.336811,48.213603,502.6 11.337077,48.213366,503.0 11.337116,48.213331,503.0 11.337154,48.213345,503.0 11.337396,48.21311,503.3 11.337374,48.213086,503.4 11.337614,48.212879,503.5 11.337806,48.212696,503.6 11.337601,48.212621,503.6</coordinates>
                </LineString>
            </MultiGeometry>
        </Placemark>
        <Placemark id="239">
            <name>Olching, Daxerstraße</name>
            <Point id="238">
                <coordinates>11.337601,48.212621,0</coordinates>
            </Point>
        </Placemark>
        <Placemark id="241">
            <name>Moriskentänzer statue in Olching</name>
            <Point id="240">
                <coordinates>11.337527,48.212629,557.1</coordinates>
            </Point>
        </Placemark>
        <Placemark id="243">
            <name>Daxerhof Beer Garden</name>
            <Point id="242">
                <coordinates>11.337774,48.21302,547.0</coordinates>
            </Point>
        </Placemark>
        <Placemark id="245">
            <name>Playground on the Amper River</name>
            <Point id="244">
                <coordinates>11.338388,48.215961,11.3</coordinates>
            </Point>
        </Placemark>
        <Placemark id="247">
            <name>Golf course on the Amper Trail</name>
            <Point id="246">
                <coordinates>11.343943,48.222396,497.5</coordinates>
            </Point>
        </Placemark>
        <Placemark id="249">
            <name>Amper River near Geiselbullach</name>
            <Point id="248">
                <coordinates>11.344302,48.224802,549.6</coordinates>
            </Point>
        </Placemark>
        <Placemark id="251">
            <name>Amper River</name>
            <Point id="250">
                <coordinates>11.341477,48.222141,548.0</coordinates>
            </Point>
        </Placemark>
        <Placemark id="253">
            <name>View of the Amper River</name>
            <Point id="252">
                <coordinates>11.334055,48.215397,503.0</coordinates>
            </Point>
        </Placemark>
        <Placemark id="255">
            <name>View of the Mühlbach</name>
            <Point id="254">
                <coordinates>11.335433,48.214955,518.8</coordinates>
            </Point>
        </Placemark>
    </Document>
</kml>
