<?xml version="1.0" encoding="UTF-8"?>
<kml xmlns="http://www.opengis.net/kml/2.2" xmlns:gx="http://www.google.com/kml/ext/2.2">
    <Document id="521">
        <name>Auf dem Biberpfad – Stadtmauer Schrobenhausen Runde von Schrobenhausen-2747929645.gpx</name>
        <Placemark id="523">
            <name>Auf dem Biberpfad – Stadtmauer Schrobenhausen Runde von Schrobenhausen</name>
            <MultiGeometry id="522">
                <LineString id="524">
                    <coordinates>11.259456,48.565384,415.2 11.259501,48.565365,415.2 11.259993,48.565169,415.1 11.259893,48.565049,415.1 11.259918,48.565003,415.1 11.260195,48.564875,415.0 11.260706,48.56464,414.7 11.261406,48.56422,414.1 11.261166,48.563606,413.5 11.26143,48.563496,413.3 11.260905,48.563052,412.9 11.261645,48.562764,413.0 11.262345,48.562555,413.1 11.262413,48.562531,413.1 11.262539,48.562483,413.2 11.262589,48.562339,413.2 11.262595,48.562256,413.2 11.262595,48.562125,413.3 11.26265,48.561558,413.6 11.262778,48.560937,413.6 11.262931,48.560326,413.3 11.263141,48.559915,413.1 11.26313,48.559791,413.1 11.263137,48.55971,413.1 11.263098,48.559669,413.0 11.263527,48.559465,412.8 11.263586,48.55944,412.8 11.263731,48.559378,412.7 11.263094,48.558785,412.2 11.262833,48.558572,412.0 11.262474,48.558158,412.0 11.262348,48.558014,412.1 11.262282,48.557941,412.2 11.261789,48.557746,412.6 11.261109,48.557334,413.1 11.260914,48.557247,413.3 11.260726,48.557165,413.5 11.260685,48.557147,413.5 11.260665,48.557138,413.5 11.260627,48.55712,413.6 11.26061,48.557113,413.6 11.260571,48.557095,413.6 11.26027,48.556961,413.9 11.260108,48.556916,413.9 11.260015,48.556897,414.0 11.259835,48.556862,414.0 11.259927,48.556697,414.0 11.259987,48.556526,413.9 11.259469,48.555873,413.5 11.259466,48.555798,413.4 11.259515,48.555743,413.4 11.26051,48.555186,412.8 11.260373,48.555061,412.7 11.260196,48.554898,412.6 11.26008,48.554685,412.5 11.260134,48.554461,412.5 11.260064,48.554294,412.4 11.259771,48.553993,412.4 11.259549,48.55387,412.3 11.258798,48.553643,412.2 11.256521,48.553105,411.5 11.255901,48.552979,411.4 11.255252,48.552811,411.4 11.25456,48.552633,411.6 11.253995,48.552551,412.0 11.25308,48.552502,413.0 11.252685,48.552509,413.6 11.252317,48.552696,414.4 11.252051,48.552757,414.8 11.251728,48.552751,415.3 11.251326,48.5525,415.9 11.251258,48.552462,416.0 11.250472,48.552024,416.5 11.250395,48.551978,416.4 11.249956,48.551715,416.2 11.249684,48.551588,416.0 11.24902,48.551392,415.6 11.248947,48.551374,415.5 11.248874,48.551328,415.5 11.248883,48.551293,415.4 11.248933,48.551159,415.3 11.248949,48.551063,415.2 11.248903,48.551039,415.2 11.248821,48.551025,415.2 11.248753,48.551013,415.1 11.248417,48.551025,415.0 11.247477,48.55085,414.7 11.246879,48.550683,414.5 11.246326,48.550499,414.4 11.246264,48.550449,414.3 11.246266,48.550329,414.3 11.246553,48.549762,414.0 11.246672,48.549354,413.9 11.24663,48.549233,413.9 11.246426,48.549124,413.9 11.246081,48.549022,413.8 11.245603,48.548936,413.8 11.245397,48.548876,413.8 11.241483,48.54745,414.0 11.241219,48.547415,414.0 11.240231,48.547424,414.3 11.239583,48.547472,414.5 11.23946,48.54745,414.6 11.23939,48.547401,414.6 11.238948,48.547097,414.8 11.238219,48.546955,415.0 11.237458,48.54676,415.2 11.23556,48.546379,415.1 11.234606,48.546006,415.1 11.233387,48.545795,415.3 11.232956,48.545792,415.4 11.232587,48.54586,415.6 11.231956,48.545908,415.8 11.231746,48.545982,415.8 11.231668,48.546056,415.9 11.231543,48.546316,416.0 11.231404,48.546333,416.0 11.229583,48.546166,416.2 11.22763,48.546324,416.4 11.226373,48.546274,416.6 11.225735,48.546198,416.9 11.224054,48.545889,417.4 11.223635,48.54591,417.6 11.222681,48.546031,418.3 11.222331,48.546042,418.6 11.220802,48.545843,419.2 11.219909,48.545612,418.8 11.219293,48.54548,418.2 11.218486,48.545231,417.4 11.216855,48.544609,416.9 11.216226,48.544346,417.0 11.216075,48.544283,417.0 11.215247,48.543971,417.0 11.215231,48.543945,417.0 11.215126,48.543779,417.0 11.215127,48.543478,417.1 11.215049,48.542983,417.1 11.214988,48.54294,417.1 11.21486,48.542915,417.1 11.214704,48.542847,417.1 11.214347,48.542608,417.2 11.214116,48.542529,417.2 11.213525,48.542455,417.4 11.213015,48.542401,417.5 11.212715,48.54241,417.6 11.211412,48.542151,418.0 11.211308,48.542062,418.1 11.211209,48.54064,418.7 11.21129,48.540319,418.9 11.211267,48.540209,419.0 11.211232,48.540119,419.1 11.210763,48.539642,419.4 11.209862,48.53986,419.7 11.209279,48.540082,419.6 11.208912,48.540267,419.5 11.208647,48.540401,419.3 11.208606,48.540357,419.3 11.208087,48.540695,419.1 11.207593,48.541163,418.8 11.207268,48.541521,418.5 11.20703,48.541688,418.4 11.206778,48.541941,418.3 11.206566,48.542365,418.3 11.206516,48.542646,418.3 11.206545,48.542774,418.3 11.206662,48.543019,418.3 11.206627,48.543178,418.4 11.20654,48.543405,418.5 11.206248,48.544053,418.9 11.205969,48.544527,419.5 11.205991,48.544583,419.6 11.205923,48.544734,419.9 11.205901,48.544871,420.1 11.205892,48.544931,420.2 11.205872,48.545069,420.5 11.205857,48.545173,420.7 11.205832,48.545352,421.2 11.205823,48.545649,422.0 11.20609,48.545615,422.5 11.206665,48.545706,423.7 11.206979,48.545756,424.2 11.207189,48.545789,424.5 11.20745,48.545831,424.8 11.20774,48.545876,425.2 11.208092,48.545928,425.7 11.208334,48.545963,426.0 11.20848,48.545985,426.2 11.208986,48.546062,427.2 11.209089,48.54608,427.4 11.209134,48.54615,427.6 11.209126,48.546232,427.8 11.209079,48.546539,428.4 11.20909,48.546594,428.5 11.209261,48.546834,429.0 11.20935,48.546926,429.2 11.211599,48.546946,429.7 11.213759,48.547227,427.1 11.214618,48.547282,425.6 11.215478,48.547281,423.8 11.216138,48.547423,422.1 11.216242,48.546973,420.7 11.216362,48.546899,420.4 11.216648,48.546841,419.9 11.217056,48.5469,419.3 11.217789,48.546989,418.5 11.21798,48.546967,418.4 11.218234,48.54688,418.2 11.218573,48.546667,418.2 11.218797,48.546477,418.2 11.218976,48.546163,418.2 11.219143,48.545775,418.4 11.219209,48.545653,418.6 11.219273,48.545533,418.7 11.219293,48.54548,418.7 11.219909,48.545612,419.1 11.220802,48.545843,419.2 11.222331,48.546042,418.6 11.222681,48.546031,418.3 11.223635,48.54591,417.6 11.224054,48.545889,417.4 11.225735,48.546198,416.9 11.226373,48.546274,416.6 11.22763,48.546324,416.4 11.229583,48.546166,416.2 11.231404,48.546333,416.0 11.231543,48.546316,416.0 11.231668,48.546056,415.9 11.231746,48.545982,415.8 11.231956,48.545908,415.8 11.232587,48.54586,415.6 11.232956,48.545792,415.4 11.233387,48.545795,415.3 11.234606,48.546006,415.1 11.23556,48.546379,415.1 11.237458,48.54676,415.2 11.238219,48.546955,415.0 11.238948,48.547097,414.8 11.23939,48.547401,414.6 11.23946,48.54745,414.6 11.239583,48.547472,414.5 11.240231,48.547424,414.3 11.241219,48.547415,414.0 11.241483,48.54745,414.0 11.245397,48.548876,413.8 11.245603,48.548936,413.8 11.246081,48.549022,413.8 11.246426,48.549124,413.9 11.24663,48.549233,413.9 11.246672,48.549354,413.9 11.246553,48.549762,414.0 11.246266,48.550329,414.3 11.246264,48.550449,414.3 11.246326,48.550499,414.4 11.246879,48.550683,414.5 11.247477,48.55085,414.7 11.248417,48.551025,415.0 11.248753,48.551013,415.1 11.248903,48.551039,415.2 11.248949,48.551063,415.2 11.248933,48.551159,415.3 11.248883,48.551293,415.4 11.248874,48.551328,415.5 11.248947,48.551374,415.5 11.24902,48.551392,415.6 11.249684,48.551588,416.0 11.249956,48.551715,416.2 11.250472,48.552024,416.5 11.251326,48.5525,415.9 11.251728,48.552751,415.3 11.252051,48.552757,414.8 11.252317,48.552696,414.4 11.252685,48.552509,413.6 11.25308,48.552502,413.0 11.253995,48.552551,412.0 11.25456,48.552633,411.6 11.255901,48.552979,411.4 11.256521,48.553105,411.5 11.258798,48.553643,412.2 11.259549,48.55387,412.3 11.259771,48.553993,412.4 11.260064,48.554294,412.4 11.260134,48.554461,412.5 11.26008,48.554685,412.5 11.260196,48.554898,412.6 11.26051,48.555186,412.8 11.259515,48.555743,413.4 11.259466,48.555798,413.4 11.259469,48.555873,413.5 11.259987,48.556526,413.9 11.259927,48.556697,414.0 11.259835,48.556862,414.0 11.260015,48.556897,414.0 11.260108,48.556916,413.9 11.26027,48.556961,413.9 11.260571,48.557095,413.6 11.26061,48.557113,413.6 11.260627,48.55712,413.6 11.260665,48.557138,413.5 11.260685,48.557147,413.5 11.260726,48.557165,413.5 11.260914,48.557247,413.3 11.261109,48.557334,413.1 11.261789,48.557746,412.6 11.262282,48.557941,412.2 11.262348,48.558014,412.1 11.262474,48.558158,412.0 11.262833,48.558572,412.0 11.263094,48.558785,412.2 11.263731,48.559378,412.7 11.263586,48.55944,412.8 11.263527,48.559465,412.8 11.263098,48.559669,413.0 11.263137,48.55971,413.1 11.26313,48.559791,413.1 11.263141,48.559915,413.1 11.262957,48.560275,413.3 11.262931,48.560326,413.3 11.262778,48.560937,413.6 11.26265,48.561558,413.6 11.262595,48.562125,413.3 11.262595,48.562256,413.2 11.262589,48.562339,413.2 11.262539,48.562483,413.2 11.262413,48.562531,413.1 11.262345,48.562555,413.1 11.261645,48.562764,413.0 11.260905,48.563052,412.9 11.26143,48.563496,413.3 11.261166,48.563606,413.5 11.261406,48.56422,414.1 11.260706,48.56464,414.7 11.260195,48.564875,415.0 11.259918,48.565003,415.1 11.259893,48.565049,415.1 11.259993,48.565169,415.1 11.259501,48.565365,415.2 11.259456,48.565384,415.2</coordinates>
                </LineString>
            </MultiGeometry>
        </Placemark>
        <Placemark id="527">
            <name>Schrobenhausen</name>
            <Point id="526">
                <coordinates>11.259469,48.565403,0</coordinates>
            </Point>
        </Placemark>
        <Placemark id="529">
            <name>Scenic River View in Upper Bavaria</name>
            <Point id="528">
                <coordinates>11.260331,48.555081,412.8</coordinates>
            </Point>
        </Placemark>
        <Placemark id="531">
            <name>On the Beaver Trail</name>
            <Point id="530">
                <coordinates>11.255233,48.552843,409.3</coordinates>
            </Point>
        </Placemark>
        <Placemark id="533">
            <name>Hydroelectric Power Plant</name>
            <Point id="532">
                <coordinates>11.251573,48.552214,461.8</coordinates>
            </Point>
        </Placemark>
        <Placemark id="535">
            <name>Self-Service Farm Shop Schrobenhausen</name>
            <Point id="534">
                <coordinates>11.250357,48.552005,458.3</coordinates>
            </Point>
        </Placemark>
        <Placemark id="537">
            <name>Old Bavarian Oxen Trail</name>
            <Point id="536">
                <coordinates>11.248963,48.551163,416.8</coordinates>
            </Point>
        </Placemark>
        <Placemark id="539">
            <name>Bridge on Hans-Sachs-Weg</name>
            <Point id="538">
                <coordinates>11.248817,48.551035,464.4</coordinates>
            </Point>
        </Placemark>
        <Placemark id="541">
            <name>The Old Weir on the Paar</name>
            <Point id="540">
                <coordinates>11.215205,48.543952,416.2</coordinates>
            </Point>
        </Placemark>
        <Placemark id="543">
            <name>Schrobenhausen City Wall</name>
            <Point id="542">
                <coordinates>11.262969,48.560278,414.7</coordinates>
            </Point>
        </Placemark>
    </Document>
</kml>
