<?xml version="1.0" encoding="UTF-8"?>
<kml xmlns="http://www.opengis.net/kml/2.2" xmlns:gx="http://www.google.com/kml/ext/2.2">
    <Document id="575">
        <name>Ausblick auf Burgheim Runde von Burgheim-2942919493.gpx</name>
        <Placemark id="577">
            <name>Ausblick auf Burgheim Runde von Burgheim</name>
            <MultiGeometry id="576">
                <LineString id="578">
                    <coordinates>11.004294,48.702427,393.4 11.004357,48.702188,393.8 11.004922,48.702169,394.8 11.005468,48.702066,396.0 11.005693,48.701988,396.6 11.005756,48.701814,397.1 11.005761,48.701634,397.7 11.005861,48.701603,397.9 11.00592,48.701547,398.1 11.006181,48.701163,399.1 11.004375,48.701152,400.2 11.00257,48.701142,400.3 11.001368,48.701169,400.4 11.000267,48.701158,400.7 10.998835,48.701093,400.9 10.998005,48.700992,400.9 10.997379,48.700892,400.9 10.995975,48.700626,400.4 10.995261,48.700491,399.8 10.995028,48.700509,399.6 10.994421,48.700684,399.1 10.994234,48.7007,398.9 10.993885,48.700675,398.4 10.992819,48.700445,396.5 10.992705,48.700437,396.3 10.992617,48.700618,395.9 10.992679,48.700719,395.6 10.992994,48.700907,394.9 10.992993,48.701104,394.4 10.992847,48.701231,393.9 10.993264,48.701426,392.9 10.993297,48.70152,392.7 10.992909,48.703142,390.3 10.992998,48.703238,390.3 10.99455,48.703403,390.0 10.9951,48.703515,390.1 10.995722,48.703675,390.2 10.999012,48.70479,390.5 11.001759,48.705174,391.2 11.004926,48.705633,391.3 11.005547,48.705807,391.5 11.006868,48.706099,391.9 11.007039,48.706189,391.9 11.007217,48.706282,391.9 11.007238,48.706064,391.8 11.007285,48.70558,391.6 11.007297,48.705514,391.5 11.007336,48.705286,391.4 11.007677,48.705305,391.3 11.008107,48.705328,391.1 11.008318,48.705339,391.0 11.008712,48.70536,390.9 11.00899,48.705372,390.8 11.009056,48.705374,390.8 11.009397,48.705389,390.9 11.009793,48.705405,390.9 11.010075,48.705417,391.0 11.010374,48.705429,391.0 11.010477,48.705433,391.0 11.011582,48.705462,391.0 11.011602,48.705277,391.1 11.011532,48.705036,391.2 11.011482,48.704888,391.2 11.01141,48.704696,391.3 11.011305,48.704375,391.4 11.01131,48.704251,391.4 11.011385,48.70405,391.4 11.011484,48.703873,391.5 11.011555,48.703734,391.6 11.011604,48.703606,391.6 11.011642,48.703495,391.7 11.011651,48.703434,391.7 11.011679,48.703214,391.8 11.011663,48.702753,392.0 11.011659,48.702367,392.2 11.011693,48.702184,392.4 11.011892,48.701892,392.5 11.012251,48.701502,392.7 11.012341,48.701325,392.7 11.012335,48.701208,392.7 11.012822,48.701118,392.7 11.013068,48.701071,392.8 11.01332,48.701018,392.8 11.01349,48.700985,392.9 11.01332,48.701018,392.9 11.013068,48.701071,393.0 11.012822,48.701118,393.0 11.012335,48.701208,393.4 11.012077,48.701209,393.6 11.011659,48.701172,394.2 11.011506,48.701161,394.4 11.011464,48.701158,394.4 11.011035,48.701119,395.0 11.010988,48.701115,395.1 11.010725,48.701091,395.5 11.010667,48.701085,395.6 11.010217,48.701081,396.3 11.010084,48.701081,396.5 11.009876,48.701079,396.9 11.009696,48.701077,397.2 11.009262,48.701041,397.9 11.009028,48.701023,398.3 11.008843,48.701008,398.5 11.008776,48.701004,398.6 11.008169,48.700995,399.2 11.007563,48.701026,399.7 11.007538,48.701076,399.7 11.006324,48.701158,399.3 11.006181,48.701163,399.1 11.00592,48.701547,398.1 11.005861,48.701603,397.9 11.005761,48.701634,397.7 11.005756,48.701814,397.2 11.005693,48.701988,396.6 11.005468,48.702066,396.0 11.004922,48.702169,394.8 11.004357,48.702188,393.8 11.004294,48.702427,393.4</coordinates>
                </LineString>
            </MultiGeometry>
        </Placemark>
        <Placemark id="581">
            <name>Parking</name>
            <Point id="580">
                <coordinates>11.004239,48.702421,0</coordinates>
            </Point>
        </Placemark>
        <Placemark id="583">
            <name>View of Burgheim</name>
            <Point id="582">
                <coordinates>10.99597,48.700637,445.0</coordinates>
            </Point>
        </Placemark>
        <Placemark id="585">
            <name>Statue of Seated Figure and Geese, Burgheim</name>
            <Point id="584">
                <coordinates>11.013474,48.700951,443.4</coordinates>
            </Point>
        </Placemark>
    </Document>
</kml>
