<?xml version="1.0" encoding="UTF-8"?>
<kml xmlns="http://www.opengis.net/kml/2.2" xmlns:gx="http://www.google.com/kml/ext/2.2">
    <Document id="611">
        <name>Aussichtspunkt ins Altmühltal – Schloß Arnsberg Runde von Attenzell-1660337542.gpx</name>
        <Placemark id="613">
            <name>Aussichtspunkt ins Altmühltal – Schloß Arnsberg Runde von Attenzell</name>
            <MultiGeometry id="612">
                <LineString id="614">
                    <coordinates>11.389141,48.906124,472.8 11.389705,48.906232,473.1 11.389484,48.906745,473.8 11.389129,48.907862,475.4 11.389078,48.908141,475.7 11.389037,48.908775,476.0 11.389036,48.908824,476.0 11.389048,48.909067,476.0 11.389116,48.909271,475.9 11.389688,48.910073,475.4 11.390062,48.910937,474.8 11.390195,48.911146,474.9 11.390263,48.911158,474.9 11.390195,48.911146,474.9 11.390188,48.911254,475.0 11.39046,48.911766,475.8 11.390551,48.912052,476.5 11.390691,48.912676,478.4 11.39075,48.913233,480.3 11.390913,48.91367,482.1 11.391084,48.915001,488.3 11.39115,48.915208,489.2 11.391903,48.916464,493.2 11.391953,48.916583,493.5 11.392,48.916792,494.0 11.392112,48.917322,494.9 11.392112,48.91745,494.9 11.392112,48.917745,494.7 11.392177,48.918316,493.4 11.392236,48.91855,492.7 11.392332,48.918834,491.7 11.392323,48.919165,490.4 11.392401,48.919525,488.6 11.392417,48.919849,486.8 11.392313,48.920879,481.3 11.392648,48.92177,480.5 11.392683,48.922021,481.0 11.393186,48.924813,497.6 11.39327,48.925423,500.3 11.393181,48.925429,500.5 11.392921,48.925449,501.0 11.391974,48.925586,502.0 11.391798,48.925642,502.0 11.391592,48.925775,502.0 11.390398,48.925635,501.2 11.389926,48.925551,500.7 11.389059,48.925438,499.8 11.389059,48.925438,499.8 11.387703,48.925334,499.2 11.387501,48.925318,499.3 11.385159,48.925407,502.1 11.384661,48.927919,509.9 11.384365,48.927749,510.2 11.384126,48.927646,510.6 11.383548,48.9275,510.8 11.383175,48.927381,510.8 11.38289,48.927256,510.5 11.382636,48.927308,510.3 11.381985,48.927722,508.9 11.381786,48.927739,508.5 11.381386,48.927673,507.3 11.38073,48.927421,503.2 11.380476,48.927396,500.8 11.380475,48.927477,501.1 11.379973,48.927745,499.2 11.379884,48.927717,498.7 11.379789,48.92775,497.9 11.37972,48.927733,497.3 11.379685,48.927617,498.1 11.379533,48.9276,497.9 11.379392,48.927546,497.0 11.379303,48.927583,497.0 11.379271,48.9276,497.2 11.379183,48.927649,497.7 11.379081,48.927594,497.4 11.378948,48.927695,496.1 11.379081,48.927594,497.0 11.379183,48.927649,496.8 11.379271,48.9276,496.0 11.379303,48.927583,495.6 11.379392,48.927546,495.4 11.379533,48.9276,495.8 11.379685,48.927617,495.4 11.379728,48.927593,495.0 11.379763,48.927458,494.3 11.379783,48.927383,494.6 11.380166,48.927366,493.1 11.380339,48.927306,493.2 11.380367,48.927239,492.8 11.380323,48.927092,491.3 11.3801,48.926862,491.4 11.379883,48.926675,491.0 11.37965,48.926462,490.3 11.379589,48.926364,490.0 11.379417,48.926371,489.4 11.379232,48.926419,489.2 11.379176,48.926504,488.6 11.379075,48.926569,487.6 11.378737,48.926658,486.0 11.378646,48.926694,485.3 11.378583,48.92675,484.4 11.378646,48.926694,484.2 11.378737,48.926658,483.7 11.379075,48.926569,481.4 11.379176,48.926504,481.1 11.379232,48.926419,480.4 11.379437,48.926162,478.4 11.379366,48.926128,477.9 11.379146,48.925992,476.2 11.379111,48.925908,476.1 11.379116,48.925446,475.0 11.379006,48.924952,474.3 11.378991,48.924681,473.7 11.379012,48.92454,473.1 11.379012,48.92454,473.1 11.379085,48.924467,473.0 11.379095,48.924414,473.1 11.379055,48.924377,473.1 11.378736,48.924344,472.9 11.379089,48.924227,473.3 11.379621,48.924152,473.9 11.380021,48.924054,474.7 11.380136,48.924095,474.9 11.380268,48.924202,475.1 11.380525,48.924181,475.6 11.380494,48.923965,475.7 11.380232,48.92375,475.9 11.380163,48.923614,475.7 11.380178,48.923523,475.6 11.380232,48.923442,475.2 11.380512,48.923223,473.8 11.38044,48.923119,473.0 11.380382,48.923033,472.3 11.379812,48.922596,467.3 11.379345,48.921993,460.6 11.379312,48.921747,457.9 11.379391,48.921616,456.5 11.379509,48.921577,455.6 11.379399,48.921487,454.4 11.379362,48.921415,453.6 11.379408,48.921222,451.9 11.379384,48.921186,451.6 11.378904,48.920965,448.7 11.378326,48.920784,446.2 11.378181,48.920685,445.6 11.377882,48.920622,444.8 11.377796,48.920575,444.5 11.377822,48.920518,444.4 11.377796,48.920575,444.3 11.377637,48.920617,444.0 11.377653,48.920395,443.6 11.377547,48.919648,443.9 11.377573,48.919403,444.6 11.377445,48.919309,445.2 11.377551,48.918631,449.0 11.377226,48.917939,454.0 11.376991,48.917392,458.0 11.376883,48.917253,459.0 11.376131,48.916782,463.0 11.376032,48.916685,463.5 11.375994,48.916581,463.9 11.376015,48.916354,464.8 11.376323,48.915716,466.1 11.376334,48.915423,466.3 11.376355,48.915199,466.5 11.376587,48.914382,466.8 11.376717,48.914123,466.7 11.37699,48.91377,466.7 11.377139,48.913632,466.7 11.377418,48.913444,466.8 11.378116,48.913047,466.9 11.378384,48.912874,467.0 11.378481,48.912777,467.1 11.379309,48.911959,467.6 11.379728,48.911442,468.6 11.380279,48.910766,470.6 11.380432,48.910483,471.6 11.380696,48.909216,475.6 11.380817,48.9086,476.9 11.380939,48.907984,477.7 11.381035,48.907894,477.8 11.381142,48.907853,477.8 11.385084,48.907962,478.2 11.385715,48.907983,477.7 11.386372,48.908014,476.9 11.386578,48.907802,476.5 11.38678,48.907656,476.1 11.38755,48.907196,474.7 11.387861,48.906961,474.1 11.388844,48.906126,472.7 11.388888,48.906076,472.7 11.389141,48.906124,472.6</coordinates>
                </LineString>
            </MultiGeometry>
        </Placemark>
        <Placemark id="617">
            <name>Attenzell</name>
            <Point id="616">
                <coordinates>11.38914,48.906127,0</coordinates>
            </Point>
        </Placemark>
        <Placemark id="619">
            <name>Bench and wayside cross with a view in Naturpark Altmühltal</name>
            <Point id="618">
                <coordinates>11.390192,48.911137,474.8</coordinates>
            </Point>
        </Placemark>
        <Placemark id="621">
            <name>Forest trail in the Altmühl Valley Nature Park</name>
            <Point id="620">
                <coordinates>11.392099,48.91745,557.5</coordinates>
            </Point>
        </Placemark>
        <Placemark id="623">
            <name>Small forest pond in Naturpark Altmühltal</name>
            <Point id="622">
                <coordinates>11.393172,48.925377,540.8</coordinates>
            </Point>
        </Placemark>
        <Placemark id="625">
            <name>View of the Altmühl Valley from the Arnsberg Castle ruins</name>
            <Point id="624">
                <coordinates>11.37894,48.92769,493.6</coordinates>
            </Point>
        </Placemark>
        <Placemark id="627">
            <name>View of the Altmühl Valley and the Arnsberg Cliffs</name>
            <Point id="626">
                <coordinates>11.378571,48.926758,484.7</coordinates>
            </Point>
        </Placemark>
        <Placemark id="629">
            <name>Singletrack to Arnsberg Castle</name>
            <Point id="628">
                <coordinates>11.379342,48.921727,446.4</coordinates>
            </Point>
        </Placemark>
    </Document>
</kml>
