<?xml version="1.0" encoding="UTF-8"?>
<kml xmlns="http://www.opengis.net/kml/2.2" xmlns:gx="http://www.google.com/kml/ext/2.2">
    <Document id="631">
        <name>Baggersee Gauchsdorf-Bechhofen – Baggersee Gauchsdorf-Bechhofen Runde von Büchenbach-3223725075.gpx</name>
        <Placemark id="633">
            <name>Baggersee Gauchsdorf-Bechhofen – Baggersee Gauchsdorf-Bechhofen Runde von Büchenbach</name>
            <MultiGeometry id="632">
                <LineString id="634">
                    <coordinates>11.005471,49.264423,350.1 11.005044,49.264476,350.3 11.004914,49.264506,350.4 11.004287,49.264655,350.5 11.003573,49.264824,350.7 11.003385,49.264907,350.8 11.003237,49.264764,351.1 11.003152,49.264685,351.3 11.003084,49.264632,351.5 11.00303,49.264603,351.6 11.002874,49.264596,351.9 11.002712,49.264629,352.3 11.002662,49.264665,352.5 11.002712,49.264629,352.6 11.002531,49.264558,353.2 11.00242,49.264448,353.7 11.002387,49.264307,354.4 11.002544,49.263802,357.1 11.003175,49.263308,360.9 11.003305,49.262998,362.2 11.003332,49.262183,362.7 11.003205,49.261522,361.5 11.003142,49.2612,360.8 11.002417,49.261294,359.8 11.002029,49.261303,359.4 11.001663,49.261269,359.2 11.000536,49.261201,358.8 11.000389,49.261163,358.7 10.999626,49.261032,358.0 10.998976,49.260892,357.4 10.998626,49.260784,357.1 10.998296,49.26066,356.9 10.99811,49.26056,356.9 10.997962,49.260374,356.9 10.997856,49.26031,356.9 10.997081,49.260217,357.3 10.99676,49.260206,357.7 10.995562,49.260166,359.2 10.994481,49.260337,360.2 10.993905,49.260331,360.4 10.993201,49.260406,360.6 10.991947,49.260415,361.3 10.99164,49.260467,361.5 10.99135,49.260612,361.7 10.991252,49.260704,361.8 10.991132,49.260768,361.9 10.990642,49.260866,362.2 10.989835,49.260879,362.5 10.989532,49.260957,362.5 10.989451,49.261213,362.5 10.989362,49.261356,362.5 10.989272,49.261406,362.5 10.988585,49.261339,362.8 10.98847,49.261461,363.0 10.986982,49.261342,364.4 10.986957,49.261349,364.4 10.986781,49.261406,364.6 10.986235,49.261336,364.9 10.986073,49.261177,365.0 10.985837,49.26108,365.0 10.987428,49.260764,365.6 10.987222,49.260221,366.8 10.987136,49.259493,368.8 10.986993,49.2594,369.0 10.986993,49.259154,369.4 10.987677,49.259008,369.4 10.987993,49.258891,369.1 10.988518,49.258769,368.4 10.989169,49.258733,367.5 10.99055,49.258446,367.0 10.991164,49.258385,367.2 10.991703,49.258389,367.5 10.992021,49.258434,367.6 10.993484,49.258052,368.0 10.994013,49.257967,368.0 10.994327,49.257884,368.0 10.995099,49.25779,368.0 10.996136,49.257781,368.0 10.996542,49.257801,367.9 10.996858,49.257854,367.9 10.997326,49.257825,367.8 10.99744,49.257987,367.8 10.997546,49.258162,367.7 10.99772,49.258246,367.6 10.997958,49.258293,367.4 10.998342,49.258281,366.8 10.998591,49.258307,366.4 10.998656,49.258314,366.2 10.999281,49.25844,365.0 10.999515,49.258497,364.5 10.99986,49.258694,363.5 11.000065,49.258814,362.8 11.000502,49.258892,361.5 11.000817,49.258923,360.7 11.001131,49.259,360.0 11.001659,49.259337,359.0 11.001889,49.259401,358.9 11.002037,49.259415,358.8 11.002422,49.259452,358.6 11.002636,49.259501,358.6 11.002786,49.259569,358.6 11.003261,49.259755,359.1 11.003715,49.25989,360.0 11.003835,49.259971,360.2 11.003894,49.260096,360.5 11.003943,49.260398,361.0 11.004052,49.260683,361.2 11.004087,49.260875,361.3 11.004052,49.260959,361.4 11.003921,49.26108,361.6 11.003677,49.261145,361.9 11.003411,49.261157,362.1 11.003288,49.261177,362.3 11.003142,49.2612,362.4 11.003205,49.261522,362.6 11.003332,49.262183,362.7 11.003305,49.262998,362.2 11.003175,49.263308,360.9 11.002544,49.263802,357.1 11.002387,49.264307,354.4 11.00242,49.264448,353.7 11.002531,49.264558,353.2 11.002712,49.264629,352.7 11.002874,49.264596,352.2 11.00303,49.264603,351.9 11.003084,49.264632,351.7 11.003152,49.264685,351.5 11.003237,49.264764,351.3 11.003385,49.264907,350.9 11.003573,49.264824,350.8 11.004287,49.264655,350.5 11.004914,49.264506,350.4 11.005044,49.264476,350.3 11.005471,49.264423,350.1</coordinates>
                </LineString>
            </MultiGeometry>
        </Placemark>
        <Placemark id="637">
            <name>Gauchsdorf</name>
            <Point id="636">
                <coordinates>11.005457,49.264376,0</coordinates>
            </Point>
        </Placemark>
        <Placemark id="639">
            <name>Duck Farm in Middle Franconia</name>
            <Point id="638">
                <coordinates>11.004941,49.264554,395.1</coordinates>
            </Point>
        </Placemark>
        <Placemark id="641">
            <name>Free-range eggs from the Lehner family</name>
            <Point id="640">
                <coordinates>11.004291,49.264662,414.4</coordinates>
            </Point>
        </Placemark>
        <Placemark id="643">
            <name>Old saw gate on the Aurach</name>
            <Point id="642">
                <coordinates>11.002646,49.264655,350.6</coordinates>
            </Point>
        </Placemark>
        <Placemark id="645">
            <name>Baggersee Gauchsdorf-Bechhofen</name>
            <Point id="644">
                <coordinates>10.996759,49.260217,421.7</coordinates>
            </Point>
        </Placemark>
        <Placemark id="647">
            <name>View of the Sand Martin Nesting Site</name>
            <Point id="646">
                <coordinates>11.002029,49.25945,361.6</coordinates>
            </Point>
        </Placemark>
        <Placemark id="649">
            <name>Baggersee Gauchsdorf-Bechhofen</name>
            <Point id="648">
                <coordinates>11.00328,49.261153,374.0</coordinates>
            </Point>
        </Placemark>
        <Placemark id="651">
            <name>Forest – We All Live From It</name>
            <Point id="650">
                <coordinates>11.003115,49.263292,389.0</coordinates>
            </Point>
        </Placemark>
    </Document>
</kml>
