<?xml version="1.0" encoding="UTF-8"?>
<kml xmlns="http://www.opengis.net/kml/2.2" xmlns:gx="http://www.google.com/kml/ext/2.2">
    <Document id="653">
        <name>Bank am Fluss – Gailenbacher Mühle Runde von Schloss Gailenbach-3002103828.gpx</name>
        <Placemark id="655">
            <name>Bank am Fluss – Gailenbacher Mühle Runde von Schloss Gailenbach</name>
            <MultiGeometry id="654">
                <LineString id="656">
                    <coordinates>10.812288,48.418257,473.7 10.812675,48.418223,473.2 10.812656,48.418122,472.8 10.8131,48.418186,471.6 10.813087,48.418286,471.2 10.812924,48.418552,469.6 10.812997,48.418772,468.0 10.813164,48.418854,467.1 10.813363,48.418886,466.1 10.814005,48.418816,463.5 10.814241,48.418741,462.3 10.814678,48.41843,459.3 10.814822,48.418374,458.5 10.815014,48.418436,457.7 10.815483,48.418668,455.7 10.815604,48.418598,455.2 10.817398,48.418443,452.0 10.819415,48.418281,450.9 10.819935,48.418192,450.9 10.820095,48.418106,450.9 10.820301,48.417933,451.0 10.820666,48.417623,451.1 10.820671,48.417619,451.1 10.820779,48.417527,451.1 10.820954,48.417612,451.2 10.821012,48.417696,451.2 10.820939,48.417792,451.3 10.821012,48.417696,451.3 10.820954,48.417612,451.3 10.820779,48.417527,451.4 10.820848,48.417471,451.4 10.82098,48.417384,451.4 10.821076,48.417332,451.4 10.821318,48.41727,451.4 10.821426,48.417304,451.4 10.821746,48.417487,451.5 10.821849,48.417547,451.5 10.821951,48.417576,451.5 10.822264,48.417532,451.6 10.822508,48.417477,451.8 10.822921,48.417425,452.2 10.823781,48.417451,453.6 10.82513,48.417339,455.6 10.825174,48.417278,455.7 10.824521,48.415741,455.6 10.824415,48.415633,455.6 10.824438,48.415504,455.6 10.824317,48.415077,455.8 10.824261,48.414446,456.4 10.824293,48.414231,456.7 10.824219,48.414234,456.8 10.824325,48.413976,457.0 10.824569,48.413567,457.0 10.824766,48.413312,456.8 10.824848,48.413215,456.6 10.824468,48.413233,456.3 10.824058,48.413253,455.9 10.821838,48.413395,453.3 10.821481,48.413429,453.0 10.819894,48.413672,452.4 10.819632,48.413748,452.3 10.819495,48.413779,452.3 10.819085,48.413802,452.3 10.818859,48.413839,452.3 10.818414,48.413958,452.3 10.81799,48.414007,452.5 10.817594,48.41397,452.6 10.816873,48.413817,452.9 10.815549,48.413829,453.4 10.815526,48.41385,453.5 10.815617,48.413937,453.5 10.815691,48.414552,454.0 10.81583,48.414866,454.4 10.815845,48.415613,455.9 10.815846,48.415664,455.9 10.815715,48.416227,456.4 10.815278,48.417146,457.2 10.815106,48.417562,457.1 10.814822,48.418374,459.7 10.814678,48.41843,460.3 10.814241,48.418741,462.7 10.814005,48.418816,463.7 10.813363,48.418886,466.1 10.813164,48.418854,467.1 10.812997,48.418772,468.0 10.812924,48.418552,469.6 10.813087,48.418286,471.2 10.8131,48.418186,471.6 10.812656,48.418122,472.8 10.812675,48.418223,473.2 10.812288,48.418257,473.7</coordinates>
                </LineString>
            </MultiGeometry>
        </Placemark>
        <Placemark id="659">
            <name>Motel Edenbergen</name>
            <Point id="658">
                <coordinates>10.812277,48.418204,0</coordinates>
            </Point>
        </Placemark>
        <Placemark id="661">
            <name>Canal and Historic Mill in Landkreis Augsburg</name>
            <Point id="660">
                <coordinates>10.819917,48.417235,496.9</coordinates>
            </Point>
        </Placemark>
        <Placemark id="663">
            <name>Bench by the River</name>
            <Point id="662">
                <coordinates>10.819815,48.417175,498.6</coordinates>
            </Point>
        </Placemark>
        <Placemark id="665">
            <name>Gailenbacher Mill</name>
            <Point id="664">
                <coordinates>10.820997,48.417812,504.7</coordinates>
            </Point>
        </Placemark>
        <Placemark id="667">
            <name>Highland Cows in Landkreis Augsburg</name>
            <Point id="666">
                <coordinates>10.824465,48.413201,462.2</coordinates>
            </Point>
        </Placemark>
        <Placemark id="669">
            <name>Kneipp facility at the Old Well Keeper's House</name>
            <Point id="668">
                <coordinates>10.815818,48.415614,456.5</coordinates>
            </Point>
        </Placemark>
    </Document>
</kml>
