<?xml version="1.0" encoding="UTF-8"?>
<kml xmlns="http://www.opengis.net/kml/2.2" xmlns:gx="http://www.google.com/kml/ext/2.2">
    <Document id="901">
        <name>Blick auf den Lech – Bank mit Blick auf den Lech Runde von Mundraching-2853529843.gpx</name>
        <Placemark id="903">
            <name>Blick auf den Lech – Bank mit Blick auf den Lech Runde von Mundraching</name>
            <MultiGeometry id="902">
                <LineString id="904">
                    <coordinates>10.878003,47.958819,631.5 10.8782,47.958822,632.2 10.878412,47.95884,632.9 10.878552,47.95885,633.5 10.878648,47.958857,633.8 10.878857,47.958873,634.7 10.879033,47.958887,635.5 10.879367,47.958864,637.2 10.87956,47.958964,638.6 10.879871,47.959129,640.9 10.880679,47.95955,647.7 10.880905,47.959597,649.3 10.881107,47.9596,650.6 10.882084,47.959034,660.5 10.882318,47.959035,662.7 10.882487,47.959,664.3 10.882708,47.958989,666.4 10.88392,47.959222,677.3 10.88424,47.959236,679.6 10.884485,47.959216,681.3 10.884759,47.959245,682.8 10.885114,47.959304,684.5 10.885472,47.959673,686.1 10.88584,47.960107,686.6 10.88598,47.96023,686.6 10.886133,47.960305,686.5 10.886315,47.960358,686.5 10.886542,47.960381,686.5 10.886729,47.960365,686.4 10.88807,47.96014,685.9 10.88878,47.96009,685.6 10.889501,47.960067,685.0 10.889625,47.960251,684.8 10.88935,47.960696,684.0 10.889159,47.960759,683.8 10.888733,47.960772,683.3 10.887794,47.960908,681.7 10.887339,47.961037,680.7 10.886976,47.961193,679.7 10.886551,47.961426,678.2 10.88612,47.961757,675.8 10.885815,47.961938,673.8 10.885143,47.962457,666.9 10.884809,47.962654,663.0 10.884455,47.96295,658.4 10.884252,47.963153,656.2 10.884165,47.96339,654.5 10.884212,47.963566,653.8 10.884194,47.963652,653.5 10.884272,47.96385,653.0 10.884339,47.964248,653.0 10.884484,47.96455,654.2 10.884444,47.964627,654.5 10.884402,47.964705,654.9 10.884242,47.964907,655.6 10.884199,47.964984,655.8 10.884208,47.965107,655.9 10.884323,47.965258,656.0 10.884078,47.965755,655.3 10.883914,47.96585,654.9 10.883821,47.966012,654.6 10.883821,47.966241,654.0 10.883729,47.966692,651.7 10.883678,47.966737,651.4 10.883653,47.966982,649.6 10.883688,47.967187,647.4 10.883514,47.967271,645.7 10.883468,47.967348,644.6 10.883319,47.967424,643.0 10.883332,47.967494,642.1 10.883462,47.967624,640.0 10.883064,47.967742,635.9 10.882924,47.967789,634.3 10.882831,47.967856,633.1 10.882732,47.968017,630.5 10.882634,47.967968,629.4 10.882399,47.967631,624.6 10.88219,47.967889,621.3 10.882185,47.968039,620.3 10.882117,47.968446,619.1 10.881991,47.968623,618.6 10.881897,47.968925,617.8 10.881668,47.969374,616.3 10.881431,47.969662,615.4 10.881084,47.970216,613.6 10.880681,47.970964,612.2 10.88064,47.971041,612.1 10.880408,47.97116,612.1 10.88038,47.971253,612.0 10.88048,47.971352,612.0 10.880555,47.971461,611.9 10.880398,47.971585,611.8 10.880392,47.971734,611.7 10.880455,47.971853,611.5 10.880531,47.971907,611.5 10.880577,47.971968,611.4 10.880511,47.972164,611.3 10.880505,47.972372,611.2 10.88066,47.972525,611.1 10.88074,47.972836,611.0 10.880742,47.972977,610.9 10.880744,47.97307,610.8 10.880816,47.973229,610.6 10.880913,47.973362,610.4 10.881214,47.973538,610.2 10.881184,47.973796,610.0 10.881035,47.974072,610.0 10.88099,47.97478,609.2 10.881053,47.974943,608.9 10.880857,47.97513,608.5 10.880876,47.975202,608.3 10.880826,47.975363,608.0 10.88076,47.975704,607.2 10.880572,47.976091,606.0 10.880459,47.976527,604.4 10.880495,47.977263,601.2 10.880489,47.977435,600.5 10.880474,47.977897,598.9 10.880357,47.978069,598.3 10.880319,47.978358,597.7 10.88014,47.978724,597.1 10.880049,47.978989,596.9 10.880102,47.979129,596.9 10.880024,47.979274,597.0 10.880072,47.979438,597.1 10.879924,47.97971,597.5 10.880011,47.9797,597.7 10.880295,47.979806,598.1 10.880326,47.979871,598.3 10.880446,47.97996,598.7 10.880586,47.980032,599.0 10.880712,47.980058,599.2 10.8808,47.980143,599.5 10.880918,47.98034,599.9 10.880949,47.980638,600.5 10.881014,47.980684,600.6 10.88121,47.980756,600.9 10.881211,47.98078,600.9 10.881046,47.98088,601.2 10.880771,47.981248,601.6 10.880567,47.981442,601.9 10.880504,47.981553,602.1 10.880349,47.981705,602.5 10.880262,47.981812,602.8 10.880173,47.982056,603.7 10.880314,47.982112,604.1 10.880715,47.98207,605.5 10.880724,47.982228,606.5 10.88071,47.982639,609.4 10.880608,47.983001,612.4 10.880634,47.983261,614.9 10.880836,47.983558,617.8 10.881088,47.983777,619.4 10.881132,47.983882,620.0 10.881758,47.984268,623.8 10.881633,47.984528,625.5 10.88168,47.984693,626.6 10.882275,47.984617,629.7 10.882657,47.984912,632.8 10.883083,47.984969,635.8 10.883577,47.984831,639.6 10.883713,47.984765,640.6 10.883918,47.984367,644.0 10.883911,47.98352,648.7 10.883842,47.982968,649.7 10.883826,47.982524,650.4 10.883581,47.981318,651.9 10.883597,47.980556,650.9 10.883585,47.979866,643.8 10.883509,47.979787,642.7 10.882881,47.979538,637.2 10.882811,47.979467,636.2 10.88279,47.979312,634.4 10.882987,47.978448,626.5 10.882877,47.977743,625.4 10.882596,47.977126,624.2 10.882587,47.977105,624.2 10.882214,47.976749,623.7 10.882167,47.976637,623.4 10.882361,47.976268,622.4 10.882366,47.975999,621.3 10.882067,47.975513,619.9 10.881842,47.975203,618.8 10.881543,47.974476,617.0 10.881428,47.974037,617.6 10.881561,47.973591,618.4 10.88155,47.973512,618.6 10.881635,47.973264,619.0 10.881654,47.973197,619.1 10.8816,47.972998,619.3 10.881369,47.972282,618.9 10.881301,47.972032,618.2 10.881199,47.971656,617.4 10.881229,47.97131,617.2 10.881376,47.971085,617.4 10.881524,47.970809,618.2 10.881626,47.97052,619.8 10.881956,47.970031,623.2 10.8824,47.969666,625.9 10.882521,47.969534,626.6 10.882583,47.969334,627.2 10.882556,47.968905,627.8 10.882603,47.968559,629.7 10.882692,47.968131,632.9 10.882732,47.968017,633.9 10.882831,47.967856,635.7 10.882924,47.967789,636.5 10.883064,47.967742,637.7 10.883462,47.967624,640.7 10.883332,47.967494,642.4 10.883319,47.967424,643.1 10.883468,47.967348,644.6 10.883514,47.967271,645.7 10.883688,47.967187,647.4 10.883653,47.966982,649.6 10.883678,47.966737,651.4 10.883729,47.966692,651.7 10.883821,47.966241,654.0 10.883821,47.966012,654.6 10.883914,47.96585,654.9 10.884078,47.965755,655.3 10.884323,47.965258,656.0 10.884208,47.965107,655.9 10.884199,47.964984,655.8 10.884242,47.964907,655.6 10.884402,47.964705,654.9 10.884484,47.96455,654.2 10.884339,47.964248,653.0 10.884272,47.96385,653.0 10.884194,47.963652,653.5 10.884212,47.963566,653.7 10.884165,47.96339,654.3 10.884252,47.963153,655.4 10.884455,47.96295,656.9 10.884809,47.962654,660.5 10.88431,47.962425,664.6 10.884086,47.962095,667.3 10.884008,47.962004,667.8 10.883876,47.961851,668.6 10.883904,47.961757,668.9 10.883622,47.961609,669.6 10.883473,47.961466,670.1 10.883432,47.96137,670.4 10.883347,47.961321,670.6 10.883267,47.961297,670.7 10.883183,47.961271,670.8 10.882967,47.961264,671.1 10.882731,47.961065,671.3 10.882379,47.960915,671.4 10.882296,47.960832,671.5 10.88234,47.960747,671.5 10.88224,47.960704,671.6 10.882323,47.960552,671.6 10.882273,47.960475,671.7 10.882138,47.960462,671.7 10.881989,47.960355,671.9 10.882075,47.960178,672.1 10.88225,47.959963,672.7 10.88225,47.95989,672.9 10.882736,47.959617,674.4 10.882903,47.959561,674.6 10.883231,47.959315,674.5 10.883805,47.959283,673.2 10.88392,47.959222,672.7 10.882708,47.958989,666.0 10.882487,47.959,664.3 10.882318,47.959035,662.7 10.882084,47.959034,660.5 10.881107,47.9596,650.6 10.880905,47.959597,649.3 10.880679,47.95955,647.7 10.879871,47.959129,640.9 10.87956,47.958964,638.6 10.879367,47.958864,637.2 10.879033,47.958887,635.5 10.878857,47.958873,634.7 10.878648,47.958857,633.8 10.878552,47.95885,633.5 10.878412,47.95884,632.9 10.8782,47.958822,632.2 10.878003,47.958819,631.5</coordinates>
                </LineString>
            </MultiGeometry>
        </Placemark>
        <Placemark id="907">
            <name>Mundraching</name>
            <Point id="906">
                <coordinates>10.877997,47.958762,0</coordinates>
            </Point>
        </Placemark>
        <Placemark id="909">
            <name>St. Vitus Church, Mundraching</name>
            <Point id="908">
                <coordinates>10.877967,47.958754,670.2</coordinates>
            </Point>
        </Placemark>
        <Placemark id="911">
            <name>View of the Lech River</name>
            <Point id="910">
                <coordinates>10.884421,47.964622,718.3</coordinates>
            </Point>
        </Placemark>
        <Placemark id="913">
            <name>Bench with a View of the Lech</name>
            <Point id="912">
                <coordinates>10.884185,47.964924,730.5</coordinates>
            </Point>
        </Placemark>
        <Placemark id="915">
            <name>Lechtal-Süd Riverside Trail</name>
            <Point id="914">
                <coordinates>10.880729,47.972977,653.1</coordinates>
            </Point>
        </Placemark>
        <Placemark id="917">
            <name>Lech Dam No. 13</name>
            <Point id="916">
                <coordinates>10.880119,47.97743,648.4</coordinates>
            </Point>
        </Placemark>
        <Placemark id="919">
            <name>Forest Road by Lech River Dam</name>
            <Point id="918">
                <coordinates>10.882629,47.977119,671.8</coordinates>
            </Point>
        </Placemark>
        <Placemark id="921">
            <name>View of Lechauen and lakes near Lechtal-Süd</name>
            <Point id="920">
                <coordinates>10.884001,47.962007,734.0</coordinates>
            </Point>
        </Placemark>
        <Placemark id="923">
            <name>View of the Lech</name>
            <Point id="922">
                <coordinates>10.883279,47.96128,731.0</coordinates>
            </Point>
        </Placemark>
    </Document>
</kml>
