<?xml version="1.0" encoding="UTF-8"?>
<kml xmlns="http://www.opengis.net/kml/2.2" xmlns:gx="http://www.google.com/kml/ext/2.2">
    <Document id="1123">
        <name>Blick auf den Lech – Bank mit Blick auf den Lech Runde von Mundraching-2853530038.gpx</name>
        <Placemark id="1125">
            <name>Blick auf den Lech – Bank mit Blick auf den Lech Runde von Mundraching</name>
            <MultiGeometry id="1124">
                <LineString id="1126">
                    <coordinates>10.878003,47.958819,631.5 10.8782,47.958822,632.2 10.878412,47.95884,632.9 10.878552,47.95885,633.5 10.878648,47.958857,633.8 10.878857,47.958873,634.7 10.879033,47.958887,635.5 10.879165,47.958878,636.2 10.879367,47.958864,637.2 10.87956,47.958964,638.6 10.879871,47.959129,640.9 10.880679,47.95955,647.7 10.880905,47.959597,649.3 10.881107,47.9596,650.6 10.882084,47.959034,660.5 10.882318,47.959035,662.7 10.882487,47.959,664.3 10.882708,47.958989,666.4 10.88392,47.959222,677.0 10.88424,47.959236,678.9 10.884485,47.959216,680.0 10.884759,47.959245,680.9 10.88459,47.959395,681.4 10.884339,47.95953,681.3 10.883756,47.959489,680.0 10.883497,47.95945,679.0 10.883429,47.95944,678.8 10.883282,47.959511,678.0 10.883134,47.959538,677.4 10.882903,47.959561,676.4 10.882736,47.959617,675.6 10.88225,47.95989,673.4 10.88225,47.959963,673.1 10.882075,47.960178,672.3 10.881989,47.960355,671.9 10.882138,47.960462,671.7 10.882273,47.960475,671.7 10.882323,47.960552,671.6 10.88224,47.960704,671.6 10.88234,47.960747,671.5 10.882296,47.960832,671.5 10.882379,47.960915,671.4 10.882731,47.961065,671.3 10.882967,47.961264,671.1 10.883183,47.961271,670.8 10.883267,47.961297,670.7 10.883347,47.961321,670.6 10.883432,47.96137,670.4 10.883473,47.961466,670.1 10.883622,47.961609,669.6 10.883904,47.961757,668.9 10.883876,47.961851,668.6 10.884008,47.962004,667.8 10.884086,47.962095,667.3 10.88431,47.962425,664.6 10.884809,47.962654,660.5 10.884455,47.96295,656.9 10.884252,47.963153,655.4 10.884165,47.96339,654.3 10.884212,47.963566,653.7 10.884194,47.963652,653.5 10.884272,47.96385,653.0 10.884339,47.964248,653.0 10.884484,47.96455,654.2 10.884444,47.964627,654.5 10.884402,47.964705,654.9 10.884242,47.964907,655.6 10.884199,47.964984,655.8 10.884208,47.965107,655.9 10.884323,47.965258,656.0 10.884078,47.965755,655.3 10.883914,47.96585,654.9 10.883821,47.966012,654.6 10.883821,47.966241,654.0 10.883729,47.966692,651.7 10.883678,47.966737,651.4 10.883653,47.966982,649.6 10.883688,47.967187,647.4 10.883514,47.967271,645.7 10.883468,47.967348,644.6 10.883319,47.967424,643.1 10.883332,47.967494,642.4 10.883462,47.967624,640.7 10.883064,47.967742,637.4 10.882924,47.967789,635.9 10.882831,47.967856,634.6 10.882732,47.968017,631.9 10.882692,47.968131,630.3 10.882603,47.968559,624.8 10.88228,47.968375,622.0 10.882214,47.968364,621.7 10.882117,47.968446,621.2 10.881991,47.968623,620.5 10.881897,47.968925,619.2 10.881668,47.969374,616.4 10.881431,47.969662,615.4 10.881429,47.969665,615.4 10.881084,47.970216,613.6 10.88064,47.971041,612.6 10.880408,47.97116,612.7 10.880383,47.971245,612.9 10.88038,47.971253,612.9 10.88048,47.971352,613.1 10.880555,47.971461,613.4 10.880799,47.971288,614.0 10.881112,47.971148,614.9 10.881376,47.971085,615.6 10.881524,47.970809,617.3 10.881626,47.97052,619.4 10.881956,47.970031,623.2 10.8824,47.969666,625.9 10.882521,47.969534,626.6 10.882583,47.969334,627.2 10.882556,47.968905,627.8 10.882603,47.968559,629.7 10.882692,47.968131,633.8 10.882732,47.968017,635.2 10.882831,47.967856,637.6 10.882924,47.967789,638.8 10.883064,47.967742,640.4 10.883462,47.967624,644.7 10.883888,47.967518,649.6 10.884192,47.967388,654.0 10.884341,47.967168,658.4 10.884789,47.966729,664.7 10.885149,47.966407,667.6 10.885553,47.96613,669.7 10.885964,47.965967,671.3 10.886569,47.965782,673.1 10.887267,47.965739,674.1 10.887721,47.965754,674.3 10.888551,47.965726,674.3 10.889929,47.965678,675.5 10.890528,47.965514,676.5 10.891207,47.96528,678.1 10.891789,47.964982,679.8 10.89206,47.964982,680.5 10.893999,47.964735,684.4 10.894504,47.964553,685.2 10.894872,47.96432,685.8 10.895136,47.964046,686.2 10.896252,47.962537,688.1 10.89637,47.962431,688.3 10.895673,47.962214,689.1 10.895506,47.962143,689.3 10.894945,47.961765,690.1 10.894672,47.961621,690.4 10.893972,47.961364,690.9 10.893205,47.960803,691.0 10.893,47.96071,691.0 10.892414,47.960443,690.5 10.891797,47.96023,689.8 10.891686,47.960217,689.7 10.89065,47.960092,687.9 10.88988,47.960075,686.9 10.889501,47.960067,686.5 10.88878,47.96009,685.9 10.88807,47.96014,685.9 10.886729,47.960365,686.4 10.886542,47.960381,686.5 10.886315,47.960358,686.5 10.886133,47.960305,686.5 10.88598,47.96023,686.6 10.88584,47.960107,686.6 10.885472,47.959673,686.1 10.885114,47.959304,684.5 10.884759,47.959245,682.8 10.884485,47.959216,681.3 10.88424,47.959236,679.6 10.88392,47.959222,677.3 10.882708,47.958989,666.4 10.882487,47.959,664.3 10.882318,47.959035,662.7 10.882084,47.959034,660.5 10.881107,47.9596,650.6 10.880905,47.959597,649.3 10.880679,47.95955,647.7 10.879871,47.959129,640.9 10.87956,47.958964,638.6 10.879367,47.958864,637.2 10.879165,47.958878,636.2 10.879033,47.958887,635.5 10.878857,47.958873,634.7 10.878648,47.958857,633.8 10.878552,47.95885,633.5 10.878412,47.95884,632.9 10.8782,47.958822,632.2 10.878003,47.958819,631.5</coordinates>
                </LineString>
            </MultiGeometry>
        </Placemark>
        <Placemark id="1129">
            <name>Mundraching</name>
            <Point id="1128">
                <coordinates>10.877997,47.958762,0</coordinates>
            </Point>
        </Placemark>
        <Placemark id="1131">
            <name>St. Vitus Church, Mundraching</name>
            <Point id="1130">
                <coordinates>10.877967,47.958754,670.2</coordinates>
            </Point>
        </Placemark>
        <Placemark id="1133">
            <name>Village Center Fountain</name>
            <Point id="1132">
                <coordinates>10.879162,47.958855,646.8</coordinates>
            </Point>
        </Placemark>
        <Placemark id="1135">
            <name>View of the Lech</name>
            <Point id="1134">
                <coordinates>10.883279,47.96128,731.0</coordinates>
            </Point>
        </Placemark>
        <Placemark id="1137">
            <name>View of Lechauen and lakes near Lechtal-Süd</name>
            <Point id="1136">
                <coordinates>10.884001,47.962007,734.0</coordinates>
            </Point>
        </Placemark>
        <Placemark id="1139">
            <name>View of the Lech River</name>
            <Point id="1138">
                <coordinates>10.884421,47.964622,718.3</coordinates>
            </Point>
        </Placemark>
        <Placemark id="1141">
            <name>Bench with a View of the Lech</name>
            <Point id="1140">
                <coordinates>10.884185,47.964924,730.5</coordinates>
            </Point>
        </Placemark>
        <Placemark id="1143">
            <name>Rope Swing Over Lech Lake</name>
            <Point id="1142">
                <coordinates>10.881302,47.969629,669.3</coordinates>
            </Point>
        </Placemark>
        <Placemark id="1145">
            <name>Lakeside Rest Area on the Lech</name>
            <Point id="1144">
                <coordinates>10.88034,47.971239,656.2</coordinates>
            </Point>
        </Placemark>
    </Document>
</kml>
