<?xml version="1.0" encoding="UTF-8"?>
<kml xmlns="http://www.opengis.net/kml/2.2" xmlns:gx="http://www.google.com/kml/ext/2.2">
    <Document id="963">
        <name>Blick auf den Ach – Loretokapelle Stätzling Runde von Stätzling-3140575198.gpx</name>
        <Placemark id="965">
            <name>Blick auf den Ach – Loretokapelle Stätzling Runde von Stätzling</name>
            <MultiGeometry id="964">
                <LineString id="966">
                    <coordinates>10.976076,48.391263,476.3 10.976127,48.390837,477.0 10.976106,48.390754,477.1 10.975843,48.39067,477.2 10.975749,48.390652,476.9 10.975717,48.390647,476.8 10.975314,48.390564,475.2 10.975185,48.390537,474.9 10.975063,48.390507,474.7 10.975357,48.389687,474.6 10.975411,48.389553,474.1 10.975575,48.389141,473.4 10.975648,48.388957,473.1 10.9757,48.388792,473.0 10.975727,48.388556,473.0 10.975735,48.388258,473.2 10.975778,48.387916,472.8 10.976005,48.387086,473.0 10.9763,48.386439,473.3 10.976418,48.386276,473.4 10.976562,48.385966,473.8 10.976621,48.385977,473.9 10.976715,48.385989,473.9 10.976934,48.385904,474.1 10.97708,48.385912,474.3 10.97798,48.386095,476.2 10.978216,48.386177,476.6 10.978277,48.386055,477.0 10.978325,48.38577,477.3 10.978272,48.384989,477.8 10.978484,48.384266,478.8 10.978914,48.383544,478.0 10.978968,48.383424,478.1 10.979483,48.382652,478.8 10.980104,48.382258,480.5 10.980219,48.382072,480.9 10.980667,48.380761,479.9 10.981072,48.380379,480.5 10.98165,48.379734,481.2 10.981703,48.379607,481.1 10.981659,48.379413,480.7 10.981587,48.37928,480.5 10.98189,48.379123,481.8 10.982145,48.379079,482.9 10.982649,48.379114,484.5 10.982546,48.379031,484.5 10.982252,48.378594,485.3 10.981962,48.378081,482.9 10.981804,48.377589,480.6 10.981713,48.377423,479.7 10.981602,48.377308,478.7 10.981438,48.377203,477.6 10.981242,48.377142,476.9 10.980292,48.376989,475.6 10.981242,48.377142,476.9 10.981438,48.377203,477.3 10.981575,48.376449,478.4 10.981547,48.376291,478.6 10.981122,48.375159,481.9 10.981047,48.374847,482.5 10.980975,48.373956,483.5 10.981143,48.373408,484.4 10.981154,48.373242,484.4 10.98114,48.373079,484.3 10.980996,48.372788,483.5 10.980907,48.37241,482.1 10.980749,48.370827,480.5 10.980736,48.37038,481.1 10.980764,48.370182,481.9 10.980955,48.369902,484.6 10.980945,48.369694,484.6 10.980772,48.36951,482.8 10.980834,48.369275,482.5 10.98075,48.369228,482.5 10.980832,48.369087,482.5 10.980811,48.368824,482.4 10.980756,48.368037,481.6 10.980808,48.367445,482.2 10.980729,48.367321,481.7 10.980588,48.367158,480.8 10.98055,48.367051,480.7 10.980537,48.366654,481.3 10.980386,48.366112,482.5 10.980319,48.365991,482.3 10.980315,48.365983,482.3 10.980287,48.365914,482.1 10.980186,48.365516,480.2 10.980178,48.365289,479.8 10.980151,48.364837,479.7 10.980106,48.363817,480.9 10.980098,48.36362,481.0 10.980097,48.36342,480.9 10.980033,48.362569,480.1 10.979983,48.362061,479.9 10.979926,48.361038,482.4 10.979752,48.360607,483.3 10.979664,48.360478,483.5 10.97961,48.36044,483.5 10.979295,48.360222,483.7 10.978046,48.359497,484.9 10.978663,48.35923,488.8 10.979036,48.359111,491.7 10.978663,48.35923,488.8 10.978046,48.359497,484.8 10.977759,48.359621,483.1 10.977539,48.359601,482.4 10.976181,48.359718,481.2 10.975633,48.359992,481.2 10.974925,48.360355,481.0 10.974804,48.360411,481.0 10.974339,48.360535,481.1 10.974364,48.360582,481.1 10.974227,48.360612,481.2 10.974161,48.36105,480.7 10.974113,48.361176,480.5 10.97357,48.361808,479.7 10.973496,48.361956,479.7 10.973367,48.362232,479.9 10.973239,48.362561,479.9 10.973115,48.362962,480.1 10.973119,48.363273,479.5 10.973273,48.363803,478.5 10.973448,48.364852,478.3 10.973454,48.3653,478.1 10.973336,48.365816,477.9 10.973294,48.36653,477.8 10.973086,48.367527,477.7 10.972931,48.36773,477.7 10.972701,48.367953,477.6 10.972546,48.368104,477.6 10.972406,48.368311,477.6 10.972385,48.368719,477.7 10.972281,48.369245,477.7 10.972132,48.37029,477.6 10.972012,48.370839,477.5 10.971759,48.371722,477.3 10.971583,48.372261,476.9 10.971304,48.372734,476.7 10.970351,48.375454,475.6 10.96815,48.380551,473.4 10.967755,48.381289,473.1 10.967554,48.381532,473.1 10.966303,48.382627,472.6 10.965757,48.383513,472.5 10.965663,48.38361,472.5 10.964982,48.384116,472.5 10.964713,48.384621,472.3 10.964541,48.384944,472.2 10.966058,48.385657,472.1 10.967726,48.386525,472.4 10.967672,48.386572,472.4 10.968847,48.387278,472.7 10.970347,48.388131,472.0 10.970769,48.388433,472.2 10.971452,48.388868,472.2 10.971655,48.388996,472.2 10.971817,48.389066,472.1 10.972069,48.389083,471.9 10.973616,48.389978,471.5 10.97375,48.390045,471.6 10.974346,48.390339,473.1 10.974676,48.39046,474.0 10.974772,48.390488,474.2 10.975045,48.390555,474.6 10.975091,48.390566,474.7 10.975185,48.390537,474.9 10.975314,48.390564,475.2 10.975717,48.390647,476.8 10.975749,48.390652,476.9 10.975843,48.39067,477.2 10.976106,48.390754,477.1 10.976127,48.390837,477.0 10.976076,48.391263,476.3</coordinates>
                </LineString>
            </MultiGeometry>
        </Placemark>
        <Placemark id="969">
            <name>Stätzling Gasthof Schloß</name>
            <Point id="968">
                <coordinates>10.976124,48.391253,0</coordinates>
            </Point>
        </Placemark>
        <Placemark id="971">
            <name>Bench with view of church and river</name>
            <Point id="970">
                <coordinates>10.978273,48.386194,527.4</coordinates>
            </Point>
        </Placemark>
        <Placemark id="973">
            <name>View of the Ach Stream</name>
            <Point id="972">
                <coordinates>10.980305,48.376953,522.0</coordinates>
            </Point>
        </Placemark>
        <Placemark id="975">
            <name>Friedberger Berg cycle street</name>
            <Point id="974">
                <coordinates>10.979045,48.359123,528.0</coordinates>
            </Point>
        </Placemark>
        <Placemark id="977">
            <name>Loreto Chapel Stätzling</name>
            <Point id="976">
                <coordinates>10.97508,48.390544,468.0</coordinates>
            </Point>
        </Placemark>
    </Document>
</kml>
