<?xml version="1.0" encoding="UTF-8"?>
<kml xmlns="http://www.opengis.net/kml/2.2" xmlns:gx="http://www.google.com/kml/ext/2.2">
    <Document id="1299">
        <name>Blick auf Schloss Scherneck – Soccergolf Rehling Runde von Anwalting-2790404076.gpx</name>
        <Placemark id="1301">
            <name>Blick auf Schloss Scherneck – Soccergolf Rehling Runde von Anwalting</name>
            <MultiGeometry id="1300">
                <LineString id="1302">
                    <coordinates>10.939464,48.458144,456.3 10.939644,48.458236,456.5 10.939826,48.458329,456.6 10.940039,48.458437,456.8 10.940138,48.458487,456.9 10.940481,48.458695,457.3 10.941011,48.459117,458.4 10.941086,48.459158,458.6 10.941289,48.459206,458.9 10.941322,48.459335,459.2 10.941253,48.45939,459.4 10.941364,48.459634,460.1 10.941474,48.459883,460.9 10.941567,48.460104,461.8 10.941612,48.460193,462.2 10.94164,48.460308,462.7 10.941592,48.460524,463.8 10.940792,48.464042,483.8 10.940797,48.464068,483.9 10.940807,48.464123,484.2 10.940951,48.464206,484.7 10.941221,48.464305,485.7 10.942167,48.464393,488.1 10.942058,48.464611,488.9 10.941955,48.464848,489.5 10.941862,48.465198,490.5 10.941665,48.466728,493.7 10.941523,48.466872,493.9 10.940896,48.467159,494.5 10.940893,48.46772,495.7 10.940823,48.467898,496.1 10.94047,48.468179,496.8 10.940378,48.468272,497.0 10.940304,48.468423,497.3 10.941256,48.468537,498.4 10.943236,48.469069,501.0 10.943099,48.469226,501.8 10.943056,48.469275,502.1 10.942474,48.46981,505.1 10.942098,48.47009,506.9 10.941491,48.470577,509.2 10.941293,48.471128,510.3 10.940466,48.471879,509.9 10.939701,48.47238,508.5 10.939263,48.472369,507.6 10.938975,48.47265,506.7 10.93904,48.472836,506.2 10.939286,48.473158,505.5 10.939315,48.47327,505.4 10.939191,48.473866,505.6 10.939154,48.474719,506.6 10.939177,48.474921,506.8 10.938974,48.475068,507.0 10.938501,48.475296,506.9 10.938285,48.475336,506.8 10.93791,48.475348,506.5 10.937945,48.475749,505.8 10.937971,48.476127,505.2 10.936694,48.476275,503.5 10.935815,48.47654,501.8 10.934394,48.476542,498.2 10.933682,48.476593,496.2 10.933036,48.476869,494.3 10.932653,48.47713,493.3 10.932431,48.477231,493.1 10.931725,48.477399,493.1 10.931598,48.477458,493.3 10.931442,48.477599,493.8 10.93106,48.478205,496.1 10.930889,48.478547,497.5 10.930852,48.47858,497.6 10.930836,48.478608,497.7 10.930688,48.47895,498.4 10.930499,48.479201,498.2 10.93049,48.47905,497.8 10.930637,48.478636,495.5 10.930618,48.478485,494.5 10.930551,48.477955,490.6 10.930649,48.477707,488.9 10.931017,48.47736,486.6 10.932042,48.476631,486.3 10.932616,48.476295,487.1 10.933027,48.476138,486.9 10.933077,48.47603,486.6 10.932982,48.47592,486.3 10.932897,48.475897,486.1 10.932802,48.475905,485.9 10.929649,48.476655,464.1 10.929578,48.476672,463.5 10.929305,48.476682,461.3 10.928924,48.476616,458.4 10.928507,48.476429,455.1 10.927982,48.476106,451.4 10.928272,48.475805,449.8 10.928361,48.475651,449.3 10.928394,48.475504,449.1 10.928372,48.475008,449.1 10.928398,48.474812,449.3 10.928544,48.474398,449.7 10.928858,48.473836,450.3 10.929022,48.473238,451.3 10.929035,48.47317,451.5 10.929045,48.473125,451.5 10.929099,48.47296,451.9 10.929527,48.47279,452.7 10.929753,48.47264,453.3 10.930965,48.471692,457.9 10.931025,48.471583,458.1 10.93103,48.471452,458.3 10.930812,48.471189,458.5 10.930758,48.471167,458.5 10.930371,48.47054,458.0 10.930291,48.470287,457.6 10.930247,48.470036,456.9 10.930262,48.469889,456.5 10.930344,48.469747,456.1 10.930371,48.469497,455.4 10.929927,48.469017,454.5 10.929766,48.468781,454.2 10.929712,48.468753,454.2 10.929692,48.468641,454.1 10.929742,48.46854,453.9 10.930075,48.467997,453.4 10.930456,48.467456,453.4 10.930679,48.466697,453.7 10.930877,48.466159,454.0 10.931488,48.465464,454.2 10.931666,48.465196,454.3 10.932004,48.464719,454.6 10.932836,48.464217,455.1 10.933461,48.463628,456.0 10.934083,48.463323,456.6 10.934234,48.463253,456.7 10.934838,48.463122,456.9 10.935653,48.463086,456.9 10.936092,48.463007,456.7 10.936623,48.462828,456.1 10.936698,48.462756,456.0 10.936761,48.462617,455.7 10.936853,48.462373,455.2 10.937096,48.46202,454.6 10.937208,48.461786,454.3 10.937323,48.461236,453.8 10.93746,48.460961,453.8 10.937763,48.460553,454.1 10.938003,48.460285,454.5 10.938279,48.460031,455.0 10.938423,48.459938,455.2 10.938796,48.459735,455.8 10.939003,48.459634,456.1 10.939077,48.459599,456.2 10.93912,48.459581,456.2 10.939448,48.459452,456.7 10.939723,48.459381,457.0 10.939984,48.459343,457.2 10.940324,48.459316,457.4 10.94064,48.459264,457.5 10.940898,48.459185,457.5 10.941011,48.459117,457.5 10.940481,48.458695,457.1 10.940138,48.458487,456.9 10.940039,48.458437,456.8 10.939826,48.458329,456.6 10.939644,48.458236,456.5 10.939464,48.458144,456.3</coordinates>
                </LineString>
            </MultiGeometry>
        </Placemark>
        <Placemark id="1305">
            <name>Anwalting Ort</name>
            <Point id="1304">
                <coordinates>10.939448,48.458182,0</coordinates>
            </Point>
        </Placemark>
        <Placemark id="1307">
            <name>View of Anwalting</name>
            <Point id="1306">
                <coordinates>10.940513,48.464091,484.1</coordinates>
            </Point>
        </Placemark>
        <Placemark id="1309">
            <name>Wooden animal sculptures on the way to Schloss Scherneck</name>
            <Point id="1308">
                <coordinates>10.943135,48.46924,560.8</coordinates>
            </Point>
        </Placemark>
        <Placemark id="1311">
            <name>Scherneck Castle</name>
            <Point id="1310">
                <coordinates>10.930444,48.479224,493.8</coordinates>
            </Point>
        </Placemark>
        <Placemark id="1313">
            <name>Wooden Flower Sculpture</name>
            <Point id="1312">
                <coordinates>10.929691,48.476733,484.3</coordinates>
            </Point>
        </Placemark>
        <Placemark id="1315">
            <name>Soccergolf Rehling</name>
            <Point id="1314">
                <coordinates>10.930752,48.47116,461.2</coordinates>
            </Point>
        </Placemark>
    </Document>
</kml>
