<?xml version="1.0" encoding="UTF-8"?>
<kml xmlns="http://www.opengis.net/kml/2.2" xmlns:gx="http://www.google.com/kml/ext/2.2">
    <Document id="865">
        <name>Blick auf Niederthai – Jausenstation Wiesle Runde von Niederthai-3301152188.gpx</name>
        <Placemark id="867">
            <name>Blick auf Niederthai – Jausenstation Wiesle Runde von Niederthai</name>
            <MultiGeometry id="866">
                <LineString id="868">
                    <coordinates>10.968404,47.122583,1559.4 10.968532,47.122081,1558.7 10.968521,47.121885,1558.5 10.968108,47.121502,1558.1 10.967957,47.121016,1558.3 10.967909,47.120949,1558.3 10.967723,47.12083,1558.5 10.967544,47.120803,1558.7 10.96713,47.120874,1559.1 10.966368,47.121032,1560.2 10.966091,47.121042,1560.7 10.96577,47.121013,1561.2 10.965244,47.120869,1561.9 10.96461,47.120718,1562.5 10.964577,47.120719,1562.5 10.964543,47.120721,1562.6 10.964352,47.120725,1562.8 10.964238,47.120748,1563.0 10.963057,47.120967,1567.6 10.962753,47.120719,1570.4 10.962647,47.120604,1571.8 10.962585,47.12049,1573.1 10.962597,47.120061,1578.4 10.962627,47.12,1579.3 10.962777,47.119862,1581.6 10.962835,47.119709,1583.7 10.962812,47.119515,1586.2 10.962764,47.119453,1587.0 10.962691,47.119414,1587.7 10.962562,47.119377,1588.7 10.962229,47.11934,1591.2 10.962206,47.119338,1591.4 10.962133,47.119353,1591.9 10.961981,47.119482,1593.8 10.961855,47.119548,1595.1 10.961749,47.11958,1596.0 10.961384,47.11963,1598.9 10.96102,47.119741,1601.9 10.960729,47.119754,1603.8 10.96052,47.119803,1605.1 10.960247,47.119739,1606.8 10.960192,47.119683,1607.4 10.96029,47.119271,1611.3 10.960368,47.11921,1612.3 10.960751,47.119014,1616.4 10.961117,47.118704,1620.1 10.961172,47.118582,1621.0 10.961137,47.118344,1622.7 10.961169,47.118297,1623.0 10.961312,47.118261,1623.7 10.961824,47.118267,1626.0 10.962418,47.118349,1629.0 10.963011,47.11826,1630.7 10.963127,47.118197,1630.9 10.963337,47.118005,1631.5 10.963384,47.117911,1631.6 10.963419,47.117534,1632.2 10.96353,47.117255,1632.9 10.96377,47.117055,1633.7 10.964017,47.11673,1634.8 10.964169,47.116557,1635.0 10.964387,47.116446,1634.9 10.964411,47.116287,1635.1 10.964325,47.11605,1635.4 10.964361,47.115913,1635.8 10.96441,47.11585,1636.1 10.964534,47.115908,1636.5 10.964658,47.115926,1636.9 10.964915,47.116015,1637.5 10.964658,47.115926,1638.1 10.964534,47.115908,1638.2 10.96441,47.11585,1638.4 10.963973,47.115473,1638.6 10.963358,47.114982,1638.8 10.962817,47.114317,1634.4 10.962674,47.113919,1629.4 10.962422,47.113479,1622.1 10.96227,47.113318,1620.3 10.962149,47.113234,1619.2 10.961717,47.113004,1615.9 10.961655,47.113015,1615.3 10.961683,47.113085,1614.8 10.962028,47.113295,1611.1 10.962078,47.113326,1610.5 10.962226,47.11351,1607.3 10.962235,47.113559,1606.5 10.962281,47.113832,1602.1 10.962253,47.113927,1600.6 10.962149,47.113982,1599.6 10.961923,47.113993,1597.5 10.961016,47.113952,1584.8 10.960616,47.113963,1579.1 10.959954,47.114101,1571.9 10.959896,47.114097,1571.5 10.959857,47.114044,1570.9 10.959889,47.114013,1570.5 10.960187,47.113935,1569.0 10.960534,47.113812,1567.7 10.961098,47.113664,1566.2 10.961165,47.113646,1565.9 10.961211,47.113588,1565.5 10.961194,47.113514,1565.1 10.961026,47.113364,1563.9 10.960913,47.113366,1563.2 10.960883,47.113402,1562.9 10.960871,47.11353,1561.6 10.960801,47.113592,1560.7 10.960574,47.113631,1558.6 10.960138,47.113655,1553.9 10.960132,47.113613,1553.1 10.960301,47.113556,1550.9 10.960302,47.113534,1550.5 10.960158,47.11353,1548.7 10.960003,47.113564,1546.6 10.959979,47.113546,1546.1 10.960094,47.113432,1543.5 10.960327,47.113299,1539.8 10.960263,47.1132,1537.9 10.960206,47.113205,1537.3 10.960171,47.113164,1536.5 10.960185,47.113086,1535.2 10.96005,47.113036,1533.7 10.959551,47.113003,1529.7 10.959306,47.11292,1528.1 10.959146,47.112941,1527.4 10.959111,47.11291,1527.3 10.95909,47.112893,1527.2 10.958889,47.11284,1526.9 10.95876,47.112804,1526.9 10.958889,47.11284,1526.9 10.95909,47.112893,1527.1 10.959111,47.11291,1527.2 10.959146,47.112941,1527.3 10.959156,47.113145,1527.8 10.959074,47.113151,1528.0 10.959073,47.113446,1529.7 10.959193,47.113489,1530.3 10.959544,47.113453,1532.5 10.959589,47.113442,1532.8 10.959769,47.113401,1534.1 10.960043,47.113229,1536.4 10.960206,47.113205,1537.5 10.960224,47.113251,1538.0 10.960067,47.113361,1539.3 10.959564,47.113609,1542.3 10.959115,47.113767,1544.8 10.959089,47.113768,1544.9 10.958896,47.113769,1546.1 10.958799,47.113787,1546.7 10.958772,47.113824,1547.1 10.958824,47.113871,1547.7 10.959131,47.113844,1549.7 10.959516,47.113786,1552.5 10.960138,47.113655,1557.5 10.960574,47.113631,1560.5 10.960801,47.113592,1561.9 10.960871,47.11353,1562.6 10.960883,47.113402,1563.5 10.960913,47.113366,1563.8 10.961026,47.113364,1564.3 10.961194,47.113514,1565.3 10.961211,47.113588,1565.6 10.961165,47.113646,1565.9 10.961098,47.113664,1566.2 10.960534,47.113812,1567.7 10.960187,47.113935,1569.0 10.959889,47.114013,1570.5 10.959857,47.114044,1570.9 10.959896,47.114097,1571.5 10.959954,47.114101,1571.9 10.960616,47.113963,1579.1 10.961016,47.113952,1584.8 10.961923,47.113993,1597.5 10.962149,47.113982,1599.6 10.962253,47.113927,1600.6 10.962281,47.113832,1602.1 10.962235,47.113559,1606.5 10.962226,47.11351,1607.3 10.962078,47.113326,1610.5 10.962028,47.113295,1611.1 10.961683,47.113085,1614.8 10.961655,47.113015,1615.3 10.961717,47.113004,1615.9 10.962149,47.113234,1619.2 10.96227,47.113318,1620.3 10.962422,47.113479,1622.1 10.962674,47.113919,1629.4 10.962817,47.114317,1634.4 10.963358,47.114982,1638.8 10.963973,47.115473,1638.9 10.96441,47.11585,1637.7 10.964361,47.115913,1637.5 10.964325,47.11605,1637.2 10.964411,47.116287,1636.6 10.964387,47.116446,1636.2 10.964169,47.116557,1635.6 10.964017,47.11673,1634.9 10.96377,47.117055,1633.7 10.96353,47.117255,1632.9 10.963419,47.117534,1632.2 10.963384,47.117911,1631.6 10.963337,47.118005,1631.5 10.963127,47.118197,1630.9 10.963011,47.11826,1630.7 10.962418,47.118349,1629.0 10.961824,47.118267,1626.0 10.961312,47.118261,1623.7 10.961169,47.118297,1623.0 10.961137,47.118344,1622.7 10.961172,47.118582,1621.0 10.961117,47.118704,1620.1 10.960751,47.119014,1616.4 10.960368,47.11921,1612.3 10.96029,47.119271,1611.3 10.960192,47.119683,1607.4 10.960247,47.119739,1606.8 10.96052,47.119803,1605.1 10.960729,47.119754,1603.8 10.96102,47.119741,1601.9 10.961384,47.11963,1598.9 10.961749,47.11958,1596.0 10.961855,47.119548,1595.1 10.961981,47.119482,1593.8 10.962133,47.119353,1591.9 10.962206,47.119338,1591.4 10.962229,47.11934,1591.2 10.962562,47.119377,1588.7 10.962691,47.119414,1587.7 10.962764,47.119453,1587.0 10.962812,47.119515,1586.2 10.962835,47.119709,1583.7 10.962777,47.119862,1581.6 10.962627,47.12,1579.3 10.962597,47.120061,1578.4 10.962585,47.12049,1573.1 10.962647,47.120604,1571.8 10.962753,47.120719,1570.4 10.963057,47.120967,1567.6 10.964238,47.120748,1563.0 10.964352,47.120725,1562.8 10.964543,47.120721,1562.6 10.964577,47.120719,1562.5 10.96461,47.120718,1562.5 10.965244,47.120869,1561.9 10.96577,47.121013,1561.2 10.966091,47.121042,1560.7 10.966368,47.121032,1560.2 10.96713,47.120874,1559.1 10.967544,47.120803,1558.7 10.967723,47.12083,1558.5 10.967909,47.120949,1558.3 10.967957,47.121016,1558.3 10.967973,47.121067,1558.2 10.968108,47.121502,1558.1 10.968521,47.121885,1558.5 10.968532,47.122081,1558.7 10.968404,47.122583,1559.4</coordinates>
                </LineString>
            </MultiGeometry>
        </Placemark>
        <Placemark id="871">
            <name>Niederthai Überfeld</name>
            <Point id="870">
                <coordinates>10.968441,47.12259,0</coordinates>
            </Point>
        </Placemark>
        <Placemark id="873">
            <name>View of Niederthai</name>
            <Point id="872">
                <coordinates>10.964931,47.115994,1650.0</coordinates>
            </Point>
        </Placemark>
        <Placemark id="875">
            <name>Wiesle Alm</name>
            <Point id="874">
                <coordinates>10.960994,47.113983,1592.9</coordinates>
            </Point>
        </Placemark>
        <Placemark id="877">
            <name>Pond With a View</name>
            <Point id="876">
                <coordinates>10.961067,47.113608,1585.2</coordinates>
            </Point>
        </Placemark>
        <Placemark id="879">
            <name>Wiesle Snack Hut</name>
            <Point id="878">
                <coordinates>10.959135,47.112897,1540.4</coordinates>
            </Point>
        </Placemark>
        <Placemark id="881">
            <name>Wiesle Alm Chapel</name>
            <Point id="880">
                <coordinates>10.958846,47.112657,1533.6</coordinates>
            </Point>
        </Placemark>
        <Placemark id="883">
            <name>Beautiful Alpine Meadow</name>
            <Point id="882">
                <coordinates>10.959588,47.113441,1549.4</coordinates>
            </Point>
        </Placemark>
        <Placemark id="885">
            <name>Niederthai Lehen Cross-Country Ski Trail Start</name>
            <Point id="884">
                <coordinates>10.96797,47.121067,1612.0</coordinates>
            </Point>
        </Placemark>
    </Document>
</kml>
