<?xml version="1.0" encoding="UTF-8"?>
<kml xmlns="http://www.opengis.net/kml/2.2" xmlns:gx="http://www.google.com/kml/ext/2.2">
    <Document id="1305">
        <name>Blick auf die Donau – Blick auf den See Runde von Bergheim-3051908039.gpx</name>
        <Placemark id="1307">
            <name>Blick auf die Donau – Blick auf den See Runde von Bergheim</name>
            <MultiGeometry id="1306">
                <LineString id="1308">
                    <coordinates>11.271669,48.749721,377.3 11.271634,48.749612,377.2 11.271646,48.749576,377.2 11.271725,48.749564,377.1 11.271982,48.749525,377.0 11.272096,48.749505,377.0 11.272765,48.749383,376.7 11.273595,48.749325,375.8 11.273694,48.749243,375.6 11.27372,48.749141,375.4 11.273858,48.749054,375.2 11.274062,48.749027,375.0 11.274887,48.749161,374.2 11.274921,48.747013,373.2 11.275006,48.745312,373.0 11.27499,48.744859,373.0 11.275325,48.744223,373.2 11.275454,48.743823,373.3 11.275577,48.743224,373.4 11.275763,48.743079,373.4 11.275581,48.743002,373.4 11.275374,48.742905,373.4 11.27512,48.742769,373.3 11.272277,48.741464,372.1 11.272844,48.741394,372.0 11.273851,48.741098,372.1 11.274112,48.741059,372.2 11.274503,48.741101,372.2 11.276188,48.741202,372.5 11.277281,48.741158,372.8 11.277576,48.741073,372.9 11.27808,48.740792,373.2 11.279114,48.740445,373.5 11.27955,48.740243,373.7 11.279738,48.740204,373.7 11.279911,48.740197,373.8 11.28009,48.740223,373.8 11.280513,48.740284,373.9 11.281221,48.740287,373.9 11.28202,48.740362,373.7 11.282849,48.740567,373.3 11.283413,48.740825,372.8 11.283723,48.741023,372.4 11.283901,48.74119,372.1 11.283992,48.741238,372.0 11.284102,48.741248,371.9 11.284162,48.74134,371.8 11.284252,48.74139,371.6 11.28437,48.741413,371.5 11.284691,48.741611,371.0 11.28482,48.741671,370.8 11.285077,48.741814,370.3 11.285761,48.741783,369.4 11.286525,48.741964,368.3 11.286847,48.74199,368.0 11.286956,48.741955,367.8 11.287907,48.741457,366.8 11.288692,48.741161,366.4 11.289055,48.741052,366.3 11.289657,48.74094,366.3 11.290789,48.740877,367.0 11.291258,48.740726,367.7 11.291678,48.74069,368.4 11.291826,48.740652,368.7 11.291954,48.740588,368.9 11.292044,48.740484,369.2 11.292055,48.740378,369.5 11.29216,48.740098,370.1 11.292269,48.739999,370.4 11.292308,48.73998,370.4 11.292424,48.739923,370.6 11.292612,48.739886,370.8 11.294287,48.73988,371.0 11.295735,48.739901,370.2 11.296793,48.739941,370.1 11.297385,48.740025,370.2 11.297568,48.740069,370.3 11.297811,48.740153,370.3 11.298358,48.740415,370.3 11.299183,48.741107,369.7 11.299685,48.741577,369.1 11.300351,48.742064,368.5 11.300549,48.742256,368.3 11.300558,48.742314,368.2 11.30043,48.742372,368.1 11.300242,48.742425,368.0 11.297003,48.743267,366.1 11.294372,48.744008,366.8 11.291075,48.744848,366.0 11.291018,48.744753,366.0 11.290927,48.744532,365.9 11.291018,48.744753,365.8 11.291075,48.744848,365.8 11.288909,48.745457,365.4 11.28835,48.74559,365.3 11.284678,48.746585,366.0 11.284606,48.746522,366.0 11.284335,48.746377,366.2 11.281641,48.74534,368.5 11.280301,48.744825,369.6 11.280081,48.74472,369.8 11.278896,48.744319,370.4 11.278709,48.744218,370.5 11.278405,48.743899,370.8 11.278113,48.743739,371.0 11.276736,48.743415,372.1 11.27625,48.743247,372.6 11.275763,48.743079,372.9 11.275577,48.743224,373.0 11.275454,48.743823,373.2 11.275325,48.744223,373.2 11.27499,48.744859,373.0 11.275006,48.745312,373.0 11.274921,48.747013,373.2 11.274887,48.749161,374.2 11.274062,48.749027,375.0 11.273858,48.749054,375.2 11.27372,48.749141,375.4 11.273694,48.749243,375.6 11.273595,48.749325,375.8 11.272765,48.749383,376.7 11.272096,48.749505,377.0 11.271982,48.749525,377.0 11.271725,48.749564,377.1 11.271646,48.749576,377.2 11.271634,48.749612,377.2 11.271669,48.749721,377.3</coordinates>
                </LineString>
            </MultiGeometry>
        </Placemark>
        <Placemark id="1311">
            <name>Parking</name>
            <Point id="1310">
                <coordinates>11.27166,48.749722,0</coordinates>
            </Point>
        </Placemark>
        <Placemark id="1313">
            <name>Wilhelm Gruber Memorial Cross</name>
            <Point id="1312">
                <coordinates>11.27172,48.74955,380.6</coordinates>
            </Point>
        </Placemark>
        <Placemark id="1315">
            <name>Vohburg Dam</name>
            <Point id="1314">
                <coordinates>11.27371,48.749447,378.2</coordinates>
            </Point>
        </Placemark>
        <Placemark id="1317">
            <name>Ottheinrichbach Wooden Bridge</name>
            <Point id="1316">
                <coordinates>11.275361,48.742952,430.1</coordinates>
            </Point>
        </Placemark>
        <Placemark id="1319">
            <name>At the Ottheinrichbach</name>
            <Point id="1318">
                <coordinates>11.2848,48.741688,423.6</coordinates>
            </Point>
        </Placemark>
        <Placemark id="1321">
            <name>Wonderful path along the Ottheinrichbach</name>
            <Point id="1320">
                <coordinates>11.29224,48.73992,413.0</coordinates>
            </Point>
        </Placemark>
        <Placemark id="1323">
            <name>View of the Danube</name>
            <Point id="1322">
                <coordinates>11.300407,48.742424,427.5</coordinates>
            </Point>
        </Placemark>
        <Placemark id="1325">
            <name>Birdwatching Lake in Upper Bavaria</name>
            <Point id="1324">
                <coordinates>11.290895,48.744538,423.2</coordinates>
            </Point>
        </Placemark>
        <Placemark id="1327">
            <name>View of the lake</name>
            <Point id="1326">
                <coordinates>11.281652,48.745328,375.8</coordinates>
            </Point>
        </Placemark>
    </Document>
</kml>
