<?xml version="1.0" encoding="UTF-8"?>
<kml xmlns="http://www.opengis.net/kml/2.2" xmlns:gx="http://www.google.com/kml/ext/2.2">
    <Document id="1277">
        <name>Blick auf Nordendorf – Fluss Schmutter Runde von Nordendorf-3006914567.gpx</name>
        <Placemark id="1279">
            <name>Blick auf Nordendorf – Fluss Schmutter Runde von Nordendorf</name>
            <MultiGeometry id="1278">
                <LineString id="1280">
                    <coordinates>10.832712,48.589981,420.0 10.832545,48.589947,420.0 10.832598,48.589838,420.0 10.832619,48.589785,420.0 10.832797,48.58982,420.0 10.832893,48.589563,420.0 10.83297,48.589354,419.9 10.833351,48.589413,419.9 10.833552,48.588949,420.0 10.833563,48.58892,420.0 10.83363,48.588744,419.9 10.833651,48.588687,419.9 10.833705,48.588543,419.9 10.833739,48.588459,419.9 10.833792,48.588328,419.8 10.833853,48.588133,419.8 10.833568,48.587861,419.8 10.833232,48.587342,419.8 10.833177,48.587248,419.8 10.83289,48.586981,419.7 10.832734,48.586889,419.8 10.832469,48.586773,419.8 10.832108,48.586683,419.8 10.831886,48.586679,419.8 10.831779,48.586652,419.9 10.831658,48.586621,419.9 10.831491,48.586542,419.9 10.830772,48.586383,420.0 10.830052,48.586224,420.0 10.829649,48.586148,420.0 10.828727,48.585867,420.0 10.82858,48.585765,420.0 10.827468,48.585315,420.1 10.826969,48.585124,420.3 10.826526,48.585022,420.6 10.826483,48.585,420.6 10.826326,48.584976,420.7 10.826009,48.584971,421.0 10.825993,48.584949,421.0 10.825953,48.584952,421.1 10.82588,48.584958,421.1 10.825419,48.584996,421.6 10.825352,48.585001,421.6 10.825113,48.584998,421.9 10.824924,48.584963,422.1 10.824811,48.584939,422.3 10.824661,48.584903,422.6 10.824434,48.584784,423.2 10.824327,48.584653,423.7 10.824072,48.584324,425.2 10.824011,48.584234,425.6 10.82393,48.584063,426.3 10.823424,48.584238,427.8 10.823001,48.584349,428.9 10.822734,48.584819,431.2 10.822645,48.585213,433.5 10.822629,48.585391,434.6 10.822507,48.585467,435.3 10.822218,48.585646,437.3 10.822031,48.585829,439.2 10.821843,48.586014,441.4 10.821474,48.586225,444.9 10.82082,48.586471,450.7 10.820738,48.586501,451.3 10.820002,48.587041,457.3 10.819753,48.587155,458.5 10.819341,48.587435,460.4 10.819097,48.587766,461.8 10.818991,48.587842,462.0 10.818759,48.587832,462.3 10.818017,48.587651,462.6 10.817765,48.587621,462.7 10.817694,48.588069,462.6 10.817234,48.58858,461.3 10.816829,48.589362,458.2 10.816114,48.590648,452.9 10.815749,48.591379,450.2 10.815459,48.591936,448.4 10.814628,48.593876,443.0 10.814414,48.594187,442.1 10.814163,48.594436,441.1 10.814069,48.594675,440.3 10.813982,48.595407,437.8 10.81398,48.59601,435.8 10.81398,48.596203,435.2 10.814184,48.596819,433.7 10.814524,48.59742,432.7 10.815057,48.598071,430.6 10.815241,48.598212,429.9 10.815361,48.598327,429.3 10.815407,48.598442,428.7 10.815871,48.59942,423.5 10.816229,48.599774,421.8 10.816328,48.599914,421.3 10.817065,48.599975,420.2 10.817514,48.600009,419.8 10.818529,48.599051,419.3 10.818788,48.598858,419.2 10.819012,48.598646,419.2 10.819159,48.598491,419.1 10.819403,48.598075,419.0 10.819459,48.597981,419.0 10.81955,48.597882,419.0 10.820096,48.597506,418.9 10.822316,48.595768,419.1 10.822355,48.595721,419.1 10.822798,48.595185,419.0 10.822934,48.594969,419.0 10.822988,48.594884,418.9 10.82305,48.594878,418.9 10.823552,48.594654,418.9 10.82305,48.594878,418.8 10.822988,48.594884,418.8 10.8236,48.593116,418.9 10.823816,48.592323,418.9 10.824753,48.588378,419.3 10.824821,48.587971,419.5 10.824845,48.587408,420.1 10.824871,48.587075,420.4 10.824877,48.586999,420.5 10.824961,48.586683,420.8 10.824987,48.586607,420.9 10.825041,48.586451,421.0 10.825054,48.586402,421.1 10.825079,48.586256,421.2 10.825038,48.586062,421.3 10.825034,48.586008,421.4 10.825087,48.58578,421.4 10.825362,48.585334,421.2 10.825404,48.585188,421.2 10.825352,48.585001,421.0 10.825419,48.584996,421.0 10.82588,48.584958,420.8 10.825953,48.584952,420.8 10.825993,48.584949,420.7 10.826009,48.584971,420.7 10.826326,48.584976,420.6 10.826483,48.585,420.5 10.826526,48.585022,420.5 10.826969,48.585124,420.3 10.827468,48.585315,420.1 10.82858,48.585765,420.0 10.828727,48.585867,420.0 10.829649,48.586148,420.0 10.830052,48.586224,420.0 10.830772,48.586383,420.0 10.831491,48.586542,419.9 10.831658,48.586621,419.9 10.831779,48.586652,419.9 10.831886,48.586679,419.8 10.832108,48.586683,419.8 10.832469,48.586773,419.8 10.832734,48.586889,419.8 10.83289,48.586981,419.7 10.833177,48.587248,419.8 10.833232,48.587342,419.8 10.833568,48.587861,419.8 10.833853,48.588133,419.8 10.833792,48.588328,419.8 10.833739,48.588459,419.9 10.833705,48.588543,419.9 10.833651,48.588687,419.9 10.83363,48.588744,419.9 10.833563,48.58892,420.0 10.833552,48.588949,420.0 10.833351,48.589413,419.9 10.83297,48.589354,419.9 10.832893,48.589563,420.0 10.832797,48.58982,420.0 10.832619,48.589785,420.0 10.832598,48.589838,420.0 10.832545,48.589947,420.0 10.832712,48.589981,420.0</coordinates>
                </LineString>
            </MultiGeometry>
        </Placemark>
        <Placemark id="1283">
            <name>Rosenstraße</name>
            <Point id="1282">
                <coordinates>10.832717,48.589971,0</coordinates>
            </Point>
        </Placemark>
        <Placemark id="1285">
            <name>View of Nordendorf</name>
            <Point id="1284">
                <coordinates>10.820831,48.586484,448.8</coordinates>
            </Point>
        </Placemark>
        <Placemark id="1287">
            <name>View of Kloster Holzen</name>
            <Point id="1286">
                <coordinates>10.817514,48.600009,420.3</coordinates>
            </Point>
        </Placemark>
        <Placemark id="1289">
            <name>Schmutterarm</name>
            <Point id="1288">
                <coordinates>10.819407,48.598076,466.3</coordinates>
            </Point>
        </Placemark>
        <Placemark id="1291">
            <name>Wooden Sculptures by the Schmutter</name>
            <Point id="1290">
                <coordinates>10.822359,48.595723,466.7</coordinates>
            </Point>
        </Placemark>
        <Placemark id="1293">
            <name>Bench on the Schmutter River</name>
            <Point id="1292">
                <coordinates>10.822937,48.59497,471.0</coordinates>
            </Point>
        </Placemark>
        <Placemark id="1295">
            <name>View of Blankenburg</name>
            <Point id="1294">
                <coordinates>10.822937,48.59497,471.0</coordinates>
            </Point>
        </Placemark>
        <Placemark id="1297">
            <name>Schmutter River</name>
            <Point id="1296">
                <coordinates>10.823552,48.594654,419.0</coordinates>
            </Point>
        </Placemark>
    </Document>
</kml>
