<?xml version="1.0" encoding="UTF-8"?>
<kml xmlns="http://www.opengis.net/kml/2.2" xmlns:gx="http://www.google.com/kml/ext/2.2">
    <Document id="1171">
        <name>Blick auf den Lech – Bank mit Blick auf den Lech Runde von Mundraching-2853530291.gpx</name>
        <Placemark id="1173">
            <name>Blick auf den Lech – Bank mit Blick auf den Lech Runde von Mundraching</name>
            <MultiGeometry id="1172">
                <LineString id="1174">
                    <coordinates>10.878003,47.958819,631.5 10.8782,47.958822,632.2 10.878412,47.95884,632.9 10.878552,47.95885,633.5 10.878648,47.958857,633.8 10.878857,47.958873,634.7 10.879033,47.958887,635.5 10.879165,47.958878,636.2 10.879367,47.958864,637.2 10.87956,47.958964,638.6 10.879871,47.959129,640.9 10.880679,47.95955,647.7 10.880905,47.959597,649.3 10.881107,47.9596,650.6 10.882084,47.959034,660.5 10.882318,47.959035,662.7 10.882487,47.959,664.3 10.882708,47.958989,666.0 10.88392,47.959222,672.7 10.883805,47.959283,673.2 10.883231,47.959315,674.5 10.882903,47.959561,674.6 10.882736,47.959617,674.4 10.88225,47.95989,672.9 10.88225,47.959963,672.7 10.882075,47.960178,672.1 10.881989,47.960355,671.9 10.882138,47.960462,671.7 10.882273,47.960475,671.7 10.882323,47.960552,671.6 10.88224,47.960704,671.6 10.88234,47.960747,671.5 10.882296,47.960832,671.5 10.882379,47.960915,671.4 10.882731,47.961065,671.3 10.882967,47.961264,671.1 10.883183,47.961271,670.8 10.883267,47.961297,670.7 10.883347,47.961321,670.6 10.883432,47.96137,670.4 10.883473,47.961466,670.1 10.883622,47.961609,669.6 10.883904,47.961757,668.9 10.883876,47.961851,668.6 10.884008,47.962004,667.8 10.884086,47.962095,667.3 10.88431,47.962425,664.6 10.884809,47.962654,660.5 10.884455,47.96295,656.9 10.884252,47.963153,655.4 10.884165,47.96339,654.3 10.884212,47.963566,653.7 10.884194,47.963652,653.5 10.884272,47.96385,653.0 10.884339,47.964248,653.4 10.884484,47.96455,655.8 10.884444,47.964627,656.6 10.884402,47.964705,657.5 10.88439,47.964721,657.6 10.884242,47.964907,659.9 10.884199,47.964984,660.8 10.884199,47.964989,660.9 10.884199,47.964984,660.9 10.884242,47.964907,661.7 10.884375,47.964903,662.6 10.884584,47.964938,663.9 10.884947,47.964725,666.5 10.885229,47.964739,667.8 10.885521,47.964612,669.6 10.88583,47.964427,671.8 10.885931,47.964366,672.3 10.886383,47.963905,674.7 10.886717,47.963803,675.7 10.887061,47.96311,679.3 10.887328,47.96268,681.4 10.887598,47.962246,683.3 10.888511,47.961644,685.0 10.889142,47.961127,685.2 10.88935,47.960696,685.0 10.889625,47.960251,685.0 10.889501,47.960067,685.2 10.88878,47.96009,685.6 10.88807,47.96014,685.9 10.886729,47.960365,686.4 10.886542,47.960381,686.5 10.886315,47.960358,686.5 10.886133,47.960305,686.5 10.88598,47.96023,686.6 10.88584,47.960107,686.6 10.885472,47.959673,686.1 10.885114,47.959304,684.5 10.884759,47.959245,682.8 10.884485,47.959216,681.3 10.88424,47.959236,679.6 10.88392,47.959222,677.3 10.882708,47.958989,666.4 10.882487,47.959,664.3 10.882318,47.959035,662.7 10.882084,47.959034,660.5 10.881107,47.9596,650.6 10.880905,47.959597,649.3 10.880679,47.95955,647.7 10.879871,47.959129,640.9 10.87956,47.958964,638.6 10.879367,47.958864,637.2 10.879165,47.958878,636.2 10.879033,47.958887,635.5 10.878857,47.958873,634.7 10.878648,47.958857,633.8 10.878552,47.95885,633.5 10.878412,47.95884,632.9 10.8782,47.958822,632.2 10.878003,47.958819,631.5</coordinates>
                </LineString>
            </MultiGeometry>
        </Placemark>
        <Placemark id="1177">
            <name>Mundraching</name>
            <Point id="1176">
                <coordinates>10.877997,47.958762,0</coordinates>
            </Point>
        </Placemark>
        <Placemark id="1179">
            <name>St. Vitus Church, Mundraching</name>
            <Point id="1178">
                <coordinates>10.877967,47.958754,670.2</coordinates>
            </Point>
        </Placemark>
        <Placemark id="1181">
            <name>Village Center Fountain</name>
            <Point id="1180">
                <coordinates>10.879162,47.958855,646.8</coordinates>
            </Point>
        </Placemark>
        <Placemark id="1183">
            <name>View of the Lech</name>
            <Point id="1182">
                <coordinates>10.883279,47.96128,731.0</coordinates>
            </Point>
        </Placemark>
        <Placemark id="1185">
            <name>View of Lechauen and lakes near Lechtal-Süd</name>
            <Point id="1184">
                <coordinates>10.884001,47.962007,734.0</coordinates>
            </Point>
        </Placemark>
        <Placemark id="1187">
            <name>View of the Lech River</name>
            <Point id="1186">
                <coordinates>10.884421,47.964622,718.3</coordinates>
            </Point>
        </Placemark>
        <Placemark id="1189">
            <name>Bench with a View of the Lech</name>
            <Point id="1188">
                <coordinates>10.884185,47.964924,730.5</coordinates>
            </Point>
        </Placemark>
    </Document>
</kml>
