<?xml version="1.0" encoding="UTF-8"?>
<kml xmlns="http://www.opengis.net/kml/2.2" xmlns:gx="http://www.google.com/kml/ext/2.2">
    <Document id="1481">
        <name>Brauereikeller von 1847 – Brauereikellereingang Runde von Markt Berolzheim-2711731207.gpx</name>
        <Placemark id="1483">
            <name>Brauereikeller von 1847 – Brauereikellereingang Runde von Markt Berolzheim</name>
            <MultiGeometry id="1482">
                <LineString id="1484">
                    <coordinates>10.848073,49.00778,425.3 10.84785,49.007776,425.5 10.847524,49.007771,425.8 10.846996,49.007749,426.4 10.845981,49.007603,427.1 10.845662,49.007585,427.3 10.845141,49.00772,427.2 10.844812,49.007816,426.9 10.844692,49.007901,426.8 10.844534,49.008311,426.1 10.844464,49.009142,424.9 10.844414,49.009262,424.8 10.844402,49.009335,424.7 10.844429,49.009375,424.7 10.844523,49.009431,424.6 10.8444,49.009527,424.5 10.844365,49.009606,424.4 10.844125,49.009583,424.3 10.843885,49.009627,424.3 10.843839,49.009651,424.4 10.843885,49.009627,424.4 10.844125,49.009583,424.4 10.844365,49.009606,424.5 10.8444,49.009527,424.6 10.844523,49.009431,424.8 10.844429,49.009375,424.9 10.84381,49.009276,425.4 10.843508,49.009184,425.6 10.843139,49.009032,426.1 10.842569,49.008888,427.0 10.84066,49.008607,429.0 10.840527,49.008634,429.2 10.840308,49.008728,429.5 10.839995,49.008938,430.0 10.83979,49.008946,430.3 10.838924,49.008864,431.5 10.838109,49.008815,433.2 10.837724,49.00883,434.0 10.836936,49.008731,435.6 10.836708,49.008702,436.1 10.836356,49.008693,436.9 10.836168,49.008719,437.3 10.83598,49.008784,437.8 10.835498,49.00886,439.0 10.833661,49.008813,443.8 10.832626,49.008753,447.5 10.830652,49.008685,457.4 10.827827,49.008557,480.9 10.827647,49.008548,482.7 10.827351,49.008589,485.9 10.826222,49.008227,500.5 10.825612,49.008126,508.5 10.825355,49.008036,512.3 10.825149,49.007963,515.5 10.824582,49.007908,523.6 10.824119,49.007912,530.4 10.823218,49.008075,541.7 10.822934,49.008149,544.5 10.822679,49.00816,546.6 10.822496,49.008083,548.2 10.822357,49.007946,549.8 10.821885,49.007362,553.9 10.821048,49.006781,557.3 10.820619,49.006197,562.2 10.820485,49.005961,564.4 10.820577,49.005606,567.5 10.820737,49.004987,571.8 10.820849,49.004779,572.8 10.821375,49.004213,574.0 10.821922,49.003713,572.8 10.822389,49.003424,571.1 10.822893,49.003213,569.4 10.823494,49.002798,567.0 10.824497,49.001647,562.9 10.824728,49.001415,561.6 10.8252,49.001038,558.4 10.825608,49.000827,555.3 10.825924,49.0007,552.7 10.826219,49.000623,550.2 10.826391,49.000605,548.8 10.826772,49.000595,545.6 10.828016,49.000623,535.3 10.828381,49.000658,532.8 10.828803,49.000736,530.2 10.829636,49.000764,527.0 10.830408,49.000888,526.0 10.831095,49.000771,526.5 10.831594,49.000616,527.4 10.833027,49.000288,528.7 10.834851,49.000447,525.7 10.836374,49.0005,524.1 10.836948,49.000619,524.1 10.837061,49.000535,524.1 10.837388,49.000451,524.3 10.837465,49.000412,524.3 10.837511,49.000349,524.5 10.837576,49.000468,524.7 10.837808,49.000631,525.0 10.838804,49.000845,523.2 10.838939,49.00085,522.5 10.839235,49.000861,521.0 10.83938,49.001001,519.9 10.839723,49.001182,517.7 10.841056,49.001378,507.6 10.842145,49.001682,499.0 10.843419,49.00185,490.2 10.843972,49.001965,487.0 10.844368,49.002085,484.7 10.845277,49.00229,479.6 10.846012,49.002404,475.4 10.84616,49.002472,474.5 10.846293,49.0026,473.2 10.846356,49.002701,472.3 10.846623,49.003011,469.4 10.848261,49.003215,461.3 10.8499,49.003419,454.4 10.849865,49.003546,453.5 10.849742,49.003989,450.2 10.849726,49.004047,449.9 10.849582,49.004559,445.8 10.849421,49.005123,441.1 10.849265,49.005698,436.5 10.849078,49.006386,431.7 10.84899,49.0067,429.7 10.848732,49.007498,426.3 10.848676,49.00779,425.6 10.848073,49.00778,424.9</coordinates>
                </LineString>
            </MultiGeometry>
        </Placemark>
        <Placemark id="1487">
            <name>Markt Berolzheim Friedhof</name>
            <Point id="1486">
                <coordinates>10.848071,49.007819,0</coordinates>
            </Point>
        </Placemark>
        <Placemark id="1489">
            <name>Jewish Memorial at the Former Synagogue Site</name>
            <Point id="1488">
                <coordinates>10.843958,49.009748,423.7</coordinates>
            </Point>
        </Placemark>
        <Placemark id="1491">
            <name>Brewery Cellar from 1847</name>
            <Point id="1490">
                <coordinates>10.83895,49.000715,568.6</coordinates>
            </Point>
        </Placemark>
    </Document>
</kml>
