<?xml version="1.0" encoding="UTF-8"?>
<kml xmlns="http://www.opengis.net/kml/2.2" xmlns:gx="http://www.google.com/kml/ext/2.2">
    <Document id="1501">
        <name>Burghofweiher bei Langerringen – Schwabaich-Kapelle Runde von Langerringen-2953798409.gpx</name>
        <Placemark id="1503">
            <name>Burghofweiher bei Langerringen – Schwabaich-Kapelle Runde von Langerringen</name>
            <MultiGeometry id="1502">
                <LineString id="1504">
                    <coordinates>10.757335,48.133146,567.3 10.757456,48.132951,567.3 10.758261,48.131687,566.8 10.758389,48.131634,566.7 10.758666,48.131453,566.6 10.75883,48.131269,566.5 10.759036,48.130938,566.3 10.759159,48.130794,566.3 10.759315,48.130717,566.2 10.759632,48.130696,566.1 10.760008,48.130724,566.2 10.760187,48.130737,566.2 10.761256,48.130719,566.9 10.761859,48.130227,567.9 10.762142,48.129958,568.3 10.762342,48.129695,568.6 10.762196,48.129615,568.7 10.761683,48.129421,568.7 10.761493,48.129325,568.7 10.761299,48.129179,568.7 10.761073,48.128883,568.5 10.761027,48.128271,568.3 10.761249,48.126709,570.3 10.761358,48.12622,570.9 10.761583,48.125805,571.4 10.761643,48.125502,571.7 10.761615,48.124131,572.9 10.76173,48.123564,573.3 10.761746,48.122868,573.7 10.761752,48.122576,573.8 10.76109,48.120902,574.3 10.760907,48.120649,574.2 10.7606,48.119966,574.0 10.759812,48.119114,573.5 10.759617,48.118603,573.4 10.759385,48.117584,574.1 10.759518,48.117169,574.6 10.759588,48.116563,575.4 10.759517,48.116341,575.6 10.758771,48.114747,576.6 10.758676,48.11473,576.6 10.754823,48.114119,580.2 10.753737,48.113929,581.6 10.75348,48.113884,581.8 10.753541,48.113766,582.0 10.753731,48.113381,582.4 10.753497,48.113416,582.5 10.753012,48.113487,582.1 10.752881,48.113538,582.0 10.75266,48.113777,581.3 10.752586,48.113801,581.2 10.752502,48.113828,581.0 10.752072,48.113746,580.3 10.751765,48.113685,579.8 10.751323,48.11365,579.1 10.750882,48.113721,578.4 10.750491,48.113875,577.7 10.750425,48.11383,577.6 10.750384,48.113745,577.4 10.750366,48.113619,577.2 10.750384,48.113745,577.1 10.750425,48.11383,577.0 10.750491,48.113875,576.9 10.750284,48.114034,576.8 10.750378,48.114287,576.6 10.750455,48.11487,576.0 10.750793,48.115613,575.2 10.750907,48.116127,574.8 10.751216,48.117115,574.1 10.751316,48.117369,573.9 10.751992,48.11854,573.0 10.752091,48.118797,572.7 10.752139,48.119514,572.2 10.752148,48.120042,571.9 10.752267,48.120733,571.5 10.752572,48.121718,571.3 10.752819,48.122051,571.4 10.75299,48.122397,571.7 10.753285,48.123442,572.8 10.753664,48.123841,573.4 10.753908,48.124043,573.7 10.754265,48.12441,574.2 10.754483,48.124708,574.4 10.754983,48.126083,574.4 10.755245,48.126701,574.0 10.756528,48.129292,573.0 10.756728,48.129505,572.8 10.757008,48.12966,572.5 10.757294,48.129778,572.2 10.757589,48.130085,571.5 10.757801,48.130397,570.7 10.757888,48.1306,570.2 10.758218,48.131494,568.1 10.758261,48.131687,567.9 10.757456,48.132951,567.3 10.757335,48.133146,567.3</coordinates>
                </LineString>
            </MultiGeometry>
        </Placemark>
        <Placemark id="1507">
            <name>Burghofweiher near Langerringen</name>
            <Point id="1506">
                <coordinates>10.761778,48.122868,571.9</coordinates>
            </Point>
        </Placemark>
        <Placemark id="1509">
            <name>Schwabaich Chapel</name>
            <Point id="1508">
                <coordinates>10.75373,48.113946,622.8</coordinates>
            </Point>
        </Placemark>
        <Placemark id="1511">
            <name>Sedlmeir Trachtenhof</name>
            <Point id="1510">
                <coordinates>10.750407,48.113616,621.0</coordinates>
            </Point>
        </Placemark>
    </Document>
</kml>
