<?xml version="1.0" encoding="UTF-8"?>
<kml xmlns="http://www.opengis.net/kml/2.2" xmlns:gx="http://www.google.com/kml/ext/2.2">
    <Document id="1629">
        <name>Bärlauchwäldchen Runde von Naturwaldreservat Neugeschüttwörth-3057574881.gpx</name>
        <Placemark id="1631">
            <name>Bärlauchwäldchen Runde von Naturwaldreservat Neugeschüttwörth</name>
            <MultiGeometry id="1630">
                <LineString id="1632">
                    <coordinates>10.673849,48.630237,407.7 10.673441,48.630472,407.6 10.672456,48.633055,407.3 10.672501,48.634071,407.0 10.672237,48.634519,407.0 10.672223,48.634709,407.0 10.672536,48.634976,407.1 10.673719,48.63558,407.1 10.674178,48.636124,406.9 10.67437,48.636981,406.4 10.67455,48.637709,406.1 10.67473,48.638438,405.9 10.675068,48.639132,406.2 10.675826,48.640175,407.0 10.675927,48.640326,407.1 10.682778,48.639892,406.0 10.682824,48.63951,406.0 10.682818,48.638731,406.1 10.682913,48.638374,406.1 10.683085,48.637942,406.1 10.683235,48.637354,406.1 10.683383,48.637124,406.1 10.683549,48.637003,406.1 10.683832,48.636879,406.1 10.685029,48.636586,406.3 10.685332,48.636553,406.3 10.686107,48.636596,406.4 10.68626,48.636555,406.4 10.688887,48.634246,406.2 10.689306,48.633834,406.2 10.68963,48.633812,406.2 10.689821,48.633779,406.2 10.690048,48.633713,406.2 10.690194,48.633668,406.2 10.691396,48.634314,406.3 10.693406,48.633095,406.0 10.69351,48.633073,405.9 10.693628,48.633091,405.9 10.698273,48.635672,405.6 10.699102,48.636133,405.5 10.699277,48.636286,405.5 10.699336,48.636543,405.5 10.6992,48.637857,405.4 10.698905,48.640321,405.3 10.698392,48.644434,405.6 10.698424,48.644589,405.6 10.69855,48.644679,405.7 10.701007,48.645676,406.3 10.702112,48.646131,405.6 10.702536,48.64635,405.3 10.703333,48.647026,404.7 10.703538,48.647276,404.7 10.703692,48.647593,404.7 10.703798,48.647983,404.8 10.703836,48.6483,404.9 10.703918,48.648447,404.9 10.704081,48.648592,405.0 10.704293,48.648684,405.0 10.704484,48.64872,405.0 10.70489,48.648748,405.0 10.705058,48.648835,405.0 10.705128,48.648721,405.1 10.705433,48.647959,405.2 10.705659,48.647158,405.6 10.705538,48.646595,405.8 10.70555,48.646384,405.9 10.705596,48.646271,406.0 10.705648,48.646204,406.0 10.705728,48.646101,406.0 10.705744,48.64608,406.1 10.70655,48.645234,406.2 10.70678,48.644937,406.2 10.706983,48.644725,406.2 10.707255,48.644529,406.2 10.707527,48.644347,406.2 10.708039,48.64412,406.2 10.708451,48.64418,406.1 10.709123,48.644332,406.0 10.710309,48.644641,406.0 10.710892,48.644828,405.9 10.710809,48.644653,405.9 10.710752,48.644441,405.9 10.710725,48.644104,405.9 10.710938,48.643327,405.6 10.71124,48.642677,405.3 10.71127,48.642443,405.2 10.711229,48.642254,405.2 10.71102,48.641881,405.0 10.710866,48.641697,405.0 10.708963,48.63995,405.8 10.708507,48.639435,406.0 10.708252,48.639059,406.0 10.708176,48.638703,405.9 10.708169,48.638176,405.8 10.708219,48.636039,405.7 10.708843,48.633874,405.7 10.708843,48.633621,405.7 10.708797,48.633458,405.8 10.708432,48.632541,406.0 10.706835,48.630182,406.3 10.706575,48.629875,406.3 10.70563,48.629074,406.0 10.705479,48.628858,406.0 10.705424,48.628699,406.0 10.705436,48.628658,406.0 10.706416,48.62653,406.4 10.706938,48.625397,406.7 10.70696,48.625068,406.7 10.706839,48.624776,406.7 10.706533,48.624827,406.7 10.706304,48.624905,406.6 10.704617,48.625648,406.2 10.702558,48.626391,406.1 10.701615,48.62675,406.2 10.701082,48.626952,406.2 10.70005,48.627387,406.3 10.697429,48.628619,406.6 10.697022,48.628853,406.6 10.696592,48.629008,406.6 10.695832,48.629365,406.6 10.694981,48.629809,406.6 10.694267,48.630124,406.6 10.693794,48.630333,406.6 10.692817,48.63069,406.7 10.692108,48.630895,406.5 10.691499,48.63104,406.4 10.69145,48.630949,406.3 10.690705,48.631078,406.3 10.690141,48.631143,406.3 10.689441,48.631194,406.4 10.688508,48.63119,406.8 10.688078,48.63118,406.9 10.687102,48.631106,407.2 10.683792,48.630689,407.8 10.683753,48.630796,407.8 10.681696,48.630472,407.8 10.681213,48.630433,407.8 10.680153,48.630371,407.9 10.679722,48.630318,407.8 10.677384,48.629925,407.8 10.675404,48.629697,407.7 10.674224,48.630021,407.7 10.673849,48.630237,407.7</coordinates>
                </LineString>
            </MultiGeometry>
        </Placemark>
        <Placemark id="1635">
            <name>Seven Chapels: Wayside Chapel in the Donauried</name>
            <Point id="1634">
                <coordinates>10.705602,48.646188,446.0</coordinates>
            </Point>
        </Placemark>
        <Placemark id="1637">
            <name>Wild Garlic Grove</name>
            <Point id="1636">
                <coordinates>10.70572,48.646098,459.0</coordinates>
            </Point>
        </Placemark>
    </Document>
</kml>
