<?xml version="1.0" encoding="UTF-8"?>
<kml xmlns="http://www.opengis.net/kml/2.2" xmlns:gx="http://www.google.com/kml/ext/2.2">
    <Document id="1639">
        <name>Café Lennestübchen – Hotel Haus Hilmeke Runde von Saalhausen-2767832169.gpx</name>
        <Placemark id="1641">
            <name>Café Lennestübchen – Hotel Haus Hilmeke Runde von Saalhausen</name>
            <MultiGeometry id="1640">
                <LineString id="1642">
                    <coordinates>8.166742,51.117827,313.3 8.16675,51.11777,313.2 8.166929,51.117787,313.1 8.166946,51.117734,313.1 8.166987,51.117605,313.0 8.166962,51.117547,313.0 8.16683,51.117424,312.9 8.1666,51.117332,312.7 8.166405,51.11729,312.7 8.166326,51.117275,312.6 8.166336,51.117171,312.5 8.165962,51.117144,312.4 8.165734,51.117164,312.3 8.165962,51.117144,312.2 8.166336,51.117171,312.1 8.166324,51.117123,312.1 8.166277,51.116935,312.1 8.166249,51.116883,312.1 8.16617,51.116819,312.1 8.165894,51.116774,312.1 8.16617,51.116819,312.1 8.166249,51.116883,312.2 8.166327,51.11689,312.2 8.16678,51.116931,312.2 8.167183,51.116839,312.3 8.167232,51.116808,312.3 8.167811,51.116817,312.4 8.168173,51.116939,312.6 8.168582,51.116984,312.8 8.168908,51.117058,313.0 8.169243,51.117186,313.3 8.169521,51.117031,313.8 8.169703,51.116986,314.0 8.170076,51.116953,314.4 8.170242,51.116967,314.6 8.170367,51.117006,314.7 8.170677,51.117143,315.1 8.170727,51.117191,315.2 8.170969,51.117307,315.5 8.17091,51.117372,315.6 8.170922,51.117456,315.7 8.17093,51.117467,315.7 8.171111,51.117729,315.9 8.171113,51.117862,316.0 8.170742,51.117982,316.0 8.170787,51.118453,315.6 8.170574,51.119684,314.8 8.170615,51.119843,314.8 8.170632,51.119905,314.8 8.170728,51.120102,315.1 8.170887,51.120425,315.7 8.171075,51.120688,316.7 8.171167,51.120773,317.1 8.171349,51.120811,317.7 8.172333,51.120886,321.2 8.173406,51.120936,325.8 8.175598,51.120919,332.4 8.177684,51.121065,334.7 8.178481,51.121209,335.9 8.179563,51.121469,337.2 8.180066,51.121686,337.4 8.180851,51.122082,337.3 8.181099,51.122175,337.2 8.181983,51.122378,337.0 8.182509,51.122453,337.0 8.183424,51.122698,336.8 8.184317,51.123118,336.0 8.184798,51.12331,335.9 8.185868,51.123586,336.6 8.186863,51.123812,337.7 8.187176,51.123857,338.1 8.188254,51.123941,338.5 8.188709,51.123913,338.0 8.189183,51.123753,336.7 8.189471,51.123726,335.7 8.190001,51.12385,333.6 8.190902,51.124114,330.3 8.190735,51.124281,329.5 8.190596,51.124412,328.9 8.190412,51.124595,328.3 8.190052,51.124987,328.3 8.189582,51.124927,329.4 8.189434,51.124986,330.1 8.189006,51.124985,332.1 8.188793,51.12505,333.4 8.188657,51.125195,334.8 8.188598,51.12551,337.7 8.188616,51.125595,338.7 8.188657,51.125858,341.9 8.188635,51.125986,343.6 8.188622,51.126064,344.7 8.188523,51.126322,348.7 8.188601,51.126391,350.0 8.189117,51.126579,355.4 8.18913,51.126651,356.2 8.189167,51.126705,356.9 8.189142,51.127065,360.7 8.189395,51.127157,362.5 8.189446,51.127224,363.2 8.189284,51.127291,364.3 8.189143,51.12732,365.2 8.188956,51.127308,366.2 8.188728,51.127294,367.4 8.188358,51.127323,369.0 8.18673,51.127145,370.6 8.186569,51.127071,370.5 8.18643,51.126951,370.1 8.186345,51.126755,369.3 8.18631,51.126567,368.4 8.186287,51.126432,367.5 8.186199,51.126244,366.2 8.185992,51.126051,364.2 8.185518,51.125711,360.3 8.185255,51.125562,358.9 8.184695,51.125331,357.0 8.183009,51.124959,354.2 8.182613,51.12489,354.0 8.182222,51.124853,353.7 8.180688,51.124795,352.1 8.180418,51.124799,351.5 8.179672,51.124875,349.2 8.178596,51.124629,344.2 8.177794,51.12453,339.7 8.177223,51.124405,336.6 8.176349,51.12425,332.9 8.17523,51.123997,329.1 8.174833,51.124042,328.2 8.174811,51.123973,327.9 8.174697,51.123897,327.6 8.174618,51.123846,327.3 8.173882,51.123484,325.6 8.173516,51.123156,324.4 8.172994,51.122865,323.3 8.171301,51.122446,321.5 8.171045,51.122291,321.3 8.170687,51.122153,321.1 8.170297,51.122015,320.9 8.170215,51.12197,320.9 8.170066,51.121773,321.1 8.169704,51.121431,321.2 8.169679,51.121362,321.2 8.169736,51.121245,321.0 8.169406,51.120947,320.5 8.16929,51.120673,320.3 8.169285,51.120645,320.3 8.169767,51.120578,319.9 8.169555,51.120191,319.2 8.169455,51.120123,318.9 8.169339,51.120094,318.7 8.169295,51.118998,315.9 8.16917,51.118596,315.1 8.168971,51.118252,314.4 8.169149,51.118222,314.2 8.169511,51.118172,313.9 8.169628,51.118155,313.8 8.169435,51.117671,313.2 8.169243,51.117186,313.0 8.168908,51.117058,312.8 8.168582,51.116984,312.7 8.168173,51.116939,312.5 8.167811,51.116817,312.4 8.167232,51.116808,312.3 8.167183,51.116839,312.3 8.16678,51.116931,312.3 8.166249,51.116883,312.3 8.166277,51.116935,312.3 8.166324,51.117123,312.4 8.166336,51.117171,312.4 8.166513,51.117161,312.4 8.166621,51.117165,312.5 8.166513,51.117161,312.5 8.166336,51.117171,312.6 8.166326,51.117275,312.7 8.166405,51.11729,312.7 8.1666,51.117332,312.8 8.16683,51.117424,312.9 8.166962,51.117547,313.0 8.166987,51.117605,313.0 8.166946,51.117734,313.1 8.166929,51.117787,313.2 8.16675,51.11777,313.2 8.166742,51.117827,313.3</coordinates>
                </LineString>
            </MultiGeometry>
        </Placemark>
        <Placemark id="1645">
            <name>Saalhausen Kirche</name>
            <Point id="1644">
                <coordinates>8.16666,51.117822,0</coordinates>
            </Point>
        </Placemark>
        <Placemark id="1647">
            <name>Fish Ladder in Naturpark Sauerland-Rothaargebirge</name>
            <Point id="1646">
                <coordinates>8.165683,51.117179,358.3</coordinates>
            </Point>
        </Placemark>
        <Placemark id="1649">
            <name>Café Heimes</name>
            <Point id="1648">
                <coordinates>8.165792,51.116818,312.1</coordinates>
            </Point>
        </Placemark>
        <Placemark id="1651">
            <name>View of the Lenne near Saalhausen</name>
            <Point id="1650">
                <coordinates>8.166329,51.11688,364.0</coordinates>
            </Point>
        </Placemark>
        <Placemark id="1653">
            <name>Saalhausen Spa and Community Center</name>
            <Point id="1652">
                <coordinates>8.170928,51.117468,360.5</coordinates>
            </Point>
        </Placemark>
        <Placemark id="1655">
            <name>Playground and Recreation Area Saalhausen</name>
            <Point id="1654">
                <coordinates>8.171054,51.119798,371.0</coordinates>
            </Point>
        </Placemark>
        <Placemark id="1657">
            <name>Hotel Haus Hilmeke</name>
            <Point id="1656">
                <coordinates>8.188465,51.125975,427.0</coordinates>
            </Point>
        </Placemark>
        <Placemark id="1659">
            <name>Höhenblick Viewpoint (756 m)</name>
            <Point id="1658">
                <coordinates>8.188954,51.127319,427.0</coordinates>
            </Point>
        </Placemark>
        <Placemark id="1661">
            <name>St. Jodokus Church Saalhausen</name>
            <Point id="1660">
                <coordinates>8.166622,51.11715,314.6</coordinates>
            </Point>
        </Placemark>
    </Document>
</kml>
