<?xml version="1.0" encoding="UTF-8"?>
<kml xmlns="http://www.opengis.net/kml/2.2" xmlns:gx="http://www.google.com/kml/ext/2.2">
    <Document id="1749">
        <name>Donau bei Schwenningen – Seerosenteich bei Blindheim Runde von Apfelwörth-2945981145.gpx</name>
        <Placemark id="1751">
            <name>Donau bei Schwenningen – Seerosenteich bei Blindheim Runde von Apfelwörth</name>
            <MultiGeometry id="1750">
                <LineString id="1752">
                    <coordinates>10.649589,48.632128,409.4 10.649669,48.632042,409.4 10.649861,48.631934,409.2 10.650023,48.631842,409.1 10.650457,48.631595,408.9 10.650536,48.631556,408.9 10.650637,48.631506,409.0 10.650658,48.63145,409.0 10.65066,48.631445,409.0 10.650539,48.631243,409.1 10.650607,48.631221,409.1 10.650651,48.631174,409.1 10.650664,48.631148,409.1 10.650474,48.630945,409.1 10.65038,48.630969,409.1 10.650273,48.630992,409.1 10.649819,48.631083,409.1 10.649791,48.630994,409.1 10.649611,48.630765,409.1 10.648667,48.629783,408.9 10.648409,48.629599,408.7 10.647564,48.62912,408.7 10.645005,48.627705,409.5 10.644089,48.627114,409.5 10.643947,48.627111,409.5 10.643804,48.62717,409.5 10.643397,48.6275,409.4 10.64317,48.627565,409.3 10.64257,48.627618,409.2 10.641873,48.627679,409.1 10.639805,48.627711,408.6 10.638243,48.627655,408.3 10.637689,48.627686,408.3 10.637343,48.627466,408.3 10.636939,48.626407,409.0 10.636197,48.626047,409.7 10.635312,48.625732,410.3 10.634887,48.625734,410.4 10.634191,48.625739,410.5 10.633318,48.625827,410.5 10.632887,48.625802,410.5 10.632005,48.625555,410.5 10.631631,48.625428,410.5 10.631172,48.625061,410.5 10.631022,48.625006,410.6 10.630543,48.624921,410.6 10.630466,48.624882,410.6 10.629577,48.624334,410.8 10.62923,48.624089,410.8 10.6285,48.623669,410.7 10.628101,48.623514,410.6 10.627508,48.623948,410.4 10.627098,48.62417,410.2 10.626683,48.6243,410.0 10.626023,48.624401,409.8 10.625853,48.624428,409.8 10.624044,48.624926,409.7 10.623924,48.624684,409.7 10.62376,48.624463,409.7 10.62372,48.624243,409.7 10.623702,48.623669,409.8 10.623805,48.623005,409.8 10.623813,48.622672,409.8 10.623858,48.622575,409.8 10.624125,48.622516,409.7 10.624717,48.622508,409.7 10.624948,48.622452,409.7 10.625091,48.62239,409.7 10.625242,48.62219,409.6 10.625393,48.62149,409.5 10.625464,48.621284,409.5 10.625682,48.620919,409.4 10.625807,48.620831,409.4 10.626225,48.620615,409.4 10.626461,48.620455,409.3 10.626586,48.62029,409.3 10.626612,48.620063,409.3 10.626571,48.619696,409.3 10.626559,48.61959,409.3 10.626603,48.619346,409.3 10.626568,48.619269,409.3 10.625887,48.618531,409.6 10.625398,48.618148,409.8 10.625322,48.618122,409.8 10.624704,48.618325,409.9 10.624651,48.618342,409.9 10.624557,48.618327,409.9 10.624415,48.61823,409.9 10.624547,48.617948,409.8 10.624586,48.617762,409.8 10.624572,48.617278,409.7 10.624369,48.616945,409.6 10.624125,48.616665,409.6 10.622986,48.615748,409.7 10.622487,48.615546,409.8 10.622203,48.615468,409.9 10.622072,48.615473,409.9 10.621975,48.615436,409.9 10.621857,48.615244,410.0 10.621393,48.614951,410.2 10.62104,48.614851,410.3 10.62102,48.614704,410.3 10.621117,48.614557,410.4 10.620717,48.614412,410.5 10.619771,48.613846,410.8 10.618592,48.613501,410.9 10.61785,48.61331,410.9 10.617619,48.613278,410.9 10.616773,48.613006,410.8 10.615979,48.612783,410.6 10.615007,48.612509,410.5 10.612562,48.61182,410.6 10.61262,48.612,410.6 10.612746,48.612216,410.7 10.612974,48.61307,411.1 10.613052,48.613167,411.1 10.613496,48.613443,411.3 10.613746,48.613499,411.4 10.613959,48.613621,411.5 10.614227,48.613653,411.5 10.614454,48.613545,411.5 10.614787,48.613386,411.5 10.615945,48.613199,411.2 10.616097,48.613138,411.2 10.616181,48.613078,411.1 10.616266,48.613029,411.1 10.616773,48.613006,411.0 10.617619,48.613278,410.8 10.617559,48.613174,410.8 10.620161,48.613894,410.4 10.620595,48.614038,410.3 10.62491,48.615746,409.1 10.625504,48.616023,409.0 10.626421,48.616535,409.2 10.626741,48.616685,409.4 10.626862,48.616742,409.5 10.628217,48.617333,410.3 10.631378,48.618768,410.9 10.631622,48.618894,411.0 10.631701,48.618941,411.0 10.631775,48.618978,411.1 10.632491,48.619306,411.4 10.635791,48.621034,409.9 10.639057,48.622887,408.4 10.640213,48.623611,408.1 10.640996,48.624102,408.2 10.641873,48.624703,408.4 10.642281,48.625061,408.5 10.642441,48.625242,408.6 10.643007,48.626027,408.8 10.64339,48.626469,409.0 10.643785,48.62678,409.2 10.645171,48.627674,409.4 10.646323,48.628341,409.0 10.648406,48.629473,407.9 10.649056,48.629918,407.8 10.650239,48.630878,408.0 10.650284,48.630948,408.1 10.650273,48.630992,408.1 10.65038,48.630969,408.2 10.650474,48.630945,408.3 10.650664,48.631148,408.4 10.650651,48.631174,408.5 10.650607,48.631221,408.5 10.650539,48.631243,408.5 10.65066,48.631445,408.7 10.650658,48.63145,408.7 10.650637,48.631506,408.7 10.650536,48.631556,408.8 10.650457,48.631595,408.9 10.650023,48.631842,409.1 10.649861,48.631934,409.2 10.649669,48.632042,409.4 10.649589,48.632128,409.4</coordinates>
                </LineString>
            </MultiGeometry>
        </Placemark>
        <Placemark id="1755">
            <name>Old Wooden Danube Bridge Memorial and Information Boards</name>
            <Point id="1754">
                <coordinates>10.650528,48.631549,465.1</coordinates>
            </Point>
        </Placemark>
        <Placemark id="1757">
            <name>Danube Near Schwenningen</name>
            <Point id="1756">
                <coordinates>10.650651,48.631449,407.0</coordinates>
            </Point>
        </Placemark>
        <Placemark id="1759">
            <name>Information board: Apfelwörth Nature Reserve</name>
            <Point id="1758">
                <coordinates>10.649836,48.631058,457.0</coordinates>
            </Point>
        </Placemark>
        <Placemark id="1761">
            <name>Lake in Apfelwörth Nature Reserve</name>
            <Point id="1760">
                <coordinates>10.64257,48.627617,408.7</coordinates>
            </Point>
        </Placemark>
        <Placemark id="1763">
            <name>Apfelwörth</name>
            <Point id="1762">
                <coordinates>10.63489,48.625927,0</coordinates>
            </Point>
        </Placemark>
        <Placemark id="1765">
            <name>Pond with Water Lilies</name>
            <Point id="1764">
                <coordinates>10.615857,48.612972,412.8</coordinates>
            </Point>
        </Placemark>
        <Placemark id="1767">
            <name>Lily pond near Blindheim</name>
            <Point id="1766">
                <coordinates>10.614379,48.613476,414.2</coordinates>
            </Point>
        </Placemark>
    </Document>
</kml>
