<?xml version="1.0" encoding="UTF-8"?>
<kml xmlns="http://www.opengis.net/kml/2.2" xmlns:gx="http://www.google.com/kml/ext/2.2">
    <Document id="1779">
        <name>Drei-Schlösser-Tour-2637880210.gpx</name>
        <Placemark id="1781">
            <name>Drei-Schlösser-Tour</name>
            <MultiGeometry id="1780">
                <LineString id="1782">
                    <coordinates>11.089078,48.581946,407.1 11.08943,48.582008,407.0 11.089397,48.582116,407.0 11.089279,48.582347,407.0 11.08925,48.582562,407.0 11.089371,48.582941,407.1 11.089467,48.583245,407.2 11.089516,48.583399,407.2 11.089684,48.58367,407.3 11.089785,48.583697,407.3 11.089756,48.58375,407.4 11.089775,48.583845,407.4 11.089915,48.584067,407.5 11.090079,48.584362,407.7 11.089273,48.584575,408.3 11.089018,48.584645,408.5 11.087386,48.584897,409.1 11.086631,48.585037,409.3 11.08606,48.585175,409.5 11.085808,48.585258,409.6 11.085777,48.585268,409.6 11.085517,48.585368,409.7 11.085124,48.585603,409.8 11.084939,48.585726,409.9 11.084419,48.586078,410.2 11.084179,48.586233,410.4 11.083883,48.586376,410.6 11.083614,48.586443,410.7 11.083487,48.58645,410.8 11.083477,48.586541,410.9 11.0834,48.586639,411.0 11.08338,48.58665,411.0 11.082563,48.587128,412.0 11.081726,48.587615,413.6 11.081403,48.587792,414.5 11.081146,48.587922,415.2 11.081019,48.588011,415.7 11.080782,48.588133,416.4 11.074272,48.590148,442.5 11.074182,48.59017,443.0 11.073592,48.590459,446.9 11.071799,48.591683,460.6 11.071483,48.592081,463.8 11.071421,48.592209,464.8 11.071245,48.592897,470.9 11.071187,48.592985,471.8 11.070955,48.593114,473.6 11.070795,48.593148,474.6 11.070502,48.593138,476.2 11.069876,48.593022,479.6 11.069109,48.593092,483.3 11.068697,48.593185,485.3 11.067974,48.593466,487.1 11.067658,48.593622,487.9 11.067166,48.594133,489.9 11.067024,48.59432,490.3 11.067005,48.594393,490.7 11.067029,48.594475,491.0 11.067169,48.594606,491.2 11.067533,48.594741,492.0 11.06767,48.594832,492.3 11.067807,48.595107,493.1 11.067845,48.595182,493.2 11.067654,48.595558,494.2 11.067682,48.595672,494.6 11.067868,48.595755,495.2 11.068361,48.595875,496.7 11.068434,48.59592,497.0 11.068456,48.596012,497.3 11.068423,48.596219,498.1 11.068644,48.596332,498.4 11.068819,48.596487,498.7 11.068997,48.596826,498.9 11.06904,48.597141,498.9 11.06912,48.597373,499.0 11.06921,48.597479,499.2 11.069342,48.598001,499.8 11.069696,48.598489,500.4 11.069706,48.598624,500.6 11.069778,48.598813,500.7 11.069911,48.59896,500.7 11.069965,48.599357,500.7 11.070238,48.599824,500.4 11.07022,48.600123,500.2 11.070739,48.60052,499.8 11.071291,48.600712,499.4 11.071429,48.600832,499.3 11.071502,48.600989,499.2 11.07205,48.601586,498.1 11.072145,48.601764,497.6 11.072263,48.601862,497.3 11.072472,48.602171,496.3 11.072823,48.602273,495.5 11.073026,48.602235,495.0 11.07313,48.602091,494.3 11.073526,48.601724,491.9 11.073505,48.601544,490.6 11.073391,48.601436,489.6 11.073,48.601362,487.1 11.072945,48.601333,486.6 11.072922,48.601241,485.8 11.073149,48.600798,481.4 11.073418,48.600657,479.5 11.073677,48.600645,478.4 11.07438,48.600533,475.7 11.0745,48.600468,475.3 11.07449,48.60034,474.9 11.07444,48.600226,474.5 11.074009,48.599929,473.7 11.073709,48.599792,473.4 11.07337,48.599683,473.2 11.073032,48.59961,473.0 11.072509,48.599362,472.9 11.072303,48.599156,472.7 11.072303,48.599028,472.6 11.072464,48.598808,472.4 11.072839,48.598659,472.1 11.073349,48.598389,471.7 11.073505,48.598178,471.4 11.073446,48.598004,471.1 11.073371,48.597925,471.0 11.073215,48.597758,470.7 11.073046,48.597654,470.5 11.072738,48.597564,470.2 11.071525,48.597401,470.2 11.07094,48.597276,470.0 11.070714,48.597164,469.7 11.07063,48.597088,469.6 11.070735,48.597022,469.3 11.071122,48.597049,468.5 11.071944,48.596997,465.5 11.07243,48.59694,462.9 11.0729,48.596933,460.1 11.073382,48.597043,456.7 11.073684,48.597163,454.4 11.073912,48.597323,452.3 11.07446,48.597633,448.1 11.074857,48.597968,444.7 11.075143,48.598155,442.8 11.075377,48.598225,441.6 11.075515,48.598229,441.0 11.075616,48.598211,440.6 11.075863,48.598089,439.4 11.077029,48.597656,435.1 11.077219,48.597611,434.6 11.078093,48.597507,432.7 11.078993,48.59736,431.0 11.079523,48.597308,430.1 11.079977,48.597174,429.3 11.08102,48.59673,428.1 11.081394,48.596494,427.9 11.081973,48.596039,427.5 11.082237,48.595895,427.4 11.08235,48.595863,427.4 11.082615,48.595837,427.2 11.083379,48.595748,426.8 11.084289,48.595608,425.9 11.085318,48.595481,424.2 11.088088,48.595225,418.4 11.088128,48.595635,417.2 11.088145,48.596558,414.1 11.088113,48.596769,413.4 11.088018,48.597051,412.5 11.088057,48.597152,412.1 11.088104,48.597184,412.0 11.088327,48.597161,411.6 11.088651,48.597191,410.9 11.09,48.597324,408.9 11.090563,48.597383,408.3 11.091512,48.597425,407.7 11.094333,48.597405,407.4 11.094758,48.597358,407.5 11.095652,48.597169,407.8 11.095711,48.597258,407.9 11.095736,48.597296,408.0 11.095816,48.597545,408.2 11.095998,48.598459,409.3 11.095976,48.598923,409.9 11.096018,48.599061,410.0 11.096078,48.59912,410.1 11.096218,48.599168,410.2 11.096892,48.599298,410.3 11.097577,48.598808,409.5 11.097817,48.598676,409.1 11.097819,48.598527,408.7 11.097986,48.598085,407.3 11.098101,48.597771,406.3 11.098123,48.59763,405.8 11.098125,48.597619,405.8 11.098057,48.597186,404.5 11.098,48.597059,404.1 11.097906,48.596846,403.5 11.097845,48.596384,402.5 11.097776,48.596109,402.2 11.097706,48.595876,401.9 11.097675,48.59578,401.8 11.097594,48.595607,401.6 11.0974,48.595477,401.5 11.096885,48.595313,401.4 11.096646,48.595212,401.4 11.096551,48.595092,401.3 11.09653,48.595011,401.3 11.096557,48.594893,401.3 11.096745,48.594681,401.3 11.096877,48.594597,401.3 11.096967,48.594553,401.3 11.096906,48.594399,401.4 11.096741,48.59425,401.4 11.096251,48.594044,401.4 11.09621,48.594027,401.4 11.096228,48.593984,401.4 11.095812,48.593817,401.3 11.094842,48.593432,401.3 11.094214,48.593023,401.4 11.093811,48.592683,401.6 11.092794,48.591597,402.4 11.091793,48.590598,403.3 11.091315,48.590245,403.8 11.090902,48.590038,404.1 11.090452,48.589881,404.4 11.089897,48.589772,404.7 11.089995,48.589464,405.1 11.089987,48.589351,405.3 11.089901,48.589102,405.7 11.089885,48.588904,406.1 11.08991,48.588742,406.6 11.090247,48.588432,407.7 11.090265,48.588383,407.8 11.090257,48.588305,408.1 11.090037,48.587817,409.2 11.090006,48.587612,409.6 11.089949,48.587182,410.3 11.089856,48.586748,410.9 11.089887,48.586394,411.3 11.089861,48.586303,411.4 11.089785,48.58604,411.4 11.089568,48.585308,410.5 11.08934,48.585075,409.9 11.089169,48.585008,409.8 11.089031,48.584981,409.6 11.089018,48.584645,409.1 11.089273,48.584575,408.8 11.090079,48.584362,408.0 11.089915,48.584067,407.7 11.089775,48.583845,407.4 11.089756,48.58375,407.4 11.089785,48.583697,407.3 11.089684,48.58367,407.3 11.089516,48.583399,407.3 11.089467,48.583245,407.4 11.089371,48.582941,407.4 11.08925,48.582562,407.4 11.088862,48.582501,407.3 11.088833,48.58249,407.3 11.088619,48.582405,407.4 11.088381,48.582306,407.4 11.087907,48.582126,407.6 11.087972,48.582105,407.6 11.087982,48.582076,407.6 11.087977,48.582069,407.6 11.087918,48.581975,407.7 11.087991,48.581794,407.7 11.088067,48.581792,407.7 11.088185,48.581791,407.7 11.088989,48.58193,407.6 11.089078,48.581946,407.6</coordinates>
                </LineString>
            </MultiGeometry>
        </Placemark>
        <Placemark id="1785">
            <name>Parking</name>
            <Point id="1784">
                <coordinates>11.089038,48.58203,0</coordinates>
            </Point>
        </Placemark>
        <Placemark id="1787">
            <name>Gumppenberg Castle</name>
            <Point id="1786">
                <coordinates>11.08942,48.582,407.7</coordinates>
            </Point>
        </Placemark>
        <Placemark id="1789">
            <name>Gumppenberg</name>
            <Point id="1788">
                <coordinates>11.06784,48.5951,495.7</coordinates>
            </Point>
        </Placemark>
        <Placemark id="1791">
            <name>Schorn Castle</name>
            <Point id="1790">
                <coordinates>11.09812,48.59763,404.9</coordinates>
            </Point>
        </Placemark>
        <Placemark id="1793">
            <name>Pöttmes Town Gate with Stork's Nest</name>
            <Point id="1792">
                <coordinates>11.088022,48.581765,463.9</coordinates>
            </Point>
        </Placemark>
    </Document>
</kml>
