<?xml version="1.0" encoding="UTF-8"?>
<kml xmlns="http://www.opengis.net/kml/2.2" xmlns:gx="http://www.google.com/kml/ext/2.2">
    <Document id="1783">
        <name>Eichenhütte – Krumme Eiche Runde von Welden-2662702544.gpx</name>
        <Placemark id="1785">
            <name>Eichenhütte – Krumme Eiche Runde von Welden</name>
            <MultiGeometry id="1784">
                <LineString id="1786">
                    <coordinates>10.666401,48.439781,470.5 10.666596,48.439481,470.2 10.666443,48.439443,470.0 10.666564,48.439252,469.9 10.667058,48.439381,469.7 10.667395,48.439077,469.7 10.667501,48.438981,469.8 10.667675,48.438855,469.9 10.667854,48.438748,470.2 10.667647,48.438519,470.7 10.667343,48.438388,471.3 10.665828,48.438124,473.9 10.665207,48.437861,474.5 10.664098,48.43739,474.2 10.663821,48.436653,473.7 10.664136,48.436207,473.7 10.663739,48.435683,474.9 10.663874,48.435219,476.2 10.66442,48.435032,477.5 10.664176,48.434465,479.2 10.664637,48.433433,480.4 10.66526,48.43312,480.8 10.665679,48.432626,481.6 10.666193,48.432515,482.3 10.666311,48.432195,483.1 10.66674,48.431739,484.6 10.66725,48.430772,487.1 10.667505,48.430472,487.6 10.667599,48.430144,488.2 10.667255,48.429895,489.1 10.667325,48.429544,490.3 10.668028,48.429418,492.7 10.668382,48.429276,494.3 10.668342,48.428744,497.4 10.668779,48.428507,498.8 10.66894,48.428308,499.2 10.668833,48.428165,499.4 10.6685,48.427995,499.3 10.668254,48.427478,498.3 10.668682,48.426777,496.7 10.669175,48.42628,495.8 10.669362,48.42598,495.2 10.669267,48.425617,494.4 10.66882,48.425483,493.6 10.66798,48.425367,492.4 10.667602,48.425322,492.0 10.667699,48.424049,493.0 10.667856,48.423901,493.6 10.668089,48.423435,495.5 10.668521,48.423103,497.7 10.669616,48.422085,505.3 10.670206,48.421693,507.7 10.670249,48.421473,508.6 10.669809,48.421344,509.8 10.669873,48.421053,510.9 10.670079,48.420603,512.3 10.67014,48.42053,512.5 10.670013,48.420063,513.6 10.669691,48.419437,514.6 10.669015,48.418952,515.2 10.668807,48.418726,515.6 10.669363,48.418338,515.9 10.669432,48.418003,516.0 10.667969,48.41765,514.9 10.667607,48.417534,514.1 10.667421,48.416946,513.3 10.667343,48.416855,513.3 10.666816,48.416571,514.1 10.666396,48.416344,515.2 10.666109,48.416481,516.2 10.665693,48.416429,517.5 10.665105,48.416258,520.1 10.664787,48.415992,522.3 10.664252,48.416077,524.5 10.662764,48.416048,529.8 10.661431,48.416055,532.6 10.660869,48.41585,533.2 10.660843,48.415892,533.2 10.660792,48.415973,533.3 10.660655,48.416193,533.5 10.658678,48.416794,532.7 10.658456,48.417333,531.4 10.657884,48.418014,528.8 10.657353,48.418239,527.4 10.656416,48.418206,525.5 10.656023,48.418226,524.9 10.655095,48.418758,523.2 10.654452,48.419676,521.2 10.654121,48.419782,520.7 10.653455,48.419884,519.4 10.652942,48.420167,518.0 10.652145,48.420345,516.4 10.651659,48.420594,515.7 10.651682,48.420653,515.7 10.651912,48.421235,514.3 10.652191,48.421591,513.5 10.652132,48.421726,513.3 10.651921,48.42184,512.9 10.651655,48.421885,512.5 10.651443,48.422002,512.1 10.651161,48.422559,510.7 10.650927,48.423351,509.6 10.651152,48.423753,508.9 10.650792,48.424431,507.5 10.650682,48.424636,507.1 10.650449,48.425143,506.2 10.650794,48.425494,505.7 10.65069,48.425808,505.6 10.650854,48.42631,505.8 10.650667,48.426467,506.0 10.65129,48.426888,506.3 10.651461,48.427429,506.2 10.652363,48.428099,502.9 10.652641,48.428568,499.2 10.652491,48.428925,496.1 10.652763,48.429611,490.9 10.653025,48.429859,489.1 10.653347,48.430679,485.4 10.653207,48.431189,483.7 10.653156,48.431282,483.4 10.653242,48.431402,483.0 10.653774,48.43209,481.1 10.655149,48.432527,480.0 10.657606,48.433367,477.9 10.658357,48.433545,477.6 10.661178,48.433737,477.0 10.661808,48.433806,476.0 10.662025,48.43383,475.7 10.662622,48.433867,474.5 10.662789,48.433902,474.1 10.662928,48.433976,473.7 10.662647,48.434294,472.5 10.662546,48.434506,471.8 10.662506,48.434885,470.7 10.662326,48.435657,469.5 10.662356,48.436594,469.2 10.66255,48.437328,469.4 10.662779,48.437677,469.2 10.663111,48.437972,468.9 10.663518,48.438229,468.6 10.664305,48.438553,467.9 10.664427,48.438603,467.9 10.665079,48.438831,467.9 10.665799,48.439036,468.5 10.666564,48.439252,469.3 10.666443,48.439443,469.6 10.666596,48.439481,469.8 10.666401,48.439781,470.3</coordinates>
                </LineString>
            </MultiGeometry>
        </Placemark>
        <Placemark id="1789">
            <name>Parking</name>
            <Point id="1788">
                <coordinates>10.666329,48.43976,0</coordinates>
            </Point>
        </Placemark>
        <Placemark id="1791">
            <name>Fischbach Bridge</name>
            <Point id="1790">
                <coordinates>10.667428,48.439093,518.4</coordinates>
            </Point>
        </Placemark>
        <Placemark id="1793">
            <name>Wetland Forest Trail in Naturpark Augsburg – Westliche Wälder</name>
            <Point id="1792">
                <coordinates>10.665282,48.437783,525.0</coordinates>
            </Point>
        </Placemark>
        <Placemark id="1795">
            <name>Oak Hut</name>
            <Point id="1794">
                <coordinates>10.66087,48.4159,545.6</coordinates>
            </Point>
        </Placemark>
        <Placemark id="1797">
            <name>Crooked Oak</name>
            <Point id="1796">
                <coordinates>10.660896,48.416002,572.4</coordinates>
            </Point>
        </Placemark>
        <Placemark id="1799">
            <name>Forest spring in Naturpark Augsburg – Westliche Wälder</name>
            <Point id="1798">
                <coordinates>10.651694,48.420651,568.3</coordinates>
            </Point>
        </Placemark>
        <Placemark id="1801">
            <name>Forest slope in Naturpark Augsburg – Westliche Wälder</name>
            <Point id="1800">
                <coordinates>10.65073,48.424416,557.4</coordinates>
            </Point>
        </Placemark>
        <Placemark id="1803">
            <name>Biotope pond in Naturpark Augsburg – Westliche Wälder</name>
            <Point id="1802">
                <coordinates>10.661802,48.433829,518.0</coordinates>
            </Point>
        </Placemark>
        <Placemark id="1805">
            <name>Pond in the Forest (Naturpark Augsburg - Westliche Wälder)</name>
            <Point id="1804">
                <coordinates>10.664358,48.438497,467.2</coordinates>
            </Point>
        </Placemark>
    </Document>
</kml>
