<?xml version="1.0" encoding="UTF-8"?>
<kml xmlns="http://www.opengis.net/kml/2.2" xmlns:gx="http://www.google.com/kml/ext/2.2">
    <Document id="1969">
        <name>Felsenspitz – Silbermannstein Runde von Straß-2920435361.gpx</name>
        <Placemark id="1971">
            <name>Felsenspitz – Silbermannstein Runde von Straß</name>
            <MultiGeometry id="1970">
                <LineString id="1972">
                    <coordinates>11.068208,48.724813,393.9 11.068286,48.724886,394.3 11.068214,48.725058,395.0 11.06789,48.725287,396.5 11.067692,48.725465,397.7 11.067499,48.725705,399.2 11.067302,48.726001,401.0 11.066906,48.726779,404.1 11.065734,48.727876,405.2 11.065498,48.728214,405.2 11.065289,48.728705,405.5 11.064927,48.729181,406.3 11.06489,48.729235,406.4 11.064858,48.729458,407.0 11.064792,48.729549,407.2 11.064324,48.730181,409.8 11.064165,48.73033,410.6 11.063712,48.730651,412.9 11.063163,48.731141,416.1 11.062823,48.73163,418.4 11.062389,48.732103,419.3 11.062221,48.732262,419.3 11.062035,48.732399,419.1 11.061569,48.732741,418.0 11.061406,48.732926,417.3 11.061323,48.733218,416.2 11.061364,48.734194,413.4 11.061271,48.735276,412.9 11.061337,48.735414,413.1 11.061604,48.735738,414.0 11.061615,48.735932,414.5 11.061604,48.735738,415.2 11.062058,48.735934,416.5 11.062491,48.73605,417.6 11.062798,48.736004,418.3 11.062881,48.735972,418.6 11.063147,48.735825,419.5 11.063322,48.735687,420.2 11.063485,48.735451,421.1 11.063912,48.734057,423.8 11.064173,48.733426,423.2 11.064289,48.73283,421.4 11.064376,48.732643,420.6 11.064471,48.732569,420.2 11.064798,48.73242,419.1 11.065482,48.732033,416.6 11.065579,48.732017,416.3 11.065634,48.732069,416.0 11.065587,48.732263,415.3 11.065515,48.732556,414.2 11.065808,48.732928,412.8 11.065672,48.734257,407.5 11.065437,48.734727,404.8 11.065417,48.735568,399.5 11.065222,48.736252,395.8 11.065203,48.736497,394.8 11.065183,48.736761,394.0 11.064231,48.737761,392.8 11.063918,48.737882,393.2 11.063163,48.737933,394.6 11.063117,48.737952,394.7 11.062656,48.737759,396.0 11.062541,48.737591,396.7 11.062493,48.737373,397.5 11.062451,48.737181,398.2 11.062316,48.737028,398.7 11.062075,48.736849,399.2 11.061485,48.736523,399.1 11.061057,48.735993,396.8 11.06056,48.735777,394.6 11.060132,48.735524,392.6 11.060099,48.735403,392.0 11.060092,48.735392,391.9 11.059969,48.735192,391.0 11.060093,48.734722,389.8 11.06008,48.734131,390.1 11.060178,48.733908,390.6 11.060153,48.733727,391.1 11.06001,48.733628,391.4 11.060173,48.7335,391.9 11.060221,48.733462,392.0 11.060186,48.73293,392.8 11.060053,48.732621,392.9 11.059657,48.731997,392.0 11.059453,48.731674,391.1 11.059371,48.731499,390.6 11.05929,48.731185,389.9 11.059526,48.730979,389.5 11.059716,48.73062,389.1 11.059945,48.73041,389.0 11.060913,48.730015,389.9 11.06143,48.729871,390.6 11.062102,48.729725,391.8 11.062538,48.729702,392.7 11.062558,48.7297,392.8 11.063095,48.729531,394.5 11.063541,48.729335,396.8 11.064155,48.729197,399.5 11.064442,48.729384,401.0 11.064792,48.729549,402.5 11.064861,48.72967,403.1 11.064792,48.729549,403.6 11.064858,48.729458,404.0 11.06489,48.729235,404.8 11.064927,48.729181,404.9 11.065289,48.728705,405.5 11.065498,48.728214,405.2 11.065734,48.727876,405.2 11.066906,48.726779,404.1 11.067302,48.726001,401.0 11.067499,48.725705,399.2 11.067692,48.725465,397.7 11.06789,48.725287,396.5 11.068214,48.725058,395.0 11.068286,48.724886,394.3 11.068208,48.724813,393.9</coordinates>
                </LineString>
            </MultiGeometry>
        </Placemark>
        <Placemark id="1975">
            <name>Celtic Cult Site on Stätteberg</name>
            <Point id="1974">
                <coordinates>11.06239,48.732609,488.3</coordinates>
            </Point>
        </Placemark>
        <Placemark id="1977">
            <name>View of the Danube from Stätteberg</name>
            <Point id="1976">
                <coordinates>11.06151,48.735934,484.7</coordinates>
            </Point>
        </Placemark>
        <Placemark id="1979">
            <name>Felsenspitz</name>
            <Point id="1978">
                <coordinates>11.062367,48.737385,440.7</coordinates>
            </Point>
        </Placemark>
        <Placemark id="1981">
            <name>Scenic Forest Path</name>
            <Point id="1980">
                <coordinates>11.060072,48.735398,412.0</coordinates>
            </Point>
        </Placemark>
        <Placemark id="1983">
            <name>Yellow-bellied toad pond</name>
            <Point id="1982">
                <coordinates>11.060117,48.733469,434.0</coordinates>
            </Point>
        </Placemark>
        <Placemark id="1985">
            <name>Deadwood in the forest</name>
            <Point id="1984">
                <coordinates>11.059729,48.731977,440.0</coordinates>
            </Point>
        </Placemark>
        <Placemark id="1987">
            <name>Ivy-Covered Tree in Upper Bavaria Forest</name>
            <Point id="1986">
                <coordinates>11.062535,48.729676,454.0</coordinates>
            </Point>
        </Placemark>
        <Placemark id="1989">
            <name>Silbermannstein</name>
            <Point id="1988">
                <coordinates>11.064831,48.729678,481.0</coordinates>
            </Point>
        </Placemark>
    </Document>
</kml>
