<?xml version="1.0" encoding="UTF-8"?>
<kml xmlns="http://www.opengis.net/kml/2.2" xmlns:gx="http://www.google.com/kml/ext/2.2">
    <Document id="2025">
        <name>Feuchtgebiet an der Donau – Donauufer Runde von Gundelfingen (Bayern)-3035009400.gpx</name>
        <Placemark id="2027">
            <name>Feuchtgebiet an der Donau – Donauufer Runde von Gundelfingen (Bayern)</name>
            <MultiGeometry id="2026">
                <LineString id="2028">
                    <coordinates>10.377285,48.5489,430.1 10.377006,48.548378,430.1 10.377044,48.548369,430.1 10.377004,48.548296,430.1 10.376988,48.548268,430.1 10.37712,48.548237,430.1 10.377127,48.548251,430.1 10.377158,48.548307,430.1 10.377165,48.54832,430.1 10.377241,48.548302,430.1 10.376201,48.546302,429.8 10.375896,48.545227,429.5 10.375701,48.544776,429.3 10.375399,48.544272,429.2 10.37476,48.543559,428.9 10.374885,48.54353,428.9 10.378706,48.54259,428.3 10.378947,48.542533,428.4 10.379838,48.542214,429.0 10.380729,48.541894,429.5 10.380913,48.541854,429.6 10.381012,48.541584,429.9 10.381111,48.541315,430.0 10.381542,48.540708,430.2 10.381661,48.540623,430.2 10.381523,48.540581,430.2 10.381836,48.53999,430.3 10.381815,48.539878,430.2 10.381253,48.539879,430.1 10.380728,48.539913,430.0 10.379868,48.539882,430.1 10.379706,48.5399,430.1 10.378481,48.539533,431.1 10.377837,48.539244,431.8 10.377665,48.539166,432.0 10.376657,48.538597,432.4 10.376199,48.538223,432.3 10.376038,48.538144,432.2 10.37599,48.538084,432.2 10.376093,48.537993,432.1 10.376476,48.53782,431.9 10.376912,48.537724,431.6 10.37706,48.537713,431.5 10.377288,48.53757,431.3 10.377506,48.537283,431.1 10.377648,48.536952,430.9 10.37782,48.536759,430.8 10.377868,48.536519,430.6 10.378025,48.536371,430.4 10.378214,48.536041,430.1 10.378472,48.535764,429.9 10.378519,48.535638,429.9 10.378618,48.535646,429.8 10.378671,48.535685,429.8 10.378701,48.535634,429.8 10.379059,48.53549,429.8 10.37921,48.535395,429.8 10.37958,48.534962,429.7 10.379679,48.534772,429.7 10.379785,48.534682,429.6 10.379967,48.534624,429.6 10.380611,48.534504,429.4 10.380971,48.534479,429.3 10.381137,48.534496,429.2 10.381608,48.534634,428.9 10.381774,48.534641,428.9 10.382032,48.534546,428.7 10.383006,48.534581,428.3 10.383075,48.534603,428.2 10.383134,48.534666,428.2 10.383388,48.534658,428.2 10.38409,48.534712,428.2 10.385256,48.534905,428.5 10.385694,48.53486,428.6 10.385896,48.534867,428.7 10.386197,48.534841,428.8 10.386565,48.534887,428.9 10.386838,48.534888,429.0 10.387048,48.534819,429.1 10.387246,48.534661,429.1 10.387347,48.534558,429.2 10.387544,48.53425,429.2 10.387971,48.533744,428.9 10.388089,48.533674,428.7 10.388312,48.533589,428.5 10.388818,48.533586,428.0 10.389176,48.533619,427.6 10.389631,48.53371,427.2 10.389815,48.533707,427.0 10.389926,48.5337,426.9 10.390027,48.533696,426.8 10.390669,48.535089,426.7 10.391517,48.536706,427.4 10.391961,48.537596,427.4 10.394703,48.543092,426.0 10.395239,48.544226,425.5 10.395423,48.544849,425.3 10.3955,48.545466,425.1 10.395509,48.54553,425.1 10.395232,48.545516,425.1 10.395028,48.545534,425.1 10.394197,48.545694,425.1 10.393523,48.545903,425.2 10.393294,48.545898,425.3 10.393002,48.545796,425.4 10.392774,48.545758,425.5 10.392242,48.54579,425.8 10.392072,48.545713,425.9 10.391927,48.545694,426.0 10.391688,48.545711,426.2 10.391323,48.545794,426.4 10.390721,48.545747,426.9 10.390478,48.545677,427.0 10.389996,48.545449,427.3 10.389797,48.545414,427.3 10.389648,48.545389,427.3 10.389904,48.545172,427.4 10.390517,48.545012,427.2 10.391204,48.544878,427.0 10.391475,48.544779,426.8 10.391633,48.54468,426.7 10.391695,48.544474,426.5 10.391744,48.54392,426.2 10.391803,48.543756,426.1 10.391716,48.543194,425.9 10.391715,48.542938,425.8 10.391803,48.542653,425.7 10.391746,48.542474,425.7 10.391791,48.542352,425.7 10.392091,48.542026,425.6 10.392266,48.541756,425.6 10.392197,48.541618,425.6 10.392067,48.541496,425.6 10.391838,48.54115,425.6 10.391659,48.541016,425.7 10.391268,48.540937,425.7 10.390446,48.540971,425.7 10.389671,48.541039,425.8 10.388988,48.541009,426.0 10.388446,48.54096,426.2 10.388031,48.540881,426.3 10.387888,48.540892,426.3 10.387147,48.54077,426.5 10.386165,48.540461,426.5 10.386123,48.540448,426.5 10.385366,48.540142,426.3 10.385117,48.539979,426.4 10.385002,48.539957,426.4 10.384888,48.539935,426.5 10.384531,48.540003,426.7 10.383867,48.540073,427.2 10.383711,48.540083,427.4 10.383281,48.540301,428.1 10.382899,48.540357,428.6 10.382799,48.540309,428.8 10.382397,48.540312,429.3 10.38196,48.540351,429.6 10.381661,48.540623,429.9 10.381542,48.540708,430.0 10.381111,48.541315,430.0 10.381012,48.541584,429.9 10.380913,48.541854,429.6 10.380729,48.541894,429.5 10.379838,48.542214,429.0 10.378947,48.542533,428.4 10.378706,48.54259,428.3 10.374885,48.54353,428.9 10.37476,48.543559,428.9 10.375399,48.544272,429.2 10.375701,48.544776,429.3 10.375896,48.545227,429.5 10.376201,48.546302,429.8 10.377241,48.548302,430.1 10.377165,48.54832,430.1 10.377158,48.548307,430.1 10.377127,48.548251,430.1 10.37712,48.548237,430.1 10.376988,48.548268,430.1 10.377004,48.548296,430.1 10.377044,48.548369,430.1 10.377006,48.548378,430.1 10.377285,48.5489,430.1</coordinates>
                </LineString>
            </MultiGeometry>
        </Placemark>
        <Placemark id="2031">
            <name>Gundelfingen (Bayern)</name>
            <Point id="2030">
                <coordinates>10.37724,48.548911,0</coordinates>
            </Point>
        </Placemark>
        <Placemark id="2033">
            <name>Wetland on the Danube</name>
            <Point id="2032">
                <coordinates>10.391944,48.5376,483.0</coordinates>
            </Point>
        </Placemark>
        <Placemark id="2035">
            <name>Danube Embankment</name>
            <Point id="2034">
                <coordinates>10.395482,48.545467,478.8</coordinates>
            </Point>
        </Placemark>
        <Placemark id="2037">
            <name>Wotanseiche</name>
            <Point id="2036">
                <coordinates>10.389811,48.545379,487.5</coordinates>
            </Point>
        </Placemark>
    </Document>
</kml>
