<?xml version="1.0" encoding="UTF-8"?>
<kml xmlns="http://www.opengis.net/kml/2.2" xmlns:gx="http://www.google.com/kml/ext/2.2">
    <Document id="2281">
        <name>Flussblick – Fluss Mindel Runde von Mindelzell-3238914307.gpx</name>
        <Placemark id="2283">
            <name>Flussblick – Fluss Mindel Runde von Mindelzell</name>
            <MultiGeometry id="2282">
                <LineString id="2284">
                    <coordinates>10.447116,48.23104,521.5 10.447295,48.231186,521.5 10.447627,48.231396,521.3 10.447774,48.231536,521.1 10.448149,48.231893,520.4 10.448362,48.231879,520.1 10.448776,48.231893,519.3 10.449688,48.231926,517.6 10.450799,48.231967,515.7 10.450843,48.231968,515.6 10.451003,48.231975,515.4 10.451126,48.231978,515.3 10.451267,48.23198,515.2 10.451393,48.23198,515.0 10.451584,48.231879,514.8 10.451947,48.231628,514.5 10.452418,48.230791,514.2 10.452924,48.229812,514.5 10.453062,48.229475,514.6 10.453194,48.228909,514.8 10.453318,48.228546,514.9 10.453441,48.228183,515.1 10.4534,48.22818,515.1 10.453246,48.22817,515.1 10.453151,48.228163,515.1 10.453459,48.227236,515.4 10.453624,48.22655,515.6 10.453848,48.226181,515.7 10.453823,48.225802,515.9 10.453949,48.225483,516.0 10.453965,48.225125,516.2 10.453911,48.224895,516.4 10.4538,48.224645,516.6 10.45375,48.224271,516.8 10.453412,48.223198,517.4 10.453385,48.222858,517.4 10.45334,48.222749,517.4 10.453044,48.222335,517.2 10.452867,48.222167,517.1 10.452955,48.222127,517.1 10.453171,48.222023,516.9 10.453225,48.221994,516.9 10.453406,48.221905,516.8 10.453681,48.22188,516.7 10.453887,48.222035,516.5 10.454008,48.222189,516.4 10.455181,48.223377,515.7 10.458712,48.227171,514.8 10.460209,48.229,513.4 10.460474,48.22938,513.2 10.460931,48.231,512.8 10.461007,48.231223,512.8 10.460766,48.231336,512.8 10.460766,48.231407,512.7 10.461023,48.231893,512.5 10.461001,48.232091,512.4 10.460806,48.232371,512.0 10.460394,48.232665,511.5 10.460008,48.23302,510.9 10.459819,48.233306,510.5 10.459766,48.233386,510.4 10.459684,48.233641,510.2 10.459664,48.233841,510.0 10.459686,48.234017,509.9 10.459827,48.234333,509.8 10.460072,48.234649,509.7 10.460104,48.234702,509.7 10.460342,48.235101,509.7 10.460442,48.235333,509.8 10.460622,48.235994,510.1 10.460706,48.236086,510.2 10.460773,48.236166,510.3 10.46086,48.236217,510.3 10.461442,48.236374,510.6 10.461817,48.236546,510.8 10.462282,48.236942,510.8 10.462658,48.237332,510.6 10.46274,48.237507,510.5 10.462742,48.237724,510.4 10.462656,48.237952,510.2 10.462501,48.238313,510.0 10.462359,48.238495,509.9 10.462084,48.238746,509.8 10.461777,48.238907,509.7 10.461464,48.239038,509.5 10.461497,48.239223,509.3 10.461755,48.239552,508.8 10.462997,48.240337,506.8 10.463123,48.240579,506.4 10.463165,48.240742,506.2 10.463157,48.241234,505.8 10.463155,48.241361,505.8 10.463358,48.242059,505.4 10.463318,48.242307,505.2 10.462941,48.243026,504.1 10.462891,48.243283,503.7 10.462908,48.24337,503.5 10.462973,48.243707,503.0 10.463062,48.243901,502.7 10.462955,48.244324,502.2 10.462621,48.244879,501.7 10.462321,48.245142,501.5 10.462287,48.245405,501.4 10.462309,48.246019,501.8 10.462238,48.246194,502.0 10.46222,48.246325,502.2 10.462243,48.246375,502.3 10.462331,48.246565,502.7 10.462534,48.246625,503.0 10.462608,48.246693,503.2 10.462205,48.246756,504.0 10.462027,48.246756,504.3 10.461727,48.246736,504.9 10.461606,48.246755,505.1 10.461465,48.246892,505.6 10.461214,48.246984,506.1 10.460127,48.24737,507.3 10.45981,48.247525,507.4 10.459091,48.247893,507.5 10.458079,48.248575,507.4 10.457985,48.248405,507.4 10.457899,48.247887,507.4 10.458,48.247864,507.4 10.458374,48.247867,507.4 10.458477,48.247849,507.4 10.45915,48.247461,507.2 10.459678,48.247202,506.8 10.460565,48.246862,505.4 10.461026,48.246606,504.3 10.461261,48.246527,503.8 10.461765,48.246408,503.0 10.461806,48.24629,502.8 10.461961,48.246038,502.3 10.462008,48.245747,502.0 10.461811,48.245391,501.9 10.461816,48.245129,501.9 10.462203,48.244776,502.2 10.462383,48.244576,502.4 10.462573,48.244273,502.7 10.462573,48.243965,502.9 10.462506,48.24377,503.1 10.46251,48.243653,503.2 10.462521,48.243589,503.3 10.46267,48.242985,504.0 10.462753,48.242774,504.2 10.463045,48.242266,504.9 10.463061,48.241999,505.2 10.462907,48.241537,505.6 10.462901,48.24142,505.8 10.462865,48.240675,506.8 10.46279,48.24051,507.1 10.462698,48.240401,507.3 10.461611,48.239744,509.0 10.461276,48.239356,509.6 10.461156,48.23899,509.9 10.461152,48.23843,510.0 10.460938,48.237921,509.8 10.460744,48.237599,509.7 10.460444,48.236682,509.2 10.460313,48.236113,509.1 10.46027,48.235758,509.2 10.460204,48.23554,509.4 10.459335,48.235569,510.1 10.458199,48.235593,511.1 10.458009,48.235568,511.2 10.457776,48.23533,511.5 10.456868,48.234562,512.0 10.455364,48.233628,512.1 10.455005,48.233168,512.1 10.454632,48.232769,512.2 10.454586,48.232618,512.2 10.454594,48.232353,512.3 10.454701,48.231966,512.5 10.454602,48.231864,512.6 10.451393,48.23198,515.0 10.451267,48.23198,515.1 10.451126,48.231978,515.3 10.451003,48.231975,515.4 10.450843,48.231968,515.6 10.450799,48.231967,515.7 10.449688,48.231926,517.6 10.448776,48.231893,519.3 10.448362,48.231879,520.1 10.448149,48.231893,520.4 10.447774,48.231536,521.1 10.447627,48.231396,521.3 10.447295,48.231186,521.5 10.447116,48.23104,521.5</coordinates>
                </LineString>
            </MultiGeometry>
        </Placemark>
        <Placemark id="2287">
            <name>Mindelzell Ursberger Straße</name>
            <Point id="2286">
                <coordinates>10.447041,48.23108,0</coordinates>
            </Point>
        </Placemark>
        <Placemark id="2289">
            <name>River View</name>
            <Point id="2288">
                <coordinates>10.46313,48.241233,511.7</coordinates>
            </Point>
        </Placemark>
        <Placemark id="2291">
            <name>Mindel River</name>
            <Point id="2290">
                <coordinates>10.462896,48.243371,554.8</coordinates>
            </Point>
        </Placemark>
    </Document>
</kml>
