<?xml version="1.0" encoding="UTF-8"?>
<kml xmlns="http://www.opengis.net/kml/2.2" xmlns:gx="http://www.google.com/kml/ext/2.2">
    <Document id="2193">
        <name>Fluss Amper – Naturschutzgebiet Amperauen Runde von Olching-2829815331.gpx</name>
        <Placemark id="2195">
            <name>Fluss Amper – Naturschutzgebiet Amperauen Runde von Olching</name>
            <MultiGeometry id="2194">
                <LineString id="2196">
                    <coordinates>11.335462,48.210015,505.2 11.334241,48.210257,505.1 11.334122,48.21028,505.0 11.33408,48.21029,505.0 11.334029,48.210173,504.9 11.33397,48.210028,504.9 11.333968,48.210023,504.9 11.333963,48.210014,504.8 11.333933,48.209947,504.8 11.333744,48.209988,504.8 11.333056,48.210195,504.4 11.33296,48.210225,504.3 11.332862,48.210255,504.2 11.332457,48.210299,503.9 11.332412,48.210269,503.9 11.33206,48.210245,503.6 11.331455,48.2103,503.1 11.330651,48.210421,502.6 11.330651,48.210426,502.6 11.330577,48.21047,502.5 11.3305,48.210496,502.4 11.330471,48.210503,502.4 11.330124,48.210593,502.2 11.330094,48.210601,502.1 11.329976,48.210491,502.0 11.329746,48.210343,501.9 11.329366,48.210228,501.8 11.329116,48.210213,501.7 11.328242,48.210254,501.9 11.32785,48.210253,502.0 11.327409,48.210195,502.1 11.326957,48.210065,502.2 11.326694,48.209949,502.3 11.326448,48.209801,502.4 11.326097,48.209494,502.5 11.325921,48.209225,502.6 11.325873,48.209078,502.6 11.325704,48.208323,502.8 11.325695,48.208283,502.8 11.325682,48.208199,502.8 11.325618,48.207803,502.9 11.325239,48.20727,503.1 11.325113,48.206942,503.2 11.325106,48.206558,503.4 11.325144,48.206298,503.5 11.325062,48.20616,503.5 11.324713,48.205768,503.4 11.324559,48.205786,503.4 11.324258,48.205683,503.3 11.324025,48.205284,502.9 11.322439,48.204999,502.1 11.322194,48.204957,502.0 11.319533,48.204501,502.7 11.319282,48.204417,502.7 11.319101,48.20435,502.7 11.318916,48.20428,502.7 11.317638,48.203451,502.5 11.317023,48.203053,502.6 11.316277,48.202666,503.2 11.315546,48.202291,504.2 11.315287,48.202198,504.6 11.315131,48.20207,504.8 11.31509,48.202037,504.9 11.315321,48.201869,505.1 11.315358,48.201809,505.2 11.315182,48.201701,505.3 11.315111,48.201555,505.4 11.315116,48.201388,505.4 11.315308,48.200842,505.4 11.315336,48.200629,505.3 11.315255,48.200231,505.2 11.315165,48.200051,505.2 11.314809,48.19963,505.4 11.314529,48.199074,505.8 11.314501,48.198762,506.0 11.314306,48.198496,506.3 11.314084,48.198312,506.4 11.314076,48.198255,506.5 11.313284,48.1979,506.6 11.313167,48.197854,506.6 11.313113,48.197838,506.5 11.312698,48.197714,506.4 11.312534,48.197704,506.4 11.312151,48.197706,506.3 11.311535,48.197779,506.0 11.311297,48.197836,505.9 11.311212,48.197452,505.5 11.311142,48.197381,505.4 11.310922,48.197255,505.3 11.3097,48.196879,505.1 11.309384,48.196801,505.1 11.30946,48.196653,505.2 11.309469,48.19663,505.3 11.309503,48.19654,505.3 11.3099,48.196244,505.9 11.309476,48.196031,506.4 11.309163,48.195816,506.8 11.308878,48.195559,507.1 11.308411,48.195173,507.5 11.3079,48.194913,507.6 11.306401,48.194755,507.2 11.306121,48.194726,507.1 11.305772,48.194564,507.0 11.305431,48.194537,507.0 11.305114,48.194385,507.0 11.304688,48.194137,507.3 11.304356,48.193883,507.5 11.303265,48.193438,507.9 11.302749,48.193201,508.0 11.30248,48.192881,508.0 11.302379,48.19266,507.8 11.302884,48.191685,506.9 11.302824,48.1913,506.5 11.302302,48.190566,505.9 11.30192,48.190306,505.8 11.301644,48.188751,507.2 11.30025,48.187529,509.6 11.300056,48.187305,509.7 11.29973,48.186929,509.8 11.29969,48.186552,510.0 11.29967,48.186369,510.0 11.299561,48.186195,510.0 11.299277,48.185886,510.1 11.298602,48.185516,510.3 11.297414,48.185119,510.4 11.296871,48.184657,510.2 11.296586,48.184622,510.2 11.295814,48.184639,510.3 11.295545,48.184607,510.4 11.295436,48.184632,510.4 11.295259,48.18473,510.4 11.29482,48.18479,510.5 11.293803,48.184727,510.7 11.293137,48.184597,510.8 11.292925,48.184577,510.8 11.292614,48.184562,510.8 11.291513,48.184627,510.6 11.290316,48.18446,510.3 11.290104,48.184394,510.3 11.289948,48.184294,510.3 11.289614,48.18415,510.4 11.289429,48.184147,510.4 11.28886,48.183991,510.6 11.288542,48.183952,510.7 11.288478,48.183969,510.8 11.288447,48.184031,510.8 11.288446,48.184032,510.8 11.288298,48.184072,510.9 11.288166,48.184074,510.9 11.287973,48.184132,511.0 11.287784,48.184225,511.2 11.287545,48.184235,511.3 11.287415,48.184264,511.4 11.287256,48.184204,511.5 11.287242,48.184123,511.6 11.28719,48.18407,511.6 11.28701,48.184016,511.7 11.286946,48.183925,511.7 11.286774,48.183866,511.8 11.286644,48.183757,511.9 11.286553,48.183724,511.9 11.28644,48.183674,511.9 11.286385,48.183655,512.0 11.286022,48.183372,512.1 11.285618,48.183143,512.3 11.285453,48.183163,512.3 11.285339,48.18314,512.3 11.28512,48.183047,512.4 11.284901,48.182887,512.5 11.284742,48.182852,512.6 11.284587,48.182854,512.6 11.284417,48.182855,512.7 11.284289,48.182904,512.7 11.28412,48.182977,512.8 11.283847,48.183044,512.9 11.283592,48.183044,513.0 11.283585,48.183144,513.1 11.283462,48.183228,513.2 11.283108,48.183276,513.5 11.282683,48.183163,513.8 11.282575,48.183115,513.9 11.282417,48.182969,514.0 11.282008,48.182858,514.1 11.281787,48.182775,514.1 11.281683,48.182712,514.1 11.281108,48.182569,514.0 11.280801,48.182468,514.0 11.280418,48.182407,513.9 11.28025,48.182418,513.9 11.278871,48.18231,513.6 11.278863,48.182345,513.6 11.278818,48.182654,513.6 11.278769,48.182698,513.6 11.278706,48.182764,513.6 11.27849,48.183348,513.8 11.278576,48.183466,513.8 11.278461,48.183449,513.8 11.278036,48.18342,513.9 11.277876,48.183411,513.9 11.277458,48.183376,514.0 11.277473,48.183395,514.0 11.277622,48.183643,514.1 11.277651,48.183712,514.2 11.277809,48.184087,514.5 11.277821,48.184116,514.5 11.277675,48.184385,514.8 11.276803,48.18429,515.5 11.276664,48.184296,515.7 11.276504,48.184345,515.9 11.275984,48.18412,516.7 11.275868,48.184058,516.8 11.275784,48.184074,516.9 11.275463,48.184043,517.3 11.275242,48.184021,517.5 11.274914,48.183983,517.8 11.274591,48.183944,517.9 11.274139,48.183839,518.0 11.273794,48.183751,517.9 11.273665,48.18372,517.9 11.273453,48.183668,517.7 11.273063,48.183573,517.5 11.273009,48.183559,517.5 11.272674,48.183477,517.3 11.272361,48.183412,517.0 11.271077,48.183159,515.9 11.270956,48.183135,515.8 11.270963,48.183038,515.8 11.270914,48.182909,515.7 11.270726,48.182739,515.5 11.270263,48.182413,515.3 11.269823,48.181937,515.1 11.269361,48.181251,514.9 11.269125,48.181028,514.9 11.269114,48.181014,514.9 11.268671,48.180656,514.8 11.268662,48.180583,514.8 11.268637,48.180389,514.8 11.268529,48.18016,514.9 11.268176,48.17993,515.0 11.268485,48.17971,515.0 11.268852,48.179321,515.1 11.269123,48.179264,515.1 11.269213,48.179245,515.0 11.269482,48.179188,515.0 11.269767,48.179198,514.9 11.270002,48.179244,514.8 11.27009,48.179291,514.8 11.270152,48.179367,514.8 11.270235,48.179397,514.7 11.270351,48.179424,514.7 11.270839,48.179546,514.5 11.271001,48.179623,514.5 11.271121,48.179675,514.4 11.271739,48.179936,514.1 11.271946,48.179995,513.9 11.272098,48.180047,513.8 11.272157,48.180096,513.7 11.272177,48.180116,513.7 11.272227,48.180165,513.7 11.272313,48.180241,513.6 11.272365,48.180298,513.6 11.272503,48.18044,513.5 11.272535,48.180501,513.5 11.272557,48.180535,513.5 11.272676,48.180665,513.4 11.272737,48.180793,513.4 11.272795,48.180861,513.4 11.272843,48.18093,513.4 11.272982,48.181022,513.4 11.273187,48.181216,513.4 11.273411,48.181333,513.4 11.273543,48.181356,513.5 11.273588,48.181358,513.5 11.273902,48.181365,513.6 11.274,48.181344,513.7 11.274174,48.181242,513.9 11.27425,48.181156,514.1 11.274404,48.181069,514.3 11.27472,48.180975,514.7 11.27499,48.180863,515.1 11.275265,48.180705,515.5 11.275696,48.180566,516.0 11.275839,48.180584,516.2 11.275939,48.180652,516.3 11.275961,48.18075,516.4 11.276058,48.180921,516.6 11.276039,48.181002,516.6 11.276109,48.181135,516.7 11.276274,48.181286,516.8 11.276743,48.181477,516.8 11.276879,48.181629,516.7 11.276861,48.181737,516.6 11.276893,48.181795,516.6 11.276992,48.18171,516.5 11.277152,48.181591,516.3 11.277208,48.181549,516.3 11.277318,48.181453,516.1 11.277388,48.181458,516.1 11.277403,48.181382,516.0 11.278508,48.181409,515.3 11.278948,48.181372,515.0 11.278779,48.181569,514.8 11.278621,48.181754,514.6 11.27856,48.18194,514.5 11.278587,48.182024,514.4 11.278787,48.182183,514.3 11.278871,48.18231,514.2 11.28025,48.182418,513.9 11.280418,48.182407,513.9 11.280801,48.182468,514.0 11.281108,48.182569,514.0 11.281683,48.182712,514.1 11.281787,48.182775,514.1 11.282008,48.182858,514.1 11.282417,48.182969,514.0 11.282575,48.183115,513.9 11.282683,48.183163,513.8 11.283108,48.183276,513.5 11.283462,48.183228,513.2 11.283585,48.183144,513.1 11.283592,48.183044,513.0 11.283847,48.183044,512.9 11.28412,48.182977,512.8 11.284289,48.182904,512.7 11.284417,48.182855,512.7 11.284587,48.182854,512.6 11.284742,48.182852,512.6 11.284901,48.182887,512.5 11.28512,48.183047,512.4 11.285339,48.18314,512.3 11.285453,48.183163,512.3 11.285618,48.183143,512.3 11.286022,48.183372,512.1 11.286385,48.183655,512.0 11.28644,48.183674,511.9 11.286553,48.183724,511.9 11.286644,48.183757,511.9 11.286774,48.183866,511.8 11.286946,48.183925,511.7 11.28701,48.184016,511.7 11.28719,48.18407,511.6 11.287242,48.184123,511.6 11.287256,48.184204,511.5 11.287415,48.184264,511.4 11.287545,48.184235,511.3 11.287784,48.184225,511.2 11.287973,48.184132,511.0 11.288166,48.184074,510.9 11.288298,48.184072,510.9 11.288446,48.184032,510.8 11.288478,48.183969,510.8 11.288542,48.183952,510.7 11.28886,48.183991,510.6 11.289429,48.184147,510.4 11.289614,48.18415,510.4 11.289948,48.184294,510.3 11.290104,48.184394,510.3 11.290316,48.18446,510.3 11.291513,48.184627,510.6 11.292614,48.184562,510.8 11.292925,48.184577,510.8 11.293137,48.184597,510.8 11.293803,48.184727,510.7 11.29482,48.18479,510.5 11.295259,48.18473,510.4 11.295436,48.184632,510.4 11.295545,48.184607,510.4 11.295814,48.184639,510.3 11.296586,48.184622,510.2 11.296871,48.184657,510.2 11.297414,48.185119,510.4 11.298602,48.185516,510.3 11.299277,48.185886,510.1 11.299561,48.186195,510.0 11.29967,48.186369,510.0 11.29969,48.186552,510.0 11.29973,48.186929,509.8 11.300056,48.187305,509.7 11.30025,48.187529,509.6 11.301644,48.188751,507.2 11.30192,48.190306,505.8 11.301977,48.190345,505.8 11.302302,48.190566,505.9 11.302824,48.1913,506.5 11.302884,48.191685,506.9 11.302379,48.19266,507.8 11.30248,48.192881,508.0 11.302749,48.193201,508.0 11.303265,48.193438,507.9 11.304356,48.193883,507.5 11.304688,48.194137,507.2 11.305114,48.194385,506.7 11.30514,48.194557,506.5 11.305349,48.194641,506.4 11.305587,48.194786,506.2 11.306188,48.195151,505.9 11.306421,48.195235,505.8 11.306604,48.195436,505.8 11.306617,48.195528,505.8 11.307011,48.196172,505.9 11.30743,48.196454,506.0 11.307807,48.196355,506.0 11.308771,48.196505,505.7 11.309469,48.19663,505.2 11.30946,48.196653,505.2 11.309384,48.196801,505.1 11.3097,48.196879,505.0 11.310922,48.197255,505.3 11.311142,48.197381,505.4 11.311212,48.197452,505.5 11.311297,48.197836,505.9 11.311535,48.197779,506.0 11.312151,48.197706,506.3 11.312534,48.197704,506.4 11.312698,48.197714,506.4 11.313113,48.197838,506.5 11.313167,48.197854,506.6 11.313284,48.1979,506.6 11.314076,48.198255,506.5 11.314084,48.198312,506.4 11.314306,48.198496,506.3 11.314501,48.198762,506.0 11.314529,48.199074,505.8 11.314809,48.19963,505.4 11.315165,48.200051,505.2 11.315255,48.200231,505.2 11.315336,48.200629,505.3 11.315308,48.200842,505.4 11.315116,48.201388,505.4 11.315111,48.201555,505.4 11.315182,48.201701,505.3 11.315358,48.201809,505.2 11.315321,48.201869,505.1 11.31509,48.202037,504.9 11.315287,48.202198,504.6 11.315546,48.202291,504.2 11.316277,48.202666,503.2 11.317023,48.203053,502.6 11.317638,48.203451,502.5 11.318916,48.20428,502.7 11.319101,48.20435,502.7 11.319282,48.204417,502.7 11.319533,48.204501,502.7 11.322439,48.204999,502.1 11.324025,48.205284,502.9 11.324258,48.205683,503.3 11.324559,48.205786,503.4 11.324713,48.205768,503.4 11.325013,48.206105,503.5 11.325062,48.20616,503.5 11.325144,48.206298,503.5 11.325106,48.206558,503.4 11.325113,48.206942,503.2 11.325239,48.20727,503.1 11.325618,48.207803,502.9 11.325682,48.208199,502.8 11.325695,48.208283,502.8 11.325704,48.208323,502.8 11.325873,48.209078,502.6 11.325921,48.209225,502.6 11.326097,48.209494,502.5 11.326448,48.209801,502.4 11.326694,48.209949,502.3 11.326957,48.210065,502.2 11.327409,48.210195,502.1 11.32785,48.210253,502.0 11.328242,48.210254,501.9 11.329116,48.210213,501.7 11.329366,48.210228,501.8 11.329746,48.210343,501.9 11.329976,48.210491,502.0 11.330094,48.210601,502.1 11.330124,48.210593,502.2 11.330471,48.210503,502.4 11.3305,48.210496,502.4 11.330577,48.21047,502.5 11.330651,48.210426,502.6 11.330651,48.210421,502.6 11.331455,48.2103,503.1 11.33206,48.210245,503.6 11.332412,48.210269,503.9 11.332457,48.210299,503.9 11.332862,48.210255,504.2 11.33296,48.210225,504.3 11.333056,48.210195,504.4 11.333744,48.209988,504.8 11.333933,48.209947,504.8 11.333963,48.210014,504.8 11.333968,48.210023,504.9 11.33397,48.210028,504.9 11.334029,48.210173,504.9 11.33408,48.21029,505.0 11.334122,48.21028,505.0 11.334241,48.210257,505.1 11.335462,48.210015,505.2</coordinates>
                </LineString>
            </MultiGeometry>
        </Placemark>
        <Placemark id="2199">
            <name>Olching</name>
            <Point id="2198">
                <coordinates>11.335512,48.210126,0</coordinates>
            </Point>
        </Placemark>
        <Placemark id="2201">
            <name>Mühlbach Weir, Olching — on the Amper River</name>
            <Point id="2200">
                <coordinates>11.315305,48.201862,505.6</coordinates>
            </Point>
        </Placemark>
        <Placemark id="2203">
            <name>Amper River</name>
            <Point id="2202">
                <coordinates>11.288556,48.184056,512.2</coordinates>
            </Point>
        </Placemark>
        <Placemark id="2205">
            <name>Swimming spot on the Amper in Emmeringer Hölzl</name>
            <Point id="2204">
                <coordinates>11.269194,48.179253,574.6</coordinates>
            </Point>
        </Placemark>
        <Placemark id="2207">
            <name>Amper River in Emmeringer Hölzl</name>
            <Point id="2206">
                <coordinates>11.27359,48.181328,516.7</coordinates>
            </Point>
        </Placemark>
        <Placemark id="2209">
            <name>View of the Amper at Emmeringer Hölzl</name>
            <Point id="2208">
                <coordinates>11.277161,48.181596,559.3</coordinates>
            </Point>
        </Placemark>
        <Placemark id="2211">
            <name>Pebble Bank on the Amper River</name>
            <Point id="2210">
                <coordinates>11.30192,48.190382,537.0</coordinates>
            </Point>
        </Placemark>
        <Placemark id="2213">
            <name>Amperauen Nature Reserve</name>
            <Point id="2212">
                <coordinates>11.305606,48.194772,508.0</coordinates>
            </Point>
        </Placemark>
        <Placemark id="2215">
            <name>Mühlbach (Olching Power Plant)</name>
            <Point id="2214">
                <coordinates>11.324715,48.205775,503.8</coordinates>
            </Point>
        </Placemark>
    </Document>
</kml>
