<?xml version="1.0" encoding="UTF-8"?>
<kml xmlns="http://www.opengis.net/kml/2.2" xmlns:gx="http://www.google.com/kml/ext/2.2">
    <Document id="2161">
        <name>Fluss Schmutter – Kloster Holzen Runde von Brunnenmahdsiedlung-3013980633.gpx</name>
        <Placemark id="2163">
            <name>Fluss Schmutter – Kloster Holzen Runde von Brunnenmahdsiedlung</name>
            <MultiGeometry id="2162">
                <LineString id="2164">
                    <coordinates>10.831049,48.626795,412.7 10.830795,48.628363,412.5 10.830519,48.632459,412.4 10.830207,48.636724,411.4 10.832377,48.636837,411.1 10.833591,48.636924,411.2 10.833986,48.636935,411.2 10.834157,48.63696,411.3 10.834247,48.637011,411.3 10.833986,48.638491,411.1 10.833873,48.638502,411.0 10.833764,48.638607,411.0 10.833391,48.643001,408.9 10.833259,48.644991,409.1 10.833058,48.646675,409.5 10.832986,48.647141,409.4 10.832645,48.648671,408.7 10.83203,48.650395,409.2 10.831191,48.652193,409.0 10.830566,48.653377,408.8 10.830295,48.653832,408.7 10.829335,48.655093,408.4 10.828288,48.656595,407.7 10.827972,48.657032,407.8 10.827934,48.657135,407.8 10.828048,48.657433,408.0 10.827949,48.657558,408.0 10.827727,48.657749,408.2 10.827215,48.658173,408.4 10.827037,48.658355,408.5 10.826066,48.659643,408.4 10.825777,48.660006,408.4 10.82569,48.660179,408.4 10.825597,48.660365,408.5 10.825724,48.660435,408.6 10.825526,48.660545,408.7 10.825443,48.660545,408.7 10.825394,48.660466,408.8 10.825436,48.660411,408.8 10.825448,48.660395,408.8 10.825333,48.660358,408.8 10.825043,48.660263,408.8 10.824946,48.660232,408.8 10.824929,48.660226,408.8 10.824831,48.660194,408.8 10.824903,48.660089,408.8 10.824819,48.660055,408.8 10.824751,48.659982,408.9 10.825069,48.659881,408.9 10.825129,48.659895,408.9 10.825237,48.659739,409.0 10.825442,48.65944,409.1 10.826025,48.658649,409.0 10.8261,48.658626,409.0 10.826125,48.65859,409.0 10.826274,48.658385,408.9 10.826372,48.65825,408.8 10.826348,48.658159,408.8 10.826178,48.658049,408.7 10.826626,48.657439,408.1 10.826684,48.65736,408.0 10.82683,48.657161,407.9 10.826887,48.657082,407.8 10.827212,48.656871,407.7 10.827872,48.656518,407.7 10.829395,48.65456,408.5 10.829803,48.653963,408.6 10.830284,48.653236,408.7 10.830246,48.653124,408.7 10.828371,48.650472,409.2 10.828216,48.650177,409.3 10.828093,48.649075,409.8 10.828318,48.647798,410.7 10.828334,48.647146,411.4 10.828202,48.647043,411.6 10.828001,48.646932,411.8 10.827557,48.64669,412.2 10.827091,48.646502,412.4 10.826548,48.646302,412.6 10.82641,48.646277,412.7 10.826275,48.646075,412.7 10.826132,48.646035,412.8 10.826071,48.646018,412.8 10.825652,48.646008,413.0 10.825448,48.646056,413.2 10.825202,48.64618,413.3 10.825033,48.646307,413.5 10.824914,48.646457,413.7 10.824608,48.647044,414.3 10.82415,48.647056,414.6 10.82371,48.647013,415.1 10.823314,48.646922,415.7 10.822693,48.646696,417.2 10.822404,48.646614,417.9 10.822059,48.646568,418.5 10.82145,48.646307,419.8 10.821195,48.646261,420.1 10.821075,48.64605,420.5 10.821082,48.6454,420.9 10.820809,48.645029,420.6 10.820674,48.644578,420.6 10.820567,48.643799,422.4 10.820015,48.643753,423.6 10.817611,48.643706,429.7 10.817794,48.641795,433.8 10.817912,48.641196,432.9 10.817848,48.640692,431.3 10.817578,48.639644,429.4 10.817517,48.639534,429.5 10.817397,48.639372,429.7 10.817143,48.639182,429.9 10.816602,48.63893,430.2 10.816229,48.638737,430.3 10.816182,48.638355,430.3 10.816084,48.63808,430.0 10.815911,48.637892,429.5 10.81589,48.637801,429.3 10.815828,48.637539,428.6 10.815798,48.637412,428.3 10.815761,48.637251,427.9 10.815739,48.637158,427.7 10.815717,48.637065,427.5 10.815649,48.636775,427.0 10.815615,48.636632,426.8 10.81542,48.63599,426.1 10.815387,48.635703,425.8 10.815413,48.635556,425.7 10.815479,48.635396,425.4 10.815557,48.635421,425.4 10.815537,48.635566,425.0 10.815605,48.63578,424.3 10.815669,48.635878,423.9 10.815825,48.635982,423.2 10.816057,48.636054,422.5 10.816593,48.636073,420.7 10.816841,48.636013,419.8 10.817511,48.635782,417.4 10.817798,48.635686,416.4 10.818186,48.635571,415.1 10.818408,48.635545,414.6 10.818861,48.635504,414.1 10.818943,48.635497,414.0 10.818859,48.635049,413.6 10.818846,48.634794,413.4 10.819033,48.633619,413.5 10.818998,48.633425,413.6 10.818936,48.633083,413.8 10.818461,48.632377,414.4 10.81844,48.631745,414.7 10.818392,48.631617,414.7 10.81835,48.631548,414.7 10.818299,48.631465,414.7 10.818097,48.63149,414.7 10.818014,48.631215,414.6 10.818004,48.631168,414.6 10.817976,48.631116,414.6 10.81796,48.631079,414.5 10.817833,48.630395,414.1 10.817713,48.630292,414.1 10.817964,48.629572,413.9 10.817863,48.628921,414.0 10.817811,48.628583,414.1 10.817755,48.627587,414.1 10.817674,48.625537,413.9 10.817449,48.623305,414.5 10.816744,48.620068,415.3 10.816659,48.619267,415.4 10.816648,48.619167,415.4 10.816789,48.618298,415.7 10.817014,48.617547,416.2 10.817376,48.61618,417.4 10.817333,48.615552,417.8 10.817302,48.615221,418.0 10.817269,48.614608,418.9 10.817269,48.614122,420.0 10.816996,48.61409,420.5 10.81654,48.613982,421.3 10.816266,48.6139,421.7 10.816073,48.613762,422.1 10.815981,48.613466,422.6 10.815964,48.613268,422.9 10.815822,48.612869,423.3 10.815717,48.612671,423.5 10.815578,48.612527,423.7 10.815489,48.612475,423.9 10.814778,48.612147,425.9 10.814512,48.612076,427.0 10.814598,48.612398,429.2 10.814588,48.612501,429.8 10.814515,48.612538,430.1 10.814238,48.612594,430.9 10.814206,48.612739,431.4 10.814138,48.612782,431.6 10.814027,48.6128,431.8 10.814286,48.612942,432.1 10.814285,48.612975,432.1 10.814285,48.613,432.1 10.814285,48.612975,432.1 10.814286,48.612942,432.1 10.814027,48.6128,431.8 10.814138,48.612782,431.6 10.814206,48.612739,431.4 10.814238,48.612594,431.0 10.814515,48.612538,430.3 10.814588,48.612501,430.0 10.814598,48.612398,429.5 10.814512,48.612076,427.7 10.814778,48.612147,426.8 10.814405,48.611885,425.8 10.814426,48.61171,425.5 10.814316,48.611675,425.3 10.814392,48.611294,425.1 10.814503,48.611234,425.1 10.814657,48.611093,425.1 10.814699,48.611021,425.1 10.814892,48.610263,423.9 10.815114,48.609861,422.7 10.815208,48.609689,422.4 10.815499,48.609302,421.7 10.815564,48.609088,421.4 10.815683,48.608849,421.3 10.815754,48.608444,421.4 10.815898,48.607497,422.9 10.815829,48.607114,423.7 10.815764,48.606997,424.0 10.815722,48.606922,424.2 10.815659,48.606786,424.6 10.815411,48.606092,427.6 10.815308,48.605934,428.6 10.815437,48.605823,429.6 10.815542,48.605782,430.2 10.815333,48.605745,431.6 10.815139,48.605626,433.3 10.814778,48.60561,435.7 10.814498,48.605592,437.5 10.81443,48.60546,438.8 10.814419,48.605439,439.0 10.81441,48.605173,441.5 10.814409,48.605058,442.5 10.814362,48.605019,442.9 10.814338,48.604932,443.7 10.814343,48.604883,444.1 10.814337,48.604575,446.2 10.81393,48.604584,447.8 10.81393,48.604492,448.2 10.813924,48.604446,448.4 10.813869,48.604302,448.6 10.813553,48.604312,448.6 10.813473,48.604227,448.5 10.813246,48.604226,448.2 10.81326,48.604115,448.0 10.813322,48.603981,447.6 10.813379,48.603912,447.3 10.813391,48.603794,446.9 10.813335,48.603381,445.0 10.813245,48.603192,443.9 10.813001,48.602886,441.7 10.813636,48.602539,438.1 10.814205,48.602167,434.6 10.815252,48.601231,427.8 10.816175,48.600407,422.9 10.816317,48.600303,422.4 10.816489,48.60019,421.9 10.816597,48.600064,421.4 10.816655,48.600048,421.3 10.817034,48.600081,420.7 10.817049,48.600028,420.6 10.817065,48.599975,420.5 10.817514,48.600009,420.0 10.818529,48.599051,419.3 10.818788,48.598858,419.2 10.819012,48.598646,419.2 10.819159,48.598491,419.1 10.819459,48.597981,419.0 10.81955,48.597882,419.0 10.820096,48.597506,418.9 10.822316,48.595768,419.1 10.822798,48.595185,419.0 10.822988,48.594884,419.0 10.82305,48.594878,419.0 10.823552,48.594654,418.9 10.823836,48.594574,418.9 10.825567,48.594268,419.2 10.825975,48.594125,419.3 10.825993,48.59414,419.3 10.826263,48.594323,419.3 10.826371,48.594387,419.4 10.826798,48.594406,419.5 10.82697,48.594421,419.5 10.827127,48.594299,419.5 10.827475,48.59415,419.7 10.827622,48.594115,419.7 10.827889,48.59408,419.8 10.827968,48.594137,419.8 10.828599,48.594316,420.1 10.828957,48.594399,420.2 10.829147,48.594443,420.3 10.829273,48.594467,420.4 10.829643,48.594537,420.6 10.83003,48.594618,420.9 10.830745,48.594784,421.4 10.831375,48.594936,421.8 10.831592,48.594736,422.0 10.831708,48.594681,422.1 10.831867,48.594675,422.2 10.832431,48.594817,422.4 10.832697,48.594887,422.5 10.832857,48.594906,422.5 10.833126,48.594896,422.5 10.833444,48.59483,422.5 10.833706,48.594762,422.4 10.833937,48.594696,422.4 10.834261,48.594592,422.3 10.834348,48.594565,422.3 10.834283,48.594498,422.4 10.834831,48.594335,422.2 10.835339,48.594116,422.1 10.835337,48.594166,422.1 10.835313,48.594298,422.1 10.835205,48.594294,422.1 10.835085,48.594324,422.1 10.835121,48.594487,422.0 10.835109,48.594553,422.0 10.835053,48.594682,422.0 10.83495,48.594787,422.0 10.834898,48.594839,421.9 10.834471,48.5953,421.6 10.834338,48.595437,421.5 10.834302,48.595476,421.5 10.834019,48.595773,421.4 10.833912,48.595886,421.4 10.833722,48.596112,421.3 10.833491,48.596387,421.1 10.833178,48.596754,421.0 10.833075,48.596877,420.9 10.833,48.596962,420.9 10.832904,48.59707,420.9 10.832807,48.59718,420.8 10.832744,48.59725,420.8 10.832653,48.597353,420.7 10.832583,48.597432,420.7 10.832499,48.597528,420.6 10.832448,48.597585,420.6 10.832371,48.597668,420.5 10.83213,48.597908,420.4 10.831851,48.598165,420.3 10.831801,48.598134,420.3 10.831735,48.598092,420.3 10.83125,48.597789,420.2 10.830626,48.59851,420.5 10.830162,48.598904,420.6 10.829972,48.598864,420.6 10.830148,48.598902,420.6 10.830211,48.598964,420.5 10.830224,48.599034,420.5 10.83041,48.599297,420.5 10.830311,48.599563,420.3 10.8303,48.599782,420.2 10.830237,48.600201,420.1 10.830118,48.600424,420.0 10.830007,48.600728,419.8 10.829978,48.600744,419.8 10.829897,48.600935,419.7 10.829782,48.601207,419.5 10.829646,48.601526,419.3 10.829515,48.60186,419.1 10.829494,48.601903,419.1 10.829489,48.602001,419.0 10.830025,48.602898,418.6 10.829837,48.603358,418.6 10.829467,48.603971,418.6 10.829381,48.604203,418.5 10.828764,48.604363,418.3 10.828533,48.604384,418.3 10.827431,48.604396,418.0 10.827478,48.605017,417.8 10.827788,48.606919,417.8 10.827821,48.606976,417.8 10.82795,48.607915,417.9 10.828119,48.608621,417.9 10.828532,48.609796,418.0 10.828663,48.610081,418.1 10.82871,48.610312,418.2 10.82872,48.61051,418.2 10.828672,48.611035,418.5 10.828596,48.61154,418.6 10.82852,48.611531,418.7 10.828599,48.611266,418.6 10.82863,48.61087,418.5 10.828599,48.611266,418.4 10.82852,48.611531,418.2 10.828596,48.61154,418.2 10.828467,48.611844,418.0 10.827884,48.612889,417.0 10.82749,48.613734,416.5 10.827433,48.61385,416.4 10.82608,48.616598,415.8 10.830395,48.617257,415.1 10.832422,48.617559,415.0 10.832479,48.617585,415.0 10.831865,48.621752,413.6 10.831049,48.626795,412.8</coordinates>
                </LineString>
            </MultiGeometry>
        </Placemark>
        <Placemark id="2167">
            <name>Schmutter</name>
            <Point id="2166">
                <coordinates>10.818356,48.633476,0</coordinates>
            </Point>
        </Placemark>
        <Placemark id="2169">
            <name>Schmutter River</name>
            <Point id="2168">
                <coordinates>10.81656,48.613952,420.0</coordinates>
            </Point>
        </Placemark>
        <Placemark id="2171">
            <name>Ecce Homo Shrine at Moritzkapelle</name>
            <Point id="2170">
                <coordinates>10.81429,48.613,437.1</coordinates>
            </Point>
        </Placemark>
        <Placemark id="2173">
            <name>Wonderful paths along the Schmutter</name>
            <Point id="2172">
                <coordinates>10.815199,48.609882,422.4</coordinates>
            </Point>
        </Placemark>
        <Placemark id="2175">
            <name>Schmutter Bridge in Holzen</name>
            <Point id="2174">
                <coordinates>10.815758,48.606998,470.4</coordinates>
            </Point>
        </Placemark>
        <Placemark id="2177">
            <name>Kloster Holzen</name>
            <Point id="2176">
                <coordinates>10.815243,48.601227,473.5</coordinates>
            </Point>
        </Placemark>
        <Placemark id="2179">
            <name>View of Kloster Holzen</name>
            <Point id="2178">
                <coordinates>10.817514,48.600009,420.3</coordinates>
            </Point>
        </Placemark>
        <Placemark id="2181">
            <name>Schmutter River</name>
            <Point id="2180">
                <coordinates>10.823552,48.594654,419.0</coordinates>
            </Point>
        </Placemark>
        <Placemark id="2183">
            <name>Gut Schwaighof</name>
            <Point id="2182">
                <coordinates>10.828217,48.610856,469.0</coordinates>
            </Point>
        </Placemark>
    </Document>
</kml>
