<?xml version="1.0" encoding="UTF-8"?>
<kml xmlns="http://www.opengis.net/kml/2.2" xmlns:gx="http://www.google.com/kml/ext/2.2">
    <Document id="2521">
        <name>Gräber der Gutsherren – Kloster-Biergarten Thierhaupten Runde von Thierhaupten-2934787829.gpx</name>
        <Placemark id="2523">
            <name>Gräber der Gutsherren – Kloster-Biergarten Thierhaupten Runde von Thierhaupten</name>
            <MultiGeometry id="2522">
                <LineString id="2524">
                    <coordinates>10.910857,48.560153,438.3 10.910827,48.560118,438.2 10.91074,48.560008,437.8 10.910708,48.559968,437.6 10.910184,48.560048,436.2 10.910285,48.560152,435.8 10.910179,48.560145,435.4 10.910044,48.560093,435.0 10.909754,48.559749,433.1 10.90964,48.559677,432.6 10.909352,48.559498,431.8 10.909277,48.559359,431.5 10.909267,48.559156,431.0 10.909193,48.559145,430.9 10.909109,48.559139,430.8 10.909068,48.559136,430.8 10.909069,48.55911,430.7 10.909006,48.55912,430.6 10.909069,48.55911,430.6 10.909064,48.559015,430.4 10.909054,48.55884,430.1 10.908993,48.558724,430.0 10.908541,48.558216,429.5 10.908434,48.557062,429.0 10.908398,48.556894,429.0 10.908363,48.556731,429.0 10.907899,48.55604,429.0 10.907678,48.555616,429.0 10.907584,48.555358,429.1 10.907564,48.555025,429.1 10.907517,48.555008,429.1 10.9074,48.553958,429.2 10.907273,48.553785,429.1 10.906792,48.553593,429.1 10.906178,48.553108,429.0 10.905517,48.55277,429.0 10.904317,48.551929,429.0 10.904041,48.551609,429.0 10.903815,48.551092,429.0 10.903592,48.550396,429.2 10.903603,48.550113,429.3 10.903659,48.54976,429.4 10.904097,48.548159,429.8 10.904541,48.546798,430.2 10.904708,48.546164,430.2 10.904739,48.545588,430.2 10.904893,48.544157,430.4 10.90498,48.543548,430.6 10.905117,48.542917,430.8 10.905644,48.541467,431.4 10.906056,48.541535,431.4 10.906212,48.541559,431.4 10.90631,48.541576,431.4 10.90636,48.541639,431.4 10.906409,48.541964,431.3 10.906545,48.542305,431.2 10.906773,48.542814,431.0 10.906909,48.543001,431.0 10.907163,48.543217,431.0 10.907329,48.543316,431.0 10.908698,48.543847,430.9 10.909627,48.543937,430.9 10.909888,48.543948,430.9 10.910103,48.543974,430.9 10.909987,48.544422,430.8 10.909973,48.54469,430.8 10.910063,48.546353,430.4 10.910035,48.546745,430.4 10.909918,48.54715,430.3 10.908504,48.549738,429.8 10.908184,48.55009,429.7 10.907154,48.55102,429.5 10.90695,48.551234,429.5 10.906815,48.551607,429.4 10.906849,48.55194,429.3 10.906889,48.552013,429.3 10.90708,48.552363,429.2 10.907562,48.552957,429.0 10.907744,48.553421,429.0 10.907771,48.553713,429.1 10.907739,48.554138,429.2 10.907887,48.555034,430.0 10.907842,48.555154,430.2 10.908464,48.555506,431.0 10.90854,48.555847,431.7 10.908706,48.556127,432.3 10.909021,48.556554,433.2 10.909653,48.557279,434.7 10.910284,48.558004,436.2 10.910514,48.558332,437.0 10.910724,48.558732,437.9 10.910808,48.55883,438.2 10.910963,48.559141,439.0 10.911186,48.559484,439.9 10.911833,48.56033,441.8 10.912112,48.560909,442.3 10.912147,48.561002,442.3 10.912072,48.561065,442.3 10.912008,48.561119,442.3 10.9116,48.560376,441.8 10.911124,48.560452,441.5 10.910961,48.560479,441.4 10.911124,48.560452,441.3 10.910959,48.560287,441.2 10.910857,48.560153,441.1</coordinates>
                </LineString>
            </MultiGeometry>
        </Placemark>
        <Placemark id="2527">
            <name>Parking</name>
            <Point id="2526">
                <coordinates>10.910872,48.56013,0</coordinates>
            </Point>
        </Placemark>
        <Placemark id="2529">
            <name>Monastery pond with school and educational garden</name>
            <Point id="2528">
                <coordinates>10.909689,48.559643,432.2</coordinates>
            </Point>
        </Placemark>
        <Placemark id="2531">
            <name>Graves of the Estate Owners</name>
            <Point id="2530">
                <coordinates>10.909008,48.559126,484.7</coordinates>
            </Point>
        </Placemark>
        <Placemark id="2533">
            <name>Kneipp Basin</name>
            <Point id="2532">
                <coordinates>10.909116,48.559014,430.0</coordinates>
            </Point>
        </Placemark>
        <Placemark id="2535">
            <name>Heckrinder and Biotope Area at the Foot of the Monastery</name>
            <Point id="2534">
                <coordinates>10.908422,48.556892,478.4</coordinates>
            </Point>
        </Placemark>
        <Placemark id="2537">
            <name>Thierhaupten Abbey Beer Garden</name>
            <Point id="2536">
                <coordinates>10.912042,48.56105,478.0</coordinates>
            </Point>
        </Placemark>
        <Placemark id="2539">
            <name>Giant Rooster</name>
            <Point id="2538">
                <coordinates>10.910961,48.560479,548.0</coordinates>
            </Point>
        </Placemark>
    </Document>
</kml>
