<?xml version="1.0" encoding="UTF-8"?>
<kml xmlns="http://www.opengis.net/kml/2.2" xmlns:gx="http://www.google.com/kml/ext/2.2">
    <Document id="2635">
        <name>Heiterwanger See – Blick auf den Heiterwanger See Runde von Heiterwang-3312232412.gpx</name>
        <Placemark id="2637">
            <name>Heiterwanger See – Blick auf den Heiterwanger See Runde von Heiterwang</name>
            <MultiGeometry id="2636">
                <LineString id="2638">
                    <coordinates>10.759567,47.455614,977.3 10.75955,47.455571,977.3 10.759669,47.455535,977.3 10.759792,47.455541,977.3 10.760048,47.455537,977.3 10.760133,47.455544,977.3 10.760413,47.455464,977.3 10.760707,47.455456,977.3 10.761029,47.455413,977.3 10.761407,47.455275,977.3 10.76204,47.455107,977.2 10.76227,47.454986,977.1 10.763075,47.45501,976.8 10.763159,47.454976,976.8 10.76329,47.454833,976.7 10.763619,47.454794,976.6 10.764373,47.454653,976.3 10.764735,47.454637,976.2 10.76484,47.454536,976.2 10.765063,47.454458,976.2 10.765421,47.454172,976.2 10.766253,47.453682,976.2 10.766341,47.453598,976.2 10.766721,47.453422,976.2 10.766977,47.453334,976.2 10.767464,47.453377,976.5 10.767561,47.453356,976.6 10.76762,47.453304,976.8 10.767869,47.453211,977.3 10.768095,47.453068,977.7 10.768496,47.45288,978.3 10.768514,47.452823,978.5 10.768468,47.452721,978.7 10.768225,47.452556,979.4 10.768971,47.452714,981.0 10.76905,47.452709,981.2 10.76941,47.452693,981.8 10.769819,47.452675,982.1 10.769903,47.452672,982.0 10.770084,47.452603,982.0 10.770355,47.452606,981.9 10.770618,47.452677,981.8 10.771025,47.452656,981.7 10.771112,47.452669,981.6 10.771325,47.452793,981.5 10.771715,47.452898,981.2 10.772506,47.452881,980.9 10.772939,47.453045,981.0 10.773187,47.453098,981.1 10.773278,47.453098,981.1 10.773352,47.453098,981.2 10.774144,47.452893,981.9 10.774882,47.452908,982.9 10.775502,47.4531,984.1 10.776514,47.453284,986.5 10.777428,47.45331,988.1 10.777781,47.453294,988.5 10.778143,47.453331,988.8 10.778703,47.453465,988.8 10.778958,47.453484,988.7 10.77992,47.453395,987.3 10.780003,47.453372,987.1 10.780792,47.453154,985.5 10.781444,47.453032,983.9 10.782162,47.453112,982.0 10.782934,47.453593,980.0 10.783189,47.453688,979.7 10.783569,47.453729,979.3 10.78429,47.453678,978.9 10.784611,47.453679,978.9 10.785347,47.453746,979.3 10.785731,47.453859,979.6 10.785877,47.453841,979.8 10.786813,47.453573,980.9 10.787006,47.453557,981.1 10.787702,47.453607,982.2 10.78865,47.453761,982.9 10.788915,47.45385,982.9 10.789512,47.454224,981.8 10.789914,47.454476,980.6 10.790128,47.454822,979.2 10.790185,47.455208,977.8 10.790124,47.455517,976.8 10.789908,47.455872,976.0 10.789606,47.456261,976.0 10.789529,47.456446,975.9 10.789458,47.456815,975.8 10.789281,47.457016,975.6 10.789192,47.457078,975.5 10.789033,47.45719,975.4 10.788792,47.45715,975.2 10.788341,47.457035,974.8 10.788011,47.456767,974.4 10.787984,47.456677,974.3 10.787928,47.456643,974.2 10.787883,47.456545,974.0 10.78797,47.456479,973.9 10.788068,47.456406,973.8 10.788506,47.455918,973.9 10.788753,47.455866,974.1 10.788891,47.455865,974.2 10.78911,47.455864,974.4 10.789258,47.455896,974.5 10.789446,47.455972,974.7 10.789602,47.455989,974.9 10.789772,47.455964,975.1 10.789908,47.455872,975.4 10.790124,47.455517,976.6 10.790185,47.455208,977.7 10.790128,47.454822,979.2 10.789914,47.454476,980.6 10.788915,47.45385,982.9 10.78865,47.453761,982.9 10.787702,47.453607,982.2 10.787006,47.453557,981.1 10.786813,47.453573,980.9 10.785877,47.453841,979.8 10.785731,47.453859,979.6 10.785347,47.453746,979.3 10.784611,47.453679,978.9 10.78429,47.453678,978.9 10.783569,47.453729,979.3 10.783189,47.453688,979.7 10.782934,47.453593,980.0 10.782162,47.453112,982.0 10.781444,47.453032,983.9 10.780792,47.453154,985.5 10.77992,47.453395,987.3 10.778958,47.453484,988.7 10.778703,47.453465,988.8 10.778143,47.453331,988.8 10.777781,47.453294,988.5 10.777428,47.45331,988.1 10.776514,47.453284,986.5 10.775502,47.4531,984.1 10.774882,47.452908,982.9 10.774144,47.452893,981.9 10.773352,47.453098,981.2 10.773187,47.453098,981.1 10.772939,47.453045,981.0 10.772506,47.452881,980.9 10.771715,47.452898,981.2 10.771325,47.452793,981.5 10.771112,47.452669,981.6 10.771025,47.452656,981.7 10.770618,47.452677,981.8 10.770355,47.452606,981.9 10.770084,47.452603,982.0 10.769903,47.452672,982.0 10.76905,47.452709,981.2 10.768971,47.452714,981.0 10.768225,47.452556,979.4 10.768468,47.452721,978.7 10.768514,47.452823,978.5 10.768496,47.45288,978.3 10.768095,47.453068,977.7 10.767869,47.453211,977.3 10.76762,47.453304,976.8 10.767561,47.453356,976.6 10.767464,47.453377,976.5 10.766977,47.453334,976.2 10.766721,47.453422,976.2 10.766341,47.453598,976.2 10.766253,47.453682,976.2 10.765421,47.454172,976.2 10.765063,47.454458,976.2 10.76484,47.454536,976.2 10.764735,47.454637,976.2 10.764373,47.454653,976.3 10.763619,47.454794,976.6 10.76329,47.454833,976.7 10.763159,47.454976,976.8 10.763075,47.45501,976.8 10.76227,47.454986,977.1 10.76204,47.455107,977.2 10.761407,47.455275,977.3 10.761029,47.455413,977.3 10.760707,47.455456,977.3 10.760413,47.455464,977.3 10.760133,47.455544,977.3 10.760048,47.455537,977.3 10.759792,47.455541,977.3 10.759669,47.455535,977.3 10.75955,47.455571,977.3 10.759567,47.455614,977.3</coordinates>
                </LineString>
            </MultiGeometry>
        </Placemark>
        <Placemark id="2641">
            <name>Fischer am See</name>
            <Point id="2640">
                <coordinates>10.759632,47.455601,0</coordinates>
            </Point>
        </Placemark>
        <Placemark id="2643">
            <name>Lake Heiterwanger</name>
            <Point id="2642">
                <coordinates>10.768962,47.452724,980.0</coordinates>
            </Point>
        </Placemark>
        <Placemark id="2645">
            <name>View of Heiterwanger See</name>
            <Point id="2644">
                <coordinates>10.769408,47.452674,981.6</coordinates>
            </Point>
        </Placemark>
        <Placemark id="2647">
            <name>View of Lake Heiterwang</name>
            <Point id="2646">
                <coordinates>10.769808,47.452562,996.9</coordinates>
            </Point>
        </Placemark>
        <Placemark id="2649">
            <name>Bench with a view of Lake Heiterwanger See</name>
            <Point id="2648">
                <coordinates>10.773278,47.452989,1031.2</coordinates>
            </Point>
        </Placemark>
        <Placemark id="2651">
            <name>View of Lake Heiterwanger</name>
            <Point id="2650">
                <coordinates>10.780007,47.453379,1030.0</coordinates>
            </Point>
        </Placemark>
        <Placemark id="2653">
            <name>South Shore of Lake Heiterwang</name>
            <Point id="2652">
                <coordinates>10.789537,47.454205,794.4</coordinates>
            </Point>
        </Placemark>
        <Placemark id="2655">
            <name>Wooden Dock at Heiterwanger See</name>
            <Point id="2654">
                <coordinates>10.787939,47.45646,1029.3</coordinates>
            </Point>
        </Placemark>
        <Placemark id="2657">
            <name>Picnic and barbecue area with jetty on Lake Heiterwanger See</name>
            <Point id="2656">
                <coordinates>10.788891,47.455903,1029.9</coordinates>
            </Point>
        </Placemark>
    </Document>
</kml>
