<?xml version="1.0" encoding="UTF-8"?>
<kml xmlns="http://www.opengis.net/kml/2.2" xmlns:gx="http://www.google.com/kml/ext/2.2">
    <Document id="2659">
        <name>Historische Schmiede – Blautopf Runde von Sonderbuch-1779536281.gpx</name>
        <Placemark id="2661">
            <name>Historische Schmiede – Blautopf Runde von Sonderbuch</name>
            <MultiGeometry id="2660">
                <LineString id="2662">
                    <coordinates>9.809608,48.416332,678.7 9.809407,48.416312,678.7 9.809362,48.416308,678.7 9.808927,48.416285,678.6 9.808608,48.416274,678.6 9.808245,48.416384,678.7 9.807905,48.416532,678.7 9.807924,48.416629,678.7 9.8079,48.416809,678.7 9.807816,48.417291,678.7 9.807758,48.417527,678.7 9.807706,48.417741,678.8 9.806814,48.417678,679.1 9.806608,48.41767,679.1 9.806438,48.417659,679.1 9.806033,48.417634,679.0 9.805585,48.417681,678.8 9.80491,48.417868,678.3 9.804616,48.417982,678.1 9.803746,48.417412,677.5 9.801514,48.418399,679.0 9.801331,48.418437,679.3 9.801218,48.418421,679.5 9.80113,48.418363,679.7 9.800333,48.417648,681.3 9.799887,48.417255,681.4 9.799705,48.41711,681.4 9.79957,48.417169,681.3 9.798781,48.417509,680.1 9.798628,48.417454,679.7 9.79838,48.417414,679.1 9.797573,48.417614,676.5 9.797308,48.41766,675.7 9.796828,48.417729,673.8 9.796384,48.417885,671.8 9.795018,48.418192,666.5 9.794158,48.418287,663.1 9.792469,48.418673,651.2 9.792163,48.418702,648.6 9.792127,48.418673,648.0 9.791396,48.418641,641.0 9.791181,48.418534,638.0 9.790847,48.418486,633.3 9.78984,48.418423,618.4 9.789528,48.418383,614.1 9.788944,48.417777,598.2 9.78874,48.417722,594.5 9.788555,48.417722,591.7 9.78774,48.417599,578.1 9.787624,48.417504,575.1 9.787181,48.417314,567.0 9.787034,48.417202,564.0 9.786982,48.417124,562.3 9.786924,48.417099,561.5 9.786891,48.417018,560.0 9.786823,48.416978,559.0 9.786323,48.416821,552.7 9.785229,48.416679,540.1 9.784914,48.416672,537.2 9.784473,48.416741,533.4 9.784147,48.416623,530.4 9.78445,48.4165,527.9 9.784284,48.416498,527.0 9.784626,48.416287,524.6 9.78478,48.416311,524.1 9.784956,48.416305,523.5 9.785144,48.416269,523.1 9.785324,48.416155,522.8 9.785335,48.416096,522.7 9.785282,48.416063,522.6 9.785264,48.416052,522.6 9.785287,48.416022,522.5 9.785322,48.415975,522.4 9.78531,48.415894,522.1 9.785298,48.41584,521.9 9.784885,48.415802,521.0 9.784251,48.415791,520.5 9.784038,48.415777,520.7 9.783853,48.415702,520.4 9.783741,48.415843,520.4 9.783679,48.415968,520.6 9.783741,48.415843,520.4 9.783853,48.415702,521.3 9.784038,48.415777,521.1 9.784099,48.415781,521.1 9.784038,48.415777,521.3 9.783853,48.415702,521.9 9.783837,48.415683,522.0 9.783717,48.415204,521.8 9.783427,48.414805,521.2 9.783504,48.414788,521.2 9.783599,48.414782,521.2 9.783749,48.414782,520.7 9.783805,48.414779,520.5 9.783761,48.414496,520.7 9.783732,48.414312,520.4 9.783664,48.41427,520.3 9.783625,48.414237,520.3 9.783293,48.414181,519.9 9.783347,48.414055,520.0 9.783385,48.413955,519.7 9.783498,48.413684,519.4 9.783573,48.413551,518.9 9.783616,48.413473,518.8 9.783771,48.413209,518.4 9.783787,48.413182,518.4 9.783926,48.412988,518.1 9.784057,48.412836,517.8 9.784078,48.412813,517.7 9.784317,48.412489,517.1 9.784332,48.412471,517.1 9.78455,48.412145,516.5 9.784635,48.411998,516.3 9.78468,48.411878,516.2 9.785041,48.411879,515.8 9.785337,48.411843,515.5 9.785402,48.411827,515.4 9.785511,48.411799,515.4 9.785809,48.411741,515.1 9.785723,48.411466,514.8 9.785686,48.411366,514.7 9.785607,48.411255,514.6 9.785478,48.411172,514.5 9.785377,48.411141,514.4 9.785165,48.411093,514.3 9.785356,48.410764,514.2 9.78548,48.410551,514.2 9.785636,48.410279,514.3 9.785669,48.410222,514.3 9.785722,48.41014,514.3 9.785739,48.410113,514.3 9.78578,48.410046,514.3 9.786087,48.409692,514.4 9.786148,48.409625,514.4 9.78619,48.409579,514.4 9.786611,48.409122,514.6 9.786699,48.409023,514.6 9.786802,48.408915,514.7 9.787135,48.408521,514.9 9.787263,48.408387,515.0 9.787449,48.408185,515.3 9.787487,48.408142,515.4 9.787628,48.407983,515.6 9.787661,48.407945,515.7 9.787958,48.407608,516.1 9.788158,48.407381,516.3 9.788476,48.407022,516.6 9.788738,48.406726,516.8 9.788922,48.406513,517.0 9.788959,48.406471,517.0 9.788977,48.406451,517.0 9.789038,48.406379,517.1 9.789377,48.405989,517.3 9.789497,48.405854,517.5 9.789775,48.405556,517.5 9.789816,48.405512,517.5 9.789908,48.405402,517.5 9.789927,48.405383,517.5 9.789957,48.405347,517.5 9.790154,48.405115,517.4 9.790369,48.404879,517.4 9.790757,48.404453,517.4 9.790843,48.404382,517.4 9.790918,48.40441,517.4 9.791079,48.404375,517.4 9.791175,48.404323,517.4 9.791255,48.404115,517.5 9.791261,48.404047,517.5 9.791425,48.404054,517.5 9.792412,48.404046,517.8 9.793449,48.404028,517.2 9.793786,48.404022,516.9 9.793965,48.40398,516.7 9.794168,48.403854,516.4 9.794243,48.403863,516.3 9.794333,48.403888,516.2 9.794494,48.403937,515.9 9.794558,48.403994,515.7 9.794601,48.404125,515.4 9.794776,48.404279,514.9 9.794818,48.403944,513.8 9.795144,48.404028,513.0 9.797598,48.403319,506.8 9.797608,48.403107,506.8 9.797753,48.403054,506.8 9.797863,48.403019,506.8 9.798277,48.402887,507.1 9.798366,48.402863,507.2 9.798431,48.402909,507.3 9.798457,48.402928,507.3 9.79869,48.402929,507.5 9.799096,48.402775,508.2 9.799601,48.402483,510.2 9.799687,48.402679,511.5 9.799717,48.402958,513.7 9.799807,48.40243,518.5 9.799908,48.402398,519.3 9.800035,48.402568,521.2 9.800125,48.402762,523.6 9.800153,48.40312,528.0 9.800434,48.402945,531.6 9.800518,48.402922,532.4 9.800675,48.402819,534.6 9.800669,48.403129,539.6 9.800919,48.402988,543.3 9.800963,48.403173,546.1 9.801022,48.403256,547.6 9.80125,48.403575,552.4 9.801557,48.404353,563.7 9.801416,48.404445,565.8 9.801401,48.404488,566.5 9.801385,48.404555,567.6 9.801331,48.404592,568.4 9.801186,48.404625,569.9 9.801331,48.404592,571.5 9.801385,48.404555,572.3 9.801401,48.404488,573.3 9.801643,48.404511,575.5 9.801576,48.404589,576.8 9.801692,48.404607,577.9 9.801633,48.40464,578.5 9.801683,48.404997,582.8 9.801743,48.405418,587.4 9.801887,48.405703,590.6 9.802146,48.405885,593.4 9.802005,48.405902,594.4 9.802074,48.405982,595.6 9.802085,48.406061,596.5 9.801991,48.406088,597.2 9.801946,48.406031,597.8 9.801859,48.406035,598.4 9.801946,48.406031,599.1 9.801991,48.406088,599.8 9.802085,48.406061,600.5 9.802154,48.406285,602.8 9.802181,48.406396,603.8 9.802385,48.406706,606.6 9.802484,48.406831,607.7 9.802717,48.407015,609.8 9.802813,48.407087,610.5 9.802905,48.407145,611.3 9.803434,48.407555,616.9 9.803866,48.407827,621.3 9.804258,48.408116,625.8 9.804613,48.408462,630.6 9.805308,48.40904,636.9 9.805676,48.409341,639.4 9.805821,48.409428,640.1 9.806458,48.409539,642.2 9.806663,48.409643,642.9 9.806765,48.409762,643.3 9.806887,48.410021,644.2 9.806933,48.410359,645.0 9.806905,48.411044,646.9 9.80696,48.411115,647.3 9.807108,48.411154,647.7 9.807212,48.41123,648.2 9.807272,48.411369,648.9 9.807573,48.41181,651.5 9.807877,48.412124,653.8 9.807918,48.412202,654.3 9.808316,48.412961,659.9 9.808517,48.413176,661.7 9.808573,48.413229,662.2 9.808705,48.413343,663.3 9.809252,48.41385,667.5 9.809285,48.413883,667.7 9.809596,48.414193,670.0 9.809846,48.41447,671.8 9.809959,48.41475,673.3 9.809973,48.414982,674.4 9.809992,48.41531,675.8 9.810009,48.415682,677.0 9.81001,48.41573,677.1 9.810016,48.415936,677.6 9.810019,48.416017,677.9 9.81003,48.416372,678.7 9.809608,48.416332,679.1</coordinates>
                </LineString>
            </MultiGeometry>
        </Placemark>
        <Placemark id="2665">
            <name>Sonderbuch Rathaus</name>
            <Point id="2664">
                <coordinates>9.809619,48.416285,0</coordinates>
            </Point>
        </Placemark>
        <Placemark id="2667">
            <name>Bridge Over the Blau River</name>
            <Point id="2666">
                <coordinates>9.785305,48.416028,514.3</coordinates>
            </Point>
        </Placemark>
        <Placemark id="2669">
            <name>Hammer Forge at the Blautopf</name>
            <Point id="2668">
                <coordinates>9.783631,48.415958,519.3</coordinates>
            </Point>
        </Placemark>
        <Placemark id="2671">
            <name>Blautopf</name>
            <Point id="2670">
                <coordinates>9.784096,48.4158,505.4</coordinates>
            </Point>
        </Placemark>
        <Placemark id="2673">
            <name>Blaubeuren Old Town</name>
            <Point id="2672">
                <coordinates>9.783887,48.412998,568.0</coordinates>
            </Point>
        </Placemark>
        <Placemark id="2675">
            <name>Hessensteg Bridge Over the Blau</name>
            <Point id="2674">
                <coordinates>9.797887,48.403052,505.5</coordinates>
            </Point>
        </Placemark>
        <Placemark id="2677">
            <name>Little Grotto</name>
            <Point id="2676">
                <coordinates>9.801185,48.404623,570.1</coordinates>
            </Point>
        </Placemark>
        <Placemark id="2679">
            <name>Rusenschloss Ruins</name>
            <Point id="2678">
                <coordinates>9.801739,48.405998,639.4</coordinates>
            </Point>
        </Placemark>
    </Document>
</kml>
