<?xml version="1.0" encoding="UTF-8"?>
<kml xmlns="http://www.opengis.net/kml/2.2" xmlns:gx="http://www.google.com/kml/ext/2.2">
    <Document id="2807">
        <name>Holzskulptur am Römerweg – Holz-Gladiatoren-Skulptur Runde von Galgeneichen-2995687277.gpx</name>
        <Placemark id="2809">
            <name>Holzskulptur am Römerweg – Holz-Gladiatoren-Skulptur Runde von Galgeneichen</name>
            <MultiGeometry id="2808">
                <LineString id="2810">
                    <coordinates>10.808107,48.632431,441.7 10.807958,48.632435,441.6 10.807956,48.6324,441.6 10.807671,48.632409,441.6 10.807687,48.632514,441.5 10.806488,48.632596,441.4 10.804119,48.632781,440.9 10.804,48.632775,440.9 10.803877,48.632779,440.8 10.803783,48.632781,440.7 10.803015,48.632568,440.0 10.801449,48.632313,436.3 10.800399,48.632473,434.3 10.800118,48.632412,434.1 10.799132,48.632467,434.7 10.797372,48.632483,440.0 10.796558,48.632422,441.7 10.795481,48.632452,441.9 10.794712,48.632555,441.1 10.792913,48.632538,439.2 10.791915,48.632456,439.1 10.791404,48.632472,439.1 10.790909,48.632593,439.2 10.789771,48.632636,438.9 10.788553,48.632622,438.3 10.785213,48.632576,439.8 10.783754,48.632602,440.5 10.782304,48.632548,440.2 10.781963,48.632535,440.0 10.779735,48.63243,438.6 10.776358,48.63219,436.8 10.77507,48.632081,435.7 10.774072,48.631924,434.7 10.773214,48.631828,433.3 10.772723,48.631622,432.1 10.768828,48.631898,420.5 10.768194,48.632199,419.1 10.767841,48.632428,418.6 10.767727,48.632449,418.5 10.767795,48.632545,418.5 10.769164,48.633372,418.9 10.775511,48.636881,420.0 10.775916,48.637134,419.4 10.776157,48.637188,419.1 10.7762,48.63721,419.1 10.776374,48.637298,418.8 10.776876,48.637658,417.9 10.777127,48.637809,417.5 10.777942,48.638139,416.4 10.778642,48.638512,415.9 10.779032,48.638673,415.8 10.779461,48.638787,415.8 10.780655,48.63939,415.5 10.780884,48.639785,415.3 10.781063,48.640095,414.9 10.781058,48.640392,414.5 10.781136,48.640875,413.6 10.781408,48.641171,413.2 10.78184,48.641379,412.9 10.782714,48.642305,412.9 10.783216,48.642643,413.1 10.783506,48.642746,413.2 10.784511,48.642806,413.3 10.785602,48.643152,413.0 10.786117,48.643416,412.8 10.786268,48.643644,412.6 10.786386,48.643929,412.5 10.786665,48.644424,412.1 10.78813,48.645025,411.2 10.789218,48.645316,411.1 10.790067,48.645379,411.5 10.790808,48.645386,412.3 10.791301,48.645548,413.0 10.791738,48.645604,413.7 10.792511,48.645623,414.7 10.793244,48.645778,415.4 10.793625,48.645791,415.7 10.793756,48.645725,415.7 10.794207,48.645617,415.9 10.794564,48.645613,415.9 10.79555,48.645382,415.9 10.796047,48.644765,415.3 10.79715,48.644805,414.5 10.798279,48.644886,413.9 10.798286,48.644333,414.0 10.798287,48.644272,414.0 10.798341,48.643848,414.4 10.798591,48.643134,415.3 10.798819,48.642535,416.0 10.798955,48.642053,416.4 10.798942,48.641816,416.6 10.798698,48.641197,417.1 10.798564,48.640944,417.4 10.798465,48.640828,417.5 10.798005,48.640443,418.3 10.797856,48.640271,418.7 10.797761,48.640086,419.1 10.797646,48.639582,420.4 10.797602,48.63914,422.0 10.7976,48.639126,422.1 10.797524,48.638949,423.0 10.797391,48.63881,423.8 10.79712,48.63864,425.2 10.796739,48.638336,427.7 10.796242,48.637711,432.2 10.795815,48.63726,435.4 10.795726,48.636826,437.3 10.795529,48.636524,438.4 10.795526,48.636519,438.5 10.795402,48.636388,438.9 10.794779,48.636067,440.1 10.794132,48.635604,440.6 10.793714,48.635238,440.3 10.793123,48.634469,438.4 10.792692,48.633843,436.8 10.792529,48.633149,436.5 10.792029,48.632645,437.6 10.791915,48.632456,438.1 10.791902,48.632415,438.3 10.791915,48.632456,438.4 10.792365,48.631949,440.2 10.79271,48.631505,441.7 10.792418,48.630385,444.1 10.793168,48.62949,445.5 10.793996,48.629011,446.3 10.794283,48.628712,446.7 10.794577,48.628425,447.2 10.795194,48.628152,447.9 10.79688,48.626933,449.7 10.797778,48.626587,450.0 10.798676,48.626241,449.6 10.799453,48.626336,449.0 10.801912,48.626396,446.0 10.802273,48.626481,445.6 10.802337,48.626496,445.5 10.802526,48.627337,444.6 10.802408,48.627757,444.4 10.80677,48.628633,444.2 10.806457,48.630454,443.4 10.806504,48.63166,442.4 10.806488,48.632596,441.7 10.807687,48.632514,441.6 10.807671,48.632409,441.6 10.807956,48.6324,441.6 10.807958,48.632435,441.6 10.808107,48.632431,441.7</coordinates>
                </LineString>
            </MultiGeometry>
        </Placemark>
        <Placemark id="2813">
            <name>Parking</name>
            <Point id="2812">
                <coordinates>10.808104,48.632389,0</coordinates>
            </Point>
        </Placemark>
        <Placemark id="2815">
            <name>Wooden Sculpture on Römerweg</name>
            <Point id="2814">
                <coordinates>10.782305,48.63254,507.4</coordinates>
            </Point>
        </Placemark>
        <Placemark id="2817">
            <name>Private Road Near Naturpark Augsburg – Westliche Wälder</name>
            <Point id="2816">
                <coordinates>10.767838,48.632388,460.8</coordinates>
            </Point>
        </Placemark>
        <Placemark id="2819">
            <name>Forest path in Naturpark Augsburg – Westliche Wälder</name>
            <Point id="2818">
                <coordinates>10.776251,48.637166,482.7</coordinates>
            </Point>
        </Placemark>
        <Placemark id="2821">
            <name>Picnic Area in Naturpark Augsburg – Westliche Wälder</name>
            <Point id="2820">
                <coordinates>10.780897,48.639782,478.8</coordinates>
            </Point>
        </Placemark>
        <Placemark id="2823">
            <name>End of the Trail in Naturpark Augsburg – Westliche Wälder</name>
            <Point id="2822">
                <coordinates>10.798255,48.644333,458.9</coordinates>
            </Point>
        </Placemark>
        <Placemark id="2825">
            <name>Stations of the Cross Trail (Passion Trail), Naturpark Augsburg – Westliche Wälder</name>
            <Point id="2824">
                <coordinates>10.797632,48.639139,481.3</coordinates>
            </Point>
        </Placemark>
        <Placemark id="2827">
            <name>St. Anna Chapel (Mertinger Forest)</name>
            <Point id="2826">
                <coordinates>10.795514,48.636528,500.6</coordinates>
            </Point>
        </Placemark>
        <Placemark id="2829">
            <name>Wooden Gladiator Sculpture</name>
            <Point id="2828">
                <coordinates>10.79192,48.632412,482.4</coordinates>
            </Point>
        </Placemark>
    </Document>
</kml>
