<?xml version="1.0" encoding="UTF-8"?>
<kml xmlns="http://www.opengis.net/kml/2.2" xmlns:gx="http://www.google.com/kml/ext/2.2">
    <Document id="2773">
        <name>Hängebrücke – Blick auf den Catinaccio-Gipfel Runde von Karersee-2500148333.gpx</name>
        <Placemark id="2775">
            <name>Hängebrücke – Blick auf den Catinaccio-Gipfel Runde von Karersee</name>
            <MultiGeometry id="2774">
                <LineString id="2776">
                    <coordinates>11.59154,46.407213,1630.5 11.591377,46.407213,1630.3 11.591452,46.407561,1629.6 11.59139,46.407578,1629.5 11.591229,46.407855,1628.7 11.591199,46.407891,1628.5 11.590419,46.408037,1626.3 11.5899,46.408002,1624.6 11.589851,46.408,1624.4 11.589218,46.407989,1622.5 11.589087,46.408083,1622.1 11.588957,46.408131,1621.7 11.588232,46.408431,1619.5 11.588117,46.408484,1619.1 11.58762,46.408711,1617.4 11.587423,46.408889,1616.6 11.587082,46.40889,1615.7 11.586501,46.40879,1614.0 11.586318,46.408755,1613.5 11.586251,46.408737,1613.2 11.586035,46.408736,1612.5 11.585755,46.408781,1611.6 11.585392,46.408893,1610.5 11.585031,46.409069,1609.5 11.58429,46.409223,1608.1 11.583551,46.409334,1606.8 11.583225,46.409444,1606.1 11.582972,46.409643,1605.4 11.582587,46.409779,1604.7 11.58247,46.409846,1604.4 11.582186,46.410221,1603.3 11.582004,46.41037,1602.8 11.581624,46.410551,1602.0 11.581342,46.410628,1601.5 11.581095,46.41065,1601.2 11.581068,46.410715,1601.0 11.580967,46.410778,1600.9 11.580804,46.41098,1600.5 11.580199,46.41134,1599.2 11.58,46.411532,1598.4 11.57978,46.411663,1597.7 11.579096,46.412027,1596.1 11.578659,46.41221,1595.6 11.578489,46.412309,1595.3 11.578399,46.412377,1595.2 11.578366,46.412561,1594.8 11.57828,46.412769,1594.3 11.578278,46.412896,1594.0 11.57836,46.413037,1593.5 11.578415,46.413075,1593.3 11.57836,46.413037,1593.1 11.578278,46.412896,1592.6 11.57828,46.412769,1592.1 11.578366,46.412561,1591.0 11.578399,46.412377,1589.5 11.578489,46.412309,1588.6 11.578291,46.412348,1587.1 11.578021,46.412472,1584.2 11.577901,46.412644,1581.6 11.577135,46.41297,1572.1 11.576729,46.413224,1565.3 11.576592,46.413368,1562.2 11.576335,46.413593,1557.8 11.576193,46.413646,1556.3 11.575995,46.413857,1553.6 11.575663,46.414049,1551.2 11.575681,46.413955,1550.6 11.576193,46.413083,1548.1 11.576191,46.413042,1548.1 11.576191,46.413028,1548.1 11.576189,46.413017,1548.1 11.576028,46.412618,1548.6 11.576189,46.413017,1548.1 11.576191,46.413028,1548.1 11.576191,46.413042,1548.1 11.576193,46.413083,1548.0 11.575681,46.413955,1551.2 11.575663,46.414049,1552.0 11.575672,46.414083,1552.3 11.575845,46.414231,1554.1 11.576352,46.414156,1557.9 11.576702,46.414174,1560.7 11.57706,46.414153,1563.7 11.577206,46.414188,1565.0 11.577378,46.414177,1566.2 11.578538,46.414233,1567.2 11.5795,46.414534,1559.3 11.579647,46.414864,1555.2 11.579769,46.414991,1553.5 11.580015,46.415339,1550.2 11.58012,46.415394,1549.6 11.580426,46.415664,1547.9 11.581266,46.416154,1547.4 11.581901,46.416612,1548.8 11.582692,46.416993,1548.9 11.583417,46.417276,1547.3 11.583566,46.417417,1547.0 11.58361,46.417561,1546.6 11.583567,46.417635,1546.4 11.583389,46.417754,1545.9 11.583037,46.417944,1545.1 11.583295,46.41804,1544.3 11.583399,46.418123,1543.6 11.583306,46.418396,1542.1 11.583302,46.4185,1541.6 11.583256,46.418595,1541.2 11.583251,46.418657,1541.0 11.582815,46.418565,1539.9 11.582188,46.418253,1537.0 11.582061,46.41819,1536.3 11.581186,46.417908,1532.5 11.58121,46.417557,1531.3 11.581224,46.417497,1531.3 11.58121,46.417557,1531.1 11.581186,46.417908,1531.1 11.581061,46.417966,1531.2 11.580853,46.417974,1531.5 11.580309,46.417907,1532.6 11.579439,46.417901,1533.9 11.578735,46.417805,1534.0 11.577332,46.417667,1532.0 11.576478,46.417484,1530.0 11.575859,46.417484,1528.7 11.574697,46.417443,1522.5 11.574335,46.417404,1521.0 11.573552,46.417214,1520.0 11.573221,46.417247,1519.8 11.573009,46.417398,1519.5 11.572265,46.417774,1520.0 11.571795,46.418032,1521.6 11.570794,46.418398,1519.5 11.57026,46.418702,1517.0 11.569838,46.418883,1515.7 11.569273,46.419272,1515.8 11.569005,46.419497,1517.4 11.568882,46.419787,1520.0 11.568882,46.420037,1522.4 11.569113,46.420361,1525.9 11.56941,46.420498,1528.1 11.569607,46.42064,1529.5 11.569649,46.420833,1530.6 11.569508,46.420947,1531.1 11.569245,46.420992,1531.5 11.568231,46.421402,1529.4 11.567589,46.421451,1527.9 11.567354,46.42157,1527.5 11.566645,46.422056,1527.8 11.565935,46.422761,1530.3 11.565849,46.42281,1530.4 11.5657,46.423072,1530.7 11.565745,46.423386,1530.8 11.56567,46.423479,1530.8 11.565562,46.423525,1530.7 11.565093,46.423559,1530.6 11.564863,46.423619,1530.6 11.564039,46.424076,1530.1 11.563541,46.424447,1530.7 11.563175,46.424784,1532.5 11.563073,46.425004,1534.0 11.563076,46.425205,1535.5 11.563142,46.425404,1537.1 11.562959,46.425861,1540.8 11.562855,46.425925,1541.6 11.562691,46.425955,1542.5 11.562378,46.426069,1544.5 11.562333,46.426129,1545.0 11.562282,46.426366,1546.4 11.562304,46.426544,1547.1 11.56219,46.426626,1547.5 11.561977,46.426665,1548.2 11.561863,46.426712,1548.7 11.561606,46.426939,1550.6 11.561498,46.426982,1551.0 11.561013,46.426945,1553.0 11.560777,46.426996,1554.1 11.560476,46.427238,1555.9 11.560342,46.427248,1556.3 11.559873,46.427533,1558.3 11.559088,46.427757,1560.5 11.558862,46.427877,1560.6 11.558375,46.428024,1560.6 11.557888,46.428269,1560.1 11.556791,46.429127,1560.1 11.556593,46.429394,1560.3 11.556071,46.429871,1560.4 11.556593,46.429394,1560.3 11.556791,46.429127,1560.1 11.557888,46.428269,1560.1 11.558375,46.428024,1560.6 11.558862,46.427877,1560.6 11.559088,46.427757,1560.5 11.559873,46.427533,1562.1 11.560342,46.427248,1564.6 11.560476,46.427238,1565.2 11.559718,46.427795,1571.6 11.558859,46.428282,1580.0 11.558448,46.428493,1584.7 11.558175,46.428633,1588.5 11.558038,46.428848,1592.5 11.558067,46.429159,1598.1 11.558248,46.429614,1607.1 11.558261,46.429915,1613.0 11.558304,46.430021,1615.2 11.558384,46.430108,1617.2 11.558677,46.430301,1621.7 11.558905,46.430363,1623.8 11.559231,46.430397,1625.8 11.559803,46.430418,1627.9 11.56013,46.430371,1628.6 11.561186,46.430021,1629.6 11.56144,46.429899,1630.0 11.562085,46.429805,1631.0 11.562867,46.429563,1631.4 11.563201,46.42955,1631.0 11.56341,46.429586,1630.6 11.563692,46.429533,1630.0 11.564291,46.429658,1627.9 11.564454,46.429725,1627.2 11.564727,46.429895,1625.5 11.565615,46.429943,1622.4 11.566269,46.429899,1622.2 11.566705,46.429843,1623.2 11.568296,46.429713,1629.9 11.570452,46.429279,1637.1 11.571097,46.429063,1637.0 11.571554,46.428955,1636.7 11.571687,46.428923,1636.6 11.571838,46.428851,1636.6 11.572264,46.428765,1636.7 11.572313,46.428804,1636.8 11.57235,46.428954,1637.1 11.572402,46.429029,1637.3 11.5725,46.429128,1637.7 11.572549,46.429123,1637.9 11.572656,46.428947,1638.9 11.57309,46.428477,1644.0 11.573271,46.428382,1645.8 11.573427,46.428389,1647.2 11.573511,46.428445,1648.2 11.573513,46.42867,1651.1 11.573753,46.429247,1658.5 11.573828,46.429333,1659.5 11.57389,46.429358,1660.0 11.574034,46.429366,1661.0 11.574313,46.429495,1662.8 11.57459,46.429769,1664.6 11.574609,46.42989,1665.0 11.574685,46.430019,1665.3 11.574939,46.430162,1665.5 11.575191,46.430265,1665.5 11.575328,46.430376,1665.4 11.57538,46.430514,1665.2 11.575434,46.430546,1665.1 11.575828,46.430512,1664.8 11.576175,46.430576,1664.8 11.576906,46.43065,1665.8 11.577162,46.430645,1666.5 11.577341,46.430618,1667.1 11.577533,46.43059,1667.8 11.578165,46.430576,1670.2 11.57865,46.430927,1672.8 11.578674,46.431047,1673.4 11.578623,46.431194,1674.1 11.578601,46.43154,1675.4 11.578624,46.43171,1675.9 11.578677,46.431767,1676.1 11.57871,46.43177,1676.2 11.579775,46.431639,1678.9 11.580296,46.431709,1681.0 11.580402,46.431683,1681.5 11.580637,46.431543,1683.1 11.580885,46.431462,1684.7 11.581273,46.431552,1687.4 11.581673,46.431516,1690.3 11.582045,46.431381,1693.6 11.582147,46.431246,1695.3 11.582226,46.431095,1696.8 11.582592,46.430929,1699.4 11.583028,46.430683,1701.5 11.583129,46.430667,1701.8 11.58296,46.430203,1702.1 11.582799,46.430048,1701.7 11.57964,46.428055,1680.7 11.580606,46.427452,1673.9 11.580756,46.427336,1672.6 11.580911,46.427055,1670.0 11.581338,46.426719,1665.6 11.581997,46.426518,1659.9 11.582252,46.426528,1657.7 11.582386,46.426497,1656.4 11.582704,46.426309,1652.7 11.582833,46.426055,1649.0 11.583006,46.425883,1646.2 11.583463,46.425709,1641.6 11.584133,46.425582,1636.0 11.584202,46.425541,1635.3 11.584231,46.425487,1634.7 11.584252,46.425393,1633.8 11.584175,46.425272,1632.5 11.583657,46.42514,1628.8 11.583391,46.425122,1626.9 11.583382,46.425109,1626.8 11.583356,46.425072,1626.4 11.583379,46.425036,1626.0 11.583452,46.425017,1625.4 11.583783,46.425016,1623.0 11.584439,46.424889,1618.5 11.585135,46.424818,1613.9 11.585271,46.424813,1613.0 11.585399,46.424855,1612.0 11.585555,46.425098,1609.6 11.585579,46.425321,1607.8 11.585635,46.425362,1607.4 11.585716,46.425338,1607.1 11.585679,46.425057,1606.0 11.585743,46.424772,1605.8 11.58565,46.424605,1605.8 11.585404,46.424517,1605.6 11.58495,46.424485,1605.4 11.58466,46.424407,1605.1 11.584597,46.424323,1604.9 11.584589,46.424266,1604.8 11.584777,46.424181,1604.4 11.584934,46.423821,1603.0 11.585453,46.423313,1598.6 11.58587,46.422469,1590.9 11.585842,46.422254,1588.8 11.585864,46.42209,1587.3 11.586097,46.421629,1583.0 11.586189,46.421289,1580.1 11.586173,46.421002,1577.5 11.586232,46.420723,1574.6 11.586106,46.420558,1572.5 11.586106,46.420429,1571.0 11.585828,46.420243,1568.3 11.584753,46.419633,1559.0 11.583969,46.418974,1550.8 11.583671,46.418877,1549.0 11.583251,46.418657,1546.4 11.583256,46.418595,1546.0 11.583302,46.4185,1545.6 11.583306,46.418396,1545.2 11.583399,46.418123,1545.2 11.583295,46.41804,1545.2 11.583037,46.417944,1545.3 11.583389,46.417754,1546.0 11.583567,46.417635,1546.6 11.58361,46.417561,1546.9 11.583671,46.417512,1547.1 11.583701,46.41742,1547.4 11.583708,46.417372,1547.5 11.583701,46.41742,1547.6 11.583671,46.417512,1547.9 11.58361,46.417561,1548.0 11.583566,46.417417,1548.5 11.583417,46.417276,1549.0 11.582692,46.416993,1549.5 11.581901,46.416612,1548.8 11.581266,46.416154,1547.4 11.580426,46.415664,1547.9 11.58012,46.415394,1549.6 11.580015,46.415339,1550.2 11.579769,46.414991,1553.5 11.579647,46.414864,1555.2 11.5795,46.414534,1559.3 11.578538,46.414233,1567.2 11.577378,46.414177,1566.2 11.577206,46.414188,1565.0 11.57706,46.414153,1563.7 11.576702,46.414174,1561.1 11.576352,46.414156,1558.9 11.575845,46.414231,1557.1 11.575672,46.414083,1556.5 11.575663,46.414049,1556.4 11.575995,46.413857,1556.5 11.576193,46.413646,1557.7 11.576306,46.413604,1558.4 11.576335,46.413593,1558.6 11.576592,46.413368,1562.3 11.576729,46.413224,1565.3 11.577135,46.41297,1572.1 11.577901,46.412644,1581.8 11.578021,46.412472,1584.5 11.578291,46.412348,1587.5 11.578489,46.412309,1589.2 11.578659,46.41221,1591.0 11.579096,46.412027,1594.2 11.57978,46.411663,1597.7 11.58,46.411532,1598.4 11.580199,46.41134,1599.2 11.580804,46.41098,1600.5 11.580967,46.410778,1600.9 11.581068,46.410715,1601.0 11.581095,46.41065,1601.2 11.581342,46.410628,1601.5 11.581624,46.410551,1602.0 11.582004,46.41037,1602.8 11.582186,46.410221,1603.3 11.58247,46.409846,1604.4 11.582587,46.409779,1604.7 11.582972,46.409643,1605.4 11.583225,46.409444,1606.1 11.583551,46.409334,1606.8 11.58429,46.409223,1608.1 11.585031,46.409069,1609.5 11.585392,46.408893,1610.5 11.585755,46.408781,1611.6 11.586035,46.408736,1612.5 11.586251,46.408737,1613.2 11.586318,46.408755,1613.5 11.586501,46.40879,1614.0 11.587082,46.40889,1615.7 11.587423,46.408889,1616.6 11.58762,46.408711,1617.4 11.588117,46.408484,1619.1 11.588232,46.408431,1619.5 11.588957,46.408131,1621.7 11.589087,46.408083,1622.1 11.589218,46.407989,1622.5 11.589851,46.408,1624.4 11.5899,46.408002,1624.6 11.590419,46.408037,1626.3 11.591199,46.407891,1628.5 11.591229,46.407855,1628.7 11.59139,46.407578,1629.5 11.591452,46.407561,1629.6 11.591377,46.407213,1630.3 11.59154,46.407213,1630.5</coordinates>
                </LineString>
            </MultiGeometry>
        </Placemark>
        <Placemark id="2779">
            <name>Paolina</name>
            <Point id="2778">
                <coordinates>11.59154,46.407212,0</coordinates>
            </Point>
        </Placemark>
        <Placemark id="2781">
            <name>View of the Rosengarten</name>
            <Point id="2780">
                <coordinates>11.57835,46.41312,1655.9</coordinates>
            </Point>
        </Placemark>
        <Placemark id="2783">
            <name>Suspension Bridge over the Rio di Nova</name>
            <Point id="2782">
                <coordinates>11.57607,46.41261,1560.1</coordinates>
            </Point>
        </Placemark>
        <Placemark id="2785">
            <name>Soler Mill</name>
            <Point id="2784">
                <coordinates>11.581313,46.417509,1535.7</coordinates>
            </Point>
        </Placemark>
        <Placemark id="2787">
            <name>Elisabeth Monument with View of Latemar</name>
            <Point id="2786">
                <coordinates>11.556032,46.42985,1579.1</coordinates>
            </Point>
        </Placemark>
        <Placemark id="2789">
            <name>Biotop Kölbleggmoos</name>
            <Point id="2788">
                <coordinates>11.577046,46.429675,0</coordinates>
            </Point>
        </Placemark>
        <Placemark id="2791">
            <name>Heinzen Alm</name>
            <Point id="2790">
                <coordinates>11.57877,46.431746,1672.0</coordinates>
            </Point>
        </Placemark>
        <Placemark id="2793">
            <name>Dirt Road Through Prati di Colbleggio</name>
            <Point id="2792">
                <coordinates>11.583266,46.425147,1672.7</coordinates>
            </Point>
        </Placemark>
        <Placemark id="2795">
            <name>View of Catinaccio Peak</name>
            <Point id="2794">
                <coordinates>11.583742,46.417375,1575.5</coordinates>
            </Point>
        </Placemark>
    </Document>
</kml>
