<?xml version="1.0" encoding="UTF-8"?>
<kml xmlns="http://www.opengis.net/kml/2.2" xmlns:gx="http://www.google.com/kml/ext/2.2">
    <Document id="2889">
        <name>Im Eurasburger Forst-2721379869.gpx</name>
        <Placemark id="2891">
            <name>Im Eurasburger Forst</name>
            <MultiGeometry id="2890">
                <LineString id="2892">
                    <coordinates>11.087662,48.334776,510.3 11.087635,48.334767,510.3 11.087249,48.334575,509.7 11.087254,48.334532,509.6 11.087007,48.334533,509.4 11.086809,48.334426,509.0 11.086553,48.334288,508.2 11.086478,48.334239,507.8 11.086553,48.334288,507.5 11.086809,48.334426,506.3 11.08673,48.33477,504.3 11.086422,48.334891,503.1 11.086078,48.334989,502.0 11.085881,48.335046,501.4 11.08588,48.335142,501.0 11.08583,48.335265,500.5 11.085589,48.335208,499.8 11.085223,48.335165,498.8 11.08516,48.335161,498.7 11.085082,48.335156,498.5 11.085042,48.335153,498.5 11.084879,48.335142,498.2 11.084626,48.335152,498.0 11.08439,48.33518,497.9 11.08431,48.335189,497.9 11.083985,48.335256,497.8 11.083906,48.33527,497.8 11.083471,48.335339,497.5 11.083245,48.335366,497.3 11.082781,48.335391,496.6 11.082856,48.335118,495.6 11.082779,48.335013,495.1 11.082688,48.33457,493.2 11.082647,48.334503,493.0 11.082465,48.334413,492.7 11.082342,48.334405,492.5 11.082151,48.334429,492.2 11.081979,48.334412,492.0 11.081514,48.334304,491.5 11.081102,48.334089,491.2 11.081027,48.334038,491.1 11.08097,48.334001,491.1 11.080912,48.33396,491.1 11.080608,48.334101,491.0 11.080311,48.334193,491.0 11.079998,48.334256,491.0 11.07976,48.334281,491.0 11.078468,48.334289,490.3 11.078472,48.334182,490.4 11.078652,48.33302,493.6 11.07942,48.330648,506.5 11.079564,48.330231,509.6 11.079591,48.330056,511.0 11.079602,48.329848,512.6 11.079518,48.328969,519.3 11.07958,48.328746,521.2 11.07985,48.328298,524.7 11.079743,48.328255,525.2 11.07941,48.328156,526.5 11.078905,48.327885,528.0 11.078447,48.327751,528.3 11.077776,48.327647,527.6 11.07713,48.327556,525.7 11.07653,48.327134,522.3 11.076435,48.326995,521.4 11.075359,48.326417,516.3 11.07513,48.326261,515.2 11.073875,48.326294,510.1 11.07318,48.326265,507.0 11.072596,48.326263,504.6 11.072421,48.326244,503.9 11.071303,48.325989,499.6 11.069728,48.32563,495.2 11.069314,48.325551,494.4 11.068161,48.325453,492.8 11.067735,48.325385,492.4 11.066989,48.325113,491.3 11.066558,48.325002,490.8 11.066129,48.324914,490.4 11.065853,48.324889,490.2 11.065707,48.32485,490.2 11.065394,48.324696,490.1 11.065136,48.32451,490.0 11.0646,48.324011,489.9 11.064394,48.32394,489.8 11.06336,48.323774,489.1 11.06241,48.32409,487.9 11.062221,48.324095,487.8 11.061992,48.324071,487.7 11.061683,48.324034,487.6 11.061346,48.324002,487.6 11.061136,48.324022,487.6 11.060628,48.324146,487.8 11.060578,48.324162,487.9 11.060422,48.32421,488.0 11.06017,48.324266,488.1 11.060014,48.324277,488.2 11.059662,48.32422,488.2 11.060014,48.324277,488.2 11.06017,48.324266,488.1 11.060422,48.32421,488.0 11.060578,48.324162,487.9 11.060628,48.324146,487.8 11.061136,48.324022,487.6 11.061346,48.324002,487.6 11.061683,48.324034,487.6 11.061992,48.324071,487.7 11.062221,48.324095,487.8 11.06241,48.32409,487.9 11.06336,48.323774,489.5 11.063206,48.323577,490.2 11.063058,48.32243,493.1 11.062664,48.322229,493.6 11.062523,48.322128,493.7 11.062406,48.321975,493.8 11.062404,48.321835,493.9 11.062478,48.321722,494.0 11.062466,48.321666,494.0 11.062558,48.321489,494.0 11.062647,48.321389,494.0 11.062754,48.321337,494.0 11.063277,48.321208,494.1 11.063489,48.321121,494.2 11.063769,48.320961,494.4 11.064514,48.320337,495.3 11.064741,48.320428,495.5 11.064889,48.320444,495.7 11.065051,48.320409,495.8 11.065722,48.320131,496.6 11.067312,48.319521,498.8 11.067822,48.319354,499.8 11.06889,48.319142,502.3 11.069753,48.319018,504.4 11.069927,48.319002,504.8 11.070072,48.319035,505.1 11.070343,48.31903,505.7 11.072355,48.318733,509.3 11.072739,48.318705,510.0 11.073173,48.318619,510.8 11.073429,48.318604,511.2 11.074013,48.31857,512.5 11.075071,48.318498,514.9 11.07724,48.31836,520.6 11.077672,48.318353,521.9 11.08273,48.318045,535.4 11.083179,48.316347,535.2 11.083483,48.315025,527.6 11.083784,48.314,521.6 11.084917,48.314242,521.2 11.08617,48.314676,524.6 11.087821,48.315169,527.5 11.088914,48.315496,528.2 11.090555,48.315985,528.3 11.09105,48.31611,528.0 11.091674,48.316326,527.4 11.09512,48.317363,523.1 11.095706,48.317557,522.4 11.096595,48.317806,521.5 11.097841,48.318211,520.5 11.099806,48.318812,521.5 11.10131,48.319272,523.8 11.102228,48.319581,525.8 11.103067,48.319816,527.7 11.104019,48.320124,529.3 11.105584,48.32055,529.9 11.10383,48.323217,527.2 11.103796,48.323296,527.2 11.103347,48.323929,527.5 11.103164,48.324219,527.9 11.101792,48.326307,531.1 11.101388,48.326903,529.2 11.099269,48.330129,508.5 11.100311,48.330555,506.1 11.100691,48.330683,505.6 11.101973,48.330773,505.7 11.10199,48.330986,505.8 11.101891,48.33131,506.0 11.101763,48.331383,506.1 11.101479,48.331412,506.4 11.101153,48.331526,506.8 11.10081,48.331583,507.3 11.100535,48.331886,508.5 11.100483,48.332182,509.6 11.100552,48.332468,511.0 11.101196,48.333181,516.6 11.101767,48.333483,520.2 11.102485,48.333772,524.3 11.103527,48.333929,529.3 11.104408,48.334373,533.6 11.104605,48.334522,534.3 11.104718,48.334644,534.7 11.104767,48.334822,535.1 11.104878,48.335043,535.3 11.104443,48.335119,535.2 11.103609,48.335166,534.3 11.1029,48.335156,533.2 11.101882,48.335058,531.6 11.100628,48.334892,529.6 11.100021,48.334745,528.2 11.09925,48.33468,526.5 11.09852,48.334668,525.0 11.098224,48.33468,524.5 11.097194,48.33472,523.4 11.096096,48.334791,523.0 11.094119,48.334854,522.7 11.092803,48.334834,523.1 11.092085,48.334803,523.1 11.091362,48.334789,522.6 11.091116,48.334807,522.3 11.09109,48.334889,522.1 11.090994,48.33481,521.8 11.090802,48.334796,521.5 11.089844,48.334807,518.9 11.089543,48.334846,518.0 11.088724,48.335093,515.4 11.088605,48.335099,515.1 11.088178,48.334946,514.0 11.087662,48.334776,513.0</coordinates>
                </LineString>
            </MultiGeometry>
        </Placemark>
        <Placemark id="2895">
            <name>Parking</name>
            <Point id="2894">
                <coordinates>11.087696,48.334731,0</coordinates>
            </Point>
        </Placemark>
        <Placemark id="2897">
            <name>Church of the Holy Cross Kuratie</name>
            <Point id="2896">
                <coordinates>11.0865,48.33424,505.9</coordinates>
            </Point>
        </Placemark>
        <Placemark id="2899">
            <name>Wayside Cross With Bench</name>
            <Point id="2898">
                <coordinates>11.069312,48.325558,540.0</coordinates>
            </Point>
        </Placemark>
        <Placemark id="2901">
            <name>Beautiful trails in the Eurasburg Forest</name>
            <Point id="2900">
                <coordinates>11.0878,48.3152,526.5</coordinates>
            </Point>
        </Placemark>
    </Document>
</kml>
