<?xml version="1.0" encoding="UTF-8"?>
<kml xmlns="http://www.opengis.net/kml/2.2" xmlns:gx="http://www.google.com/kml/ext/2.2">
    <Document id="2919">
        <name>Joseph-Huber-Gedenkbank – Mika Parkplatz Römerweg Runde von Freienried-2737174802.gpx</name>
        <Placemark id="2921">
            <name>Joseph-Huber-Gedenkbank – Mika Parkplatz Römerweg Runde von Freienried</name>
            <MultiGeometry id="2920">
                <LineString id="2922">
                    <coordinates>11.147027,48.331497,526.6 11.147259,48.331219,525.8 11.147103,48.329937,521.2 11.147914,48.328104,515.9 11.148157,48.327669,514.6 11.148632,48.327,512.8 11.149282,48.326567,512.1 11.149492,48.326496,512.2 11.150121,48.326508,512.9 11.1517,48.326616,515.1 11.154827,48.326498,514.7 11.15528,48.326498,514.5 11.158683,48.32658,511.1 11.160194,48.32641,511.1 11.161863,48.326328,512.7 11.163169,48.326241,514.9 11.163415,48.326224,515.5 11.163204,48.326874,518.4 11.163204,48.327177,520.0 11.163283,48.327332,520.8 11.163499,48.327522,521.8 11.164137,48.327815,522.6 11.164183,48.327862,522.6 11.164241,48.32792,522.6 11.164162,48.327968,522.5 11.164037,48.328733,519.7 11.164072,48.328939,518.4 11.164268,48.32934,515.4 11.164866,48.33023,510.0 11.164945,48.330546,508.9 11.165385,48.330549,508.2 11.166767,48.32966,507.0 11.166853,48.329662,506.9 11.167004,48.329667,506.8 11.167062,48.329675,506.7 11.167669,48.329761,506.1 11.167726,48.329768,506.1 11.168062,48.329778,505.8 11.168433,48.329724,505.6 11.168664,48.329675,505.6 11.168751,48.329634,505.6 11.168828,48.329599,505.6 11.169305,48.329693,506.1 11.169452,48.329782,506.4 11.170045,48.330635,509.9 11.170225,48.330729,510.6 11.170662,48.330863,512.0 11.170925,48.330974,512.8 11.171225,48.331239,514.1 11.171595,48.331443,515.2 11.172261,48.331523,516.8 11.173151,48.331558,518.9 11.173803,48.331637,520.5 11.174487,48.331815,522.3 11.17507,48.332011,523.5 11.175934,48.33174,524.9 11.17639,48.331597,525.4 11.177355,48.331741,525.7 11.17848,48.33169,525.1 11.178498,48.331689,525.1 11.179501,48.331611,523.1 11.180235,48.331448,521.1 11.180745,48.331391,520.0 11.180933,48.331383,519.6 11.181954,48.331234,518.7 11.182116,48.331313,518.7 11.182714,48.331723,519.8 11.183232,48.332146,520.6 11.183287,48.332252,520.7 11.183227,48.332463,520.7 11.183316,48.333219,519.8 11.183356,48.333561,519.0 11.183653,48.334847,517.6 11.183856,48.335807,517.5 11.183047,48.335815,517.5 11.181612,48.336465,516.5 11.18108,48.336517,516.6 11.180447,48.33658,516.8 11.180217,48.336508,517.0 11.179899,48.336739,517.3 11.179392,48.336842,517.7 11.177031,48.336446,519.5 11.176343,48.336222,520.2 11.1761,48.336175,520.6 11.176345,48.335567,522.9 11.176341,48.334559,527.1 11.175667,48.334634,528.4 11.174192,48.334881,529.4 11.17378,48.334935,529.5 11.172259,48.335204,530.3 11.168983,48.33571,533.9 11.168634,48.335744,534.1 11.168518,48.335769,534.2 11.166882,48.336002,533.6 11.166538,48.336072,533.0 11.165648,48.335957,530.3 11.164288,48.335922,524.5 11.162757,48.335729,518.2 11.161586,48.335513,516.2 11.160581,48.335319,516.7 11.158403,48.334848,521.1 11.153901,48.333815,529.3 11.153543,48.33369,530.0 11.153596,48.333672,530.1 11.153678,48.333644,530.3 11.153596,48.333672,530.5 11.153543,48.33369,530.6 11.152292,48.333574,532.3 11.150757,48.333193,532.7 11.149245,48.332881,531.4 11.14852,48.332401,530.5 11.148427,48.33234,530.4 11.148176,48.332241,530.2 11.147618,48.332092,529.8 11.147557,48.331982,529.6 11.147392,48.331819,529.4 11.147156,48.331661,529.2 11.147069,48.331619,529.1 11.146967,48.33157,529.0 11.147027,48.331497,528.9</coordinates>
                </LineString>
            </MultiGeometry>
        </Placemark>
        <Placemark id="2925">
            <name>Parking</name>
            <Point id="2924">
                <coordinates>11.147127,48.33154,0</coordinates>
            </Point>
        </Placemark>
        <Placemark id="2927">
            <name>Joseph Huber Memorial Bench</name>
            <Point id="2926">
                <coordinates>11.164157,48.327873,576.0</coordinates>
            </Point>
        </Placemark>
        <Placemark id="2929">
            <name>Graffiti Underpass</name>
            <Point id="2928">
                <coordinates>11.166853,48.329665,546.6</coordinates>
            </Point>
        </Placemark>
        <Placemark id="2931">
            <name>Bench with a view of Dachauer Land</name>
            <Point id="2930">
                <coordinates>11.178476,48.33165,576.9</coordinates>
            </Point>
        </Placemark>
        <Placemark id="2933">
            <name>Moss Path</name>
            <Point id="2932">
                <coordinates>11.181073,48.336486,569.2</coordinates>
            </Point>
        </Placemark>
        <Placemark id="2935">
            <name>Tree Kraken Sculptures at the Crossroads</name>
            <Point id="2934">
                <coordinates>11.153695,48.333667,570.0</coordinates>
            </Point>
        </Placemark>
        <Placemark id="2937">
            <name>Mika Parking Lot Römerweg</name>
            <Point id="2936">
                <coordinates>11.14709,48.3316,600.7</coordinates>
            </Point>
        </Placemark>
    </Document>
</kml>
