<?xml version="1.0" encoding="UTF-8"?>
<kml xmlns="http://www.opengis.net/kml/2.2" xmlns:gx="http://www.google.com/kml/ext/2.2">
    <Document id="2917">
        <name>Justina-Kapelle – Justina-Kapelle Runde von Reinhartshofen-2840648201.gpx</name>
        <Placemark id="2919">
            <name>Justina-Kapelle – Justina-Kapelle Runde von Reinhartshofen</name>
            <MultiGeometry id="2918">
                <LineString id="2920">
                    <coordinates>10.736901,48.231551,591.7 10.736788,48.231555,591.8 10.736693,48.231584,591.9 10.736292,48.231076,592.8 10.735903,48.230795,593.2 10.732408,48.229151,592.1 10.731678,48.228546,591.6 10.731276,48.228336,590.8 10.731653,48.228182,589.7 10.731977,48.228102,588.5 10.732933,48.227199,578.7 10.733203,48.227081,575.9 10.733485,48.227037,573.4 10.733788,48.227088,570.7 10.734192,48.227076,567.2 10.734689,48.22713,563.0 10.735209,48.227145,559.1 10.735629,48.227291,555.7 10.73605,48.227527,552.1 10.736515,48.22774,548.8 10.736951,48.227908,546.3 10.737119,48.227945,545.6 10.737216,48.228011,545.0 10.73735,48.228053,544.5 10.737418,48.228035,544.2 10.737456,48.227992,544.0 10.737522,48.228004,543.7 10.737641,48.228161,542.9 10.737754,48.22815,542.6 10.737735,48.228038,542.1 10.737493,48.227718,541.0 10.73691,48.227373,540.2 10.734557,48.226169,542.0 10.733373,48.225738,543.1 10.732745,48.225301,543.8 10.73256,48.225182,543.8 10.731826,48.224899,542.9 10.731299,48.224621,540.9 10.731063,48.224435,539.8 10.730945,48.224327,539.1 10.730847,48.224169,538.3 10.730812,48.224049,537.7 10.730839,48.223817,536.6 10.730788,48.223736,536.3 10.729957,48.223034,533.5 10.728685,48.2219,533.7 10.728006,48.221725,533.8 10.726895,48.221312,534.1 10.726114,48.220815,534.5 10.725227,48.220058,535.0 10.725172,48.220012,535.0 10.724276,48.218935,535.8 10.724095,48.218659,536.0 10.723811,48.218,536.9 10.723519,48.217469,538.0 10.722668,48.216269,542.3 10.72229,48.215884,544.9 10.721871,48.215953,547.1 10.721555,48.215959,548.8 10.720975,48.216032,552.0 10.720748,48.216154,553.6 10.720648,48.216292,555.0 10.720646,48.216505,556.7 10.720704,48.216605,557.6 10.72142,48.217851,567.2 10.721512,48.218183,570.6 10.721521,48.218217,571.0 10.721521,48.218218,571.0 10.721508,48.218371,572.8 10.721433,48.218529,574.8 10.721268,48.218682,577.2 10.721087,48.218775,579.0 10.720817,48.218815,581.3 10.720505,48.218805,583.6 10.720367,48.218832,584.7 10.719869,48.218976,588.2 10.719591,48.219193,590.2 10.718738,48.219518,591.7 10.718484,48.219609,591.7 10.718137,48.219733,591.4 10.717625,48.219975,590.5 10.717034,48.220328,589.1 10.716251,48.220796,587.6 10.716217,48.220903,587.5 10.716205,48.221159,587.2 10.716111,48.221385,587.1 10.715407,48.22227,588.5 10.714379,48.223926,593.1 10.714247,48.224023,593.3 10.714156,48.224049,593.4 10.711254,48.224578,594.5 10.713699,48.225278,593.3 10.715576,48.225689,592.1 10.717991,48.226222,590.0 10.718051,48.226216,589.9 10.717946,48.226039,589.4 10.718051,48.226216,588.9 10.718154,48.226223,588.7 10.719984,48.226351,582.7 10.720172,48.226356,581.8 10.722088,48.226402,575.1 10.722235,48.226393,575.0 10.7223,48.226386,575.0 10.722769,48.226333,575.3 10.722988,48.226268,575.8 10.723539,48.226211,577.5 10.724063,48.226256,579.8 10.7248,48.226237,583.4 10.726306,48.226425,589.8 10.726438,48.226552,590.5 10.727151,48.227342,593.0 10.727439,48.227585,593.0 10.727807,48.227781,592.8 10.728721,48.228147,592.3 10.728888,48.228145,592.2 10.729274,48.228087,592.1 10.729759,48.227941,592.0 10.73012,48.227758,592.0 10.73046,48.22791,592.2 10.731276,48.228336,592.3 10.731678,48.228546,592.1 10.732408,48.229151,592.1 10.735903,48.230795,593.2 10.736292,48.231076,592.8 10.736693,48.231584,591.9 10.736788,48.231555,591.8 10.736901,48.231551,591.7</coordinates>
                </LineString>
            </MultiGeometry>
        </Placemark>
        <Placemark id="2923">
            <name>Parkplatz Reinhartshofen</name>
            <Point id="2922">
                <coordinates>10.736902,48.231574,0</coordinates>
            </Point>
        </Placemark>
        <Placemark id="2925">
            <name>Deer in Front of Guggenberger Schloss</name>
            <Point id="2924">
                <coordinates>10.721576,48.218175,621.6</coordinates>
            </Point>
        </Placemark>
        <Placemark id="2927">
            <name>Guggenberg Castle</name>
            <Point id="2926">
                <coordinates>10.721517,48.218218,575.6</coordinates>
            </Point>
        </Placemark>
        <Placemark id="2929">
            <name>Justina Chapel</name>
            <Point id="2928">
                <coordinates>10.71815,48.226243,589.0</coordinates>
            </Point>
        </Placemark>
        <Placemark id="2931">
            <name>Former well of the Justinakapelle Hermitage</name>
            <Point id="2930">
                <coordinates>10.720172,48.226357,633.5</coordinates>
            </Point>
        </Placemark>
        <Placemark id="2933">
            <name>Anhauser Bach Source at the Ancient Oak Trunk</name>
            <Point id="2932">
                <coordinates>10.722302,48.22639,620.5</coordinates>
            </Point>
        </Placemark>
    </Document>
</kml>
