<?xml version="1.0" encoding="UTF-8"?>
<kml xmlns="http://www.opengis.net/kml/2.2" xmlns:gx="http://www.google.com/kml/ext/2.2">
    <Document id="2953">
        <name>Karersee – Blick auf den Karersee Runde von Karersee-2500147412.gpx</name>
        <Placemark id="2955">
            <name>Karersee – Blick auf den Karersee Runde von Karersee</name>
            <MultiGeometry id="2954">
                <LineString id="2956">
                    <coordinates>11.591501,46.407051,1629.7 11.590892,46.407059,1629.6 11.590892,46.407151,1629.6 11.591094,46.407158,1629.4 11.591234,46.407545,1628.8 11.59139,46.407578,1628.5 11.591229,46.407855,1627.9 11.591199,46.407891,1627.8 11.590419,46.408037,1626.2 11.5899,46.408002,1624.6 11.589851,46.408,1624.4 11.589218,46.407989,1622.5 11.589087,46.408083,1622.1 11.588957,46.408131,1621.7 11.588232,46.408431,1619.5 11.588117,46.408484,1619.1 11.58762,46.408711,1617.4 11.587423,46.408889,1616.6 11.587082,46.40889,1615.7 11.586501,46.40879,1614.0 11.586318,46.408755,1613.5 11.586251,46.408737,1613.2 11.586035,46.408736,1612.5 11.585755,46.408781,1611.6 11.585392,46.408893,1610.5 11.585031,46.409069,1609.5 11.58429,46.409223,1608.1 11.583551,46.409334,1606.8 11.583225,46.409444,1606.1 11.582972,46.409643,1605.4 11.582587,46.409779,1604.7 11.58247,46.409846,1604.4 11.582186,46.410221,1603.3 11.582004,46.41037,1602.8 11.581624,46.410551,1602.0 11.581342,46.410628,1601.5 11.581095,46.41065,1601.2 11.581068,46.410715,1601.0 11.580967,46.410778,1600.9 11.580804,46.41098,1600.5 11.580199,46.41134,1599.2 11.58,46.411532,1598.4 11.57978,46.411663,1597.7 11.579096,46.412027,1594.2 11.578659,46.41221,1591.0 11.578489,46.412309,1589.2 11.578291,46.412348,1587.5 11.578021,46.412472,1584.5 11.577901,46.412644,1581.8 11.577135,46.41297,1572.1 11.576729,46.413224,1565.3 11.576592,46.413368,1562.2 11.576335,46.413593,1557.8 11.576193,46.413646,1556.3 11.575995,46.413857,1553.6 11.575663,46.414049,1551.2 11.575681,46.413955,1550.6 11.576193,46.413083,1548.5 11.576191,46.413042,1548.6 11.576191,46.413028,1548.6 11.576189,46.413017,1548.6 11.576028,46.412618,1550.0 11.575965,46.412461,1550.5 11.575953,46.412333,1551.1 11.575962,46.4122,1551.6 11.5758,46.412134,1552.2 11.575728,46.412126,1552.4 11.575518,46.412073,1553.0 11.575394,46.411981,1553.4 11.575273,46.411865,1553.8 11.575155,46.411678,1554.1 11.575151,46.411642,1554.1 11.575252,46.411609,1554.0 11.575234,46.411544,1553.9 11.575356,46.411182,1552.1 11.575348,46.411118,1551.7 11.57539,46.411067,1551.3 11.575584,46.410823,1549.3 11.575819,46.410387,1545.3 11.575851,46.410316,1544.5 11.575841,46.410244,1543.8 11.575734,46.410222,1543.0 11.575586,46.410229,1542.0 11.57558,46.410226,1541.9 11.575352,46.410136,1540.1 11.574826,46.409977,1537.3 11.574789,46.409958,1537.1 11.574478,46.409792,1536.7 11.574322,46.409734,1537.0 11.574212,46.409638,1537.6 11.574043,46.409567,1538.6 11.573814,46.409336,1541.0 11.573607,46.409228,1542.7 11.573384,46.40915,1544.3 11.573149,46.409115,1545.9 11.572987,46.409118,1547.0 11.572723,46.409175,1548.8 11.57279,46.409111,1549.5 11.572894,46.408668,1552.9 11.573049,46.40842,1553.9 11.57308,46.408371,1554.0 11.57319,46.40827,1554.0 11.573265,46.408201,1553.8 11.573424,46.408104,1553.3 11.573564,46.408059,1552.9 11.574004,46.408022,1551.6 11.57424,46.408041,1550.7 11.574573,46.40823,1549.2 11.574921,46.408226,1548.0 11.575142,46.408179,1547.3 11.575242,46.408189,1547.0 11.575302,46.408231,1546.7 11.575475,46.408317,1546.1 11.576197,46.408444,1545.0 11.576306,46.408549,1544.9 11.576329,46.408738,1545.0 11.576251,46.408882,1545.0 11.576323,46.409077,1545.0 11.57677,46.408915,1544.9 11.57692,46.408909,1544.8 11.577156,46.409086,1544.5 11.577393,46.409328,1544.0 11.577352,46.409459,1543.9 11.577143,46.409684,1543.6 11.576973,46.4098,1543.2 11.576861,46.409919,1542.7 11.576749,46.410181,1542.1 11.576633,46.410229,1541.9 11.575918,46.410325,1541.3 11.575984,46.410185,1541.2 11.575911,46.410187,1541.2 11.575898,46.410187,1541.2 11.575911,46.410187,1541.2 11.575984,46.410185,1541.2 11.575918,46.410325,1541.3 11.576633,46.410229,1541.9 11.576749,46.410181,1542.1 11.576861,46.409919,1542.7 11.576973,46.4098,1543.2 11.577143,46.409684,1543.6 11.577352,46.409459,1543.9 11.577393,46.409328,1544.0 11.577156,46.409086,1544.5 11.57692,46.408909,1544.8 11.57677,46.408915,1544.9 11.576323,46.409077,1545.0 11.576251,46.408882,1545.0 11.576329,46.408738,1545.0 11.576306,46.408549,1544.9 11.576197,46.408444,1545.0 11.575475,46.408317,1546.1 11.575302,46.408231,1546.7 11.575242,46.408189,1547.0 11.575142,46.408179,1547.3 11.574921,46.408226,1548.0 11.574573,46.40823,1549.2 11.57424,46.408041,1550.7 11.574004,46.408022,1551.6 11.573564,46.408059,1552.9 11.573424,46.408104,1553.3 11.573265,46.408201,1553.8 11.57319,46.40827,1554.2 11.57308,46.408371,1554.8 11.573049,46.40842,1555.0 11.572894,46.408668,1556.4 11.57279,46.409111,1558.8 11.572723,46.409175,1559.2 11.572738,46.408888,1560.9 11.572685,46.40859,1563.2 11.572672,46.40844,1564.6 11.572707,46.408386,1565.3 11.572994,46.408037,1570.3 11.57311,46.407538,1577.5 11.573284,46.407364,1580.4 11.57333,46.406858,1587.1 11.573557,46.406484,1592.3 11.574034,46.406003,1598.8 11.57445,46.405792,1602.2 11.574587,46.4057,1603.3 11.574757,46.405454,1605.5 11.574882,46.404639,1612.2 11.57467,46.404283,1615.3 11.574616,46.404046,1617.3 11.574501,46.403825,1619.1 11.574569,46.403491,1622.4 11.574411,46.402989,1628.8 11.574414,46.402761,1631.9 11.574427,46.402524,1635.2 11.574321,46.402283,1638.8 11.574284,46.402014,1642.6 11.574377,46.401416,1651.2 11.574616,46.401132,1655.0 11.574741,46.400936,1657.2 11.574857,46.400401,1661.8 11.574976,46.400306,1662.5 11.575257,46.400306,1663.3 11.57532,46.400214,1663.7 11.575293,46.400121,1664.0 11.575546,46.39993,1664.8 11.575693,46.3999,1665.2 11.575807,46.399912,1665.4 11.57611,46.400095,1666.0 11.576412,46.400216,1666.4 11.576685,46.400101,1666.5 11.577076,46.400166,1666.2 11.577959,46.400169,1665.3 11.578631,46.400507,1663.2 11.578733,46.400558,1662.6 11.57959,46.40088,1655.0 11.579865,46.401072,1651.1 11.579994,46.401645,1644.1 11.579929,46.401904,1641.9 11.580037,46.402149,1640.4 11.580632,46.402275,1639.1 11.580797,46.402274,1638.9 11.581009,46.402227,1638.8 11.581359,46.402052,1638.6 11.581546,46.402019,1638.4 11.581669,46.402067,1638.3 11.581683,46.402225,1637.8 11.581466,46.403066,1631.1 11.581413,46.403503,1626.5 11.581239,46.403983,1622.6 11.58111,46.404634,1620.0 11.581004,46.404938,1619.7 11.581012,46.405205,1619.6 11.580918,46.406555,1620.6 11.581061,46.406884,1620.0 11.581079,46.407007,1619.4 11.58094,46.407627,1617.3 11.580893,46.407691,1617.2 11.58079,46.40775,1617.3 11.580522,46.40784,1617.2 11.580336,46.407933,1617.0 11.580259,46.408075,1616.8 11.580286,46.408129,1616.8 11.580307,46.408171,1616.8 11.580409,46.408215,1616.7 11.580727,46.408238,1616.7 11.580978,46.408207,1616.8 11.581353,46.408385,1617.4 11.581584,46.408422,1618.2 11.582007,46.408074,1620.0 11.582093,46.407958,1620.3 11.582536,46.407656,1621.2 11.582594,46.407486,1621.9 11.583049,46.406679,1625.9 11.583486,46.406329,1625.9 11.583656,46.406167,1625.4 11.583826,46.406004,1624.7 11.584001,46.406043,1624.1 11.584172,46.406117,1623.3 11.584164,46.406371,1621.7 11.584161,46.406484,1620.9 11.584643,46.406283,1617.9 11.584702,46.406399,1617.0 11.584999,46.406466,1615.5 11.585137,46.406537,1615.0 11.585252,46.406657,1614.5 11.585302,46.406902,1613.8 11.585584,46.406919,1613.4 11.586055,46.406816,1612.9 11.586206,46.406945,1612.8 11.586239,46.407545,1613.0 11.586863,46.40757,1613.5 11.587353,46.407695,1614.5 11.587658,46.407692,1615.3 11.588048,46.407664,1616.5 11.58926,46.407514,1620.3 11.589232,46.407312,1621.1 11.589267,46.406973,1622.5 11.589364,46.406925,1622.9 11.590057,46.407038,1624.8 11.590292,46.407073,1625.4 11.590892,46.407151,1626.9 11.590892,46.407059,1627.2 11.591501,46.407051,1628.6</coordinates>
                </LineString>
            </MultiGeometry>
        </Placemark>
        <Placemark id="2959">
            <name>Paolina</name>
            <Point id="2958">
                <coordinates>11.591501,46.407075,0</coordinates>
            </Point>
        </Placemark>
        <Placemark id="2961">
            <name>Suspension Bridge over the Rio di Nova</name>
            <Point id="2960">
                <coordinates>11.57607,46.41261,1560.1</coordinates>
            </Point>
        </Placemark>
        <Placemark id="2963">
            <name>Lake Carezza (Karersee)</name>
            <Point id="2962">
                <coordinates>11.575583,46.410223,1531.2</coordinates>
            </Point>
        </Placemark>
        <Placemark id="2965">
            <name>View of Lake Carezza</name>
            <Point id="2964">
                <coordinates>11.573169,46.408259,1535.3</coordinates>
            </Point>
        </Placemark>
        <Placemark id="2967">
            <name>Scenic bench overlooking Lake Carezza and the Dolomites</name>
            <Point id="2966">
                <coordinates>11.580291,46.408128,1679.3</coordinates>
            </Point>
        </Placemark>
    </Document>
</kml>
