<?xml version="1.0" encoding="UTF-8"?>
<kml xmlns="http://www.opengis.net/kml/2.2" xmlns:gx="http://www.google.com/kml/ext/2.2">
    <Document id="3137">
        <name>Kleine Wehr – Lechstaustufe 22 Damm Runde von Oberpeiching-2738413220.gpx</name>
        <Placemark id="3139">
            <name>Kleine Wehr – Lechstaustufe 22 Damm Runde von Oberpeiching</name>
            <MultiGeometry id="3138">
                <LineString id="3140">
                    <coordinates>10.88773,48.653652,407.8 10.887591,48.653645,407.6 10.887576,48.653761,407.4 10.887591,48.653645,407.2 10.887409,48.653607,407.0 10.887295,48.653583,406.8 10.886909,48.653485,406.3 10.886173,48.653422,405.5 10.885731,48.653354,405.0 10.885321,48.653215,404.7 10.885152,48.653129,404.7 10.88497,48.653093,404.7 10.884237,48.653124,404.8 10.883997,48.653065,404.9 10.883794,48.652979,405.0 10.882559,48.651836,405.5 10.881665,48.650883,405.7 10.880905,48.649848,406.1 10.880556,48.649198,406.4 10.880353,48.648631,406.6 10.880358,48.648456,406.7 10.880424,48.648163,406.9 10.880395,48.647982,407.1 10.880262,48.647723,407.4 10.880183,48.64734,408.0 10.880229,48.646973,408.6 10.880389,48.646627,409.1 10.880661,48.646215,409.7 10.880589,48.646239,409.8 10.879997,48.646229,410.1 10.879926,48.646231,410.2 10.879249,48.646231,410.4 10.879187,48.646231,410.4 10.879249,48.646231,410.4 10.879926,48.646231,410.4 10.879997,48.646229,410.4 10.880589,48.646239,410.5 10.880661,48.646215,410.5 10.88073,48.646153,410.5 10.880772,48.645921,410.6 10.880687,48.642572,411.5 10.880791,48.640574,412.0 10.88103,48.638968,412.2 10.880957,48.638374,412.6 10.881322,48.63724,413.4 10.882118,48.635037,413.3 10.882367,48.634,413.3 10.882599,48.632676,411.8 10.88298,48.632634,411.3 10.883406,48.632468,410.9 10.883794,48.632216,410.5 10.884232,48.632145,410.3 10.884493,48.631886,410.4 10.884882,48.631706,410.7 10.885151,48.631036,411.3 10.885171,48.631153,411.4 10.885142,48.631617,411.4 10.885092,48.632412,411.1 10.885024,48.632967,410.9 10.884902,48.63486,410.9 10.8847,48.63607,410.9 10.884566,48.636552,411.1 10.884187,48.637619,412.1 10.884084,48.637959,412.3 10.883792,48.638326,412.3 10.883632,48.638631,412.2 10.883617,48.639004,411.8 10.883247,48.640092,410.4 10.883598,48.640443,409.8 10.883926,48.640688,409.3 10.884048,48.64088,409.0 10.884273,48.642033,407.0 10.884273,48.642251,406.8 10.884165,48.642486,406.5 10.884103,48.64273,406.4 10.884011,48.643108,406.3 10.884055,48.643417,406.4 10.884071,48.643535,406.4 10.884163,48.643923,406.7 10.884215,48.644349,407.4 10.884413,48.644923,408.6 10.884563,48.644905,408.8 10.885162,48.644776,409.5 10.885446,48.645211,410.2 10.886314,48.646123,410.5 10.886548,48.646505,410.2 10.886652,48.646951,409.9 10.886508,48.647355,409.5 10.886473,48.647708,409.3 10.886537,48.649078,408.7 10.886694,48.649555,408.5 10.887527,48.651066,407.3 10.887994,48.652111,406.8 10.888018,48.6524,406.9 10.88789,48.652838,407.2 10.887722,48.653195,407.5 10.887591,48.653645,408.0 10.88773,48.653652,408.0</coordinates>
                </LineString>
            </MultiGeometry>
        </Placemark>
        <Placemark id="3143">
            <name>Small Weir</name>
            <Point id="3142">
                <coordinates>10.887749,48.65377,462.0</coordinates>
            </Point>
        </Placemark>
        <Placemark id="3145">
            <name>Lech Dam Oberpeiching</name>
            <Point id="3144">
                <coordinates>10.879616,48.646245,470.3</coordinates>
            </Point>
        </Placemark>
        <Placemark id="3147">
            <name>Oberpeiching Run-of-River Power Plant on the Lech</name>
            <Point id="3146">
                <coordinates>10.879209,48.646234,412.7</coordinates>
            </Point>
        </Placemark>
    </Document>
</kml>
