<?xml version="1.0" encoding="UTF-8"?>
<kml xmlns="http://www.opengis.net/kml/2.2" xmlns:gx="http://www.google.com/kml/ext/2.2">
    <Document id="3439">
        <name>Lange Fischtreppe – Blick auf den Irsinger Stausee Runde von Verwaltungsgemeinschaft Türkheim-2878794398.gpx</name>
        <Placemark id="3441">
            <name>Lange Fischtreppe – Blick auf den Irsinger Stausee Runde von Verwaltungsgemeinschaft Türkheim</name>
            <MultiGeometry id="3440">
                <LineString id="3442">
                    <coordinates>10.641629,48.041306,606.9 10.641662,48.041734,606.8 10.643277,48.041583,605.9 10.643286,48.04164,605.8 10.643299,48.041687,605.7 10.643368,48.041742,605.6 10.643858,48.041742,604.9 10.644056,48.04168,604.5 10.644073,48.041605,604.4 10.644011,48.041443,603.9 10.643944,48.040821,602.3 10.643915,48.040081,601.3 10.64398,48.039032,602.4 10.643925,48.03889,602.7 10.643805,48.038691,603.3 10.643762,48.038511,603.9 10.643809,48.038287,604.5 10.643976,48.038067,605.2 10.644188,48.037869,605.9 10.64425,48.037763,606.2 10.644469,48.037121,607.0 10.644691,48.036845,607.0 10.644992,48.036498,606.7 10.645415,48.036075,606.1 10.645849,48.035723,605.7 10.646175,48.035514,605.6 10.646353,48.035289,605.6 10.647815,48.034357,606.6 10.648229,48.034262,606.7 10.648939,48.033922,606.7 10.649161,48.033741,606.7 10.649449,48.033558,606.7 10.649775,48.033404,606.8 10.650061,48.033319,606.8 10.650225,48.033176,606.9 10.650875,48.032747,607.5 10.651913,48.032167,607.7 10.652791,48.031537,607.1 10.653482,48.030737,606.7 10.653962,48.029604,607.3 10.654048,48.028842,607.9 10.654049,48.028329,608.4 10.65393,48.02767,609.2 10.65364,48.027112,610.0 10.653529,48.026537,610.8 10.653538,48.026173,611.3 10.653318,48.025433,611.7 10.653166,48.025156,611.8 10.653375,48.025121,611.9 10.653821,48.025077,612.1 10.653919,48.025064,612.1 10.653985,48.02499,612.1 10.654063,48.025049,612.2 10.654079,48.025075,612.2 10.654063,48.025049,612.2 10.653985,48.02499,612.2 10.654033,48.024927,612.2 10.654093,48.024849,612.2 10.654397,48.02451,612.4 10.654545,48.024346,612.5 10.65445,48.02436,612.6 10.654008,48.024624,613.0 10.654218,48.024408,613.3 10.654774,48.023651,613.8 10.65505,48.023185,614.0 10.655271,48.022302,614.1 10.655694,48.020315,614.2 10.655648,48.019847,614.3 10.655577,48.019635,614.4 10.655341,48.018937,614.6 10.654996,48.018404,614.7 10.653755,48.017236,614.7 10.653611,48.01702,614.7 10.653082,48.015723,614.8 10.652952,48.015508,614.7 10.65273,48.015242,614.5 10.652011,48.014594,613.9 10.651873,48.014443,613.7 10.65178,48.014279,613.6 10.650723,48.009389,615.8 10.650029,48.006174,617.2 10.650067,48.00607,617.2 10.649919,48.005238,616.8 10.649684,48.004291,616.9 10.649688,48.003738,617.5 10.649622,48.003725,617.6 10.648677,48.003768,618.0 10.648616,48.003793,618.0 10.648625,48.003906,618.1 10.648733,48.003975,618.1 10.648784,48.004053,618.1 10.648795,48.004071,618.1 10.649625,48.008037,614.7 10.649723,48.008508,614.4 10.650176,48.010673,614.0 10.651405,48.016526,612.7 10.65141,48.016605,612.8 10.651367,48.016853,613.0 10.651164,48.017091,613.2 10.650708,48.017476,613.8 10.650251,48.017863,614.3 10.649561,48.01852,614.7 10.649244,48.018975,614.6 10.649213,48.01902,614.6 10.648961,48.019685,614.3 10.648921,48.019966,614.1 10.648926,48.020335,613.8 10.648986,48.020723,613.4 10.649199,48.021245,612.8 10.649472,48.021702,612.4 10.65005,48.022353,612.5 10.650305,48.022563,612.7 10.650424,48.022678,612.8 10.650761,48.022878,613.0 10.652831,48.02451,613.8 10.653044,48.024678,613.6 10.652888,48.024774,613.5 10.652963,48.024859,613.4 10.65307,48.025082,613.1 10.653166,48.025156,612.9 10.653318,48.025433,612.5 10.653538,48.026173,611.3 10.653529,48.026537,610.8 10.65364,48.027112,610.0 10.65393,48.02767,609.2 10.654049,48.028329,608.4 10.654048,48.028842,607.9 10.653962,48.029604,607.3 10.653482,48.030737,606.7 10.652791,48.031537,607.1 10.651913,48.032167,607.7 10.650875,48.032747,607.5 10.650225,48.033176,606.9 10.650061,48.033319,606.8 10.649775,48.033404,606.8 10.649449,48.033558,606.7 10.649161,48.033741,606.7 10.648939,48.033922,606.7 10.648229,48.034262,606.7 10.647815,48.034357,606.6 10.646353,48.035289,605.6 10.646175,48.035514,605.6 10.645849,48.035723,605.7 10.645415,48.036075,606.1 10.644992,48.036498,606.7 10.644691,48.036845,607.0 10.644469,48.037121,607.0 10.64425,48.037763,606.2 10.644188,48.037869,605.9 10.643976,48.038067,605.2 10.643809,48.038287,604.5 10.643762,48.038511,603.9 10.643805,48.038691,603.3 10.643925,48.03889,602.7 10.64398,48.039032,602.4 10.643915,48.040081,601.3 10.643944,48.040821,602.3 10.644011,48.041443,603.9 10.644073,48.041605,604.4 10.644056,48.04168,604.5 10.643858,48.041742,604.9 10.643368,48.041742,605.6 10.643299,48.041687,605.7 10.643286,48.04164,605.8 10.643277,48.041583,605.9 10.641662,48.041734,606.8 10.641629,48.041306,606.9</coordinates>
                </LineString>
            </MultiGeometry>
        </Placemark>
        <Placemark id="3445">
            <name>Unterirsingen</name>
            <Point id="3444">
                <coordinates>10.641537,48.041309,0</coordinates>
            </Point>
        </Placemark>
        <Placemark id="3447">
            <name>Rest area with a view of the river</name>
            <Point id="3446">
                <coordinates>10.654039,48.025085,613.2</coordinates>
            </Point>
        </Placemark>
        <Placemark id="3449">
            <name>Long Fish Ladder</name>
            <Point id="3448">
                <coordinates>10.654405,48.024513,613.0</coordinates>
            </Point>
        </Placemark>
        <Placemark id="3451">
            <name>Irsingener See</name>
            <Point id="3450">
                <coordinates>10.652458,48.020105,0</coordinates>
            </Point>
        </Placemark>
        <Placemark id="3453">
            <name>Stockheim Reservoir</name>
            <Point id="3452">
                <coordinates>10.650748,48.009387,665.4</coordinates>
            </Point>
        </Placemark>
        <Placemark id="3455">
            <name>Wertach Nature Trail Information Board</name>
            <Point id="3454">
                <coordinates>10.648777,48.004054,669.9</coordinates>
            </Point>
        </Placemark>
        <Placemark id="3457">
            <name>Old channel of the Wertach near the Irsinger Reservoir</name>
            <Point id="3456">
                <coordinates>10.649583,48.008041,621.7</coordinates>
            </Point>
        </Placemark>
        <Placemark id="3459">
            <name>Eco Island Bad Wörishofen</name>
            <Point id="3458">
                <coordinates>10.650747,48.017497,670.9</coordinates>
            </Point>
        </Placemark>
        <Placemark id="3461">
            <name>View of Irsinger Reservoir</name>
            <Point id="3460">
                <coordinates>10.649225,48.018969,613.3</coordinates>
            </Point>
        </Placemark>
        <Placemark id="3463">
            <name>Wetzlar Reservoir</name>
            <Point id="3462">
                <coordinates>10.652838,48.024506,613.7</coordinates>
            </Point>
        </Placemark>
    </Document>
</kml>
