<?xml version="1.0" encoding="UTF-8"?>
<kml xmlns="http://www.opengis.net/kml/2.2" xmlns:gx="http://www.google.com/kml/ext/2.2">
    <Document id="3407">
        <name>Lechflößer-Denkmal – Lechstaustufe 12 – Lechmühlen Runde von Seestall-2853531202.gpx</name>
        <Placemark id="3409">
            <name>Lechflößer-Denkmal – Lechstaustufe 12 – Lechmühlen Runde von Seestall</name>
            <MultiGeometry id="3408">
                <LineString id="3410">
                    <coordinates>10.864943,47.964608,620.3 10.864984,47.964565,620.3 10.865135,47.964439,620.3 10.865243,47.964388,620.3 10.865374,47.964288,620.3 10.865509,47.964056,620.4 10.865566,47.963952,620.5 10.86572,47.963724,620.7 10.865789,47.963622,620.8 10.86587,47.96352,620.9 10.865918,47.96346,620.9 10.866004,47.963339,621.1 10.866034,47.963242,621.2 10.866007,47.963085,621.4 10.865881,47.962885,621.7 10.865855,47.962831,621.7 10.865782,47.962684,622.0 10.865682,47.9625,622.3 10.865614,47.962376,622.5 10.865408,47.96214,622.8 10.865048,47.961934,623.0 10.864893,47.961791,623.0 10.864816,47.961713,622.9 10.864664,47.96107,622.2 10.864689,47.960859,621.9 10.864808,47.960491,621.4 10.864806,47.960286,621.2 10.864442,47.959762,621.1 10.864081,47.959373,621.8 10.86375,47.958788,623.7 10.863349,47.958269,625.7 10.863318,47.95818,626.0 10.863331,47.957956,627.0 10.863425,47.957651,628.5 10.863419,47.957446,629.3 10.863299,47.95728,629.9 10.863186,47.95719,630.2 10.862993,47.957113,630.5 10.862904,47.957086,630.7 10.862476,47.956988,631.3 10.86251,47.957039,631.3 10.862476,47.956988,631.4 10.862904,47.957086,631.7 10.862949,47.956965,631.6 10.862933,47.956864,631.4 10.862739,47.956648,630.4 10.862712,47.956481,629.5 10.86274,47.95641,629.1 10.862786,47.95635,628.8 10.862961,47.95625,628.0 10.86322,47.956195,627.1 10.863364,47.956206,626.7 10.863538,47.956253,626.2 10.863631,47.95628,625.9 10.863717,47.956269,625.7 10.863774,47.956206,625.4 10.864017,47.955805,623.6 10.865057,47.954368,621.9 10.865508,47.953632,622.5 10.865889,47.952581,625.1 10.866048,47.95232,625.4 10.866677,47.952149,625.2 10.866864,47.952117,624.9 10.868034,47.952002,621.5 10.869082,47.952162,616.7 10.86914,47.95217,616.5 10.869033,47.952788,613.7 10.868964,47.952841,613.6 10.868945,47.952921,613.4 10.868939,47.953636,613.0 10.869074,47.954312,613.6 10.869192,47.954704,613.8 10.869282,47.954899,614.0 10.869575,47.955411,614.6 10.869753,47.955646,614.9 10.869975,47.955903,615.2 10.870204,47.956169,615.6 10.870179,47.956199,615.6 10.870143,47.956263,615.7 10.87054,47.956642,615.7 10.869912,47.956696,615.2 10.86983,47.956755,615.0 10.869744,47.956955,614.6 10.869643,47.957013,614.4 10.869491,47.957018,614.1 10.869327,47.956982,613.9 10.869184,47.956906,613.5 10.86916,47.956699,613.1 10.869057,47.956458,612.4 10.869013,47.956201,611.9 10.869068,47.955911,611.5 10.869209,47.955749,611.5 10.870336,47.955023,611.1 10.871974,47.954621,610.5 10.873397,47.953995,610.1 10.87512,47.952982,610.1 10.875904,47.952578,610.2 10.876081,47.952486,610.3 10.876558,47.952285,610.5 10.876672,47.952002,610.8 10.876724,47.951542,611.4 10.876775,47.95145,611.5 10.877515,47.951142,612.4 10.877769,47.951,612.8 10.878181,47.950847,613.3 10.880183,47.950289,614.4 10.880588,47.950066,614.5 10.880605,47.950046,614.5 10.880588,47.950066,614.5 10.880183,47.950289,614.4 10.878181,47.950847,613.3 10.877769,47.951,612.8 10.877515,47.951142,612.4 10.876775,47.95145,611.5 10.876724,47.951542,611.4 10.876672,47.952002,610.8 10.876558,47.952285,610.5 10.876081,47.952486,610.3 10.875904,47.952578,610.2 10.87512,47.952982,610.1 10.873397,47.953995,610.1 10.871974,47.954621,610.5 10.870336,47.955023,611.1 10.869209,47.955749,611.5 10.869068,47.955911,611.5 10.869013,47.956201,611.9 10.869057,47.956458,612.4 10.86916,47.956699,613.1 10.869184,47.956906,613.5 10.869327,47.956982,613.9 10.869491,47.957018,614.1 10.869643,47.957013,614.4 10.869744,47.956955,614.6 10.86983,47.956755,615.0 10.869912,47.956696,615.2 10.87054,47.956642,615.7 10.870143,47.956263,615.7 10.870179,47.956199,615.6 10.870204,47.956169,615.6 10.869975,47.955903,615.2 10.869753,47.955646,614.9 10.869575,47.955411,614.6 10.869282,47.954899,614.0 10.869192,47.954704,613.8 10.869074,47.954312,613.6 10.868939,47.953636,613.0 10.868945,47.952921,613.4 10.868964,47.952841,613.6 10.869033,47.952788,613.7 10.86914,47.95217,616.5 10.869082,47.952162,616.7 10.868034,47.952002,621.5 10.866864,47.952117,624.9 10.866677,47.952149,625.2 10.866048,47.95232,625.4 10.865889,47.952581,625.1 10.865508,47.953632,622.5 10.865057,47.954368,621.9 10.864017,47.955805,623.6 10.863774,47.956206,625.4 10.863717,47.956269,625.7 10.863631,47.95628,625.9 10.863538,47.956253,626.2 10.863364,47.956206,626.7 10.86322,47.956195,627.1 10.862961,47.95625,627.8 10.862786,47.95635,628.3 10.86274,47.95641,628.4 10.862712,47.956481,628.6 10.862739,47.956648,629.0 10.862933,47.956864,629.6 10.862949,47.956965,629.7 10.862904,47.957086,629.7 10.862993,47.957113,629.6 10.863186,47.95719,629.4 10.863299,47.95728,629.2 10.863419,47.957446,628.7 10.863425,47.957651,628.1 10.863331,47.957956,627.0 10.863318,47.95818,626.0 10.863349,47.958269,625.7 10.86375,47.958788,623.7 10.864081,47.959373,621.8 10.864442,47.959762,621.1 10.864806,47.960286,621.2 10.864808,47.960491,621.4 10.864689,47.960859,621.9 10.864664,47.96107,622.2 10.864816,47.961713,622.9 10.864893,47.961791,623.0 10.865048,47.961934,623.0 10.865408,47.96214,622.8 10.865614,47.962376,622.5 10.865682,47.9625,622.3 10.865782,47.962684,622.0 10.865855,47.962831,621.7 10.865881,47.962885,621.7 10.866007,47.963085,621.4 10.866034,47.963242,621.2 10.866004,47.963339,621.1 10.865918,47.96346,620.9 10.86587,47.96352,620.9 10.865789,47.963622,620.8 10.86572,47.963724,620.7 10.865566,47.963952,620.5 10.865509,47.964056,620.4 10.865374,47.964288,620.3 10.865243,47.964388,620.3 10.865135,47.964439,620.3 10.864984,47.964565,620.3 10.864943,47.964608,620.3</coordinates>
                </LineString>
            </MultiGeometry>
        </Placemark>
        <Placemark id="3413">
            <name>Seestall Gh. Flößerstuben</name>
            <Point id="3412">
                <coordinates>10.864931,47.964603,0</coordinates>
            </Point>
        </Placemark>
        <Placemark id="3415">
            <name>Gasthof Römerfeld</name>
            <Point id="3414">
                <coordinates>10.862395,47.957074,679.0</coordinates>
            </Point>
        </Placemark>
        <Placemark id="3417">
            <name>Lechflößer Monument</name>
            <Point id="3416">
                <coordinates>10.869931,47.95592,678.0</coordinates>
            </Point>
        </Placemark>
        <Placemark id="3419">
            <name>Lech Dam 12 – Lechmühlen</name>
            <Point id="3418">
                <coordinates>10.875808,47.952495,616.6</coordinates>
            </Point>
        </Placemark>
        <Placemark id="3421">
            <name>Swimming spot on the calm Lech</name>
            <Point id="3420">
                <coordinates>10.880591,47.95004,663.3</coordinates>
            </Point>
        </Placemark>
        <Placemark id="3423">
            <name>Lech River and Grasmühle</name>
            <Point id="3422">
                <coordinates>10.869088,47.952145,661.0</coordinates>
            </Point>
        </Placemark>
        <Placemark id="3425">
            <name>Römerkessel Inn</name>
            <Point id="3424">
                <coordinates>10.863659,47.956286,620.8</coordinates>
            </Point>
        </Placemark>
    </Document>
</kml>
