<?xml version="1.0" encoding="UTF-8"?>
<kml xmlns="http://www.opengis.net/kml/2.2" xmlns:gx="http://www.google.com/kml/ext/2.2">
    <Document id="3427">
        <name>Lechstaustufe 18 – View of Lech Reservoir 18 Runde von Kolonie Hurlach-2749842242.gpx</name>
        <Placemark id="3429">
            <name>Lechstaustufe 18 – View of Lech Reservoir 18 Runde von Kolonie Hurlach</name>
            <MultiGeometry id="3428">
                <LineString id="3430">
                    <coordinates>10.871808,48.135994,589.6 10.871419,48.136071,588.7 10.871436,48.136145,588.4 10.870753,48.136326,586.5 10.869352,48.136584,582.7 10.868924,48.136794,582.0 10.869036,48.137124,581.6 10.869051,48.137303,581.4 10.869022,48.137459,581.1 10.868888,48.137684,580.6 10.8685,48.138013,579.4 10.868412,48.137957,579.1 10.868231,48.137666,577.7 10.868194,48.137583,577.2 10.868141,48.137213,575.1 10.867643,48.136677,571.8 10.866977,48.13664,570.2 10.866639,48.136565,569.4 10.86639,48.136433,568.6 10.866097,48.136349,567.8 10.865708,48.13628,566.6 10.864842,48.136431,565.1 10.864073,48.136505,564.3 10.86373,48.136383,564.1 10.863573,48.136274,564.0 10.863343,48.135848,563.9 10.863181,48.135613,564.0 10.862687,48.135305,563.8 10.862203,48.134952,562.3 10.86173,48.134565,560.4 10.861538,48.134329,559.6 10.861441,48.134121,559.0 10.861204,48.133879,558.6 10.861161,48.133674,558.4 10.861192,48.133339,558.3 10.861139,48.132981,558.4 10.861164,48.132461,559.0 10.861379,48.132045,559.6 10.861423,48.131862,559.8 10.861537,48.130635,562.2 10.861511,48.130341,562.9 10.861445,48.13013,563.2 10.861428,48.129856,563.7 10.861336,48.129604,564.1 10.861043,48.129024,564.6 10.860306,48.127913,563.2 10.860088,48.127675,562.9 10.859844,48.127346,562.7 10.859513,48.12665,562.6 10.859445,48.126257,562.7 10.859246,48.125929,562.9 10.859016,48.125682,563.0 10.858875,48.125358,563.2 10.858859,48.124805,563.3 10.858738,48.124479,563.4 10.858703,48.123327,563.8 10.858555,48.122981,563.7 10.858433,48.122817,563.7 10.858445,48.122558,563.5 10.858534,48.122321,563.3 10.858422,48.121822,562.9 10.858283,48.121603,562.7 10.858255,48.121508,562.7 10.858271,48.121344,562.7 10.858148,48.120941,562.8 10.858235,48.120795,562.9 10.858511,48.120461,563.4 10.858596,48.120301,563.7 10.858645,48.120207,564.0 10.858764,48.120122,564.2 10.858906,48.120061,564.5 10.859212,48.119988,565.1 10.859523,48.120021,565.6 10.859653,48.120008,565.8 10.860305,48.119767,566.9 10.860565,48.119601,567.3 10.860634,48.119387,567.6 10.860468,48.118569,568.5 10.860529,48.118406,568.6 10.8607,48.118118,568.7 10.860747,48.118038,568.7 10.860842,48.117929,568.7 10.862998,48.115961,569.0 10.863302,48.115654,568.9 10.863996,48.114956,568.7 10.864374,48.114868,569.1 10.864194,48.114859,569.4 10.863987,48.114848,569.9 10.864194,48.114859,570.5 10.864374,48.114868,571.2 10.864751,48.114957,573.1 10.864935,48.115265,576.1 10.865056,48.115593,579.9 10.865197,48.115767,582.1 10.866129,48.11636,588.4 10.865274,48.116753,588.2 10.864665,48.117032,586.0 10.864292,48.117309,584.1 10.863249,48.118663,580.9 10.862791,48.119115,580.3 10.861738,48.119945,579.4 10.86079,48.120228,579.1 10.859967,48.120603,579.5 10.859694,48.120839,580.2 10.859648,48.121077,580.9 10.859654,48.121333,582.0 10.859991,48.121885,585.4 10.860817,48.122672,590.1 10.860962,48.122942,590.6 10.860986,48.123016,590.6 10.86104,48.123188,590.6 10.861033,48.123515,589.9 10.860997,48.123601,589.6 10.860862,48.123902,588.1 10.86005,48.124726,582.1 10.860033,48.125134,579.9 10.860414,48.126365,576.9 10.860707,48.126685,576.9 10.861631,48.128076,577.9 10.862119,48.129302,578.9 10.862415,48.130383,579.0 10.862422,48.130409,578.9 10.862458,48.130782,578.7 10.862514,48.131828,578.1 10.862742,48.132754,578.2 10.862965,48.133661,579.0 10.863308,48.134888,580.3 10.863393,48.135049,580.4 10.863543,48.13518,580.5 10.863744,48.135277,580.5 10.864666,48.135526,580.0 10.865064,48.135576,579.5 10.865122,48.135506,579.3 10.865814,48.135536,577.9 10.865961,48.135608,577.5 10.865877,48.135605,577.3 10.865877,48.135663,577.1 10.865882,48.135666,577.1 10.865877,48.135663,577.1 10.865877,48.135605,576.9 10.865961,48.135608,576.7 10.866138,48.135622,576.4 10.866353,48.135602,576.0 10.86666,48.135497,575.5 10.867143,48.135248,575.0 10.867274,48.135245,575.0 10.867366,48.135269,575.0 10.868438,48.136035,577.1 10.868746,48.136583,579.4 10.868924,48.136794,580.4 10.869352,48.136584,581.8 10.870753,48.136326,586.5 10.871436,48.136145,588.4 10.871419,48.136071,588.7 10.871808,48.135994,589.6</coordinates>
                </LineString>
            </MultiGeometry>
        </Placemark>
        <Placemark id="3433">
            <name>Parkplatz Weiler Weg</name>
            <Point id="3432">
                <coordinates>10.872077,48.136007,0</coordinates>
            </Point>
        </Placemark>
        <Placemark id="3435">
            <name>Martagon Lily</name>
            <Point id="3434">
                <coordinates>10.858634,48.12031,613.9</coordinates>
            </Point>
        </Placemark>
        <Placemark id="3437">
            <name>Wildflower meadow in the Lech Valley</name>
            <Point id="3436">
                <coordinates>10.861942,48.116946,569.1</coordinates>
            </Point>
        </Placemark>
        <Placemark id="3439">
            <name>Lech Weir 18</name>
            <Point id="3438">
                <coordinates>10.862986,48.114461,572.6</coordinates>
            </Point>
        </Placemark>
        <Placemark id="3441">
            <name>View of Lech Reservoir No. 18</name>
            <Point id="3440">
                <coordinates>10.864196,48.114838,577.6</coordinates>
            </Point>
        </Placemark>
        <Placemark id="3443">
            <name>Westerholz</name>
            <Point id="3442">
                <coordinates>10.865576,48.117046,0</coordinates>
            </Point>
        </Placemark>
        <Placemark id="3445">
            <name>The Two Earthworks in Westerholz</name>
            <Point id="3444">
                <coordinates>10.861022,48.123011,592.5</coordinates>
            </Point>
        </Placemark>
        <Placemark id="3447">
            <name>Tornado Crash Memorial at Lagerlechfeld</name>
            <Point id="3446">
                <coordinates>10.862431,48.130381,581.2</coordinates>
            </Point>
        </Placemark>
        <Placemark id="3449">
            <name>Neolithic Information Panel</name>
            <Point id="3448">
                <coordinates>10.862753,48.132753,641.3</coordinates>
            </Point>
        </Placemark>
        <Placemark id="3451">
            <name>Oskar-Weinert Hut (Klosterlechfeld Friends of Nature House)</name>
            <Point id="3450">
                <coordinates>10.865882,48.135666,607.2</coordinates>
            </Point>
        </Placemark>
    </Document>
</kml>
