<?xml version="1.0" encoding="UTF-8"?>
<kml xmlns="http://www.opengis.net/kml/2.2" xmlns:gx="http://www.google.com/kml/ext/2.2">
    <Document id="3905">
        <name>Naturweiher Burgheim – Staumauer Bertoldsheim Runde von Donaualtwasser Schnödhof-2920434302.gpx</name>
        <Placemark id="3907">
            <name>Naturweiher Burgheim – Staumauer Bertoldsheim Runde von Donaualtwasser Schnödhof</name>
            <MultiGeometry id="3906">
                <LineString id="3908">
                    <coordinates>11.008753,48.719646,387.6 11.008429,48.719407,387.5 11.008778,48.719448,387.5 11.009781,48.719584,387.5 11.009994,48.719613,387.5 11.011024,48.719726,387.7 11.011774,48.719836,387.7 11.011955,48.719848,387.7 11.012124,48.719859,387.7 11.012246,48.719836,387.7 11.012321,48.719936,387.7 11.012548,48.719964,387.7 11.012624,48.719955,387.7 11.013461,48.720061,387.8 11.013627,48.72002,387.8 11.013676,48.720045,387.8 11.013686,48.720117,387.8 11.013824,48.720108,387.8 11.014446,48.720258,387.9 11.014642,48.720237,387.9 11.015067,48.719972,387.9 11.015261,48.719936,387.9 11.015591,48.719964,387.8 11.016336,48.720178,387.7 11.016628,48.720194,387.7 11.016907,48.720163,387.6 11.017391,48.72,387.6 11.017692,48.719851,387.6 11.017896,48.719617,387.6 11.017966,48.719465,387.7 11.018005,48.719413,387.7 11.018021,48.719234,387.7 11.018136,48.719045,387.7 11.018373,48.718905,387.7 11.018824,48.718676,387.7 11.019553,48.718382,387.6 11.020403,48.718108,387.6 11.020689,48.718073,387.5 11.021146,48.717899,387.5 11.021479,48.717821,387.5 11.021974,48.717771,387.6 11.022878,48.717793,387.7 11.024115,48.71797,387.7 11.024497,48.71808,387.6 11.026139,48.718478,387.5 11.026788,48.718914,387.4 11.026908,48.718995,387.3 11.0273,48.719387,387.2 11.027651,48.720465,386.9 11.027776,48.721122,386.7 11.027756,48.721356,386.6 11.027685,48.721554,386.6 11.027601,48.721658,386.5 11.027671,48.721796,386.5 11.027422,48.721984,386.5 11.027469,48.722037,386.5 11.027605,48.722381,386.4 11.027592,48.72252,386.4 11.027622,48.722664,386.4 11.027568,48.722805,386.3 11.027513,48.723324,386.3 11.02732,48.723574,386.3 11.027334,48.723705,386.3 11.027453,48.723879,386.3 11.027354,48.723987,386.3 11.02736,48.724288,386.3 11.027075,48.725193,386.4 11.026984,48.725484,386.4 11.026555,48.726312,387.1 11.02686,48.726401,387.2 11.027267,48.726387,387.4 11.027869,48.726259,387.7 11.027971,48.726166,387.7 11.028153,48.726104,387.8 11.028345,48.72597,387.8 11.028578,48.725851,387.8 11.028938,48.725826,387.7 11.029267,48.725744,387.5 11.029518,48.725734,387.4 11.029872,48.725815,387.2 11.030668,48.725669,386.9 11.030991,48.72566,386.8 11.030971,48.725591,386.8 11.030986,48.725384,386.8 11.031282,48.723818,387.4 11.03156,48.722128,388.1 11.031524,48.721968,388.2 11.031026,48.720711,388.5 11.031015,48.720567,388.5 11.031115,48.720449,388.6 11.031415,48.720255,388.6 11.031856,48.720045,388.6 11.031978,48.719988,388.6 11.032715,48.71972,388.7 11.032901,48.719652,388.6 11.033469,48.719233,388.5 11.034124,48.719507,388.4 11.034594,48.719875,388.2 11.034971,48.720157,387.7 11.035023,48.720267,387.6 11.035461,48.72113,386.8 11.035866,48.721946,386.4 11.03599,48.722068,386.4 11.036236,48.722178,386.5 11.040683,48.722914,387.5 11.040842,48.722941,387.5 11.041739,48.722941,387.5 11.042447,48.72317,387.4 11.042782,48.72346,387.3 11.043,48.723776,387.3 11.0435,48.725185,387.2 11.043534,48.72528,387.2 11.044037,48.726081,387.1 11.044192,48.726532,387.1 11.044806,48.727128,387.2 11.046216,48.729106,387.6 11.046244,48.729365,387.5 11.046323,48.730703,387.1 11.046456,48.732215,385.8 11.046414,48.732538,385.5 11.046383,48.732635,385.4 11.046373,48.732658,385.3 11.046349,48.732774,385.2 11.046336,48.732811,385.2 11.046309,48.732869,385.1 11.046167,48.733246,384.9 11.04598,48.73333,384.9 11.045463,48.733315,384.9 11.045134,48.733346,385.0 11.044761,48.733418,385.2 11.044401,48.733661,385.4 11.044173,48.733773,385.6 11.041624,48.733784,385.8 11.040588,48.733809,385.5 11.038453,48.733908,385.2 11.037066,48.733947,385.4 11.035058,48.734049,385.7 11.034224,48.734047,385.8 11.032578,48.734136,386.1 11.024904,48.734408,388.4 11.022733,48.734506,388.9 11.021823,48.734476,389.2 11.021245,48.7343,389.5 11.020977,48.734262,389.6 11.020342,48.734297,389.8 11.020065,48.73433,389.9 11.01996,48.734348,390.0 11.019589,48.734511,390.1 11.01996,48.734348,390.2 11.020065,48.73433,390.2 11.020342,48.734297,390.2 11.020361,48.734447,390.2 11.020332,48.734612,390.2 11.020378,48.734908,390.1 11.020332,48.734612,389.9 11.020361,48.734447,389.8 11.020342,48.734297,389.7 11.020213,48.733695,389.0 11.020019,48.733325,388.5 11.019734,48.732932,387.9 11.019109,48.732329,387.3 11.018432,48.731652,387.6 11.017813,48.730932,387.9 11.017329,48.73026,387.8 11.017075,48.729837,387.6 11.016789,48.729348,387.3 11.01673,48.729329,387.3 11.016692,48.729265,387.3 11.016468,48.728887,387.2 11.016474,48.728856,387.2 11.016276,48.728505,387.1 11.015964,48.727974,386.9 11.015613,48.727382,386.8 11.015086,48.726495,386.7 11.014654,48.725775,387.0 11.014342,48.725283,387.2 11.014035,48.724812,387.4 11.013634,48.724276,387.8 11.012938,48.723429,388.1 11.012311,48.72275,388.1 11.011537,48.722004,388.1 11.0108,48.72138,388.3 11.009832,48.720631,388.7 11.008879,48.719926,388.4 11.008964,48.719803,388.4 11.008753,48.719646,388.3</coordinates>
                </LineString>
            </MultiGeometry>
        </Placemark>
        <Placemark id="3911">
            <name>Parking</name>
            <Point id="3910">
                <coordinates>11.008806,48.719615,0</coordinates>
            </Point>
        </Placemark>
        <Placemark id="3913">
            <name>Burgheim Natural Pond</name>
            <Point id="3912">
                <coordinates>11.009775,48.719605,389.8</coordinates>
            </Point>
        </Placemark>
        <Placemark id="3915">
            <name>Burgheimer Weiher</name>
            <Point id="3914">
                <coordinates>11.011951,48.719872,385.3</coordinates>
            </Point>
        </Placemark>
        <Placemark id="3917">
            <name>View of the Lake</name>
            <Point id="3916">
                <coordinates>11.026795,48.725155,386.4</coordinates>
            </Point>
        </Placemark>
        <Placemark id="3919">
            <name>Bridge Over the Friedberger Ach</name>
            <Point id="3918">
                <coordinates>11.046373,48.73279,440.5</coordinates>
            </Point>
        </Placemark>
        <Placemark id="3921">
            <name>Bertoldsheim Lock and Hydroelectric Power Station</name>
            <Point id="3920">
                <coordinates>11.019579,48.734863,391.0</coordinates>
            </Point>
        </Placemark>
        <Placemark id="3923">
            <name>Bertoldsheim Dam</name>
            <Point id="3922">
                <coordinates>11.020424,48.734905,390.1</coordinates>
            </Point>
        </Placemark>
    </Document>
</kml>
