<?xml version="1.0" encoding="UTF-8"?>
<kml xmlns="http://www.opengis.net/kml/2.2" xmlns:gx="http://www.google.com/kml/ext/2.2">
    <Document id="3847">
        <name>Natur-Lauschohr – Beuerbach-Kapelle Runde von Kolonie Hurlach-2749842316.gpx</name>
        <Placemark id="3849">
            <name>Natur-Lauschohr – Beuerbach-Kapelle Runde von Kolonie Hurlach</name>
            <MultiGeometry id="3848">
                <LineString id="3850">
                    <coordinates>10.871808,48.135994,591.7 10.872452,48.135866,592.0 10.873164,48.135725,592.4 10.873294,48.135643,592.5 10.873955,48.135446,592.8 10.874563,48.135245,592.9 10.875456,48.134949,593.2 10.875668,48.134879,593.3 10.876406,48.134589,594.1 10.876864,48.134358,594.8 10.877685,48.133935,596.1 10.878898,48.133254,597.2 10.87945,48.132979,597.1 10.881279,48.131823,595.8 10.881251,48.131767,595.7 10.881279,48.131823,595.6 10.883024,48.135809,588.4 10.884083,48.138302,585.4 10.88417,48.138508,585.4 10.885116,48.140482,587.0 10.890969,48.140237,581.7 10.893213,48.140156,580.7 10.895044,48.139986,581.3 10.895168,48.139974,581.3 10.896611,48.140173,581.0 10.896745,48.140087,580.7 10.896611,48.140173,580.4 10.897797,48.140713,577.6 10.898231,48.140878,576.5 10.902168,48.142053,572.7 10.90483,48.142859,569.7 10.909695,48.144329,567.9 10.910505,48.144543,567.6 10.910962,48.144699,567.6 10.911372,48.144878,567.6 10.911837,48.145135,567.6 10.912033,48.145289,567.8 10.912186,48.14546,567.9 10.912547,48.146006,568.3 10.91279,48.146252,568.3 10.913004,48.146415,568.2 10.913169,48.146528,568.2 10.913469,48.146653,568.3 10.913689,48.146419,568.5 10.913775,48.146342,568.6 10.913888,48.146262,568.7 10.914026,48.146182,568.8 10.914229,48.146077,569.0 10.91433,48.146023,569.1 10.914383,48.145994,569.2 10.914554,48.145899,569.4 10.914581,48.145882,569.4 10.914638,48.145845,569.5 10.915152,48.145486,570.7 10.91519,48.14545,570.8 10.91546,48.145198,571.7 10.915556,48.145112,572.0 10.915589,48.145084,572.0 10.915851,48.144861,572.6 10.915935,48.144775,572.8 10.916009,48.144697,573.0 10.916197,48.144514,573.4 10.916341,48.144378,573.6 10.916376,48.14433,573.7 10.916457,48.144162,573.8 10.916496,48.144054,573.9 10.916314,48.143955,574.1 10.916262,48.143926,574.2 10.916128,48.143853,574.3 10.916003,48.143782,574.4 10.91574,48.14363,574.6 10.915697,48.143601,574.6 10.915219,48.143282,574.9 10.913173,48.142263,575.5 10.910364,48.141083,576.1 10.909286,48.140285,575.7 10.907921,48.139332,575.4 10.905238,48.138062,577.3 10.904454,48.137698,577.7 10.904041,48.137468,578.0 10.901181,48.135286,580.0 10.90059,48.134801,580.6 10.900315,48.134507,580.9 10.899432,48.133404,582.8 10.898606,48.132642,584.2 10.898122,48.132265,584.5 10.897426,48.131649,583.9 10.896911,48.131112,583.2 10.896524,48.131004,583.4 10.895977,48.130947,583.8 10.895321,48.131425,585.1 10.895044,48.131627,585.7 10.894368,48.132007,586.5 10.894003,48.132121,586.4 10.893477,48.132472,585.8 10.892684,48.132565,585.4 10.892147,48.132809,585.6 10.891439,48.132988,586.8 10.891171,48.133267,588.1 10.890943,48.133632,590.0 10.890825,48.133711,590.5 10.889583,48.133997,594.0 10.888682,48.13399,595.1 10.887341,48.133725,594.9 10.886804,48.133689,594.6 10.886118,48.133546,594.4 10.88527,48.133403,594.2 10.884755,48.133267,594.3 10.884261,48.133051,594.4 10.884229,48.133038,594.4 10.883365,48.132754,595.0 10.88286,48.132496,595.4 10.882566,48.132225,595.7 10.882216,48.131963,596.0 10.881483,48.131878,596.4 10.881279,48.131823,596.4 10.87945,48.132979,597.1 10.878898,48.133254,597.2 10.877685,48.133935,596.1 10.876864,48.134358,594.8 10.876406,48.134589,594.1 10.875668,48.134879,593.3 10.875456,48.134949,593.2 10.874563,48.135245,592.9 10.873955,48.135446,592.8 10.873294,48.135643,592.5 10.873164,48.135725,592.4 10.872452,48.135866,592.0 10.871808,48.135994,591.7</coordinates>
                </LineString>
            </MultiGeometry>
        </Placemark>
        <Placemark id="3853">
            <name>Parkplatz Weiler Weg</name>
            <Point id="3852">
                <coordinates>10.872077,48.136007,0</coordinates>
            </Point>
        </Placemark>
        <Placemark id="3855">
            <name>Parking Area Burgruine Haltenberg</name>
            <Point id="3854">
                <coordinates>10.872483,48.135937,638.8</coordinates>
            </Point>
        </Placemark>
        <Placemark id="3857">
            <name>Wolpertinger</name>
            <Point id="3856">
                <coordinates>10.874593,48.135285,641.3</coordinates>
            </Point>
        </Placemark>
        <Placemark id="3859">
            <name>Nature Listening Horn</name>
            <Point id="3858">
                <coordinates>10.875539,48.135061,603.8</coordinates>
            </Point>
        </Placemark>
        <Placemark id="3861">
            <name>Maria Shrine</name>
            <Point id="3860">
                <coordinates>10.881284,48.13176,621.0</coordinates>
            </Point>
        </Placemark>
        <Placemark id="3863">
            <name>Old Fallen Oak</name>
            <Point id="3862">
                <coordinates>10.884076,48.138303,613.0</coordinates>
            </Point>
        </Placemark>
        <Placemark id="3865">
            <name>Beuerbach Chapel</name>
            <Point id="3864">
                <coordinates>10.896848,48.140158,623.2</coordinates>
            </Point>
        </Placemark>
    </Document>
</kml>
