<?xml version="1.0" encoding="UTF-8"?>
<kml xmlns="http://www.opengis.net/kml/2.2" xmlns:gx="http://www.google.com/kml/ext/2.2">
    <Document id="4095">
        <name>Paar bei Obergriesbach Runde von Obergriesbach-2766539576.gpx</name>
        <Placemark id="4097">
            <name>Paar bei Obergriesbach Runde von Obergriesbach</name>
            <MultiGeometry id="4096">
                <LineString id="4098">
                    <coordinates>11.069434,48.418745,468.9 11.06943,48.418984,468.2 11.069408,48.419503,466.4 11.069504,48.419495,466.2 11.070431,48.419331,463.9 11.071105,48.419148,462.7 11.071805,48.418908,461.7 11.073912,48.418123,459.5 11.074548,48.418565,459.1 11.074615,48.41863,459.1 11.074636,48.418716,459.0 11.074708,48.418772,459.0 11.074872,48.418708,458.9 11.076083,48.418261,458.5 11.077865,48.417695,457.8 11.08054,48.416986,457.0 11.082138,48.416547,456.8 11.083411,48.416117,459.2 11.083666,48.41603,460.1 11.083789,48.416026,460.5 11.083903,48.416014,460.9 11.084131,48.415978,461.8 11.085138,48.415918,466.0 11.086426,48.415797,472.1 11.087429,48.415746,475.0 11.087737,48.415748,475.7 11.087528,48.415946,476.2 11.086909,48.416863,475.0 11.08694,48.417016,474.2 11.087107,48.417265,472.4 11.087131,48.417385,471.5 11.087041,48.417595,469.9 11.08694,48.4177,468.9 11.086685,48.417874,466.8 11.086526,48.418069,464.9 11.086365,48.418352,462.3 11.085645,48.41859,458.2 11.08509,48.41881,456.3 11.085035,48.418853,456.1 11.085014,48.418936,455.9 11.086189,48.42004,454.5 11.086421,48.420217,454.4 11.08735,48.420816,454.2 11.087428,48.420913,454.2 11.087497,48.421163,454.1 11.087742,48.421777,453.9 11.088479,48.422876,453.8 11.088481,48.422936,453.8 11.088546,48.423305,453.9 11.088641,48.423413,453.9 11.08882,48.423495,454.0 11.089344,48.42364,454.2 11.089566,48.423668,454.2 11.090609,48.42369,454.3 11.08949,48.424523,453.9 11.089304,48.424631,453.9 11.089001,48.424798,453.7 11.087765,48.425573,453.7 11.087121,48.425894,453.8 11.087096,48.425767,453.8 11.086966,48.425478,454.1 11.086119,48.424123,455.4 11.086048,48.423943,455.5 11.085813,48.423349,455.6 11.085393,48.421892,454.9 11.085359,48.421853,454.8 11.085244,48.421844,454.8 11.084522,48.422232,454.9 11.082764,48.421182,455.7 11.082084,48.420736,456.0 11.08117,48.420072,456.4 11.078003,48.417772,457.7 11.077865,48.417695,457.8 11.076083,48.418261,458.5 11.074872,48.418708,458.9 11.074708,48.418772,459.0 11.074636,48.418716,459.0 11.074615,48.41863,459.1 11.074548,48.418565,459.1 11.073912,48.418123,459.5 11.071805,48.418908,461.7 11.071105,48.419148,462.7 11.070431,48.419331,463.9 11.069504,48.419495,466.2 11.069408,48.419503,466.4 11.06943,48.418984,468.2 11.069434,48.418745,468.9</coordinates>
                </LineString>
            </MultiGeometry>
        </Placemark>
        <Placemark id="4101">
            <name>Parking</name>
            <Point id="4100">
                <coordinates>11.069488,48.418746,0</coordinates>
            </Point>
        </Placemark>
        <Placemark id="4103">
            <name>Lech Riverbank Near Baar – Scenic Trees and Walking Path</name>
            <Point id="4102">
                <coordinates>11.083737,48.416043,503.0</coordinates>
            </Point>
        </Placemark>
        <Placemark id="4105">
            <name>Bench by the River in Landkreis Augsburg</name>
            <Point id="4104">
                <coordinates>11.086221,48.423913,498.0</coordinates>
            </Point>
        </Placemark>
        <Placemark id="4107">
            <name>Paar River Near Obergriesbach</name>
            <Point id="4106">
                <coordinates>11.081166,48.420074,508.9</coordinates>
            </Point>
        </Placemark>
    </Document>
</kml>
