<?xml version="1.0" encoding="UTF-8"?>
<kml xmlns="http://www.opengis.net/kml/2.2" xmlns:gx="http://www.google.com/kml/ext/2.2">
    <Document id="4061">
        <name>Parkplatz Am Horn Trailhead – Martin-Lütfiter-Gedenkstätte Runde von Zusmarshausen-2591453527.gpx</name>
        <Placemark id="4063">
            <name>Parkplatz Am Horn Trailhead – Martin-Lütfiter-Gedenkstätte Runde von Zusmarshausen</name>
            <MultiGeometry id="4062">
                <LineString id="4064">
                    <coordinates>10.596655,48.400395,463.2 10.596617,48.400267,463.6 10.596566,48.400146,464.0 10.596535,48.40002,464.5 10.596511,48.399867,465.2 10.596508,48.399733,465.9 10.596576,48.399329,467.8 10.596587,48.399128,468.6 10.596585,48.398934,469.3 10.596572,48.398811,469.6 10.596477,48.398347,470.2 10.596464,48.398283,470.2 10.596437,48.398151,470.1 10.596429,48.398115,470.1 10.596391,48.397927,469.7 10.596341,48.397771,469.3 10.596323,48.397734,469.2 10.596107,48.397253,467.4 10.596067,48.397041,466.5 10.596056,48.396836,465.8 10.596092,48.396637,465.2 10.596111,48.396582,465.0 10.596245,48.396231,464.2 10.59632,48.396068,463.9 10.596393,48.39591,463.8 10.596398,48.395898,463.8 10.596408,48.395876,463.7 10.596469,48.395713,463.7 10.596482,48.395676,463.7 10.59651,48.39544,463.9 10.596487,48.395359,463.9 10.596542,48.395343,463.9 10.596616,48.395266,464.0 10.596886,48.394761,465.1 10.596908,48.394715,465.3 10.597051,48.394423,466.7 10.59712,48.394259,467.6 10.597128,48.394217,467.8 10.597162,48.394034,468.8 10.597167,48.39401,468.9 10.597228,48.393513,471.6 10.597239,48.393462,471.9 10.597255,48.393353,472.4 10.597256,48.393323,472.6 10.597262,48.39315,473.4 10.597183,48.392949,474.3 10.596956,48.39266,475.3 10.596679,48.392406,475.8 10.59588,48.391948,475.7 10.594031,48.391022,475.6 10.593394,48.390584,475.5 10.593094,48.390261,474.9 10.592942,48.390037,474.8 10.592597,48.389224,475.5 10.593077,48.389132,475.8 10.593379,48.388953,476.0 10.593608,48.389353,477.2 10.593379,48.388953,479.1 10.593583,48.388866,479.9 10.593896,48.38873,481.3 10.594591,48.388576,484.1 10.595278,48.388645,488.5 10.595921,48.388895,493.4 10.596462,48.388998,496.7 10.597741,48.388861,502.8 10.598634,48.388838,505.5 10.599604,48.388953,507.6 10.599853,48.388884,508.1 10.600058,48.388713,508.6 10.600368,48.388565,509.3 10.600482,48.388565,509.5 10.600368,48.388565,509.8 10.600058,48.388713,510.6 10.599853,48.388884,511.2 10.599604,48.388953,511.7 10.600565,48.389085,514.4 10.600925,48.389135,515.5 10.602745,48.38881,520.2 10.604668,48.388497,522.4 10.605595,48.38832,522.4 10.60623,48.388263,522.1 10.607171,48.388275,521.3 10.607998,48.388286,520.2 10.608703,48.388331,519.0 10.609234,48.388365,518.0 10.610264,48.388365,515.2 10.610985,48.388326,512.7 10.61102,48.38827,512.3 10.611156,48.388052,511.1 10.611414,48.388018,510.2 10.611629,48.387852,509.2 10.611937,48.387738,508.1 10.612324,48.387493,506.6 10.61265,48.387448,506.0 10.612663,48.387453,506.0 10.612959,48.387567,505.4 10.613294,48.387624,505.0 10.613508,48.387636,504.9 10.614015,48.387351,504.6 10.614409,48.387203,504.5 10.615388,48.38702,504.8 10.615757,48.386906,505.2 10.616744,48.386507,507.4 10.617087,48.386587,508.4 10.617791,48.386507,510.5 10.618804,48.386268,514.3 10.619388,48.386296,516.6 10.620563,48.386051,520.5 10.6211,48.386127,521.9 10.620547,48.386285,522.6 10.6211,48.386127,522.6 10.622761,48.385493,521.7 10.623224,48.38559,521.8 10.624271,48.385738,522.3 10.626134,48.38596,520.4 10.626648,48.386087,518.8 10.627086,48.386126,517.6 10.627645,48.385914,515.6 10.627962,48.385851,514.5 10.628485,48.385882,512.7 10.629092,48.386075,510.4 10.629713,48.386171,508.4 10.630228,48.386302,506.8 10.630846,48.386359,505.2 10.63143,48.386302,504.1 10.631687,48.38608,503.6 10.631807,48.385766,503.0 10.63179,48.385487,502.3 10.632022,48.385441,501.9 10.632452,48.385504,501.2 10.632897,48.385673,500.1 10.633284,48.385858,499.1 10.634263,48.386143,496.7 10.635021,48.386268,496.5 10.635241,48.386226,496.8 10.635516,48.386114,497.2 10.635684,48.385973,497.8 10.635814,48.385717,498.8 10.63598,48.385616,499.3 10.63635,48.385557,500.0 10.637063,48.38555,500.8 10.638784,48.385942,498.7 10.639253,48.385877,498.0 10.639624,48.385681,497.8 10.640145,48.384585,500.1 10.640122,48.384442,500.6 10.639627,48.383917,502.6 10.639447,48.383726,503.2 10.639112,48.383305,504.3 10.638969,48.383042,505.1 10.638686,48.382759,506.3 10.638385,48.382375,508.2 10.637904,48.381741,513.3 10.637578,48.381189,519.0 10.637315,48.381091,521.1 10.636285,48.380923,528.0 10.635634,48.380848,531.5 10.635135,48.380731,533.6 10.634635,48.38041,535.5 10.633743,48.37984,536.8 10.633004,48.379452,537.2 10.632385,48.37908,537.4 10.631892,48.378839,537.4 10.631502,48.37938,537.1 10.630253,48.380785,533.0 10.629199,48.382129,527.1 10.628706,48.382701,524.4 10.627091,48.383427,520.7 10.62584,48.384077,519.8 10.623966,48.385051,519.7 10.622761,48.385493,520.4 10.6211,48.386127,521.9 10.620547,48.386285,521.8 10.620214,48.386381,521.5 10.619295,48.386605,519.6 10.615733,48.387377,512.3 10.613875,48.387808,511.7 10.61313,48.387899,512.2 10.613125,48.3879,512.2 10.610985,48.388326,511.7 10.61102,48.38827,511.5 10.611156,48.388052,510.9 10.610933,48.388055,510.5 10.610676,48.387989,509.9 10.609843,48.387909,507.9 10.609311,48.387784,506.8 10.607736,48.387606,504.8 10.607097,48.387533,504.4 10.606788,48.387419,504.4 10.606221,48.387357,504.7 10.605225,48.387488,506.2 10.604899,48.387898,507.4 10.604668,48.387909,507.8 10.60417,48.387761,508.7 10.603208,48.387533,510.4 10.602977,48.387613,510.8 10.602925,48.387755,511.0 10.602899,48.387989,511.4 10.602694,48.388143,511.6 10.602427,48.388189,511.9 10.602299,48.388291,512.0 10.602256,48.388593,512.2 10.602118,48.388702,512.1 10.601801,48.388753,512.0 10.60114,48.388736,511.3 10.600694,48.388565,510.6 10.600482,48.388565,510.2 10.600368,48.388565,510.0 10.600058,48.388713,509.1 10.599853,48.388884,508.4 10.599604,48.388953,507.8 10.598634,48.388838,505.5 10.597741,48.388861,502.8 10.596462,48.388998,496.7 10.595921,48.388895,493.4 10.595278,48.388645,488.5 10.594591,48.388576,483.8 10.593896,48.38873,479.3 10.593379,48.388953,476.7 10.593077,48.389132,475.7 10.592597,48.389224,475.0 10.592942,48.390037,474.8 10.593094,48.390261,474.9 10.593394,48.390584,475.5 10.594031,48.391022,475.6 10.59588,48.391948,475.7 10.596679,48.392406,475.8 10.596956,48.39266,475.3 10.597183,48.392949,474.3 10.597262,48.39315,473.4 10.597256,48.393323,472.6 10.597255,48.393353,472.4 10.597239,48.393462,471.9 10.597228,48.393513,471.6 10.597167,48.39401,468.9 10.597162,48.394034,468.8 10.597128,48.394217,467.8 10.59712,48.394259,467.6 10.597051,48.394423,466.7 10.596908,48.394715,465.3 10.596886,48.394761,465.1 10.596616,48.395266,464.0 10.596542,48.395343,463.9 10.596487,48.395359,463.9 10.59651,48.39544,463.9 10.596482,48.395676,463.7 10.596469,48.395713,463.7 10.596408,48.395876,463.7 10.596398,48.395898,463.8 10.596393,48.39591,463.8 10.59632,48.396068,463.9 10.596245,48.396231,464.2 10.596111,48.396582,465.0 10.596092,48.396637,465.2 10.596056,48.396836,465.8 10.596067,48.397041,466.5 10.596107,48.397253,467.4 10.596323,48.397734,469.2 10.596341,48.397771,469.3 10.596391,48.397927,469.7 10.596429,48.398115,470.1 10.596437,48.398151,470.1 10.596477,48.398347,470.2 10.596572,48.398811,469.6 10.596585,48.398934,469.3 10.596587,48.399128,468.6 10.596576,48.399329,467.8 10.596508,48.399733,465.9 10.596511,48.399867,465.2 10.596535,48.40002,464.5 10.596566,48.400146,464.0 10.596617,48.400267,463.6 10.596655,48.400395,463.2</coordinates>
                </LineString>
            </MultiGeometry>
        </Placemark>
        <Placemark id="4067">
            <name>Zusmarshausen Marktplatz</name>
            <Point id="4066">
                <coordinates>10.596713,48.400387,0</coordinates>
            </Point>
        </Placemark>
        <Placemark id="4069">
            <name>Zusmarshausen Castle</name>
            <Point id="4068">
                <coordinates>10.596434,48.398286,474.4</coordinates>
            </Point>
        </Placemark>
        <Placemark id="4071">
            <name>Am Horn Trailhead Parking</name>
            <Point id="4070">
                <coordinates>10.593729,48.38933,555.0</coordinates>
            </Point>
        </Placemark>
        <Placemark id="4073">
            <name>Zusmarshausen Forest Adventure Trail</name>
            <Point id="4072">
                <coordinates>10.59358,48.388863,528.0</coordinates>
            </Point>
        </Placemark>
        <Placemark id="4075">
            <name>Forest Trail on the Slope – Naturpark Augsburg – Westliche Wälder</name>
            <Point id="4074">
                <coordinates>10.600482,48.388548,555.4</coordinates>
            </Point>
        </Placemark>
        <Placemark id="4077">
            <name>Forest Nature Trail Zusmarshausen</name>
            <Point id="4076">
                <coordinates>10.612686,48.387427,570.0</coordinates>
            </Point>
        </Placemark>
        <Placemark id="4079">
            <name>Picnic Shelter in Naturpark Augsburg - Westliche Wälder</name>
            <Point id="4078">
                <coordinates>10.620575,48.386328,584.6</coordinates>
            </Point>
        </Placemark>
        <Placemark id="4081">
            <name>Martin Lütfiter Memorial</name>
            <Point id="4080">
                <coordinates>10.610956,48.388252,570.3</coordinates>
            </Point>
        </Placemark>
        <Placemark id="4083">
            <name>Forest Trail at Am Horn, Naturpark Augsburg – Westliche Wälder</name>
            <Point id="4082">
                <coordinates>10.607735,48.38761,509.3</coordinates>
            </Point>
        </Placemark>
    </Document>
</kml>
