<?xml version="1.0" encoding="UTF-8"?>
<kml xmlns="http://www.opengis.net/kml/2.2" xmlns:gx="http://www.google.com/kml/ext/2.2">
    <Document id="4061">
        <name>Pferdehof – Kollerweiher Runde von Universität Bayreuth-3091567732.gpx</name>
        <Placemark id="4063">
            <name>Pferdehof – Kollerweiher Runde von Universität Bayreuth</name>
            <MultiGeometry id="4062">
                <LineString id="4064">
                    <coordinates>11.594045,49.916622,362.7 11.594089,49.91658,362.8 11.594155,49.916607,362.8 11.594338,49.916424,362.8 11.594299,49.916167,362.9 11.593862,49.916211,363.0 11.593874,49.916135,363.0 11.593781,49.915047,363.4 11.593549,49.914506,364.2 11.593715,49.91388,365.4 11.593745,49.913786,365.5 11.593189,49.913737,366.0 11.592438,49.913741,366.4 11.592013,49.913719,366.5 11.591704,49.913637,366.5 11.591619,49.913554,366.6 11.591569,49.913437,366.5 11.59158,49.913094,366.4 11.591586,49.912933,366.3 11.591554,49.912402,366.2 11.591491,49.910221,365.6 11.591353,49.90998,365.8 11.591238,49.909847,365.9 11.591193,49.909801,365.9 11.591004,49.909712,366.1 11.59045,49.908764,367.5 11.590017,49.908245,368.3 11.589547,49.907609,369.0 11.588819,49.906845,369.3 11.5887,49.906787,369.3 11.589486,49.906443,369.1 11.590156,49.906183,369.4 11.590334,49.906149,369.5 11.590932,49.906036,370.6 11.591485,49.90593,372.1 11.592102,49.905825,374.5 11.592494,49.905718,376.4 11.594398,49.905203,386.1 11.595224,49.90542,389.0 11.597407,49.90525,392.7 11.598648,49.905092,394.0 11.598673,49.905246,394.2 11.598596,49.90623,394.8 11.598431,49.906773,394.2 11.598036,49.907986,392.9 11.598108,49.908379,392.4 11.598165,49.908693,391.8 11.597585,49.908864,390.8 11.597274,49.909469,388.0 11.597085,49.910128,383.4 11.596901,49.910618,379.9 11.597517,49.911621,372.0 11.59818,49.912599,365.8 11.598245,49.91285,364.7 11.598656,49.913988,362.4 11.599213,49.914732,362.0 11.599236,49.914878,361.9 11.599087,49.915363,361.7 11.598733,49.915892,361.4 11.598473,49.91637,361.3 11.597754,49.916219,361.3 11.597768,49.916157,361.4 11.597754,49.916219,361.4 11.597411,49.916155,361.6 11.596891,49.916102,362.0 11.596395,49.91609,362.4 11.596046,49.916081,362.8 11.596026,49.916204,362.9 11.595551,49.916242,363.3 11.595549,49.916345,363.4 11.595517,49.916393,363.4 11.595442,49.916435,363.5 11.595205,49.916492,363.5 11.594944,49.916891,363.5 11.594863,49.916861,363.5 11.594155,49.916607,363.1 11.594089,49.91658,363.0 11.594045,49.916622,363.0</coordinates>
                </LineString>
            </MultiGeometry>
        </Placemark>
        <Placemark id="4067">
            <name>Parking</name>
            <Point id="4066">
                <coordinates>11.593993,49.916599,0</coordinates>
            </Point>
        </Placemark>
        <Placemark id="4069">
            <name>Horse Farm</name>
            <Point id="4068">
                <coordinates>11.591549,49.913094,412.4</coordinates>
            </Point>
        </Placemark>
        <Placemark id="4071">
            <name>Natural Pond in Upper Franconia</name>
            <Point id="4070">
                <coordinates>11.590939,49.906051,424.3</coordinates>
            </Point>
        </Placemark>
        <Placemark id="4073">
            <name>Kollerweiher</name>
            <Point id="4072">
                <coordinates>11.597703,49.916151,416.8</coordinates>
            </Point>
        </Placemark>
        <Placemark id="4075">
            <name>Beautiful tree</name>
            <Point id="4074">
                <coordinates>11.596393,49.916114,408.7</coordinates>
            </Point>
        </Placemark>
    </Document>
</kml>
