<?xml version="1.0" encoding="UTF-8"?>
<kml xmlns="http://www.opengis.net/kml/2.2" xmlns:gx="http://www.google.com/kml/ext/2.2">
    <Document id="4227">
        <name>Picknickplatz am Teich – Großer Hieslinger Weiher Runde von Griesbeckerzell-2823736153.gpx</name>
        <Placemark id="4229">
            <name>Picknickplatz am Teich – Großer Hieslinger Weiher Runde von Griesbeckerzell</name>
            <MultiGeometry id="4228">
                <LineString id="4230">
                    <coordinates>11.054889,48.445409,479.2 11.054642,48.445349,478.9 11.054397,48.445314,478.6 11.054124,48.445311,478.3 11.053906,48.445321,478.2 11.053787,48.445325,478.1 11.053665,48.445326,478.1 11.053384,48.445331,478.2 11.052946,48.445263,478.5 11.053051,48.445653,479.8 11.053085,48.44577,480.3 11.053159,48.445982,481.4 11.053188,48.446053,481.7 11.053346,48.446435,484.1 11.053559,48.446841,487.1 11.05365,48.44701,488.3 11.053733,48.447201,489.6 11.053792,48.447407,491.1 11.053791,48.447443,491.3 11.053789,48.447592,492.3 11.053801,48.447782,493.6 11.053816,48.447833,493.9 11.053836,48.447911,494.5 11.053879,48.448124,495.9 11.053896,48.448364,497.5 11.053855,48.448677,499.5 11.053871,48.448879,500.5 11.054174,48.44905,501.9 11.054055,48.449174,502.6 11.053731,48.44933,503.5 11.052801,48.44959,504.7 11.052239,48.449824,504.9 11.051708,48.449902,504.9 11.050937,48.449857,504.9 11.050281,48.449653,505.2 11.049894,48.449732,505.7 11.048858,48.44985,507.5 11.047956,48.450132,509.9 11.047202,48.450772,512.5 11.046711,48.451048,513.4 11.046307,48.451215,513.9 11.045775,48.451553,514.1 11.045205,48.451673,513.9 11.045003,48.451795,513.8 11.044544,48.452267,513.8 11.044509,48.45237,513.9 11.044169,48.452581,514.1 11.044878,48.452625,514.4 11.045476,48.45279,514.4 11.046584,48.453325,513.2 11.047189,48.453743,510.8 11.047908,48.453699,508.5 11.048428,48.453712,506.7 11.049303,48.453914,503.6 11.049835,48.45426,501.0 11.049956,48.454493,499.6 11.050097,48.454586,498.9 11.050697,48.454795,496.3 11.050819,48.45491,495.5 11.051379,48.455303,492.5 11.052696,48.455604,488.0 11.053499,48.455841,485.0 11.054669,48.456439,480.4 11.055199,48.456308,479.1 11.055601,48.456256,478.5 11.055896,48.456637,477.9 11.055601,48.456256,477.6 11.056137,48.456187,477.3 11.056681,48.456033,476.9 11.058101,48.455374,475.4 11.058201,48.455309,475.3 11.059543,48.454434,476.0 11.059663,48.454406,476.1 11.059958,48.454335,476.3 11.060798,48.454135,476.1 11.061693,48.453749,475.7 11.061927,48.453722,475.7 11.062005,48.453863,475.7 11.062057,48.453934,475.7 11.062005,48.453863,475.9 11.061927,48.453722,476.1 11.061872,48.453558,476.4 11.061579,48.452182,483.7 11.061281,48.451593,486.1 11.061197,48.451346,486.4 11.061165,48.451063,486.4 11.061143,48.449702,483.9 11.061118,48.4481,488.1 11.060866,48.447739,490.0 11.060683,48.447614,490.9 11.060515,48.447533,491.7 11.060232,48.447457,492.8 11.059265,48.447319,496.0 11.058967,48.447228,496.9 11.05868,48.447058,497.7 11.058181,48.446829,498.5 11.05759,48.446668,498.3 11.057199,48.446549,497.2 11.05704,48.446483,496.5 11.057035,48.446408,496.0 11.056968,48.446353,495.5 11.056719,48.446217,494.1 11.056195,48.445839,490.1 11.055978,48.445653,488.2 11.055862,48.445642,487.6 11.055664,48.445649,486.6 11.055564,48.445644,486.1 11.055382,48.445578,485.1 11.055308,48.445551,484.7 11.055125,48.445485,483.8 11.054968,48.445429,483.2 11.054889,48.445409,482.9</coordinates>
                </LineString>
            </MultiGeometry>
        </Placemark>
        <Placemark id="4233">
            <name>Griesbeckerzell Burgstraße</name>
            <Point id="4232">
                <coordinates>11.054869,48.445445,0</coordinates>
            </Point>
        </Placemark>
        <Placemark id="4235">
            <name>Picnic Area by the Pond</name>
            <Point id="4234">
                <coordinates>11.05591,48.456632,553.6</coordinates>
            </Point>
        </Placemark>
        <Placemark id="4237">
            <name>View of the Hieslinger Weiher</name>
            <Point id="4236">
                <coordinates>11.060042,48.45449,496.3</coordinates>
            </Point>
        </Placemark>
        <Placemark id="4239">
            <name>Großer Hieslinger Weiher</name>
            <Point id="4238">
                <coordinates>11.061921,48.45399,516.0</coordinates>
            </Point>
        </Placemark>
    </Document>
</kml>
