<?xml version="1.0" encoding="UTF-8"?>
<kml xmlns="http://www.opengis.net/kml/2.2" xmlns:gx="http://www.google.com/kml/ext/2.2">
    <Document id="4155">
        <name>Picknickplatz am Tapfheimer See – Spielplatz am Tapfheimer See Runde von Tapfheim-3057570766.gpx</name>
        <Placemark id="4157">
            <name>Picknickplatz am Tapfheimer See – Spielplatz am Tapfheimer See Runde von Tapfheim</name>
            <MultiGeometry id="4156">
                <LineString id="4158">
                    <coordinates>10.682074,48.673162,417.4 10.682184,48.673228,417.2 10.682249,48.673265,417.1 10.682537,48.673427,416.7 10.682685,48.673507,416.4 10.682958,48.673665,415.9 10.683076,48.673733,415.6 10.683361,48.67342,414.1 10.683516,48.673254,413.2 10.683696,48.673117,412.4 10.683927,48.673014,411.6 10.684174,48.672918,410.8 10.684378,48.672785,409.9 10.684634,48.672416,408.2 10.68468,48.672235,407.5 10.685068,48.671857,405.9 10.685685,48.671295,404.7 10.685747,48.671242,404.6 10.685788,48.671205,404.6 10.68799,48.669224,403.5 10.689825,48.667108,403.6 10.689862,48.667065,403.6 10.689871,48.667055,403.6 10.691081,48.665678,403.7 10.692106,48.664516,403.9 10.692758,48.663948,404.0 10.694548,48.662476,404.2 10.697606,48.660794,404.6 10.697874,48.660615,404.6 10.698004,48.660564,404.6 10.698233,48.660609,404.6 10.698367,48.660605,404.6 10.698434,48.660472,404.6 10.698601,48.660141,404.5 10.698929,48.659655,404.4 10.699371,48.659264,404.3 10.699656,48.65904,404.2 10.700162,48.658643,404.2 10.700162,48.658637,404.2 10.700166,48.658464,404.1 10.698706,48.656912,403.9 10.698116,48.656465,403.7 10.698394,48.656318,403.6 10.698626,48.656152,403.5 10.699288,48.65544,403.3 10.699505,48.655049,403.3 10.699661,48.654632,403.3 10.699845,48.654321,403.3 10.699981,48.654283,403.4 10.700158,48.654233,403.4 10.70039,48.654197,403.4 10.700558,48.654208,403.4 10.700833,48.654327,403.5 10.701166,48.654547,403.6 10.7018,48.655066,403.7 10.702134,48.655355,403.7 10.702524,48.655755,403.6 10.702795,48.656087,403.5 10.703054,48.656405,403.3 10.703531,48.657196,402.4 10.703707,48.657601,402.0 10.703614,48.657768,401.8 10.703322,48.658091,401.5 10.702731,48.658385,401.2 10.702634,48.6585,401.2 10.702698,48.658806,401.1 10.702666,48.65949,401.2 10.702577,48.659689,401.2 10.702139,48.660166,401.2 10.702132,48.660177,401.2 10.701814,48.66065,401.2 10.701724,48.660863,401.2 10.701692,48.661039,401.2 10.701693,48.661333,401.2 10.701803,48.661516,401.3 10.702237,48.662079,401.6 10.702407,48.66217,401.7 10.702825,48.662314,402.0 10.703527,48.662486,402.6 10.703638,48.662559,402.7 10.703648,48.662618,402.7 10.703287,48.663187,403.2 10.70299,48.663358,403.2 10.702926,48.663422,403.2 10.702848,48.663647,403.2 10.702728,48.663795,403.1 10.701723,48.664724,402.5 10.701254,48.665246,402.2 10.70066,48.666149,401.7 10.700551,48.666409,401.6 10.700438,48.666672,401.5 10.700218,48.667384,401.7 10.70014,48.668028,402.5 10.699954,48.668273,402.9 10.699701,48.668478,403.3 10.699414,48.66857,403.6 10.699407,48.668573,403.6 10.698433,48.669065,404.9 10.69764,48.669405,405.4 10.697235,48.669634,405.6 10.697031,48.669837,405.7 10.696716,48.670244,405.7 10.696131,48.67078,405.1 10.695869,48.670876,404.9 10.695597,48.670961,404.7 10.695426,48.671014,404.6 10.695023,48.67109,404.4 10.694556,48.67112,404.1 10.693646,48.671118,403.6 10.692924,48.671038,403.4 10.692535,48.670956,403.4 10.6918,48.670713,403.3 10.689854,48.67,403.4 10.68916,48.669745,403.4 10.68799,48.669224,403.5 10.685788,48.671205,404.6 10.685747,48.671242,404.6 10.685685,48.671295,404.7 10.685068,48.671857,405.9 10.68468,48.672235,407.5 10.684634,48.672416,408.2 10.684378,48.672785,409.9 10.684174,48.672918,410.8 10.683927,48.673014,411.6 10.683696,48.673117,412.4 10.683516,48.673254,413.2 10.683361,48.67342,414.1 10.683076,48.673733,415.6 10.682958,48.673665,415.9 10.682685,48.673507,416.4 10.682537,48.673427,416.7 10.682249,48.673265,417.1 10.682184,48.673228,417.2 10.682074,48.673162,417.4</coordinates>
                </LineString>
            </MultiGeometry>
        </Placemark>
        <Placemark id="4161">
            <name>Tapfheim Gasthof Adler</name>
            <Point id="4160">
                <coordinates>10.682011,48.673195,0</coordinates>
            </Point>
        </Placemark>
        <Placemark id="4163">
            <name>Small Bridge in Geopark Ries</name>
            <Point id="4162">
                <coordinates>10.698342,48.660452,451.6</coordinates>
            </Point>
        </Placemark>
        <Placemark id="4165">
            <name>Picnic Area at Tapfheimer See</name>
            <Point id="4164">
                <coordinates>10.699727,48.65908,445.0</coordinates>
            </Point>
        </Placemark>
        <Placemark id="4167">
            <name>Picnic Spot by the Lake in Geopark Ries</name>
            <Point id="4166">
                <coordinates>10.700259,48.658638,452.6</coordinates>
            </Point>
        </Placemark>
        <Placemark id="4169">
            <name>Blue Trail (Geopark Ries)</name>
            <Point id="4168">
                <coordinates>10.699969,48.654264,453.0</coordinates>
            </Point>
        </Placemark>
        <Placemark id="4171">
            <name>Swimming Spot at Geopark Ries</name>
            <Point id="4170">
                <coordinates>10.702488,48.656196,450.0</coordinates>
            </Point>
        </Placemark>
        <Placemark id="4173">
            <name>Beaver Activity at Tapfheimer Lakes</name>
            <Point id="4172">
                <coordinates>10.702162,48.660186,408.7</coordinates>
            </Point>
        </Placemark>
        <Placemark id="4175">
            <name>Playground at Tapfheim Lake</name>
            <Point id="4174">
                <coordinates>10.699407,48.668561,453.2</coordinates>
            </Point>
        </Placemark>
        <Placemark id="4177">
            <name>Playground and swimming area at Geopark Ries Lake</name>
            <Point id="4176">
                <coordinates>10.695912,48.670902,451.6</coordinates>
            </Point>
        </Placemark>
    </Document>
</kml>
