<?xml version="1.0" encoding="UTF-8"?>
<kml xmlns="http://www.opengis.net/kml/2.2" xmlns:gx="http://www.google.com/kml/ext/2.2">
    <Document id="4157">
        <name>Ramsachkircherl (Ähndl) – Rundweg Murnauer Moos Runde von Murnau am Staffelsee-2558864582.gpx</name>
        <Placemark id="4159">
            <name>Ramsachkircherl (Ähndl) – Rundweg Murnauer Moos Runde von Murnau am Staffelsee</name>
            <MultiGeometry id="4158">
                <LineString id="4160">
                    <coordinates>11.185622,47.666119,623.6 11.185627,47.666207,623.6 11.185223,47.666191,623.5 11.185054,47.666113,623.5 11.185272,47.665863,623.6 11.185054,47.666113,623.8 11.184923,47.666218,623.9 11.184472,47.666408,624.4 11.184191,47.666515,624.9 11.183894,47.666568,625.5 11.183287,47.666691,626.9 11.182605,47.666778,628.9 11.181964,47.666932,631.5 11.181908,47.666946,631.8 11.18179,47.667656,636.4 11.181802,47.667829,637.3 11.181707,47.668014,638.5 11.181684,47.668153,639.4 11.181739,47.668203,639.9 11.181817,47.668194,640.2 11.182255,47.668304,642.7 11.181817,47.668194,645.4 11.181739,47.668203,645.9 11.181671,47.668206,646.3 11.181665,47.668208,646.4 11.181603,47.668227,646.8 11.181281,47.668298,649.0 11.181007,47.66836,651.1 11.181127,47.668403,652.2 11.180974,47.668407,653.3 11.180882,47.668457,654.3 11.18099,47.66851,655.3 11.181119,47.668517,656.5 11.180855,47.668572,659.2 11.180801,47.668676,660.9 11.180686,47.668733,662.4 11.180839,47.668824,664.4 11.180745,47.668868,665.6 11.180609,47.668894,667.0 11.180515,47.668888,667.9 11.180213,47.668964,671.1 11.180015,47.669063,673.3 11.179915,47.669165,675.0 11.179854,47.669319,677.0 11.180044,47.669613,680.5 11.180024,47.669773,682.1 11.179822,47.670244,686.4 11.179683,47.670404,687.7 11.179595,47.67049,688.4 11.179568,47.67055,688.8 11.179228,47.671021,691.6 11.179103,47.671026,692.0 11.179002,47.671032,692.3 11.178728,47.670997,693.1 11.178308,47.6709,694.4 11.177732,47.670715,696.0 11.177703,47.670845,696.4 11.177686,47.67092,696.6 11.17743,47.670824,697.1 11.17701,47.670754,697.5 11.175789,47.670723,696.7 11.175115,47.670737,695.2 11.174687,47.670672,694.1 11.173775,47.670437,691.2 11.168399,47.67166,678.6 11.167755,47.671665,678.7 11.167291,47.671561,679.0 11.166834,47.671428,679.4 11.166542,47.671271,679.6 11.166332,47.671259,679.7 11.16628,47.671143,679.8 11.16611,47.670919,680.0 11.166037,47.670831,680.0 11.16597,47.670626,680.1 11.165849,47.670502,680.2 11.165659,47.670401,680.3 11.165456,47.670189,680.4 11.164616,47.669795,680.9 11.164018,47.669446,680.5 11.163805,47.66932,680.1 11.163612,47.669152,679.3 11.163582,47.669058,678.9 11.16359,47.668726,677.0 11.163952,47.668697,675.2 11.164086,47.668486,673.3 11.164332,47.668089,668.9 11.165101,47.667915,662.6 11.16542,47.667724,659.2 11.165615,47.667669,657.5 11.16567,47.667592,656.5 11.166277,47.667564,651.7 11.166545,47.667558,649.5 11.166578,47.667528,649.0 11.166622,47.667487,648.4 11.166956,47.666224,635.5 11.167222,47.666202,634.2 11.167433,47.666229,633.2 11.167686,47.666313,632.1 11.168194,47.666563,630.3 11.168463,47.66662,629.9 11.168665,47.666595,629.7 11.168926,47.666501,629.6 11.169648,47.666528,630.1 11.169923,47.666585,630.5 11.170143,47.66666,630.8 11.170411,47.666911,631.6 11.170741,47.667064,632.4 11.17095,47.667121,632.8 11.171119,47.66713,633.1 11.171507,47.667109,633.7 11.172057,47.667118,634.2 11.172857,47.667052,634.1 11.173184,47.666923,633.8 11.173911,47.666772,632.8 11.174294,47.666693,632.3 11.174871,47.666674,631.9 11.175676,47.666708,631.8 11.175974,47.666798,631.9 11.1761,47.666865,632.0 11.17639,47.666973,632.2 11.177239,47.667012,633.2 11.177904,47.667119,633.9 11.178803,47.667212,634.1 11.179388,47.667198,634.0 11.179956,47.667225,633.7 11.180767,47.667288,632.6 11.181101,47.667248,632.0 11.181373,47.667169,631.4 11.181908,47.666946,630.0 11.182605,47.666778,628.4 11.183287,47.666691,626.8 11.183894,47.666568,625.6 11.184191,47.666515,625.1 11.184472,47.666408,624.8 11.184923,47.666218,624.3 11.185054,47.666113,624.2 11.185223,47.666191,624.1 11.185627,47.666207,623.9 11.185622,47.666119,623.9</coordinates>
                </LineString>
            </MultiGeometry>
        </Placemark>
        <Placemark id="4163">
            <name>Ähndl</name>
            <Point id="4162">
                <coordinates>11.185541,47.666121,0</coordinates>
            </Point>
        </Placemark>
        <Placemark id="4165">
            <name>Ramsach Chapel (Ähndl)</name>
            <Point id="4164">
                <coordinates>11.185327,47.665885,622.3</coordinates>
            </Point>
        </Placemark>
        <Placemark id="4167">
            <name>Bench With View of the Alps</name>
            <Point id="4166">
                <coordinates>11.18198,47.666963,685.2</coordinates>
            </Point>
        </Placemark>
        <Placemark id="4169">
            <name>Wooden Dragon Sculptures</name>
            <Point id="4168">
                <coordinates>11.182256,47.668302,674.0</coordinates>
            </Point>
        </Placemark>
        <Placemark id="4171">
            <name>Drachenstich Gorge</name>
            <Point id="4170">
                <coordinates>11.181278,47.668292,661.3</coordinates>
            </Point>
        </Placemark>
        <Placemark id="4173">
            <name>View of Werdenfelser Land</name>
            <Point id="4172">
                <coordinates>11.177702,47.670845,0</coordinates>
            </Point>
        </Placemark>
        <Placemark id="4175">
            <name>Murnauer Moos Loop Trail</name>
            <Point id="4174">
                <coordinates>11.163604,47.668725,736.0</coordinates>
            </Point>
        </Placemark>
        <Placemark id="4177">
            <name>View over the Murnauer Moos and the Alps</name>
            <Point id="4176">
                <coordinates>11.166562,47.66752,710.5</coordinates>
            </Point>
        </Placemark>
        <Placemark id="4179">
            <name>Bench with a view of the Murnauer Moos</name>
            <Point id="4178">
                <coordinates>11.173916,47.666782,634.0</coordinates>
            </Point>
        </Placemark>
    </Document>
</kml>
