<?xml version="1.0" encoding="UTF-8"?>
<kml xmlns="http://www.opengis.net/kml/2.2" xmlns:gx="http://www.google.com/kml/ext/2.2">
    <Document id="4305">
        <name>Riedensheimer Fluttore – Schloss Moy Runde von Unterhausen (Bay)-3049312463.gpx</name>
        <Placemark id="4307">
            <name>Riedensheimer Fluttore – Schloss Moy Runde von Unterhausen (Bay)</name>
            <MultiGeometry id="4306">
                <LineString id="4308">
                    <coordinates>11.100304,48.716816,418.6 11.100218,48.716848,418.6 11.100237,48.716871,418.6 11.100246,48.716881,418.6 11.100216,48.716892,418.6 11.100224,48.716903,418.6 11.100389,48.717097,418.6 11.100282,48.717138,418.5 11.099868,48.717302,418.5 11.09917,48.717568,418.3 11.098254,48.717759,418.1 11.097365,48.71784,417.9 11.096588,48.717891,417.7 11.094914,48.718001,416.8 11.094336,48.718071,416.4 11.094155,48.718116,416.2 11.094129,48.718122,416.2 11.09356,48.718265,415.6 11.093332,48.718332,415.4 11.093052,48.718421,415.0 11.092857,48.718476,414.8 11.092881,48.718496,414.7 11.093253,48.718783,414.0 11.093348,48.718814,413.9 11.093862,48.718892,413.1 11.09409,48.718961,412.7 11.094116,48.718976,412.7 11.094203,48.719044,412.5 11.094285,48.719141,412.3 11.094379,48.71933,411.9 11.094396,48.719455,411.8 11.094426,48.719662,411.6 11.094494,48.719907,411.4 11.094562,48.720013,411.4 11.09466,48.720095,411.4 11.094802,48.720158,411.4 11.09504,48.720215,411.5 11.095384,48.720245,411.8 11.095696,48.720272,412.3 11.09594,48.720292,412.7 11.096376,48.720331,413.7 11.096455,48.720337,413.8 11.096552,48.720346,414.0 11.097008,48.720352,415.1 11.097361,48.720383,416.0 11.097745,48.720414,417.0 11.098518,48.720519,419.4 11.099414,48.720604,422.0 11.100212,48.72068,423.8 11.100209,48.720716,423.9 11.100219,48.720838,424.4 11.100338,48.721135,425.8 11.100336,48.721227,426.2 11.100249,48.721363,427.0 11.100116,48.721489,427.7 11.099992,48.721555,428.2 11.099796,48.721609,428.9 11.100305,48.721777,430.8 11.100809,48.721879,432.5 11.101379,48.72206,434.6 11.102145,48.722119,436.5 11.103307,48.722168,438.2 11.103377,48.722231,438.4 11.104274,48.722399,440.2 11.104459,48.722747,441.8 11.104581,48.723213,444.2 11.104556,48.723729,447.4 11.10452,48.723856,448.3 11.104617,48.72396,449.2 11.105338,48.72415,453.3 11.104602,48.724888,459.7 11.104306,48.725192,461.7 11.104124,48.725447,462.9 11.103608,48.726348,462.3 11.103583,48.726416,462.1 11.103055,48.727976,451.7 11.103002,48.728238,449.5 11.10283,48.728624,446.5 11.102874,48.728835,444.9 11.103134,48.728907,443.7 11.103305,48.729084,442.4 11.103279,48.729301,441.1 11.103456,48.729515,439.7 11.103541,48.729855,437.9 11.103616,48.729919,437.6 11.103674,48.730156,436.5 11.103757,48.730317,435.7 11.103756,48.730895,432.8 11.103874,48.731108,431.5 11.103917,48.731348,430.3 11.103981,48.731468,429.7 11.104668,48.731861,427.6 11.105021,48.732034,426.7 11.105172,48.732084,426.3 11.105687,48.732176,425.3 11.106191,48.732325,424.5 11.106674,48.732544,423.9 11.106857,48.732707,423.6 11.106889,48.732834,423.3 11.106953,48.732905,423.2 11.107211,48.733025,422.7 11.109121,48.733736,417.5 11.109266,48.733803,416.8 11.109591,48.73398,414.6 11.1099,48.73424,411.3 11.11017,48.73436,408.8 11.110375,48.734556,405.8 11.110644,48.734624,403.4 11.110635,48.734814,401.1 11.110717,48.73489,400.0 11.112191,48.735336,390.5 11.117105,48.736578,387.1 11.119913,48.737189,384.8 11.12071,48.737335,384.0 11.121919,48.737475,383.2 11.122531,48.737496,383.2 11.123695,48.737471,383.9 11.124317,48.737399,384.3 11.12525,48.737245,384.9 11.125786,48.737115,385.1 11.128274,48.736433,385.1 11.130601,48.735726,384.1 11.133327,48.734861,382.8 11.134406,48.734543,382.7 11.134644,48.734473,382.8 11.13608,48.734085,383.4 11.137637,48.733727,384.1 11.139196,48.733428,384.5 11.139893,48.733318,384.7 11.140596,48.733253,384.8 11.141325,48.733235,384.9 11.142523,48.733282,385.0 11.142775,48.733264,385.0 11.143295,48.7331,384.9 11.143344,48.733228,384.8 11.143343,48.733325,384.8 11.143416,48.734317,384.0 11.14346,48.734896,383.4 11.143299,48.734901,383.3 11.140837,48.735134,382.1 11.13967,48.7353,382.0 11.138222,48.735561,382.1 11.136027,48.736094,382.1 11.135714,48.736198,382.1 11.134686,48.736525,382.2 11.130781,48.737775,382.7 11.129156,48.738253,382.0 11.128656,48.738371,382.0 11.128392,48.738412,382.0 11.12796,48.738474,382.2 11.126499,48.738875,383.2 11.125306,48.739247,383.6 11.1248,48.739356,383.4 11.124221,48.739403,383.1 11.122885,48.739439,382.5 11.121517,48.739413,382.3 11.120075,48.739265,382.6 11.119557,48.739195,382.8 11.118595,48.739016,382.9 11.118466,48.739022,382.9 11.118152,48.738959,382.9 11.118078,48.738912,382.8 11.117485,48.738798,382.8 11.114755,48.738231,382.7 11.112928,48.737783,382.8 11.111844,48.737646,382.8 11.111124,48.737442,382.9 11.110586,48.737232,382.9 11.109482,48.736847,382.9 11.107849,48.736205,382.8 11.107351,48.736045,382.7 11.107096,48.735923,382.6 11.105777,48.735372,382.5 11.105443,48.73524,382.5 11.105069,48.735093,382.5 11.104255,48.734772,382.6 11.103656,48.734536,382.7 11.102367,48.734061,382.7 11.102107,48.733951,382.7 11.101941,48.733846,382.7 11.101074,48.733506,382.8 11.100278,48.733193,382.9 11.099413,48.732842,382.9 11.098331,48.732428,383.2 11.097539,48.732188,383.3 11.097305,48.732151,383.3 11.096941,48.732045,383.4 11.096798,48.731969,383.4 11.095752,48.73173,383.5 11.094509,48.731528,383.9 11.093549,48.731415,384.5 11.092942,48.731381,384.9 11.092588,48.731395,385.2 11.092223,48.731384,385.4 11.091997,48.731346,385.6 11.089512,48.731292,386.2 11.088503,48.731355,386.2 11.088109,48.731403,386.1 11.087737,48.731468,386.0 11.086972,48.731643,385.8 11.086416,48.731811,385.7 11.08612,48.73196,385.6 11.085988,48.732057,385.5 11.085855,48.732146,385.5 11.085385,48.732609,385.2 11.085124,48.732748,385.1 11.084906,48.732864,385.0 11.084765,48.732939,385.0 11.084654,48.732999,385.0 11.084262,48.733211,384.9 11.084141,48.733271,384.8 11.083999,48.733346,384.8 11.08315,48.733773,384.9 11.082798,48.733975,385.1 11.082719,48.733645,385.4 11.082653,48.733764,385.5 11.082656,48.733867,385.6 11.082521,48.733997,385.7 11.082265,48.734131,385.8 11.082048,48.734166,385.9 11.082026,48.734256,386.0 11.08196,48.734332,386.0 11.081725,48.734478,386.1 11.080958,48.735043,386.0 11.080935,48.735059,386.0 11.080384,48.735513,385.8 11.07993,48.735937,386.1 11.079646,48.736116,386.4 11.079421,48.736226,386.6 11.079198,48.736279,386.9 11.079083,48.736381,387.0 11.07859,48.736365,387.2 11.07809,48.736279,387.4 11.07758,48.736256,387.7 11.077194,48.736394,388.0 11.076858,48.736563,388.2 11.07593,48.737139,389.2 11.075477,48.737499,390.4 11.074736,48.738395,392.1 11.074491,48.738757,392.4 11.074038,48.739313,393.0 11.073904,48.739537,393.2 11.074026,48.739767,393.5 11.074316,48.740124,394.7 11.074374,48.740401,395.9 11.074443,48.740482,396.3 11.07452,48.740235,397.6 11.074526,48.740036,398.7 11.074639,48.739697,400.6 11.074997,48.739176,403.5 11.07518,48.738945,404.5 11.075483,48.738562,405.2 11.07518,48.738945,404.5 11.074997,48.739176,403.5 11.074639,48.739697,400.2 11.074526,48.740036,397.7 11.07452,48.740235,396.4 11.074443,48.740482,395.1 11.074398,48.740662,394.5 11.074275,48.740845,394.1 11.074123,48.74096,394.2 11.074076,48.741042,394.4 11.074031,48.741281,395.0 11.074062,48.741352,395.3 11.074182,48.741453,395.8 11.074505,48.741605,397.1 11.074593,48.741702,397.9 11.074663,48.741849,398.9 11.07463,48.741926,399.5 11.074649,48.742231,401.7 11.074929,48.743385,406.6 11.074888,48.743465,406.8 11.073038,48.743518,405.5 11.072707,48.743528,404.6 11.072225,48.743527,403.3 11.071532,48.743544,400.9 11.070891,48.743571,398.3 11.070444,48.743511,396.8 11.070256,48.74349,396.3 11.07021,48.743036,395.3 11.069991,48.743024,395.1 11.069917,48.743034,395.0 11.069991,48.743024,394.9 11.07021,48.743036,394.8 11.070256,48.74349,394.2 11.070153,48.743858,394.0 11.070217,48.74412,393.8 11.070227,48.744161,393.7 11.070376,48.74443,393.2 11.07056,48.744764,391.9 11.070536,48.744788,391.8 11.070247,48.745079,390.4 11.070356,48.745203,389.8 11.07032,48.745281,389.5 11.070088,48.745481,388.7 11.07003,48.745502,388.6 11.069759,48.745603,388.0 11.069614,48.745664,387.7 11.069516,48.745705,387.5 11.069408,48.745686,387.3 11.069107,48.745632,386.9 11.068358,48.745518,386.2 11.065604,48.745025,385.3 11.065313,48.745007,385.3 11.063407,48.744894,385.0 11.061241,48.744721,385.2 11.060325,48.744518,385.4 11.05952,48.744377,385.4 11.059298,48.744386,385.4 11.059126,48.744431,385.4 11.058735,48.744628,385.4 11.057965,48.744947,385.2 11.057568,48.745077,385.1 11.056675,48.745276,384.9 11.05643,48.745288,384.9 11.055973,48.745257,384.9 11.054961,48.745139,384.8 11.054809,48.74514,384.8 11.054934,48.743825,384.5 11.054993,48.743057,384.5 11.054964,48.742571,384.5 11.054952,48.742376,384.5 11.055172,48.742317,384.5 11.056201,48.742352,384.5 11.056342,48.74229,384.5 11.056398,48.742158,384.5 11.056102,48.739882,384.5 11.055909,48.738279,385.1 11.055998,48.738245,385.1 11.05627,48.738114,385.2 11.056328,48.738043,385.2 11.056399,48.737968,385.2 11.056705,48.737656,385.2 11.056766,48.73752,385.3 11.056918,48.737416,385.2 11.057106,48.737345,385.2 11.05723,48.737259,385.2 11.057183,48.737212,385.2 11.057041,48.737153,385.2 11.053731,48.736247,385.3 11.051885,48.735789,385.4 11.050977,48.735613,385.3 11.049559,48.735355,385.3 11.04769,48.735085,385.6 11.046671,48.73496,385.8 11.045229,48.73483,385.9 11.043734,48.73474,386.0 11.042608,48.734733,386.0 11.037604,48.734942,386.0 11.028245,48.735231,387.0 11.027136,48.735298,386.8 11.024911,48.735394,386.6 11.023939,48.735525,386.9 11.023281,48.73566,387.4 11.022627,48.735894,388.1 11.022188,48.736003,388.5 11.022121,48.736045,388.6 11.022059,48.736142,388.7 11.022045,48.736317,389.0 11.022031,48.736481,389.2 11.021985,48.73655,389.3 11.02191,48.736585,389.4 11.021304,48.736695,389.8 11.021093,48.736784,390.0 11.020914,48.736895,390.0 11.020705,48.737011,390.0 11.020692,48.736534,390.0 11.020662,48.736321,390.0 11.020567,48.736053,389.9 11.020547,48.735998,389.9 11.020378,48.734908,389.8 11.020332,48.734612,389.7 11.020361,48.734447,389.7 11.020342,48.734297,389.7 11.020977,48.734262,389.5 11.021245,48.7343,389.4 11.021823,48.734476,389.2 11.022733,48.734506,388.9 11.024904,48.734408,388.4 11.032578,48.734136,386.1 11.034224,48.734047,385.8 11.035058,48.734049,385.7 11.037066,48.733947,385.4 11.038453,48.733908,385.2 11.040588,48.733809,385.5 11.041624,48.733784,385.8 11.044173,48.733773,385.6 11.044401,48.733661,385.4 11.044761,48.733418,385.2 11.045134,48.733346,385.0 11.045463,48.733315,384.9 11.04598,48.73333,384.9 11.046167,48.733246,384.9 11.046309,48.732869,385.1 11.046336,48.732811,385.2 11.046349,48.732774,385.2 11.046373,48.732658,385.3 11.046383,48.732635,385.4 11.046414,48.732538,385.5 11.046456,48.732215,385.8 11.046323,48.730703,387.1 11.046244,48.729365,387.8 11.046538,48.729087,387.9 11.04694,48.728801,388.0 11.047358,48.72861,388.2 11.047865,48.728534,388.2 11.048408,48.728662,388.1 11.048703,48.728806,388.0 11.048976,48.728891,387.9 11.050812,48.728907,386.9 11.05108,48.728988,386.8 11.051339,48.729107,386.7 11.051694,48.729353,386.7 11.052051,48.729737,386.8 11.052281,48.730153,387.0 11.052399,48.730268,387.1 11.052485,48.730309,387.1 11.052546,48.730304,387.2 11.053334,48.730721,387.6 11.05399,48.731141,387.7 11.054404,48.731577,387.8 11.054699,48.73181,387.8 11.055195,48.732135,387.6 11.055618,48.732296,387.5 11.055782,48.732401,387.4 11.056199,48.732529,387.2 11.056386,48.732522,387.1 11.056796,48.73246,386.9 11.056982,48.732457,386.8 11.057819,48.73267,386.5 11.057967,48.732739,386.5 11.058062,48.732847,386.5 11.058328,48.733057,386.7 11.058692,48.733261,387.2 11.059073,48.733418,387.7 11.05927,48.733579,388.0 11.059441,48.733625,388.1 11.059611,48.733622,388.2 11.06001,48.733628,388.4 11.060153,48.733727,388.6 11.060178,48.733908,388.7 11.06008,48.734131,388.9 11.060093,48.734722,389.8 11.059969,48.735192,391.0 11.060099,48.735403,392.0 11.060132,48.735524,392.6 11.06056,48.735777,394.6 11.061057,48.735993,396.8 11.061485,48.736523,399.1 11.062075,48.736849,399.2 11.062316,48.737028,398.7 11.062451,48.737181,398.2 11.062541,48.737591,396.7 11.062656,48.737759,396.0 11.063117,48.737952,394.7 11.063163,48.737933,394.6 11.063918,48.737882,393.2 11.064231,48.737761,392.8 11.065183,48.736761,394.0 11.065203,48.736497,394.8 11.065222,48.736252,395.8 11.065395,48.735644,399.0 11.065417,48.735568,399.5 11.065437,48.734727,404.8 11.065672,48.734257,407.5 11.065808,48.732928,412.8 11.065515,48.732556,413.9 11.065634,48.732069,414.5 11.06573,48.731676,414.1 11.065921,48.73153,413.7 11.06605,48.73153,413.4 11.066514,48.731653,412.1 11.067941,48.732149,405.9 11.06832,48.732156,404.6 11.068935,48.732114,403.2 11.069445,48.732166,402.9 11.069842,48.7321,403.2 11.070475,48.731854,404.6 11.070828,48.731781,405.8 11.073355,48.731481,416.4 11.075155,48.731338,424.1 11.075641,48.731179,426.6 11.076881,48.730614,432.1 11.077014,48.730707,432.6 11.077941,48.730739,435.1 11.078114,48.730715,435.5 11.07821,48.730674,435.7 11.078442,48.73063,436.0 11.078565,48.730536,436.2 11.079496,48.73021,436.5 11.080011,48.730106,435.5 11.080145,48.730039,435.0 11.080478,48.729958,433.6 11.080669,48.72996,432.7 11.081252,48.729966,428.8 11.081463,48.729923,427.2 11.081791,48.729938,424.9 11.082056,48.729864,423.1 11.082277,48.729846,421.8 11.082713,48.729743,419.4 11.082828,48.729743,418.9 11.082906,48.729746,418.6 11.083021,48.729444,417.3 11.083088,48.729414,417.2 11.083028,48.729335,417.1 11.082915,48.729275,417.0 11.08305,48.729208,417.1 11.083249,48.729181,417.5 11.083437,48.72909,418.1 11.083727,48.729035,419.3 11.083674,48.728923,420.1 11.083732,48.728817,420.9 11.084065,48.72845,424.1 11.084179,48.728366,424.9 11.084293,48.728282,425.8 11.084918,48.728059,429.4 11.085261,48.72798,430.9 11.085451,48.727903,431.7 11.085982,48.727536,433.9 11.086263,48.727307,434.7 11.086308,48.727231,434.8 11.086613,48.72717,435.2 11.087276,48.726899,436.0 11.087577,48.726771,436.3 11.087774,48.726717,436.4 11.08786,48.726693,436.5 11.087993,48.72679,436.7 11.088176,48.727028,437.0 11.088505,48.727159,437.4 11.088693,48.727183,437.7 11.088956,48.727194,438.2 11.089766,48.727098,440.2 11.090162,48.727109,441.1 11.090457,48.72719,441.9 11.090916,48.727257,443.1 11.090874,48.727076,443.9 11.090941,48.726643,446.2 11.090983,48.726492,446.9 11.091125,48.726224,448.0 11.091313,48.726233,448.3 11.092033,48.72615,449.1 11.093563,48.725163,447.2 11.093891,48.724775,446.3 11.094825,48.724162,442.6 11.094125,48.722984,430.8 11.093997,48.722831,428.7 11.09387,48.72279,427.6 11.093894,48.722707,426.6 11.093777,48.721938,418.4 11.093699,48.721482,415.0 11.09364,48.721163,413.1 11.093548,48.720932,412.0 11.09345,48.720914,411.8 11.093421,48.720631,410.9 11.093416,48.720171,410.4 11.093528,48.720173,410.4 11.093651,48.720176,410.3 11.093858,48.72018,410.3 11.094134,48.720186,410.4 11.094362,48.720191,410.5 11.094442,48.720165,410.5 11.09466,48.720095,410.7 11.094562,48.720013,410.8 11.094494,48.719907,410.9 11.094426,48.719662,411.3 11.094396,48.719455,411.7 11.094379,48.71933,411.9 11.094285,48.719141,412.3 11.094203,48.719044,412.5 11.094116,48.718976,412.7 11.09409,48.718961,412.7 11.093862,48.718892,413.1 11.093348,48.718814,413.9 11.093253,48.718783,414.0 11.092881,48.718496,414.7 11.092857,48.718476,414.8 11.093052,48.718421,415.0 11.093332,48.718332,415.4 11.09356,48.718265,415.6 11.094129,48.718122,416.2 11.094155,48.718116,416.2 11.094336,48.718071,416.4 11.094914,48.718001,416.8 11.096588,48.717891,417.7 11.097365,48.71784,417.9 11.098254,48.717759,418.1 11.09917,48.717568,418.3 11.099868,48.717302,418.5 11.100282,48.717138,418.5 11.100389,48.717097,418.6 11.100224,48.716903,418.6 11.100216,48.716892,418.6 11.100246,48.716881,418.6 11.100237,48.716871,418.6 11.100218,48.716848,418.6 11.100304,48.716816,418.6</coordinates>
                </LineString>
            </MultiGeometry>
        </Placemark>
        <Placemark id="4311">
            <name>Unterhausen (Bay)</name>
            <Point id="4310">
                <coordinates>11.100293,48.716804,0</coordinates>
            </Point>
        </Placemark>
        <Placemark id="4313">
            <name>Römerstraße</name>
            <Point id="4312">
                <coordinates>11.103633,48.726353,0</coordinates>
            </Point>
        </Placemark>
        <Placemark id="4315">
            <name>Bittenbrunn Hydroelectric Power Plant</name>
            <Point id="4314">
                <coordinates>11.14347,48.734315,442.3</coordinates>
            </Point>
        </Placemark>
        <Placemark id="4317">
            <name>Riedensheim Flood Gates</name>
            <Point id="4316">
                <coordinates>11.085117,48.732742,385.7</coordinates>
            </Point>
        </Placemark>
        <Placemark id="4319">
            <name>Altdonau</name>
            <Point id="4318">
                <coordinates>11.07948,48.734168,0</coordinates>
            </Point>
        </Placemark>
        <Placemark id="4321">
            <name>St. Antonius and St. Anna Chapels</name>
            <Point id="4320">
                <coordinates>11.075483,48.738562,416.1</coordinates>
            </Point>
        </Placemark>
        <Placemark id="4323">
            <name>Schloss Moy</name>
            <Point id="4322">
                <coordinates>11.069914,48.743025,448.2</coordinates>
            </Point>
        </Placemark>
        <Placemark id="4325">
            <name>Bertoldsheim Dam</name>
            <Point id="4324">
                <coordinates>11.020424,48.734905,390.1</coordinates>
            </Point>
        </Placemark>
        <Placemark id="4327">
            <name>Bridge Over the Friedberger Ach</name>
            <Point id="4326">
                <coordinates>11.046373,48.73279,440.5</coordinates>
            </Point>
        </Placemark>
        <Placemark id="4329">
            <name>St. Ulrich Chapel</name>
            <Point id="4328">
                <coordinates>11.087773,48.726715,489.0</coordinates>
            </Point>
        </Placemark>
    </Document>
</kml>
