<?xml version="1.0" encoding="UTF-8"?>
<kml xmlns="http://www.opengis.net/kml/2.2" xmlns:gx="http://www.google.com/kml/ext/2.2">
    <Document id="4441">
        <name>Rotmainsteig – Weg am Roten Main Runde von Emtmannsberg-3191154221.gpx</name>
        <Placemark id="4443">
            <name>Rotmainsteig – Weg am Roten Main Runde von Emtmannsberg</name>
            <MultiGeometry id="4442">
                <LineString id="4444">
                    <coordinates>11.649748,49.880136,424.1 11.649695,49.8801,424.4 11.649618,49.880097,424.6 11.649552,49.880136,424.9 11.649194,49.879835,426.9 11.648758,49.879483,430.0 11.648724,49.879392,430.8 11.648791,49.8792,432.4 11.648391,49.879069,435.0 11.647816,49.879064,438.8 11.647205,49.878952,443.1 11.646541,49.87874,448.2 11.645731,49.878389,454.8 11.644686,49.878068,460.7 11.644441,49.87798,461.6 11.644106,49.877795,462.7 11.643884,49.877549,463.5 11.643575,49.87783,464.3 11.643466,49.878209,465.0 11.643345,49.878476,465.5 11.643497,49.878965,466.7 11.64341,49.879118,467.3 11.642403,49.879762,471.4 11.642216,49.880084,473.0 11.6422,49.880372,474.3 11.642309,49.880557,475.0 11.642076,49.880648,475.6 11.641775,49.880807,476.3 11.641404,49.881055,477.1 11.641203,49.881233,477.5 11.640857,49.881331,477.9 11.640589,49.881314,478.1 11.640436,49.881429,478.2 11.640512,49.881594,478.4 11.640721,49.881775,478.7 11.640804,49.88196,479.0 11.640627,49.88227,479.5 11.640636,49.882703,480.3 11.64075,49.883014,480.7 11.641049,49.883228,480.9 11.641233,49.883426,480.8 11.641365,49.883753,480.2 11.641154,49.883893,479.6 11.640986,49.883871,479.2 11.640876,49.883884,478.8 11.640638,49.883926,478.0 11.640367,49.884052,476.8 11.63986,49.884488,472.7 11.639225,49.885375,464.8 11.638475,49.886105,459.7 11.63788,49.886645,456.9 11.637462,49.886854,455.6 11.634876,49.887672,444.9 11.634353,49.887802,442.0 11.634128,49.887835,440.8 11.63355,49.887983,437.3 11.631301,49.888051,426.2 11.630967,49.88794,424.8 11.630776,49.887753,423.6 11.630685,49.887442,421.9 11.630526,49.887218,420.7 11.630367,49.886994,419.4 11.629672,49.886324,414.5 11.629302,49.886687,411.9 11.629181,49.887402,409.0 11.629078,49.887229,408.5 11.629106,49.886875,408.1 11.628911,49.88605,408.1 11.628823,49.885679,408.0 11.62891,49.885487,407.8 11.628736,49.885309,407.4 11.628617,49.884806,406.1 11.628732,49.884793,405.9 11.628691,49.884694,405.5 11.628563,49.884545,404.9 11.628275,49.884359,404.0 11.628049,49.884172,403.3 11.627886,49.884005,402.8 11.627471,49.883799,402.1 11.627312,49.88372,402.0 11.626729,49.883277,402.4 11.626634,49.882663,403.7 11.626561,49.882602,404.0 11.625637,49.882561,405.7 11.62481,49.882647,407.0 11.62329,49.882763,408.3 11.621376,49.88328,408.4 11.621212,49.883307,408.3 11.620601,49.883405,407.8 11.619808,49.8834,406.4 11.61936,49.88334,405.4 11.618696,49.883137,403.8 11.618432,49.88324,403.2 11.618303,49.883286,403.1 11.618019,49.883397,402.7 11.617996,49.883599,402.5 11.618019,49.883397,402.3 11.618303,49.883286,402.3 11.618432,49.88324,402.3 11.618696,49.883137,402.7 11.6185,49.882831,403.5 11.618135,49.881778,406.4 11.617973,49.881011,409.0 11.617981,49.880647,410.4 11.618286,49.879866,413.5 11.618324,49.87904,417.4 11.61834,49.878679,420.0 11.618432,49.878441,422.0 11.619224,49.877828,428.9 11.619519,49.877439,432.7 11.619616,49.877386,433.3 11.619341,49.877377,434.5 11.619616,49.877386,435.6 11.619965,49.877385,436.7 11.62059,49.877437,438.0 11.621225,49.877535,439.2 11.621436,49.877513,439.5 11.621917,49.877296,440.3 11.62231,49.877059,440.9 11.62271,49.87681,441.6 11.623923,49.87595,444.5 11.623946,49.875885,444.7 11.623886,49.875678,445.5 11.623976,49.875556,446.0 11.624716,49.874917,450.0 11.624838,49.874651,451.4 11.624761,49.87439,452.5 11.624607,49.874166,453.3 11.624364,49.873871,454.3 11.623906,49.873479,455.9 11.624044,49.873341,456.4 11.624141,49.873164,457.1 11.624188,49.872861,458.3 11.624634,49.872507,459.4 11.624827,49.872045,459.8 11.623602,49.870687,451.0 11.623128,49.87002,444.9 11.622812,49.869749,442.2 11.62262,49.869489,439.9 11.622395,49.868467,433.7 11.622491,49.867943,432.4 11.622611,49.867772,432.2 11.624002,49.865788,436.8 11.624163,49.865711,437.1 11.624455,49.865775,437.7 11.624942,49.866034,438.8 11.625304,49.866517,440.3 11.625538,49.867348,442.6 11.626053,49.867896,443.8 11.62653,49.868519,444.4 11.627022,49.869096,444.7 11.62704,49.869625,444.6 11.627204,49.869724,444.7 11.627386,49.869732,444.8 11.627803,49.869634,445.1 11.628241,49.869782,445.8 11.628503,49.869783,446.2 11.628709,49.869714,446.6 11.629213,49.869445,448.0 11.629672,49.869082,450.0 11.629819,49.868888,450.8 11.630078,49.868368,452.6 11.630392,49.868128,453.3 11.631671,49.867598,454.8 11.632092,49.867068,455.9 11.632676,49.866606,457.2 11.634067,49.863523,464.2 11.633995,49.863258,464.7 11.633771,49.862885,465.4 11.634327,49.861915,467.7 11.635089,49.859768,476.0 11.635256,49.859209,478.3 11.634968,49.85724,484.0 11.63527,49.85697,484.2 11.635963,49.85662,484.4 11.637501,49.855771,484.8 11.637575,49.85573,484.9 11.638981,49.855281,487.1 11.639674,49.855151,487.9 11.640127,49.855778,488.4 11.640489,49.856153,488.1 11.639766,49.858905,482.3 11.639568,49.859659,480.7 11.639058,49.861885,476.7 11.644278,49.861808,477.2 11.64413,49.863414,478.7 11.643899,49.86478,479.1 11.643666,49.866527,479.7 11.643519,49.866615,479.8 11.642722,49.868183,480.5 11.64269,49.868245,480.6 11.642641,49.868354,480.7 11.642617,49.868572,481.1 11.642578,49.86918,482.6 11.642374,49.869642,484.4 11.642087,49.87029,487.9 11.6419,49.870804,490.9 11.641695,49.871434,493.7 11.641539,49.87191,494.7 11.641582,49.872138,494.8 11.642038,49.873406,491.3 11.64177,49.874667,485.0 11.64179,49.874929,483.6 11.641887,49.875227,482.2 11.642273,49.87569,479.5 11.642823,49.876269,475.8 11.642997,49.876423,474.7 11.64336,49.876659,472.6 11.64361,49.876904,470.7 11.643884,49.877549,466.3 11.644106,49.877795,464.4 11.644441,49.87798,462.5 11.644686,49.878068,461.1 11.645731,49.878389,454.8 11.646541,49.87874,448.2 11.647205,49.878952,443.1 11.647816,49.879064,438.8 11.648391,49.879069,435.0 11.648791,49.8792,432.4 11.648724,49.879392,430.8 11.648758,49.879483,430.0 11.649194,49.879835,426.9 11.649552,49.880136,424.9 11.649618,49.880097,424.6 11.649695,49.8801,424.4 11.649748,49.880136,424.1</coordinates>
                </LineString>
            </MultiGeometry>
        </Placemark>
        <Placemark id="4447">
            <name>Oberölschnitz</name>
            <Point id="4446">
                <coordinates>11.649761,49.880094,0</coordinates>
            </Point>
        </Placemark>
        <Placemark id="4449">
            <name>Rotmainsteig Trail</name>
            <Point id="4448">
                <coordinates>11.62891,49.88605,428.7</coordinates>
            </Point>
        </Placemark>
        <Placemark id="4451">
            <name>Path along the Red Main</name>
            <Point id="4450">
                <coordinates>11.627435,49.883829,447.0</coordinates>
            </Point>
        </Placemark>
        <Placemark id="4453">
            <name>Red Main Valley</name>
            <Point id="4452">
                <coordinates>11.621209,49.8833,446.4</coordinates>
            </Point>
        </Placemark>
        <Placemark id="4455">
            <name>Eimersmühle</name>
            <Point id="4454">
                <coordinates>11.618008,49.8836,448.6</coordinates>
            </Point>
        </Placemark>
        <Placemark id="4457">
            <name>Rotmain Bridge at Eimersmühle</name>
            <Point id="4456">
                <coordinates>11.6183,49.883275,448.9</coordinates>
            </Point>
        </Placemark>
        <Placemark id="4459">
            <name>Ford Across the Roter Main</name>
            <Point id="4458">
                <coordinates>11.617311,49.879021,452.6</coordinates>
            </Point>
        </Placemark>
        <Placemark id="4461">
            <name>Viewing bench near Hagenohe</name>
            <Point id="4460">
                <coordinates>11.619338,49.87742,439.6</coordinates>
            </Point>
        </Placemark>
    </Document>
</kml>
