<?xml version="1.0" encoding="UTF-8"?>
<kml xmlns="http://www.opengis.net/kml/2.2" xmlns:gx="http://www.google.com/kml/ext/2.2">
    <Document id="4327">
        <name>Ruine Kaiserburg – St.-Ulrichs-Kapelle Runde von Straß-Moos-2920436008.gpx</name>
        <Placemark id="4329">
            <name>Ruine Kaiserburg – St.-Ulrichs-Kapelle Runde von Straß-Moos</name>
            <MultiGeometry id="4328">
                <LineString id="4330">
                    <coordinates>11.067883,48.724588,391.3 11.067848,48.724617,391.4 11.068027,48.724643,391.8 11.068286,48.724886,392.8 11.068447,48.725035,393.4 11.069552,48.724731,396.1 11.070572,48.724547,397.2 11.071183,48.724582,397.7 11.071766,48.724811,398.5 11.071929,48.724854,398.7 11.074182,48.725754,404.3 11.075008,48.726054,406.9 11.07542,48.726182,408.2 11.075957,48.726295,409.6 11.076542,48.726387,411.1 11.077528,48.726421,413.5 11.077571,48.726515,414.0 11.07761,48.726534,414.2 11.078237,48.726571,416.4 11.078334,48.726603,416.8 11.078382,48.726667,417.3 11.078404,48.726928,419.0 11.078516,48.726978,419.7 11.078801,48.726982,420.9 11.078945,48.727028,421.6 11.079299,48.727311,423.7 11.079466,48.727396,424.5 11.079697,48.727445,425.3 11.080008,48.727449,426.4 11.080444,48.727533,427.8 11.081102,48.727682,429.1 11.081196,48.727703,429.2 11.081163,48.727833,429.4 11.081136,48.727948,429.6 11.081162,48.728107,429.7 11.081484,48.728984,428.4 11.081745,48.729239,426.4 11.082056,48.729864,421.6 11.082277,48.729846,420.7 11.082713,48.729743,418.9 11.082828,48.729743,418.5 11.082906,48.729746,418.3 11.083021,48.729444,416.8 11.083088,48.729414,416.5 11.083028,48.729335,416.1 11.082915,48.729275,415.7 11.08305,48.729208,415.3 11.083249,48.729181,415.0 11.083437,48.72909,414.8 11.083727,48.729035,414.9 11.083777,48.729066,414.9 11.083953,48.729095,415.0 11.084129,48.729241,415.2 11.084215,48.729292,415.3 11.084271,48.729294,415.4 11.084632,48.729222,415.7 11.085062,48.729169,416.5 11.086202,48.729088,420.9 11.08682,48.728982,424.0 11.086931,48.728945,424.5 11.087178,48.7288,425.8 11.087331,48.728753,426.3 11.087582,48.728589,427.3 11.08766,48.728494,427.7 11.087669,48.728489,427.7 11.087838,48.728388,428.3 11.088128,48.72837,428.9 11.088129,48.728642,429.7 11.088227,48.728731,429.9 11.088384,48.728787,430.2 11.088577,48.728811,430.4 11.088859,48.728798,430.8 11.08961,48.728737,432.4 11.090148,48.728731,434.5 11.090657,48.728791,437.1 11.0911,48.728743,439.5 11.091691,48.728725,442.5 11.092312,48.728735,445.6 11.092479,48.728738,446.3 11.092753,48.728688,447.6 11.093522,48.728688,450.3 11.09405,48.728692,451.9 11.094394,48.728732,452.8 11.09405,48.728692,453.6 11.094089,48.728287,455.0 11.093997,48.727761,457.2 11.094523,48.727706,459.0 11.095677,48.727463,462.5 11.096173,48.727328,463.4 11.096499,48.727672,463.9 11.096594,48.727876,463.6 11.096698,48.728204,462.4 11.096739,48.728713,460.1 11.096853,48.728981,458.8 11.097101,48.72907,457.9 11.098039,48.729268,454.5 11.098264,48.729337,453.5 11.09853,48.72936,452.5 11.099037,48.729363,450.5 11.099794,48.729633,446.7 11.100368,48.729944,442.7 11.100523,48.729988,441.5 11.10062,48.729992,440.9 11.100679,48.730153,439.2 11.100798,48.730244,438.0 11.101062,48.730288,436.1 11.101208,48.730395,434.5 11.101518,48.730692,430.5 11.101737,48.730901,427.5 11.10187,48.730935,426.2 11.101921,48.730998,425.2 11.102116,48.731043,423.2 11.10218,48.731081,422.4 11.10221,48.731121,421.8 11.10214,48.731215,420.4 11.102467,48.731405,417.1 11.102511,48.731532,415.8 11.102719,48.73164,414.2 11.102767,48.731742,413.2 11.103023,48.731898,411.4 11.103374,48.732001,409.9 11.103807,48.73217,408.2 11.104774,48.732596,406.0 11.104849,48.73268,405.7 11.105385,48.732985,404.8 11.105747,48.733153,404.5 11.105953,48.733213,404.4 11.106071,48.733247,404.3 11.106253,48.73336,404.2 11.106488,48.733416,404.2 11.106875,48.733623,404.4 11.107285,48.733746,404.7 11.107421,48.733766,404.8 11.108286,48.734076,405.1 11.109749,48.734644,403.8 11.110118,48.734717,403.9 11.110493,48.734847,404.5 11.110717,48.73489,404.9 11.110635,48.734814,405.3 11.110644,48.734624,406.0 11.110868,48.73425,408.1 11.111062,48.734151,409.2 11.111512,48.733458,415.2 11.112188,48.732814,420.5 11.112735,48.731611,425.0 11.113095,48.731045,424.9 11.113433,48.730793,424.2 11.113535,48.730669,423.8 11.113528,48.730469,423.0 11.113578,48.730209,422.0 11.113587,48.729931,420.6 11.113697,48.72943,417.9 11.116499,48.729803,406.8 11.117116,48.729747,405.3 11.117109,48.729454,404.2 11.11706,48.729225,403.5 11.120311,48.728929,396.0 11.120334,48.728845,395.9 11.120259,48.728629,395.7 11.11989,48.727837,397.0 11.119898,48.727697,397.5 11.120174,48.727442,398.8 11.121795,48.727235,403.8 11.121671,48.727019,404.9 11.120265,48.72599,411.4 11.119625,48.725595,412.6 11.119545,48.725558,412.6 11.119213,48.7254,412.4 11.118919,48.725435,412.1 11.117946,48.725681,409.9 11.116991,48.726018,407.2 11.116698,48.726026,406.9 11.114634,48.725521,410.7 11.112683,48.725027,416.8 11.112683,48.724834,417.6 11.112692,48.724712,418.0 11.112572,48.724343,419.3 11.112425,48.724073,420.2 11.112307,48.723854,420.9 11.112246,48.723741,421.2 11.112165,48.723591,421.7 11.111932,48.723306,422.7 11.111805,48.723168,423.2 11.111685,48.723036,423.7 11.111553,48.722898,424.3 11.111398,48.72274,424.9 11.111252,48.722592,425.5 11.110728,48.722818,427.0 11.110649,48.722855,427.3 11.110131,48.723108,429.1 11.110098,48.723136,429.3 11.109801,48.723154,430.4 11.109684,48.723161,430.8 11.109249,48.723193,432.7 11.109208,48.723199,432.9 11.109156,48.723207,433.1 11.108842,48.723258,434.5 11.108678,48.723285,435.2 11.10841,48.723328,436.2 11.108277,48.723356,436.8 11.107564,48.723509,439.1 11.107157,48.723162,440.4 11.106753,48.722893,440.6 11.10638,48.722649,440.3 11.106222,48.722577,440.1 11.105844,48.722461,439.7 11.105482,48.722409,439.4 11.105189,48.722409,439.2 11.104847,48.722457,438.9 11.104496,48.722445,438.6 11.104274,48.722399,438.5 11.103377,48.722231,438.0 11.103307,48.722168,438.0 11.102145,48.722119,436.5 11.101379,48.72206,434.6 11.100809,48.721879,432.5 11.100305,48.721777,430.8 11.099796,48.721609,429.2 11.098671,48.721821,427.7 11.098307,48.722016,428.1 11.097899,48.722304,429.6 11.097313,48.72251,431.8 11.096739,48.722833,434.8 11.096408,48.72306,436.8 11.0962,48.723166,438.0 11.096098,48.723267,438.8 11.094825,48.724162,444.4 11.094063,48.724662,446.0 11.093891,48.724775,446.4 11.093563,48.725163,447.2 11.092033,48.72615,449.1 11.091313,48.726233,448.3 11.091125,48.726224,448.0 11.090983,48.726492,446.9 11.090941,48.726643,446.2 11.090874,48.727076,443.9 11.090916,48.727257,443.1 11.090457,48.72719,441.9 11.090162,48.727109,441.1 11.089766,48.727098,440.2 11.088956,48.727194,438.2 11.088693,48.727183,437.7 11.088505,48.727159,437.4 11.088176,48.727028,437.0 11.088034,48.726844,436.8 11.087993,48.72679,436.7 11.08786,48.726693,436.5 11.087774,48.726717,436.4 11.087577,48.726771,436.3 11.087276,48.726899,435.9 11.086613,48.72717,435.0 11.086308,48.727231,434.6 11.083847,48.727571,429.8 11.082023,48.727799,428.0 11.081561,48.727769,427.8 11.081196,48.727703,427.7 11.081102,48.727682,427.6 11.080444,48.727533,426.9 11.080008,48.727449,426.0 11.079697,48.727445,425.2 11.079466,48.727396,424.5 11.079299,48.727311,423.7 11.078945,48.727028,421.6 11.078801,48.726982,420.9 11.078516,48.726978,419.7 11.078404,48.726928,419.0 11.078382,48.726667,417.3 11.078334,48.726603,416.8 11.078237,48.726571,416.4 11.07761,48.726534,414.2 11.077571,48.726515,414.0 11.077528,48.726421,413.5 11.076542,48.726387,411.1 11.075957,48.726295,409.6 11.07542,48.726182,408.2 11.075008,48.726054,406.9 11.074182,48.725754,404.3 11.071929,48.724854,398.7 11.071766,48.724811,398.5 11.071183,48.724582,397.7 11.070572,48.724547,397.2 11.069552,48.724731,396.1 11.068447,48.725035,393.4 11.068286,48.724886,392.8 11.068027,48.724643,391.8 11.067848,48.724617,391.4 11.067883,48.724588,391.3</coordinates>
                </LineString>
            </MultiGeometry>
        </Placemark>
        <Placemark id="4333">
            <name>Root Path in the Forest</name>
            <Point id="4332">
                <coordinates>11.092313,48.728703,493.4</coordinates>
            </Point>
        </Placemark>
        <Placemark id="4335">
            <name>Red Wood Ant Mound Area</name>
            <Point id="4334">
                <coordinates>11.094396,48.728725,468.6</coordinates>
            </Point>
        </Placemark>
        <Placemark id="4337">
            <name>Flachsberg</name>
            <Point id="4336">
                <coordinates>11.09692,48.72818,464.6</coordinates>
            </Point>
        </Placemark>
        <Placemark id="4339">
            <name>Kaiserburg Ruins</name>
            <Point id="4338">
                <coordinates>11.101615,48.730648,450.7</coordinates>
            </Point>
        </Placemark>
        <Placemark id="4341">
            <name>Path Along the Danube</name>
            <Point id="4340">
                <coordinates>11.105973,48.733182,426.9</coordinates>
            </Point>
        </Placemark>
        <Placemark id="4343">
            <name>Forest Chapel and Our Father Tree</name>
            <Point id="4342">
                <coordinates>11.088035,48.726844,490.0</coordinates>
            </Point>
        </Placemark>
        <Placemark id="4345">
            <name>St. Ulrich Chapel</name>
            <Point id="4344">
                <coordinates>11.087773,48.726715,489.0</coordinates>
            </Point>
        </Placemark>
    </Document>
</kml>
