<?xml version="1.0" encoding="UTF-8"?>
<kml xmlns="http://www.opengis.net/kml/2.2" xmlns:gx="http://www.google.com/kml/ext/2.2">
    <Document id="4529">
        <name>Rundweg Murnauer Moos – Ramsachkircherl (Ähndl) Runde von Murnau am Staffelsee-2559095866.gpx</name>
        <Placemark id="4531">
            <name>Rundweg Murnauer Moos – Ramsachkircherl (Ähndl) Runde von Murnau am Staffelsee</name>
            <MultiGeometry id="4530">
                <LineString id="4532">
                    <coordinates>11.191047,47.665869,621.5 11.190976,47.665858,621.5 11.190966,47.66594,621.4 11.190959,47.665999,621.3 11.190687,47.665989,621.2 11.190556,47.665992,621.1 11.190474,47.665995,621.0 11.189719,47.666036,620.5 11.188673,47.666238,619.8 11.188537,47.666236,619.8 11.188302,47.666234,619.8 11.187803,47.666286,619.8 11.1875,47.666278,619.9 11.18723,47.66622,620.0 11.187116,47.666196,620.0 11.186616,47.666035,620.1 11.185979,47.665728,620.3 11.185657,47.665695,620.4 11.185633,47.665635,620.4 11.185607,47.665569,620.5 11.185549,47.665516,620.5 11.185429,47.665522,620.5 11.184432,47.665987,620.4 11.184256,47.666043,620.3 11.184099,47.66605,620.3 11.18357,47.66592,620.1 11.182993,47.665627,619.8 11.182759,47.665565,619.7 11.182604,47.665562,619.7 11.182051,47.665468,619.6 11.18127,47.665417,619.6 11.18069,47.66528,619.9 11.178099,47.664585,620.9 11.177502,47.664398,621.1 11.176498,47.664172,621.4 11.176122,47.664047,621.4 11.176082,47.664094,621.4 11.176046,47.664162,621.4 11.175913,47.664378,621.4 11.175816,47.664612,621.4 11.175709,47.665135,622.1 11.175722,47.665445,622.9 11.175724,47.665482,623.0 11.175728,47.665576,623.4 11.17573,47.665673,623.7 11.175676,47.666708,628.1 11.174871,47.666674,630.7 11.174294,47.666693,632.1 11.173911,47.666772,632.8 11.173184,47.666923,633.8 11.172857,47.667052,634.1 11.172057,47.667118,634.2 11.171507,47.667109,633.7 11.171119,47.66713,633.1 11.17095,47.667121,632.8 11.170741,47.667064,632.4 11.170411,47.666911,631.6 11.170143,47.66666,630.8 11.169923,47.666585,630.5 11.169648,47.666528,630.1 11.168926,47.666501,629.6 11.168665,47.666595,629.7 11.168463,47.66662,629.9 11.168194,47.666563,630.3 11.167686,47.666313,632.1 11.167433,47.666229,633.2 11.167222,47.666202,634.2 11.166956,47.666224,635.5 11.166622,47.667487,648.4 11.166578,47.667528,649.0 11.166545,47.667558,649.5 11.166277,47.667564,651.7 11.16567,47.667592,656.5 11.165615,47.667669,657.5 11.16542,47.667724,659.2 11.165101,47.667915,662.6 11.164332,47.668089,668.7 11.164086,47.668486,671.8 11.163952,47.668697,672.5 11.16359,47.668726,672.8 11.163952,47.668697,672.5 11.164086,47.668486,671.8 11.164332,47.668089,668.7 11.165101,47.667915,662.6 11.16542,47.667724,659.2 11.165615,47.667669,657.5 11.16567,47.667592,656.5 11.166277,47.667564,651.7 11.166545,47.667558,649.5 11.166622,47.667487,648.4 11.166956,47.666224,635.5 11.167222,47.666202,634.2 11.167433,47.666229,633.2 11.167686,47.666313,632.1 11.168194,47.666563,630.3 11.168463,47.66662,629.9 11.168665,47.666595,629.7 11.168926,47.666501,629.6 11.169648,47.666528,630.1 11.169923,47.666585,630.5 11.170143,47.66666,630.8 11.170411,47.666911,631.6 11.170741,47.667064,632.4 11.17095,47.667121,632.8 11.171119,47.66713,633.1 11.171507,47.667109,633.7 11.172057,47.667118,634.2 11.172857,47.667052,634.1 11.173184,47.666923,633.8 11.174294,47.666693,632.3 11.174871,47.666674,631.9 11.175676,47.666708,631.8 11.175974,47.666798,631.9 11.1761,47.666865,632.0 11.17639,47.666973,632.2 11.177239,47.667012,633.2 11.177904,47.667119,633.9 11.178803,47.667212,634.1 11.179388,47.667198,634.0 11.179956,47.667225,633.7 11.180767,47.667288,632.6 11.181101,47.667248,632.0 11.181373,47.667169,631.4 11.181908,47.666946,630.0 11.181964,47.666932,629.9 11.182605,47.666778,628.4 11.183287,47.666691,626.8 11.183894,47.666568,625.5 11.184191,47.666515,624.9 11.184472,47.666408,624.2 11.184923,47.666218,623.2 11.185054,47.666113,622.9 11.185272,47.665863,622.2 11.185318,47.66581,622.1 11.185432,47.665749,621.9 11.185657,47.665695,621.5 11.185979,47.665728,621.1 11.186616,47.666035,620.4 11.187116,47.666196,620.0 11.18723,47.66622,620.0 11.1875,47.666278,619.9 11.187803,47.666286,619.8 11.188302,47.666234,619.8 11.188537,47.666236,619.8 11.188673,47.666238,619.8 11.189719,47.666036,620.5 11.190474,47.665995,621.0 11.190556,47.665992,621.1 11.190687,47.665989,621.2 11.190959,47.665999,621.3 11.190966,47.66594,621.4 11.190976,47.665858,621.5 11.191047,47.665869,621.5</coordinates>
                </LineString>
            </MultiGeometry>
        </Placemark>
        <Placemark id="4535">
            <name>Parking</name>
            <Point id="4534">
                <coordinates>11.191063,47.665824,0</coordinates>
            </Point>
        </Placemark>
        <Placemark id="4537">
            <name>Murnau Moss</name>
            <Point id="4536">
                <coordinates>11.188538,47.666208,672.9</coordinates>
            </Point>
        </Placemark>
        <Placemark id="4539">
            <name>Bench with a view of the Murnauer Moos</name>
            <Point id="4538">
                <coordinates>11.173916,47.666782,634.0</coordinates>
            </Point>
        </Placemark>
        <Placemark id="4541">
            <name>View over the Murnauer Moos and the Alps</name>
            <Point id="4540">
                <coordinates>11.166562,47.66752,710.5</coordinates>
            </Point>
        </Placemark>
        <Placemark id="4543">
            <name>Murnauer Moos Loop Trail</name>
            <Point id="4542">
                <coordinates>11.163604,47.668725,736.0</coordinates>
            </Point>
        </Placemark>
        <Placemark id="4545">
            <name>Bench With View of the Alps</name>
            <Point id="4544">
                <coordinates>11.18198,47.666963,685.2</coordinates>
            </Point>
        </Placemark>
        <Placemark id="4547">
            <name>Ramsach Chapel (Ähndl)</name>
            <Point id="4546">
                <coordinates>11.185327,47.665885,622.3</coordinates>
            </Point>
        </Placemark>
        <Placemark id="4549">
            <name>Ramsach Church (Ramsachkircherl)</name>
            <Point id="4548">
                <coordinates>11.187216,47.66625,624.1</coordinates>
            </Point>
        </Placemark>
        <Placemark id="4551">
            <name>Murnauer Moos Visitor Parking</name>
            <Point id="4550">
                <coordinates>11.190913,47.665937,674.4</coordinates>
            </Point>
        </Placemark>
    </Document>
</kml>
