<?xml version="1.0" encoding="UTF-8"?>
<kml xmlns="http://www.opengis.net/kml/2.2" xmlns:gx="http://www.google.com/kml/ext/2.2">
    <Document id="4553">
        <name>Rundweg Schlehenberg - Haselhöhe - Emtmannsberg-3153663504.gpx</name>
        <Placemark id="4555">
            <name>Rundweg Schlehenberg - Haselhöhe - Emtmannsberg</name>
            <MultiGeometry id="4554">
                <LineString id="4556">
                    <coordinates>11.622275,49.907728,396.7 11.622189,49.90785,397.2 11.62227,49.907871,397.4 11.622735,49.9081,399.3 11.623095,49.908341,401.7 11.623507,49.908676,405.8 11.623869,49.90882,408.8 11.624478,49.908915,413.9 11.625405,49.908935,421.8 11.625848,49.908868,425.8 11.626195,49.909316,432.4 11.626353,49.909674,436.7 11.62643,49.910041,440.4 11.626441,49.910316,442.9 11.626396,49.910591,445.2 11.626252,49.910943,447.9 11.626141,49.911122,449.0 11.626083,49.911329,450.2 11.626168,49.911941,452.6 11.626166,49.91203,452.9 11.626158,49.912364,453.9 11.626143,49.912573,454.5 11.625952,49.912991,455.7 11.625989,49.913514,457.4 11.625777,49.914185,460.2 11.625879,49.914614,462.3 11.626249,49.915092,465.1 11.626349,49.915483,467.3 11.626914,49.916041,471.6 11.627,49.916064,472.1 11.627078,49.916042,472.5 11.628228,49.915201,481.6 11.628383,49.915036,483.3 11.62844,49.914784,485.4 11.628614,49.914651,486.9 11.629513,49.914414,491.7 11.630085,49.913268,499.6 11.63049,49.912861,501.4 11.63069,49.912417,502.7 11.630794,49.912227,503.3 11.63095,49.91165,505.4 11.63406,49.911854,516.8 11.634399,49.911535,517.6 11.634491,49.911366,517.8 11.635627,49.909287,514.5 11.635828,49.909005,514.6 11.635916,49.908733,514.8 11.636132,49.908518,515.2 11.636672,49.908112,516.5 11.636963,49.908153,517.0 11.637092,49.908049,517.3 11.637555,49.908,518.0 11.637877,49.907871,518.4 11.638739,49.907237,519.4 11.63893,49.906956,519.3 11.639024,49.906728,518.8 11.639192,49.906518,518.1 11.639625,49.906318,516.6 11.639686,49.906269,516.3 11.639745,49.906293,516.1 11.639775,49.906305,516.0 11.639975,49.906318,515.3 11.640797,49.906286,512.3 11.641116,49.906391,510.9 11.642591,49.905654,503.9 11.642963,49.905408,502.1 11.643177,49.905183,500.6 11.643456,49.904663,497.3 11.643837,49.903706,491.9 11.644248,49.903117,488.6 11.644585,49.902754,486.3 11.645001,49.90244,484.1 11.64514,49.902336,483.5 11.645817,49.901909,481.5 11.645962,49.901674,481.0 11.645566,49.901688,480.6 11.645257,49.90166,480.5 11.645079,49.901122,481.3 11.644929,49.900938,481.9 11.644391,49.900458,484.1 11.644012,49.900218,485.2 11.643676,49.899854,486.7 11.643624,49.899394,488.3 11.643657,49.898481,491.3 11.643908,49.897654,494.3 11.643972,49.897159,495.7 11.644086,49.896651,496.6 11.644104,49.896253,496.8 11.644505,49.89626,496.8 11.644595,49.896292,496.8 11.644611,49.896347,496.7 11.64467,49.896347,496.7 11.644611,49.896347,496.7 11.644595,49.896292,496.6 11.644505,49.89626,496.6 11.644508,49.895864,496.1 11.644113,49.895865,495.7 11.64404,49.89552,495.3 11.644016,49.895406,495.1 11.643905,49.895195,494.7 11.643697,49.895014,494.2 11.643004,49.894652,493.1 11.642846,49.894503,492.8 11.642548,49.8943,492.3 11.643144,49.893876,490.5 11.643324,49.893676,489.3 11.643538,49.8934,487.5 11.644345,49.893495,483.6 11.645169,49.893662,478.3 11.645372,49.893724,476.7 11.646372,49.894022,470.0 11.646531,49.893774,468.5 11.646809,49.893431,467.1 11.646719,49.893277,466.9 11.646661,49.893069,466.9 11.646622,49.892802,466.9 11.646487,49.89241,467.5 11.646371,49.892326,467.8 11.646279,49.89226,468.2 11.646133,49.892119,468.8 11.646591,49.892117,469.9 11.646592,49.891981,470.5 11.646596,49.891932,470.8 11.646592,49.891981,471.0 11.646591,49.892117,471.7 11.646133,49.892119,473.5 11.646069,49.892053,474.0 11.64587,49.891742,476.3 11.645807,49.891628,477.4 11.645751,49.891586,477.8 11.645099,49.891362,482.1 11.64495,49.891382,482.9 11.644796,49.891441,483.9 11.64432,49.891721,486.9 11.644091,49.891859,488.0 11.643745,49.892005,488.8 11.643218,49.892197,489.2 11.643164,49.892244,489.2 11.643098,49.892194,489.2 11.641113,49.892464,484.3 11.640835,49.892562,482.8 11.640626,49.892611,481.7 11.640485,49.892615,481.0 11.64027,49.892592,479.8 11.639766,49.892458,476.8 11.639184,49.892339,473.1 11.637623,49.892071,464.4 11.637536,49.892019,463.9 11.637471,49.891939,463.3 11.637448,49.891803,462.4 11.637419,49.891315,458.9 11.63732,49.891084,457.1 11.637186,49.890927,455.8 11.636776,49.890776,453.4 11.636474,49.890425,450.0 11.636357,49.890306,448.8 11.635599,49.88953,440.6 11.635362,49.889539,439.3 11.634005,49.889686,432.4 11.633624,49.88967,431.0 11.633342,49.88963,430.3 11.6324,49.88936,427.8 11.63258,49.88906,426.5 11.632601,49.888848,425.6 11.632059,49.888862,423.8 11.6311,49.889065,419.2 11.630826,49.889071,417.6 11.629777,49.889274,413.1 11.629653,49.889328,412.7 11.629593,49.889315,412.6 11.629575,49.889339,412.5 11.629528,49.889408,412.2 11.629436,49.88949,411.9 11.629185,49.889557,411.3 11.628834,49.889514,410.8 11.628331,49.889624,410.2 11.62897,49.890373,409.5 11.629339,49.890615,408.7 11.629421,49.890789,408.2 11.629436,49.891449,407.2 11.62968,49.891775,407.4 11.629744,49.891945,407.6 11.629549,49.892239,407.9 11.629487,49.892974,409.2 11.629263,49.893547,410.8 11.629188,49.894215,412.8 11.628542,49.89504,415.3 11.627347,49.896027,418.7 11.627221,49.89608,419.0 11.627011,49.896074,419.3 11.6266,49.895945,419.7 11.625846,49.895778,419.7 11.625793,49.895996,419.4 11.626119,49.896669,417.4 11.626078,49.896861,416.3 11.625716,49.897544,412.6 11.625458,49.897892,411.0 11.625169,49.898204,409.6 11.624682,49.898448,408.5 11.624532,49.89858,408.0 11.624063,49.899342,406.2 11.624852,49.899806,405.2 11.625839,49.900552,405.1 11.626486,49.900887,405.9 11.626792,49.901282,406.4 11.626753,49.901326,406.5 11.62601,49.902169,406.2 11.62541,49.902725,404.6 11.625291,49.902985,403.8 11.625121,49.903136,403.1 11.625081,49.90342,401.9 11.625188,49.903922,399.5 11.625335,49.904246,398.0 11.625511,49.904403,397.1 11.625584,49.904375,396.9 11.625756,49.904594,395.9 11.625752,49.90468,395.6 11.625741,49.904861,395.1 11.625625,49.905007,394.8 11.624983,49.90526,394.2 11.624937,49.905282,394.2 11.624747,49.905373,394.2 11.62428,49.905597,394.2 11.623987,49.905807,394.0 11.623843,49.906083,393.6 11.623788,49.906272,393.3 11.623715,49.90653,392.7 11.623644,49.907024,391.0 11.623481,49.907229,390.2 11.623253,49.907306,389.6 11.623075,49.907332,389.2 11.622873,49.907327,388.7 11.622566,49.907256,388.1 11.621594,49.906884,387.5 11.621577,49.906896,387.6 11.621531,49.906929,387.7 11.621502,49.906947,387.7 11.621344,49.907051,388.1 11.621288,49.907172,388.5 11.621153,49.907231,388.8 11.622013,49.907783,391.6 11.622189,49.90785,392.2 11.622275,49.907728,392.8</coordinates>
                </LineString>
            </MultiGeometry>
        </Placemark>
        <Placemark id="4559">
            <name>Parking</name>
            <Point id="4558">
                <coordinates>11.62233,49.907744,0</coordinates>
            </Point>
        </Placemark>
        <Placemark id="4561">
            <name>Hühl Farmstead and Countryside View</name>
            <Point id="4560">
                <coordinates>11.626106,49.912029,507.3</coordinates>
            </Point>
        </Placemark>
        <Placemark id="4563">
            <name>Foundations of the Former Hühlturm Observation Tower</name>
            <Point id="4562">
                <coordinates>11.634869,49.911452,580.6</coordinates>
            </Point>
        </Placemark>
        <Placemark id="4565">
            <name>Viewing bench on the Schlehenberg</name>
            <Point id="4564">
                <coordinates>11.639752,49.906285,528.9</coordinates>
            </Point>
        </Placemark>
        <Placemark id="4567">
            <name>Viewing hill at the elevated tank</name>
            <Point id="4566">
                <coordinates>11.64467,49.896335,548.3</coordinates>
            </Point>
        </Placemark>
        <Placemark id="4569">
            <name>St. Bartholomew's Church, Emtmannsberg</name>
            <Point id="4568">
                <coordinates>11.646647,49.892141,468.6</coordinates>
            </Point>
        </Placemark>
        <Placemark id="4571">
            <name>Village Shop Emtmannsberg</name>
            <Point id="4570">
                <coordinates>11.646277,49.892298,519.9</coordinates>
            </Point>
        </Placemark>
        <Placemark id="4573">
            <name>Eiserner Steg Over the Roter Main</name>
            <Point id="4572">
                <coordinates>11.629527,49.889423,471.0</coordinates>
            </Point>
        </Placemark>
        <Placemark id="4575">
            <name>Weir and Mill Channel Junction for Schlehenmühle</name>
            <Point id="4574">
                <coordinates>11.62479,49.90541,441.3</coordinates>
            </Point>
        </Placemark>
        <Placemark id="4577">
            <name>Path Along the Upper Main</name>
            <Point id="4576">
                <coordinates>11.62377,49.90627,396.9</coordinates>
            </Point>
        </Placemark>
    </Document>
</kml>
