<?xml version="1.0" encoding="UTF-8"?>
<kml xmlns="http://www.opengis.net/kml/2.2" xmlns:gx="http://www.google.com/kml/ext/2.2">
    <Document id="4465">
        <name>Rund ums Kloster Holzen – Lauschtouren in Bayerisch-Schwaben-2956061485.gpx</name>
        <Placemark id="4467">
            <name>Rund ums Kloster Holzen – Lauschtouren in Bayerisch-Schwaben</name>
            <MultiGeometry id="4466">
                <LineString id="4468">
                    <coordinates>10.813669,48.604309,449.4 10.813869,48.604302,449.3 10.813924,48.604446,449.3 10.81393,48.604492,449.3 10.814408,48.604482,449.2 10.814898,48.604467,449.0 10.814896,48.604326,448.9 10.814898,48.604467,448.7 10.814408,48.604482,448.2 10.814408,48.604574,448.0 10.814337,48.604575,447.9 10.814343,48.604883,447.1 10.814338,48.604932,447.0 10.814422,48.604929,446.9 10.814829,48.604915,446.2 10.815024,48.604878,445.8 10.815325,48.604779,445.2 10.815503,48.604707,444.7 10.815614,48.60463,444.4 10.815732,48.604437,443.8 10.815728,48.604236,443.4 10.815722,48.603936,443.2 10.815794,48.603684,443.3 10.815767,48.603509,443.5 10.815691,48.603465,443.5 10.815544,48.603444,443.6 10.815468,48.603478,443.6 10.815442,48.603604,443.6 10.815323,48.603604,443.7 10.814778,48.603604,444.2 10.814408,48.603609,444.8 10.814393,48.603591,444.9 10.814357,48.603581,444.9 10.814354,48.603335,445.7 10.814081,48.603335,446.2 10.81394,48.603336,446.5 10.813953,48.603609,447.0 10.813951,48.603904,447.4 10.813863,48.603922,447.5 10.813865,48.604094,447.8 10.81385,48.604148,447.9 10.813583,48.604146,448.3 10.81351,48.604164,448.4 10.813473,48.604227,448.6 10.813375,48.604227,448.7 10.813246,48.604226,448.9 10.813255,48.604157,448.9 10.81326,48.604115,449.0 10.813213,48.604105,449.0 10.81294,48.604104,449.2 10.81278,48.604071,449.3 10.812676,48.604013,449.3 10.812035,48.604036,449.4 10.811494,48.604084,449.4 10.811373,48.604092,449.4 10.811494,48.604084,449.4 10.812035,48.604036,449.4 10.812676,48.604013,449.2 10.81278,48.604071,449.2 10.81294,48.604104,449.1 10.813213,48.604105,449.0 10.81326,48.604115,449.0 10.813255,48.604157,449.0 10.813246,48.604226,448.9 10.81324,48.604332,448.8 10.813229,48.604524,448.6 10.813241,48.604737,448.2 10.813708,48.60487,446.4 10.814189,48.604948,444.2 10.81422,48.604976,443.9 10.814284,48.604966,443.7 10.814297,48.604963,443.6 10.814338,48.604932,443.3 10.814362,48.605019,442.5 10.814409,48.605058,442.1 10.81441,48.605173,441.2 10.814419,48.605439,438.8 10.81443,48.60546,438.6 10.814498,48.605592,437.3 10.814778,48.60561,435.6 10.815139,48.605626,433.3 10.815333,48.605745,431.6 10.815542,48.605782,430.2 10.815437,48.605823,429.6 10.815308,48.605934,428.6 10.815369,48.606028,428.0 10.815411,48.606092,427.6 10.815659,48.606786,424.6 10.815722,48.606922,424.2 10.815829,48.607114,423.7 10.815835,48.607149,423.6 10.815898,48.607497,422.9 10.815754,48.608444,421.4 10.815683,48.608849,421.3 10.815564,48.609088,421.4 10.815499,48.609302,421.7 10.815208,48.609689,422.4 10.815113,48.609861,422.8 10.814892,48.610263,423.9 10.814699,48.611021,425.1 10.814657,48.611093,425.1 10.814584,48.611159,425.1 10.814503,48.611234,425.1 10.814392,48.611294,425.1 10.814316,48.611675,425.3 10.814426,48.61171,425.5 10.814405,48.611885,425.8 10.814778,48.612147,426.8 10.814512,48.612076,427.7 10.814598,48.612398,429.2 10.814588,48.612501,429.6 10.814515,48.612538,430.0 10.814238,48.612594,430.8 10.814206,48.612739,431.5 10.814138,48.612782,431.8 10.814027,48.6128,432.2 10.813909,48.612776,432.5 10.813374,48.612666,434.0 10.812524,48.612595,435.9 10.811738,48.612618,436.3 10.811475,48.612726,436.4 10.811474,48.612841,436.5 10.811473,48.612908,436.5 10.81133,48.612842,436.5 10.81126,48.612842,436.6 10.811022,48.612856,436.6 10.810719,48.612843,436.5 10.810409,48.612827,436.4 10.810327,48.612796,436.4 10.810407,48.612718,436.3 10.810498,48.612706,436.2 10.811142,48.612622,435.2 10.811266,48.612562,435.1 10.811336,48.612484,435.1 10.811372,48.612387,435.0 10.811292,48.612158,435.0 10.811637,48.612107,435.2 10.811518,48.611691,436.2 10.811356,48.611698,436.6 10.811359,48.611456,437.8 10.810735,48.611457,440.1 10.810756,48.611335,440.9 10.810778,48.61107,442.2 10.810818,48.610553,443.6 10.810799,48.610468,443.6 10.810853,48.610263,443.5 10.811391,48.610165,442.5 10.81167,48.610047,441.4 10.811833,48.609899,440.4 10.812335,48.609189,436.2 10.812333,48.609153,436.1 10.812278,48.609105,435.8 10.812082,48.609096,435.3 10.811806,48.609037,434.8 10.810949,48.60889,434.9 10.810443,48.608865,435.8 10.810108,48.608882,436.4 10.809849,48.608919,436.9 10.809553,48.608985,437.6 10.809551,48.608985,437.6 10.808516,48.609292,440.4 10.808127,48.609378,441.4 10.807891,48.607421,447.8 10.805338,48.607487,449.5 10.805022,48.607492,449.5 10.804918,48.607492,449.4 10.805275,48.606975,449.0 10.805286,48.606959,449.0 10.805609,48.606568,448.6 10.805923,48.606251,448.2 10.8061,48.60611,448.0 10.806443,48.605837,447.5 10.806624,48.605714,447.3 10.806732,48.605753,447.1 10.806911,48.605773,446.9 10.808588,48.605941,443.9 10.809502,48.605846,441.9 10.810314,48.605866,440.8 10.811046,48.605836,440.4 10.811654,48.605455,440.4 10.812037,48.605266,440.7 10.813051,48.605332,442.7 10.813387,48.605389,443.3 10.813432,48.605269,443.6 10.813726,48.605133,444.1 10.813982,48.605067,444.5</coordinates>
                </LineString>
            </MultiGeometry>
        </Placemark>
        <Placemark id="4471">
            <name>Holzen Abbey and the Abbey Church of St. John the Baptist</name>
            <Point id="4470">
                <coordinates>10.814852,48.604339,446.1</coordinates>
            </Point>
        </Placemark>
        <Placemark id="4473">
            <name>Marian Grotto at Holzen Abbey</name>
            <Point id="4472">
                <coordinates>10.815628,48.604237,484.0</coordinates>
            </Point>
        </Placemark>
        <Placemark id="4475">
            <name>Cloister Garden at Holzen Abbey</name>
            <Point id="4474">
                <coordinates>10.814419,48.603608,446.5</coordinates>
            </Point>
        </Placemark>
        <Placemark id="4477">
            <name>Wonderful paths along the Schmutter</name>
            <Point id="4476">
                <coordinates>10.815199,48.609882,422.4</coordinates>
            </Point>
        </Placemark>
    </Document>
</kml>
