<?xml version="1.0" encoding="UTF-8"?>
<kml xmlns="http://www.opengis.net/kml/2.2" xmlns:gx="http://www.google.com/kml/ext/2.2">
    <Document id="4693">
        <name>Schloss Bühl – Naturerlebnispfad Oberes Rotmaintal Runde von Schnabelwaid-2935099882.gpx</name>
        <Placemark id="4695">
            <name>Schloss Bühl – Naturerlebnispfad Oberes Rotmaintal Runde von Schnabelwaid</name>
            <MultiGeometry id="4694">
                <LineString id="4696">
                    <coordinates>11.587474,49.812966,444.7 11.587297,49.812954,444.7 11.587237,49.81295,444.8 11.586892,49.812925,444.9 11.586716,49.812913,445.0 11.586658,49.812909,445.0 11.585981,49.812858,445.4 11.585749,49.812844,445.5 11.585729,49.8134,445.6 11.585761,49.813463,445.6 11.585789,49.813524,445.6 11.586061,49.813641,445.5 11.586347,49.813747,445.4 11.586812,49.813877,445.2 11.587025,49.81391,445.1 11.587758,49.813786,444.7 11.587887,49.813786,444.6 11.587937,49.813848,444.5 11.588026,49.814402,444.3 11.588177,49.814721,444.3 11.588869,49.815494,444.4 11.587941,49.815732,444.8 11.586678,49.815844,446.0 11.586139,49.815919,446.6 11.585857,49.815978,446.9 11.586017,49.816288,447.3 11.586138,49.816924,447.9 11.586204,49.817067,447.9 11.587554,49.819043,448.5 11.588695,49.820781,451.0 11.589006,49.820675,451.0 11.589273,49.820853,451.0 11.590946,49.822383,450.7 11.591163,49.822582,451.2 11.591275,49.822745,451.6 11.591696,49.823392,453.5 11.592354,49.824317,456.0 11.592584,49.824526,456.0 11.592993,49.825129,455.4 11.5931,49.825243,455.2 11.593322,49.825352,454.9 11.594,49.825551,453.9 11.594276,49.825608,453.4 11.595026,49.825493,451.9 11.596003,49.825505,450.5 11.596145,49.825468,450.2 11.596495,49.825274,449.6 11.597119,49.825004,448.9 11.597334,49.824964,448.7 11.597534,49.824975,448.6 11.597723,49.825017,448.5 11.597953,49.825096,448.4 11.59807,49.825172,448.3 11.598299,49.825384,448.2 11.598245,49.825545,448.2 11.598439,49.826499,446.9 11.598485,49.826811,445.6 11.598679,49.827082,444.5 11.599014,49.827406,443.1 11.599049,49.827516,442.7 11.599024,49.827642,442.2 11.598923,49.827778,441.7 11.59875,49.827939,441.2 11.598653,49.828014,441.0 11.597319,49.829001,441.7 11.597081,49.829206,442.2 11.596947,49.829504,442.9 11.596957,49.829682,443.2 11.59708,49.830082,444.1 11.59713,49.830518,445.0 11.596989,49.831116,446.3 11.596984,49.831381,446.9 11.597056,49.831754,447.9 11.597212,49.832553,450.4 11.597305,49.833279,451.8 11.59754,49.835124,450.7 11.597532,49.835344,450.7 11.597457,49.835511,450.8 11.597345,49.835635,450.9 11.596987,49.835784,451.3 11.595242,49.836211,455.0 11.594556,49.836539,457.3 11.594142,49.836813,458.6 11.593779,49.837124,459.5 11.5937,49.83726,459.8 11.59686,49.837438,459.1 11.597383,49.837395,458.8 11.600304,49.836931,458.7 11.600328,49.839296,463.6 11.600313,49.83987,464.5 11.600305,49.84162,465.1 11.600304,49.841906,464.8 11.602787,49.841874,461.1 11.603695,49.841891,459.3 11.604568,49.842066,457.4 11.606666,49.842213,452.2 11.606795,49.842265,451.8 11.60695,49.842791,449.3 11.607022,49.84282,449.1 11.607306,49.842838,448.6 11.607582,49.842824,448.1 11.607805,49.842759,447.7 11.608281,49.842896,447.2 11.608733,49.843121,447.1 11.609596,49.843394,448.2 11.609881,49.843444,448.8 11.610455,49.843474,449.8 11.611137,49.843457,450.4 11.611428,49.843537,450.5 11.611659,49.843645,450.5 11.612009,49.843869,450.2 11.612238,49.843781,449.9 11.612862,49.843658,448.9 11.613021,49.843626,448.6 11.613882,49.843467,447.3 11.614195,49.843417,446.9 11.615654,49.843181,445.3 11.615996,49.843192,444.8 11.61674,49.843265,443.2 11.617583,49.843394,440.9 11.618702,49.843373,439.1 11.618844,49.843337,438.9 11.618994,49.843254,438.8 11.619231,49.842931,438.6 11.619375,49.842794,438.5 11.619516,49.84266,438.4 11.619533,49.842592,438.3 11.619468,49.842528,438.2 11.619715,49.842337,437.8 11.620181,49.842065,436.9 11.620656,49.841788,435.9 11.620888,49.84167,435.3 11.620954,49.841583,435.0 11.620955,49.841505,434.7 11.620834,49.841349,434.2 11.620531,49.841193,433.3 11.618829,49.840098,431.2 11.618589,49.839985,431.0 11.61831,49.8399,430.7 11.617614,49.839783,429.5 11.617496,49.839747,429.2 11.6174,49.839691,428.9 11.617334,49.83956,428.3 11.617282,49.838734,425.2 11.617188,49.838557,424.4 11.617174,49.838543,424.4 11.617103,49.838473,424.0 11.617033,49.838404,423.7 11.616825,49.838285,423.1 11.616686,49.838204,422.9 11.616183,49.837999,422.6 11.615636,49.837663,423.1 11.61521,49.83754,423.6 11.615154,49.837522,423.7 11.615105,49.837509,423.7 11.614745,49.837353,424.4 11.614077,49.836963,426.2 11.61394,49.836904,426.5 11.61307,49.836601,428.4 11.612879,49.836468,429.1 11.612858,49.836432,429.2 11.612845,49.836399,429.4 11.612347,49.836333,431.0 11.611923,49.836183,432.8 11.611395,49.835949,435.2 11.611205,49.835906,435.9 11.611046,49.83593,436.4 11.610314,49.836169,439.4 11.610048,49.836066,440.7 11.609551,49.835924,443.0 11.609469,49.835903,443.4 11.609398,49.835914,443.8 11.608606,49.836289,447.7 11.607888,49.836553,450.4 11.607258,49.836736,452.2 11.607084,49.836245,453.2 11.606593,49.836284,453.2 11.606329,49.836245,453.1 11.606198,49.836172,453.0 11.605968,49.835957,452.6 11.605532,49.835769,452.4 11.604757,49.835436,452.5 11.604354,49.835304,452.3 11.604176,49.835273,452.2 11.603377,49.835216,451.8 11.603486,49.834989,451.4 11.604055,49.834441,449.5 11.604128,49.834371,449.1 11.604387,49.833942,446.7 11.60445,49.83369,445.5 11.604462,49.833432,444.0 11.604411,49.83325,442.9 11.604272,49.833124,442.1 11.604191,49.832977,441.4 11.604145,49.832802,440.7 11.604218,49.832688,440.2 11.604309,49.832604,439.9 11.6046,49.832533,439.5 11.603809,49.83221,439.2 11.603742,49.832088,439.2 11.603702,49.831894,439.3 11.604058,49.83175,439.7 11.604081,49.831742,439.7 11.60415,49.831722,439.8 11.604176,49.831715,439.8 11.603815,49.831407,440.3 11.603679,49.831345,440.4 11.603232,49.831268,440.5 11.602967,49.831104,440.3 11.602945,49.831048,440.2 11.60267,49.830981,439.9 11.602573,49.830914,439.7 11.602556,49.830813,439.5 11.602486,49.830721,439.2 11.602085,49.830581,438.5 11.601799,49.830522,438.0 11.601267,49.830271,437.0 11.600969,49.829863,436.5 11.60104,49.82978,436.5 11.601155,49.829717,436.6 11.601171,49.829509,436.9 11.601111,49.829347,437.3 11.601008,49.829276,437.6 11.600936,49.829184,437.9 11.600966,49.829064,438.4 11.60107,49.828919,439.1 11.601501,49.828742,440.8 11.601295,49.828402,443.0 11.601172,49.827893,446.2 11.600926,49.827457,448.5 11.600918,49.827106,449.8 11.601063,49.826401,450.7 11.601219,49.826337,450.6 11.600561,49.825063,447.8 11.600437,49.8247,447.0 11.600222,49.824549,446.6 11.600079,49.824525,446.4 11.599788,49.824552,446.2 11.599409,49.82471,446.0 11.599148,49.824562,446.0 11.599434,49.82434,446.1 11.599448,49.823258,448.2 11.59945,49.823171,448.6 11.599516,49.822645,450.4 11.599499,49.822254,451.9 11.599417,49.822039,452.7 11.599412,49.821928,453.2 11.599303,49.821913,453.4 11.599219,49.821839,453.8 11.59925,49.821578,454.7 11.599227,49.821462,455.1 11.598736,49.820445,456.1 11.598532,49.820109,455.8 11.59831,49.819877,455.4 11.598265,49.819755,455.1 11.598165,49.819615,454.8 11.596908,49.818462,452.6 11.596721,49.818338,452.5 11.596042,49.818083,452.0 11.596033,49.818016,451.9 11.595652,49.817886,451.6 11.595071,49.817641,451.0 11.594891,49.817634,450.8 11.594748,49.817586,450.7 11.594366,49.81727,450.1 11.594153,49.817136,449.8 11.592438,49.816267,448.3 11.591866,49.815986,448.1 11.591519,49.815751,448.0 11.591381,49.815678,447.9 11.590319,49.814848,447.4 11.589637,49.814254,446.5 11.589262,49.813846,445.7 11.589132,49.813831,445.6 11.588469,49.813942,445.0 11.588297,49.813933,444.9 11.58816,49.813891,444.8 11.588107,49.813824,444.7 11.588014,49.81351,444.5 11.587973,49.813268,444.4 11.588085,49.812996,444.3 11.587805,49.812986,444.3 11.587474,49.812966,444.4</coordinates>
                </LineString>
            </MultiGeometry>
        </Placemark>
        <Placemark id="4699">
            <name>Schnabelwaid Hauptstraße</name>
            <Point id="4698">
                <coordinates>11.587462,49.813044,0</coordinates>
            </Point>
        </Placemark>
        <Placemark id="4701">
            <name>Bühl Castle</name>
            <Point id="4700">
                <coordinates>11.619365,49.84279,442.5</coordinates>
            </Point>
        </Placemark>
        <Placemark id="4703">
            <name>Theresienquelle Spring</name>
            <Point id="4702">
                <coordinates>11.617128,49.838562,482.0</coordinates>
            </Point>
        </Placemark>
        <Placemark id="4705">
            <name>Upper Rotmain Valley Nature Trail</name>
            <Point id="4704">
                <coordinates>11.617119,49.838466,474.0</coordinates>
            </Point>
        </Placemark>
        <Placemark id="4707">
            <name>Bird Observation Tower at Craimoosweiher</name>
            <Point id="4706">
                <coordinates>11.599412,49.823258,451.0</coordinates>
            </Point>
        </Placemark>
    </Document>
</kml>
