<?xml version="1.0" encoding="UTF-8"?>
<kml xmlns="http://www.opengis.net/kml/2.2" xmlns:gx="http://www.google.com/kml/ext/2.2">
    <Document id="4835">
        <name>Schloss Tapfheim Runde von Tapfheim-3057576202.gpx</name>
        <Placemark id="4837">
            <name>Schloss Tapfheim Runde von Tapfheim</name>
            <MultiGeometry id="4836">
                <LineString id="4838">
                    <coordinates>10.682074,48.673162,417.7 10.681946,48.67308,417.5 10.68166,48.672878,416.7 10.681501,48.672767,416.2 10.681872,48.672485,414.8 10.682492,48.672032,412.3 10.683307,48.672037,409.9 10.683311,48.672119,409.6 10.683307,48.672037,409.3 10.683649,48.672046,408.7 10.684195,48.672106,408.3 10.68468,48.672235,408.2 10.684634,48.672416,408.3 10.684378,48.672785,409.0 10.68446,48.672815,409.2 10.684593,48.672877,409.5 10.684769,48.673035,410.2 10.684798,48.673142,410.6 10.684805,48.673196,410.8 10.684738,48.673442,411.9 10.684498,48.673749,413.2 10.684476,48.673817,413.5 10.684587,48.674013,414.3 10.684378,48.674173,415.2 10.684149,48.674331,416.1 10.684467,48.67453,417.0 10.684104,48.674768,417.9 10.683908,48.674966,418.4 10.683896,48.675009,418.5 10.683879,48.675082,418.6 10.68386,48.675133,418.7 10.683865,48.675335,419.0 10.683954,48.675481,419.2 10.684,48.67551,419.2 10.684358,48.67568,419.6 10.685069,48.676001,420.4 10.685216,48.676042,420.5 10.685159,48.676191,420.7 10.685034,48.676413,420.9 10.68494,48.676578,421.1 10.684759,48.676738,421.3 10.68454,48.676869,421.5 10.684252,48.677042,421.8 10.684078,48.67715,422.0 10.68214,48.678288,423.9 10.681857,48.678518,424.3 10.681682,48.678726,424.7 10.681605,48.678774,424.8 10.681485,48.67878,424.9 10.681331,48.678783,425.1 10.678745,48.680789,431.1 10.678284,48.681178,432.7 10.678153,48.681224,433.0 10.676755,48.681258,436.4 10.675338,48.68132,441.2 10.673879,48.681419,449.4 10.671826,48.681541,465.4 10.670863,48.681323,473.2 10.669745,48.68122,480.5 10.668204,48.68097,487.4 10.667544,48.68092,489.0 10.666677,48.68113,490.6 10.665226,48.681601,492.2 10.664162,48.682019,493.7 10.663203,48.682461,496.1 10.662763,48.682743,498.0 10.662663,48.682723,498.3 10.662486,48.682571,499.2 10.662238,48.682561,500.0 10.662103,48.682809,501.3 10.662139,48.683084,502.5 10.662342,48.683516,504.3 10.662087,48.684289,505.8 10.662042,48.684535,505.9 10.662672,48.685258,505.8 10.663159,48.685842,505.0 10.663159,48.686022,504.6 10.663147,48.686165,504.3 10.663293,48.686358,503.7 10.663545,48.686536,502.9 10.66454,48.686641,500.0 10.665107,48.686728,498.2 10.665658,48.686776,496.5 10.66573,48.686817,496.3 10.665708,48.686885,496.0 10.664761,48.687388,493.2 10.664241,48.687548,492.0 10.663686,48.687617,490.5 10.663214,48.687709,489.0 10.66286,48.687839,487.2 10.662627,48.687975,485.7 10.662297,48.688285,482.6 10.661929,48.688756,477.7 10.661253,48.689076,471.9 10.661194,48.689175,470.7 10.661288,48.689287,469.2 10.661641,48.689507,465.6 10.662122,48.68987,460.3 10.662377,48.690063,457.5 10.662806,48.690341,453.0 10.66304,48.690433,451.1 10.664214,48.690674,444.1 10.664375,48.690769,443.4 10.664711,48.691185,441.5 10.664161,48.691132,440.7 10.663953,48.691111,440.5 10.663226,48.692393,443.0 10.66291,48.692292,444.4 10.66198,48.693201,450.6 10.662754,48.693328,452.1 10.664043,48.693587,449.7 10.663942,48.693724,449.0 10.663595,48.695391,437.3 10.663379,48.696538,429.7 10.66342,48.69666,429.3 10.661637,48.696757,429.9 10.661233,48.696695,431.0 10.660866,48.696553,432.2 10.660486,48.69645,433.6 10.660231,48.696431,434.5 10.659887,48.696462,435.8 10.65895,48.696656,439.9 10.657091,48.696914,450.6 10.65586,48.696519,461.0 10.654401,48.696446,472.1 10.654017,48.696361,474.6 10.653428,48.695794,479.8 10.653035,48.695195,483.3 10.653131,48.694429,486.2 10.653294,48.693211,488.2 10.653234,48.693053,488.2 10.653035,48.692915,488.2 10.652964,48.692746,488.4 10.653116,48.692352,488.8 10.653059,48.692149,489.1 10.652294,48.691275,492.0 10.651265,48.690354,495.6 10.651002,48.690157,496.0 10.65031,48.689753,496.1 10.650047,48.689676,496.0 10.649169,48.68958,495.6 10.648627,48.689308,496.1 10.648117,48.688927,497.9 10.647302,48.688655,502.1 10.647334,48.688505,503.4 10.647271,48.688422,504.2 10.647168,48.688093,507.1 10.647264,48.687354,512.1 10.647897,48.687071,513.6 10.648098,48.686107,513.0 10.647996,48.686145,512.9 10.648098,48.686107,512.7 10.649574,48.685555,508.6 10.649606,48.685384,507.5 10.649534,48.685277,506.7 10.648802,48.684464,499.0 10.648363,48.684086,495.3 10.64782,48.683538,491.6 10.647142,48.68276,488.8 10.647021,48.682451,487.9 10.646981,48.681331,484.8 10.646705,48.679445,481.1 10.646558,48.678468,475.9 10.646119,48.677524,466.0 10.64617,48.677344,463.8 10.646322,48.677022,459.7 10.646366,48.676656,455.6 10.646762,48.676338,451.2 10.647241,48.67616,448.6 10.647574,48.675998,447.5 10.647853,48.675719,447.1 10.64847,48.67589,448.1 10.648905,48.676046,449.7 10.649084,48.676111,450.7 10.649473,48.676364,453.9 10.649666,48.676549,456.1 10.649768,48.676768,458.3 10.649349,48.678045,468.1 10.649374,48.678756,469.5 10.649443,48.67907,468.8 10.649629,48.679428,467.0 10.6498,48.679529,466.0 10.650118,48.679587,464.6 10.650443,48.679571,463.1 10.650772,48.679464,461.4 10.650986,48.679354,460.2 10.6512,48.679197,459.0 10.651511,48.679137,458.2 10.651758,48.67918,457.8 10.651946,48.679301,457.7 10.652144,48.679559,458.1 10.652268,48.679655,458.6 10.652515,48.679949,460.5 10.652949,48.680388,465.1 10.653239,48.680877,471.1 10.653614,48.681706,480.5 10.653807,48.681964,482.7 10.654011,48.68212,484.0 10.654106,48.682121,484.4 10.65746,48.680522,484.9 10.657585,48.680457,484.8 10.658033,48.680224,484.1 10.658483,48.679988,482.9 10.658623,48.679928,482.4 10.659917,48.679375,475.1 10.660208,48.679263,472.7 10.660553,48.679203,470.2 10.661363,48.678776,462.1 10.661969,48.678321,454.7 10.662366,48.67797,449.6 10.663075,48.677645,443.6 10.664216,48.676879,435.3 10.664483,48.676632,433.6 10.664774,48.67639,432.2 10.665038,48.676285,431.3 10.66726,48.675723,427.1 10.669682,48.675104,424.6 10.669981,48.674983,424.3 10.671157,48.674147,423.5 10.671814,48.673594,423.5 10.6728,48.673031,424.0 10.673448,48.672586,424.2 10.674035,48.672225,424.3 10.674106,48.672174,424.3 10.674272,48.672429,424.2 10.674569,48.672724,424.2 10.675217,48.673241,424.1 10.674569,48.672724,424.2 10.674272,48.672429,424.2 10.674106,48.672174,424.3 10.673796,48.671811,424.4 10.673515,48.671647,424.4 10.67315,48.671514,424.3 10.672602,48.671414,424.1 10.672507,48.671348,424.0 10.672536,48.671294,424.0 10.672502,48.671211,423.9 10.67251,48.671061,423.7 10.672649,48.670856,423.3 10.672888,48.670647,422.9 10.673264,48.670417,422.5 10.673931,48.670166,422.0 10.67396,48.670247,421.9 10.67392,48.670286,421.9 10.673602,48.670392,421.8 10.673531,48.67044,421.8 10.673524,48.670599,421.7 10.674972,48.671608,422.0 10.675552,48.672032,422.2 10.675911,48.672308,422.3 10.676298,48.672482,422.3 10.676716,48.672625,422.4 10.677345,48.672749,422.3 10.677787,48.672806,422.2 10.678574,48.672916,421.7 10.679962,48.673173,420.6 10.680442,48.673268,420.2 10.680739,48.673364,419.9 10.680967,48.673452,419.7 10.681026,48.673475,419.6 10.681262,48.673582,419.4 10.681312,48.673605,419.4 10.681946,48.67308,418.7 10.682074,48.673162,418.7</coordinates>
                </LineString>
            </MultiGeometry>
        </Placemark>
        <Placemark id="4841">
            <name>Tapfheim Gasthof Adler</name>
            <Point id="4840">
                <coordinates>10.682011,48.673195,0</coordinates>
            </Point>
        </Placemark>
        <Placemark id="4843">
            <name>Tapfheim Castle</name>
            <Point id="4842">
                <coordinates>10.683343,48.672118,453.0</coordinates>
            </Point>
        </Placemark>
        <Placemark id="4845">
            <name>Memorial Plaque for Fallen Soldiers (1914–1918) in Geopark Ries Forest</name>
            <Point id="4844">
                <coordinates>10.648008,48.686159,542.0</coordinates>
            </Point>
        </Placemark>
        <Placemark id="4847">
            <name>Park bench with table for picnics</name>
            <Point id="4846">
                <coordinates>10.6752,48.67325,424.6</coordinates>
            </Point>
        </Placemark>
    </Document>
</kml>
