<?xml version="1.0" encoding="UTF-8"?>
<kml xmlns="http://www.opengis.net/kml/2.2" xmlns:gx="http://www.google.com/kml/ext/2.2">
    <Document id="4729">
        <name>Schloss Scherneck – Blick auf Schloss Scherneck Runde von Anwalting-2790404017.gpx</name>
        <Placemark id="4731">
            <name>Schloss Scherneck – Blick auf Schloss Scherneck Runde von Anwalting</name>
            <MultiGeometry id="4730">
                <LineString id="4732">
                    <coordinates>10.939464,48.458144,456.3 10.939644,48.458236,456.5 10.939826,48.458329,456.6 10.940039,48.458437,456.8 10.940138,48.458487,456.9 10.940481,48.458695,457.1 10.941011,48.459117,457.5 10.940898,48.459185,457.5 10.94064,48.459264,457.5 10.940324,48.459316,457.4 10.939984,48.459343,457.2 10.939723,48.459381,457.0 10.939448,48.459452,456.7 10.93912,48.459581,456.2 10.939077,48.459599,456.2 10.939003,48.459634,456.1 10.938796,48.459735,455.8 10.938423,48.459938,455.2 10.938279,48.460031,455.0 10.938003,48.460285,454.5 10.937763,48.460553,454.1 10.93746,48.460961,453.8 10.937323,48.461236,453.8 10.937208,48.461786,454.3 10.937096,48.46202,455.0 10.936853,48.462373,457.0 10.936761,48.462617,459.0 10.936698,48.462756,460.3 10.936687,48.462819,460.9 10.936718,48.463225,465.4 10.936796,48.463314,466.8 10.936851,48.463606,470.6 10.93704,48.463922,475.0 10.937015,48.463996,475.9 10.937146,48.464047,477.1 10.937192,48.464125,478.0 10.93711,48.464323,479.9 10.936403,48.464287,483.5 10.935878,48.464236,485.3 10.935624,48.46413,485.9 10.934902,48.464437,487.0 10.934414,48.464818,488.3 10.934173,48.465249,490.1 10.933779,48.465692,492.3 10.933583,48.465914,493.6 10.933558,48.466043,494.3 10.933674,48.466193,495.2 10.934902,48.466707,499.4 10.935681,48.466745,500.1 10.935484,48.466966,500.1 10.935369,48.4672,500.0 10.935323,48.467439,499.5 10.935366,48.467655,498.8 10.935474,48.467802,498.2 10.935507,48.467973,497.3 10.935058,48.468075,495.7 10.933927,48.467989,491.3 10.93369,48.467953,490.4 10.933591,48.467842,489.7 10.933337,48.46766,488.5 10.933119,48.467631,488.1 10.932888,48.467661,487.8 10.932808,48.467718,487.7 10.932731,48.467773,487.7 10.932607,48.467985,487.8 10.932327,48.468258,488.2 10.932204,48.468436,488.5 10.932193,48.468525,488.7 10.93253,48.468747,488.8 10.932476,48.46931,487.1 10.932429,48.469378,486.6 10.932251,48.46947,485.4 10.931965,48.469717,482.7 10.931886,48.469845,481.6 10.931204,48.470235,478.0 10.931235,48.470453,477.1 10.931437,48.470641,476.4 10.931825,48.470809,475.8 10.932224,48.470928,475.5 10.932581,48.470978,475.1 10.932659,48.470989,475.0 10.932708,48.471032,474.8 10.932468,48.471056,474.2 10.932133,48.471026,472.9 10.931564,48.471133,469.8 10.931108,48.471183,466.8 10.930883,48.47118,465.3 10.930812,48.471189,464.9 10.930758,48.471167,464.4 10.930812,48.471189,464.0 10.93103,48.471452,461.2 10.931025,48.471583,460.1 10.930965,48.471692,459.2 10.929753,48.47264,453.3 10.929527,48.47279,452.7 10.929099,48.47296,451.9 10.929045,48.473125,451.5 10.929035,48.47317,451.5 10.929022,48.473238,451.3 10.928858,48.473836,450.3 10.928544,48.474398,449.7 10.928398,48.474812,449.3 10.928372,48.475008,449.1 10.928394,48.475504,449.1 10.928361,48.475651,449.3 10.928272,48.475805,449.8 10.927982,48.476106,451.4 10.928507,48.476429,454.5 10.928924,48.476616,456.1 10.929305,48.476682,457.1 10.929578,48.476672,457.7 10.929649,48.476655,457.8 10.929578,48.476672,457.9 10.929272,48.47688,458.2 10.928268,48.477986,453.9 10.927721,48.478679,452.9 10.927576,48.479132,453.0 10.927575,48.47958,453.1 10.927514,48.480022,453.1 10.92755,48.480379,452.5 10.927675,48.480908,451.7 10.927577,48.481047,451.6 10.92748,48.481062,451.5 10.927492,48.481396,451.7 10.927466,48.48158,452.1 10.927356,48.481869,453.0 10.927884,48.481862,454.8 10.928396,48.481845,457.3 10.929027,48.481785,460.8 10.929545,48.481681,463.8 10.930205,48.481499,467.2 10.93054,48.481431,468.5 10.930994,48.481375,470.1 10.931295,48.481375,471.4 10.931462,48.481403,472.1 10.931757,48.481491,473.8 10.932031,48.481636,475.8 10.932239,48.481604,477.1 10.932175,48.481428,478.8 10.931792,48.480838,485.1 10.931745,48.480708,486.4 10.931633,48.480619,487.6 10.931139,48.480585,490.7 10.93093,48.480684,492.1 10.930628,48.480618,493.4 10.930163,48.480432,494.5 10.929514,48.480015,496.4 10.929467,48.479985,496.6 10.929243,48.479803,497.1 10.929187,48.479686,497.4 10.929552,48.479631,498.0 10.93028,48.479457,498.2 10.930394,48.479382,498.3 10.930499,48.479201,498.6 10.93049,48.47905,499.0 10.930637,48.478636,499.4 10.930618,48.478485,499.5 10.930637,48.478636,499.6 10.93049,48.47905,499.4 10.930499,48.479201,499.1 10.930688,48.47895,498.5 10.930836,48.478608,497.7 10.930852,48.47858,497.6 10.930889,48.478547,497.5 10.93106,48.478205,496.1 10.931442,48.477599,493.8 10.931598,48.477458,493.3 10.931725,48.477399,493.1 10.932431,48.477231,493.1 10.932653,48.47713,493.3 10.933036,48.476869,494.3 10.933682,48.476593,496.2 10.934394,48.476542,498.2 10.935815,48.47654,501.8 10.936694,48.476275,503.5 10.937971,48.476127,505.2 10.937945,48.475749,505.8 10.93791,48.475348,506.5 10.938285,48.475336,506.8 10.938501,48.475296,506.9 10.938974,48.475068,507.0 10.939177,48.474921,506.8 10.939154,48.474719,506.6 10.939191,48.473866,505.6 10.939315,48.47327,505.4 10.939286,48.473158,505.5 10.93904,48.472836,506.2 10.938975,48.47265,506.7 10.939263,48.472369,507.6 10.939701,48.47238,508.5 10.940466,48.471879,509.9 10.941293,48.471128,510.3 10.941491,48.470577,509.2 10.942098,48.47009,506.9 10.942474,48.46981,505.1 10.943056,48.469275,501.8 10.943099,48.469226,501.5 10.943236,48.469069,500.5 10.943961,48.469252,497.8 10.944169,48.469214,497.0 10.94496,48.468484,492.1 10.945403,48.468153,489.5 10.945611,48.467405,486.1 10.945844,48.465601,482.4 10.946544,48.46357,475.9 10.947325,48.461405,466.3 10.948441,48.461669,465.1 10.948779,48.460599,466.3 10.948853,48.460388,466.4 10.949221,48.460411,466.3 10.949516,48.460503,466.3 10.949693,48.460598,466.3 10.949782,48.460616,466.4 10.949693,48.460598,466.3 10.949516,48.460503,466.3 10.949221,48.460411,466.3 10.948853,48.460388,466.4 10.948779,48.460599,466.3 10.948441,48.461669,465.0 10.947325,48.461405,465.1 10.944774,48.460752,466.7 10.944355,48.460643,466.7 10.943763,48.46049,466.3 10.943395,48.460405,465.8 10.943059,48.460305,465.2 10.942971,48.46027,465.0 10.942634,48.460064,463.9 10.941783,48.459644,461.1 10.941322,48.459335,459.5 10.941289,48.459206,459.2 10.941086,48.459158,458.8 10.941011,48.459117,458.6 10.940481,48.458695,457.3 10.940138,48.458487,456.9 10.940039,48.458437,456.8 10.939826,48.458329,456.6 10.939644,48.458236,456.5 10.939464,48.458144,456.3</coordinates>
                </LineString>
            </MultiGeometry>
        </Placemark>
        <Placemark id="4735">
            <name>Anwalting Ort</name>
            <Point id="4734">
                <coordinates>10.939448,48.458182,0</coordinates>
            </Point>
        </Placemark>
        <Placemark id="4737">
            <name>Gravel Pit</name>
            <Point id="4736">
                <coordinates>10.933007,48.46784,543.6</coordinates>
            </Point>
        </Placemark>
        <Placemark id="4739">
            <name>Soccergolf Rehling</name>
            <Point id="4738">
                <coordinates>10.930752,48.47116,461.2</coordinates>
            </Point>
        </Placemark>
        <Placemark id="4741">
            <name>Wooden Flower Sculpture</name>
            <Point id="4740">
                <coordinates>10.929691,48.476733,484.3</coordinates>
            </Point>
        </Placemark>
        <Placemark id="4743">
            <name>Scherneck Castle</name>
            <Point id="4742">
                <coordinates>10.930444,48.479224,493.8</coordinates>
            </Point>
        </Placemark>
        <Placemark id="4745">
            <name>Wooden animal sculptures on the way to Schloss Scherneck</name>
            <Point id="4744">
                <coordinates>10.943135,48.46924,560.8</coordinates>
            </Point>
        </Placemark>
        <Placemark id="4747">
            <name>Salzberg Chapel (Chapel of Our Lady of the Seven Sorrows)</name>
            <Point id="4746">
                <coordinates>10.949742,48.46061,471.5</coordinates>
            </Point>
        </Placemark>
    </Document>
</kml>
