<?xml version="1.0" encoding="UTF-8"?>
<kml xmlns="http://www.opengis.net/kml/2.2" xmlns:gx="http://www.google.com/kml/ext/2.2">
    <Document id="4849">
        <name>Schlossgaststätte Wellenburg – Anhauser Weiher Runde von Diedorf (Schwaben)-2932825328.gpx</name>
        <Placemark id="4851">
            <name>Schlossgaststätte Wellenburg – Anhauser Weiher Runde von Diedorf (Schwaben)</name>
            <MultiGeometry id="4850">
                <LineString id="4852">
                    <coordinates>10.777057,48.356177,473.4 10.776802,48.355995,473.3 10.776833,48.355974,473.3 10.776698,48.355877,473.3 10.776841,48.35579,473.3 10.776743,48.355725,473.4 10.776488,48.355562,473.5 10.776238,48.355414,473.6 10.776271,48.35539,473.7 10.77607,48.355264,473.9 10.776089,48.355139,474.1 10.776598,48.355151,475.0 10.776836,48.355168,475.5 10.777305,48.355199,476.5 10.777618,48.355204,477.2 10.77762,48.355188,477.2 10.777861,48.35514,477.8 10.77785,48.355115,477.9 10.778019,48.355075,478.3 10.777882,48.354982,478.8 10.777941,48.35494,479.0 10.777998,48.3549,479.1 10.777777,48.354771,479.8 10.777733,48.354703,480.1 10.777895,48.354565,480.8 10.778077,48.354412,481.5 10.778171,48.354303,481.9 10.77818,48.354181,482.2 10.778143,48.354181,482.3 10.778139,48.353953,482.9 10.778245,48.353865,483.2 10.778609,48.35364,484.0 10.77891,48.353408,484.8 10.779104,48.353248,485.3 10.779632,48.352688,486.6 10.779699,48.352627,486.7 10.779991,48.352429,486.9 10.780358,48.352259,486.8 10.780623,48.352136,486.6 10.780646,48.35212,486.6 10.781207,48.351734,485.8 10.781355,48.351627,485.6 10.781605,48.351449,485.1 10.781684,48.35139,485.0 10.781853,48.351263,484.6 10.781914,48.351217,484.4 10.78213,48.351054,483.9 10.782335,48.350918,483.4 10.782372,48.350893,483.4 10.782788,48.350597,482.9 10.783172,48.350325,482.9 10.783365,48.350182,483.1 10.783616,48.35004,483.2 10.783878,48.349933,483.5 10.784094,48.349868,483.7 10.784447,48.349762,484.3 10.784724,48.349679,485.0 10.785102,48.349567,485.9 10.785171,48.349525,486.2 10.786103,48.349198,489.2 10.786752,48.349032,492.8 10.787124,48.348961,495.0 10.787357,48.34879,497.0 10.787596,48.348629,499.0 10.787743,48.348497,500.4 10.787859,48.34837,501.8 10.7879,48.348298,502.5 10.788035,48.348061,504.8 10.788077,48.347453,509.7 10.788123,48.347296,510.6 10.788205,48.347165,511.4 10.788549,48.347164,512.7 10.788671,48.347034,513.6 10.788732,48.346923,514.3 10.789061,48.346574,516.6 10.789331,48.346363,518.1 10.79003,48.346053,520.8 10.790108,48.345979,521.2 10.790498,48.345871,522.4 10.79082,48.345782,523.3 10.791497,48.345653,525.0 10.791911,48.345551,525.7 10.792566,48.345461,526.4 10.792541,48.345678,526.8 10.792566,48.345461,527.0 10.792663,48.34499,527.6 10.792676,48.344681,527.9 10.792677,48.344089,528.7 10.792733,48.343735,529.1 10.792796,48.34319,529.9 10.791744,48.343224,533.2 10.791712,48.342968,534.9 10.791778,48.342297,539.1 10.791602,48.342206,539.9 10.791566,48.342164,540.1 10.791523,48.342114,540.4 10.791609,48.341915,541.4 10.792094,48.342001,542.6 10.792898,48.341997,542.8 10.793025,48.340588,542.0 10.793068,48.340174,543.1 10.793076,48.340103,543.2 10.793185,48.339104,544.7 10.794194,48.339208,543.6 10.795559,48.339402,538.3 10.795971,48.33944,536.4 10.797496,48.33928,532.3 10.798731,48.339151,534.3 10.800025,48.338878,540.5 10.800681,48.338563,543.4 10.801082,48.338262,544.9 10.801701,48.337933,546.0 10.802401,48.337651,546.5 10.802757,48.337542,546.8 10.80328,48.337435,547.5 10.80421,48.337336,549.0 10.804577,48.337277,549.6 10.805601,48.336958,550.6 10.806346,48.336791,550.4 10.80705,48.33659,549.4 10.807705,48.336466,547.9 10.809055,48.336273,543.9 10.809712,48.336212,541.7 10.810606,48.335969,538.1 10.810869,48.335928,537.1 10.811361,48.335758,535.1 10.81175,48.335706,533.9 10.811927,48.335709,533.4 10.812083,48.335735,533.0 10.812188,48.335784,532.6 10.812314,48.335895,532.2 10.812407,48.335932,531.9 10.812474,48.335924,531.8 10.813688,48.335601,531.0 10.814004,48.335536,531.1 10.814441,48.335536,531.2 10.81406,48.335166,531.4 10.813481,48.334892,531.7 10.813328,48.334682,531.9 10.813285,48.334519,531.9 10.813289,48.334494,531.9 10.813285,48.334519,531.9 10.813328,48.334682,531.9 10.813481,48.334892,531.9 10.81406,48.335166,532.7 10.814441,48.335536,533.8 10.815055,48.335532,534.5 10.815854,48.335492,534.8 10.81608,48.335487,534.8 10.816932,48.335444,533.7 10.817982,48.335496,530.2 10.818301,48.335535,528.9 10.819836,48.335651,523.0 10.82128,48.335573,518.1 10.824413,48.335349,507.3 10.824761,48.335324,506.5 10.825263,48.33531,506.1 10.825826,48.335253,506.7 10.825769,48.335344,507.0 10.825608,48.335882,510.1 10.825592,48.335984,510.8 10.825724,48.336888,514.4 10.825592,48.335984,510.7 10.825608,48.335882,510.0 10.825769,48.335344,506.6 10.825826,48.335253,506.2 10.825984,48.335147,505.6 10.826295,48.334595,504.2 10.826538,48.334646,503.9 10.82667,48.334545,503.9 10.826538,48.334646,503.9 10.826295,48.334595,504.1 10.825984,48.335147,504.5 10.825826,48.335253,504.6 10.825263,48.33531,505.3 10.824761,48.335324,506.2 10.824413,48.335349,507.2 10.82128,48.335573,518.1 10.819836,48.335651,523.0 10.818301,48.335535,528.9 10.817982,48.335496,530.2 10.816932,48.335444,533.7 10.81679,48.335452,534.1 10.81608,48.335487,534.8 10.815854,48.335492,534.8 10.815055,48.335532,534.0 10.814441,48.335536,533.0 10.814004,48.335536,532.2 10.813688,48.335601,531.6 10.81355,48.335637,531.4 10.812474,48.335924,530.8 10.812407,48.335932,530.8 10.812314,48.335895,531.0 10.812188,48.335784,531.2 10.81206,48.335369,532.3 10.81197,48.335201,532.9 10.811848,48.335127,533.2 10.811675,48.335069,533.7 10.811414,48.335027,534.3 10.810278,48.334941,537.4 10.809068,48.334704,540.6 10.808295,48.334636,542.1 10.807566,48.334699,543.3 10.805759,48.334579,545.4 10.803495,48.334595,547.4 10.80313,48.334587,547.7 10.803421,48.334352,547.9 10.80408,48.333652,548.3 10.803608,48.333095,548.6 10.803,48.332804,548.9 10.802696,48.332695,549.0 10.80246,48.332646,549.1 10.801355,48.332734,549.4 10.800404,48.33256,549.5 10.799148,48.332225,549.6 10.798337,48.33201,549.8 10.797798,48.331733,550.0 10.796758,48.3313,550.0 10.796734,48.331273,550.0 10.796239,48.331163,549.8 10.794554,48.331215,548.8 10.787004,48.331372,549.6 10.786244,48.331424,550.2 10.786234,48.331513,550.3 10.786275,48.331628,550.5 10.78649,48.331979,551.0 10.786745,48.332309,551.6 10.787406,48.33278,552.3 10.788442,48.333465,552.4 10.790304,48.334661,551.0 10.785117,48.334727,543.6 10.78279,48.334685,531.7 10.781036,48.334598,520.5 10.780046,48.33448,514.5 10.779848,48.33444,513.2 10.779544,48.33431,511.0 10.779381,48.334296,510.0 10.779125,48.334334,508.4 10.778781,48.334411,506.3 10.778514,48.334471,504.7 10.77804,48.334717,501.3 10.777775,48.334914,499.0 10.777306,48.335071,496.1 10.776989,48.33515,494.5 10.776282,48.335394,491.4 10.776117,48.335451,490.8 10.775882,48.335582,489.8 10.775809,48.335685,489.3 10.775782,48.335804,488.7 10.775861,48.336406,486.2 10.776032,48.336821,484.7 10.776205,48.337066,483.8 10.776905,48.337987,480.7 10.77748,48.338614,479.5 10.777678,48.338808,479.2 10.777858,48.33894,479.0 10.778124,48.339087,478.8 10.77822,48.339166,478.7 10.778198,48.339621,478.4 10.778149,48.339682,478.3 10.778057,48.339726,478.3 10.778036,48.339736,478.3 10.777858,48.339792,478.3 10.777123,48.339977,477.9 10.777955,48.340317,477.5 10.778156,48.340475,477.4 10.778309,48.340628,477.4 10.778547,48.340902,477.3 10.778696,48.341173,477.2 10.778435,48.341272,477.3 10.778225,48.341366,477.3 10.777607,48.341645,477.5 10.777555,48.341647,477.5 10.777387,48.341648,477.6 10.776981,48.341593,477.7 10.777059,48.341694,477.7 10.777119,48.341849,477.8 10.777135,48.341888,477.9 10.777176,48.342292,478.2 10.777176,48.342319,478.3 10.777173,48.342487,478.4 10.777163,48.34266,478.5 10.777155,48.342742,478.6 10.777142,48.342866,478.6 10.777086,48.343233,478.8 10.77707,48.343298,478.9 10.77706,48.343325,478.9 10.77702,48.343445,479.0 10.77695,48.343651,479.1 10.776936,48.343694,479.2 10.776868,48.343911,479.4 10.776864,48.343928,479.4 10.776813,48.344138,479.5 10.776811,48.344169,479.5 10.776802,48.344349,479.6 10.776802,48.344379,479.5 10.776827,48.344654,479.3 10.776849,48.344848,479.1 10.77689,48.345078,478.8 10.776932,48.345224,478.6 10.776952,48.345353,478.4 10.776931,48.345552,478.0 10.776905,48.345711,477.7 10.776898,48.345759,477.6 10.776879,48.345881,477.4 10.776839,48.346223,476.7 10.776798,48.346564,476.2 10.776799,48.346645,476.1 10.776792,48.347695,475.2 10.776773,48.347807,475.0 10.776621,48.348328,474.1 10.77656,48.349072,472.5 10.776684,48.349458,471.8 10.776692,48.349996,471.1 10.776766,48.35006,471.1 10.777347,48.350295,470.8 10.777426,48.350413,470.7 10.777404,48.35046,470.7 10.776529,48.351241,471.4 10.77666,48.351295,471.6 10.776844,48.351438,471.9 10.776857,48.351453,472.0 10.776907,48.351494,472.1 10.776992,48.351514,472.3 10.777084,48.351507,472.4 10.777149,48.351675,472.9 10.777102,48.351926,473.9 10.777007,48.35204,474.4 10.776898,48.352207,475.2 10.77709,48.352116,475.8 10.777033,48.352469,477.1 10.777096,48.352496,477.2 10.777016,48.352536,477.4 10.776785,48.352702,477.8 10.776676,48.352954,478.0 10.776637,48.353138,478.0 10.776602,48.353181,478.0 10.776576,48.353398,477.8 10.776362,48.35368,477.3 10.776256,48.353647,477.1 10.775838,48.353515,476.3 10.775811,48.353564,476.2 10.77579,48.353597,476.1 10.775892,48.353659,475.9 10.775821,48.353799,475.4 10.775748,48.353951,474.9 10.775804,48.353957,474.8 10.775753,48.354137,474.3 10.775716,48.354297,474.0 10.775695,48.354397,473.9 10.775652,48.354586,473.7 10.775649,48.354605,473.6 10.775633,48.354706,473.6 10.775628,48.354734,473.5 10.775619,48.354787,473.5 10.775578,48.355036,473.3 10.775692,48.3551,473.3 10.77599,48.355272,473.2 10.775919,48.355319,473.2 10.776698,48.355877,473.2 10.776833,48.355974,473.2 10.776802,48.355995,473.2 10.777057,48.356177,473.3</coordinates>
                </LineString>
            </MultiGeometry>
        </Placemark>
        <Placemark id="4855">
            <name>Diedorf (Schwaben)</name>
            <Point id="4854">
                <coordinates>10.777015,48.356187,0</coordinates>
            </Point>
        </Placemark>
        <Placemark id="4857">
            <name>Climate Change Information Board – Augsburg Western Woods Nature Park</name>
            <Point id="4856">
                <coordinates>10.787798,48.348273,534.5</coordinates>
            </Point>
        </Placemark>
        <Placemark id="4859">
            <name>Bench at the trail intersection</name>
            <Point id="4858">
                <coordinates>10.792557,48.345679,577.5</coordinates>
            </Point>
        </Placemark>
        <Placemark id="4861">
            <name>Exotic Forest Nature Trail</name>
            <Point id="4860">
                <coordinates>10.791619,48.342144,576.0</coordinates>
            </Point>
        </Placemark>
        <Placemark id="4863">
            <name>Exotic Forest Gate and Information Board</name>
            <Point id="4862">
                <coordinates>10.793101,48.340195,592.0</coordinates>
            </Point>
        </Placemark>
        <Placemark id="4865">
            <name>View of the pond in Naturpark Augsburg – Westliche Wälder</name>
            <Point id="4864">
                <coordinates>10.813415,48.334503,529.1</coordinates>
            </Point>
        </Placemark>
        <Placemark id="4867">
            <name>View of Wellenburg Castle</name>
            <Point id="4866">
                <coordinates>10.825684,48.33686,519.0</coordinates>
            </Point>
        </Placemark>
        <Placemark id="4869">
            <name>Wellenburg Castle Restaurant</name>
            <Point id="4868">
                <coordinates>10.826634,48.334524,513.0</coordinates>
            </Point>
        </Placemark>
        <Placemark id="4871">
            <name>Anhauser Pond</name>
            <Point id="4870">
                <coordinates>10.813526,48.335598,578.7</coordinates>
            </Point>
        </Placemark>
    </Document>
</kml>
