<?xml version="1.0" encoding="UTF-8"?>
<kml xmlns="http://www.opengis.net/kml/2.2" xmlns:gx="http://www.google.com/kml/ext/2.2">
    <Document id="5009">
        <name>Schmutterbrücke in Holzen – Kloster Holzen Runde von Lauterbach-2995686504.gpx</name>
        <Placemark id="5011">
            <name>Schmutterbrücke in Holzen – Kloster Holzen Runde von Lauterbach</name>
            <MultiGeometry id="5010">
                <LineString id="5012">
                    <coordinates>10.749246,48.624663,412.5 10.749713,48.62487,412.3 10.75003,48.625,412.1 10.750589,48.625246,411.7 10.75077,48.625216,411.6 10.751656,48.625575,410.8 10.752128,48.625806,410.7 10.752784,48.626251,411.1 10.752949,48.626431,411.3 10.75483,48.624923,416.7 10.755231,48.624945,417.3 10.755663,48.625021,417.7 10.757303,48.625465,418.1 10.758519,48.625757,418.1 10.759304,48.625913,418.1 10.75946,48.62596,418.1 10.75969,48.626075,418.1 10.76029,48.626508,418.1 10.761183,48.627196,417.5 10.761729,48.627778,416.8 10.762304,48.628257,416.0 10.762956,48.628629,415.2 10.763785,48.629188,414.1 10.76531,48.630197,412.1 10.765421,48.630277,412.0 10.766357,48.631013,411.5 10.766201,48.631399,411.6 10.765799,48.632021,412.5 10.766123,48.632057,413.0 10.766796,48.632274,414.5 10.767727,48.632449,416.7 10.767841,48.632428,417.1 10.768194,48.632199,418.4 10.768828,48.631898,420.5 10.772723,48.631622,432.1 10.773214,48.631828,433.3 10.774072,48.631924,434.7 10.774753,48.632031,435.4 10.77507,48.632081,435.7 10.776358,48.63219,436.8 10.779735,48.63243,438.6 10.781963,48.632535,440.0 10.782304,48.632548,440.2 10.783754,48.632602,440.5 10.785213,48.632576,439.8 10.788553,48.632622,438.3 10.789771,48.632636,438.9 10.790909,48.632593,439.2 10.791404,48.632472,439.1 10.791915,48.632456,439.0 10.791902,48.632415,439.0 10.791915,48.632456,439.0 10.792913,48.632538,439.1 10.794712,48.632555,441.1 10.795481,48.632452,441.9 10.796558,48.632422,441.7 10.797372,48.632483,440.0 10.799132,48.632467,435.8 10.798751,48.630541,438.3 10.798819,48.630248,439.0 10.799382,48.629825,440.3 10.800121,48.629507,441.5 10.801064,48.628832,442.8 10.802065,48.628124,443.9 10.802301,48.627872,444.1 10.802408,48.627757,444.1 10.802526,48.627337,444.3 10.803575,48.627444,444.5 10.803703,48.627413,444.5 10.803853,48.626828,444.8 10.804106,48.626045,445.0 10.80476,48.626109,445.2 10.805149,48.626354,445.4 10.806949,48.626804,445.5 10.807588,48.627197,445.3 10.808159,48.626635,444.7 10.808441,48.626421,444.4 10.807954,48.626006,443.7 10.807224,48.624953,442.5 10.806824,48.624503,442.6 10.80638,48.624136,443.0 10.806114,48.623905,443.4 10.805854,48.623588,444.0 10.805707,48.623316,444.5 10.805608,48.623004,445.0 10.80547,48.622716,445.5 10.805299,48.622438,445.8 10.805136,48.622123,446.2 10.805109,48.622071,446.2 10.804914,48.62142,446.7 10.804782,48.621236,446.8 10.804495,48.62097,447.0 10.80423,48.620644,447.3 10.804118,48.6204,447.5 10.804043,48.620135,447.7 10.804033,48.619972,447.8 10.804132,48.619051,448.6 10.804111,48.618604,448.8 10.804165,48.617987,449.1 10.804333,48.617257,449.6 10.804372,48.61706,449.7 10.80438,48.617027,449.8 10.804458,48.616602,450.2 10.804503,48.615983,450.8 10.804488,48.615192,451.0 10.804552,48.613684,449.5 10.804549,48.613598,449.4 10.80505,48.613714,449.0 10.805236,48.613736,448.8 10.806086,48.613674,448.0 10.806567,48.613686,447.5 10.807489,48.613422,446.5 10.807685,48.61339,446.3 10.808527,48.613386,445.5 10.811314,48.61331,441.6 10.811317,48.61331,441.6 10.811427,48.613251,441.2 10.811491,48.613166,440.8 10.811473,48.612908,439.7 10.811475,48.612726,438.9 10.811738,48.612618,438.1 10.812524,48.612595,436.3 10.813374,48.612666,435.6 10.814027,48.6128,434.9 10.814286,48.612942,434.2 10.814285,48.613,434.0 10.814286,48.612942,433.8 10.814027,48.6128,432.7 10.814138,48.612782,432.3 10.814206,48.612739,432.0 10.814238,48.612594,431.3 10.814515,48.612538,430.4 10.814588,48.612501,430.0 10.814598,48.612398,429.5 10.814512,48.612076,427.7 10.814778,48.612147,426.8 10.814405,48.611885,425.8 10.814426,48.61171,425.5 10.814316,48.611675,425.3 10.814392,48.611294,425.1 10.814503,48.611234,425.1 10.814657,48.611093,425.1 10.814699,48.611021,425.1 10.814892,48.610263,423.9 10.815114,48.609861,422.7 10.815208,48.609689,422.4 10.815499,48.609302,421.7 10.815564,48.609088,421.4 10.815683,48.608849,421.3 10.815754,48.608444,421.4 10.815898,48.607497,422.9 10.815829,48.607114,423.7 10.815764,48.606997,424.0 10.815722,48.606922,424.2 10.815659,48.606786,424.6 10.815411,48.606092,427.6 10.815308,48.605934,428.6 10.815437,48.605823,429.6 10.815542,48.605782,430.2 10.815333,48.605745,431.6 10.815139,48.605626,433.3 10.814778,48.60561,435.7 10.814498,48.605592,437.5 10.81443,48.60546,438.8 10.814419,48.605439,439.0 10.81441,48.605173,441.5 10.814409,48.605058,442.5 10.814362,48.605019,442.9 10.814338,48.604932,443.7 10.814343,48.604883,444.1 10.814337,48.604575,446.1 10.81393,48.604584,447.4 10.81393,48.604492,447.7 10.813924,48.604446,447.8 10.813869,48.604302,447.9 10.81385,48.604148,447.7 10.813865,48.604094,447.7 10.813863,48.603922,447.5 10.813951,48.603904,447.4 10.813953,48.603609,447.0 10.81394,48.603336,446.5 10.814112,48.603335,446.3 10.814354,48.603335,446.0 10.814357,48.603581,445.8 10.814393,48.603591,445.8 10.814408,48.603609,445.8 10.814778,48.603604,445.8 10.81515,48.603604,445.9 10.814778,48.603604,446.4 10.814408,48.603609,446.9 10.814365,48.60364,447.0 10.814379,48.603897,447.3 10.813951,48.603904,447.7 10.813863,48.603922,447.9 10.813865,48.604094,448.2 10.813503,48.604098,448.6 10.813463,48.604118,448.6 10.81331,48.604125,448.8 10.81326,48.604115,448.8 10.813214,48.604105,448.9 10.81294,48.604104,449.0 10.81278,48.604071,449.1 10.812676,48.604013,449.1 10.812035,48.604036,449.2 10.811691,48.604067,449.3 10.811494,48.604084,449.3 10.811515,48.604351,449.2 10.810469,48.604406,449.2 10.810245,48.604445,449.2 10.809955,48.604164,449.4 10.809915,48.604123,449.4 10.809387,48.604339,449.6 10.80908,48.604213,449.7 10.808506,48.604248,449.8 10.804159,48.604178,449.8 10.800014,48.604123,449.4 10.795752,48.604064,448.5 10.791867,48.603974,449.1 10.792584,48.602978,447.7 10.792591,48.60292,447.6 10.791456,48.603258,447.5 10.791211,48.603289,447.6 10.790153,48.603337,448.6 10.789705,48.603378,448.9 10.789265,48.603373,449.2 10.789129,48.603377,449.3 10.7873,48.603187,450.6 10.785773,48.602973,451.7 10.784182,48.60277,452.4 10.782996,48.602822,452.4 10.781802,48.602836,452.2 10.779654,48.602862,452.0 10.779207,48.60291,452.1 10.778406,48.603026,452.2 10.778177,48.603036,452.2 10.776628,48.602906,452.1 10.775939,48.602728,451.8 10.774893,48.602566,451.1 10.774468,48.602578,450.7 10.773553,48.602806,449.7 10.773404,48.602818,449.6 10.77324,48.602774,449.4 10.772958,48.602616,449.0 10.772688,48.602514,448.7 10.772215,48.602412,448.2 10.771959,48.602314,447.9 10.771613,48.602236,447.5 10.77187,48.602453,447.0 10.772119,48.60286,446.2 10.772915,48.603607,444.4 10.773242,48.604374,443.1 10.773079,48.605439,442.9 10.772726,48.606329,444.2 10.772047,48.607767,446.8 10.771946,48.608075,447.2 10.772044,48.608356,447.6 10.772203,48.608601,448.0 10.772117,48.60936,448.8 10.771702,48.610217,449.8 10.771266,48.610763,449.7 10.770925,48.61112,449.4 10.770822,48.611516,448.9 10.770375,48.612323,446.4 10.770058,48.613338,441.3 10.769693,48.61411,438.1 10.769645,48.614211,437.9 10.769599,48.61431,437.7 10.768821,48.61492,438.3 10.768278,48.615708,441.5 10.768086,48.615755,441.9 10.765885,48.615308,445.2 10.763183,48.615701,446.8 10.762806,48.616911,447.6 10.76268,48.616988,447.7 10.76017,48.616569,450.2 10.759873,48.616573,450.3 10.75884,48.616556,450.5 10.757843,48.616504,450.3 10.757545,48.616547,450.2 10.757305,48.616628,450.1 10.756621,48.617028,449.9 10.756083,48.617234,449.8 10.755559,48.617374,449.6 10.753812,48.61814,449.0 10.753061,48.619139,448.4 10.752432,48.619924,447.4 10.75197,48.620182,446.0 10.75152,48.62037,444.1 10.7509,48.620468,440.9 10.749478,48.620392,431.2 10.748914,48.620407,427.4 10.748843,48.620473,426.6 10.748686,48.620618,425.0 10.748546,48.620748,423.7 10.748001,48.621254,419.8 10.747873,48.621373,419.2 10.747654,48.621514,418.3 10.747347,48.621559,417.5 10.746902,48.621753,416.2 10.746532,48.621962,415.3 10.746378,48.622077,415.0 10.746133,48.622335,414.4 10.746027,48.622497,414.1 10.745929,48.622646,413.8 10.745737,48.622938,413.5 10.745632,48.623097,413.4 10.745932,48.623169,413.4 10.746319,48.62327,413.7 10.746478,48.623332,413.8 10.746536,48.623354,413.8 10.746694,48.623415,413.9 10.746736,48.623432,413.9 10.746985,48.623524,414.0 10.747077,48.623558,414.0 10.747685,48.623815,414.0 10.747943,48.623986,414.0 10.748126,48.624101,413.9 10.748169,48.624123,413.9 10.748299,48.624192,413.9 10.74876,48.624435,413.6 10.749246,48.624663,413.1</coordinates>
                </LineString>
            </MultiGeometry>
        </Placemark>
        <Placemark id="5015">
            <name>Lauterbach Volksschule</name>
            <Point id="5014">
                <coordinates>10.749287,48.624635,0</coordinates>
            </Point>
        </Placemark>
        <Placemark id="5017">
            <name>Wooden Sculpture on Römerweg</name>
            <Point id="5016">
                <coordinates>10.782305,48.63254,507.4</coordinates>
            </Point>
        </Placemark>
        <Placemark id="5019">
            <name>Wooden Gladiator Sculpture</name>
            <Point id="5018">
                <coordinates>10.79192,48.632412,482.4</coordinates>
            </Point>
        </Placemark>
        <Placemark id="5021">
            <name>Ecce Homo Shrine at Moritzkapelle</name>
            <Point id="5020">
                <coordinates>10.81429,48.613,437.1</coordinates>
            </Point>
        </Placemark>
        <Placemark id="5023">
            <name>Wonderful paths along the Schmutter</name>
            <Point id="5022">
                <coordinates>10.815199,48.609882,422.4</coordinates>
            </Point>
        </Placemark>
        <Placemark id="5025">
            <name>Schmutter Bridge in Holzen</name>
            <Point id="5024">
                <coordinates>10.815758,48.606998,470.4</coordinates>
            </Point>
        </Placemark>
        <Placemark id="5027">
            <name>Holzen Monastery</name>
            <Point id="5026">
                <coordinates>10.814112,48.603367,492.0</coordinates>
            </Point>
        </Placemark>
        <Placemark id="5029">
            <name>Wedding trees at Holzen Monastery (orchard)</name>
            <Point id="5028">
                <coordinates>10.81515,48.603607,491.4</coordinates>
            </Point>
        </Placemark>
        <Placemark id="5031">
            <name>Fishpond with Wooden Cabin</name>
            <Point id="5030">
                <coordinates>10.769644,48.614211,482.9</coordinates>
            </Point>
        </Placemark>
    </Document>
</kml>
