<?xml version="1.0" encoding="UTF-8"?>
<kml xmlns="http://www.opengis.net/kml/2.2" xmlns:gx="http://www.google.com/kml/ext/2.2">
    <Document id="5067">
        <name>Schmutterbrücke in Holzen – Wichtelweg Runde von Ehingen-2956061856.gpx</name>
        <Placemark id="5069">
            <name>Schmutterbrücke in Holzen – Wichtelweg Runde von Ehingen</name>
            <MultiGeometry id="5068">
                <LineString id="5070">
                    <coordinates>10.812711,48.604554,448.4 10.812897,48.60461,448.4 10.813241,48.604737,447.9 10.813708,48.60487,446.3 10.814189,48.604948,444.4 10.81422,48.604976,444.1 10.814297,48.604963,443.9 10.814338,48.604932,443.6 10.814362,48.605019,442.9 10.814409,48.605058,442.6 10.81441,48.605173,441.7 10.814419,48.605439,439.4 10.81443,48.60546,439.3 10.814513,48.605386,438.5 10.81468,48.605351,437.5 10.814685,48.60535,437.4 10.814695,48.605438,436.6 10.814771,48.605438,436.2 10.814778,48.60561,434.6 10.815139,48.605626,432.3 10.815333,48.605745,430.8 10.815542,48.605782,429.8 10.815437,48.605823,429.4 10.815308,48.605934,428.6 10.815411,48.606092,427.6 10.815659,48.606786,424.6 10.815722,48.606922,424.2 10.815764,48.606997,424.0 10.815829,48.607114,423.7 10.815898,48.607497,422.9 10.815754,48.608444,421.4 10.815691,48.6088,421.3 10.815683,48.608849,421.3 10.815564,48.609088,421.4 10.815499,48.609302,421.7 10.815208,48.609689,422.4 10.815114,48.609861,422.7 10.814892,48.610263,423.9 10.814699,48.611021,425.1 10.814657,48.611093,425.1 10.814503,48.611234,425.1 10.814392,48.611294,425.1 10.814316,48.611675,424.8 10.814426,48.61171,424.7 10.814405,48.611885,424.6 10.814778,48.612147,424.8 10.815124,48.612306,425.2 10.814778,48.612147,426.3 10.814512,48.612076,427.4 10.814598,48.612398,429.3 10.814588,48.612501,429.8 10.814515,48.612538,430.2 10.814238,48.612594,431.2 10.814206,48.612739,432.0 10.814138,48.612782,432.3 10.814027,48.6128,432.7 10.814286,48.612942,433.8 10.814285,48.613,434.0 10.814286,48.612942,434.2 10.814027,48.6128,434.9 10.813374,48.612666,435.6 10.812766,48.612615,435.7 10.812524,48.612595,435.8 10.811738,48.612618,436.0 10.811475,48.612726,436.1 10.81126,48.612842,436.1 10.811022,48.612856,436.1 10.810719,48.612843,436.0 10.810409,48.612827,436.0 10.810327,48.612796,435.9 10.810407,48.612718,435.9 10.811142,48.612622,435.2 10.811266,48.612562,435.1 10.811336,48.612484,435.1 10.811372,48.612387,435.0 10.811292,48.612158,435.0 10.811637,48.612107,435.2 10.811518,48.611691,436.2 10.811356,48.611698,436.6 10.811359,48.611456,437.8 10.810735,48.611457,440.1 10.810756,48.611335,440.9 10.810778,48.61107,442.2 10.810813,48.610628,443.5 10.810818,48.610553,443.6 10.810799,48.610468,443.6 10.810853,48.610263,443.5 10.811391,48.610165,442.5 10.81167,48.610047,441.4 10.811833,48.609899,440.4 10.812335,48.609189,436.2 10.812333,48.609153,436.1 10.812278,48.609105,435.8 10.812082,48.609096,435.3 10.811806,48.609037,434.8 10.810949,48.60889,435.0 10.810443,48.608865,436.2 10.810108,48.608882,437.1 10.809849,48.608919,437.9 10.80995,48.607766,443.4 10.80995,48.607655,443.9 10.809908,48.607561,444.2 10.809933,48.607489,444.5 10.808341,48.607413,447.4 10.807891,48.607421,448.0 10.805338,48.607487,449.5 10.805022,48.607492,449.4 10.805904,48.606396,448.3 10.806732,48.605753,447.1 10.806911,48.605773,446.9 10.807038,48.605785,446.8 10.808588,48.605941,443.9 10.809502,48.605846,441.9 10.810009,48.605858,441.1 10.810314,48.605866,440.8 10.811046,48.605836,440.4 10.811654,48.605455,440.4 10.812037,48.605266,440.7 10.813051,48.605332,442.8 10.813387,48.605389,443.5 10.813432,48.605269,443.9 10.813726,48.605133,444.7 10.814057,48.605048,445.4 10.81422,48.604976,445.8 10.814189,48.604948,445.9 10.813708,48.60487,447.0 10.813241,48.604737,448.0 10.812897,48.60461,448.3 10.812711,48.604554,448.4</coordinates>
                </LineString>
            </MultiGeometry>
        </Placemark>
        <Placemark id="5073">
            <name>Parking</name>
            <Point id="5072">
                <coordinates>10.81255,48.604792,0</coordinates>
            </Point>
        </Placemark>
        <Placemark id="5075">
            <name>St. Laurentius (St. Lorenz) cemetery chapel, Holzen</name>
            <Point id="5074">
                <coordinates>10.814677,48.605344,437.5</coordinates>
            </Point>
        </Placemark>
        <Placemark id="5077">
            <name>Schmutter Bridge in Holzen</name>
            <Point id="5076">
                <coordinates>10.815758,48.606998,470.4</coordinates>
            </Point>
        </Placemark>
        <Placemark id="5079">
            <name>Picnic area on the Schmutter River</name>
            <Point id="5078">
                <coordinates>10.81572,48.608802,465.8</coordinates>
            </Point>
        </Placemark>
        <Placemark id="5081">
            <name>Wonderful paths along the Schmutter</name>
            <Point id="5080">
                <coordinates>10.815199,48.609882,422.4</coordinates>
            </Point>
        </Placemark>
        <Placemark id="5083">
            <name>Chapel Near Holzen</name>
            <Point id="5082">
                <coordinates>10.815195,48.612239,478.2</coordinates>
            </Point>
        </Placemark>
        <Placemark id="5085">
            <name>Ecce Homo Shrine at Moritzkapelle</name>
            <Point id="5084">
                <coordinates>10.81429,48.613,437.1</coordinates>
            </Point>
        </Placemark>
        <Placemark id="5087">
            <name>Gnome Trail</name>
            <Point id="5086">
                <coordinates>10.807036,48.605795,489.9</coordinates>
            </Point>
        </Placemark>
        <Placemark id="5089">
            <name>Forest path in Naturpark Augsburg – Westliche Wälder</name>
            <Point id="5088">
                <coordinates>10.81001,48.605837,440.2</coordinates>
            </Point>
        </Placemark>
    </Document>
</kml>
