<?xml version="1.0" encoding="UTF-8"?>
<kml xmlns="http://www.opengis.net/kml/2.2" xmlns:gx="http://www.google.com/kml/ext/2.2">
    <Document id="5091">
        <name>Schwabachgrund bei Rennmühle – Bemalte Steine Penzendorf Runde von Schwabach-Limbach-3084853221.gpx</name>
        <Placemark id="5093">
            <name>Schwabachgrund bei Rennmühle – Bemalte Steine Penzendorf Runde von Schwabach-Limbach</name>
            <MultiGeometry id="5092">
                <LineString id="5094">
                    <coordinates>11.044806,49.338395,335.5 11.044885,49.338479,335.6 11.044937,49.338606,335.8 11.044948,49.338619,335.8 11.044979,49.338662,335.8 11.045023,49.338713,335.9 11.045153,49.338698,336.0 11.045381,49.338659,336.1 11.045596,49.338642,336.3 11.045736,49.338617,336.5 11.045894,49.338656,336.6 11.045978,49.33864,336.7 11.046092,49.338731,336.8 11.04618,49.338901,337.0 11.046183,49.338966,337.1 11.047158,49.33894,337.5 11.047445,49.338626,337.6 11.04786,49.338171,337.6 11.047916,49.338111,337.6 11.048212,49.337863,337.5 11.048787,49.337318,337.0 11.050415,49.33632,335.0 11.050807,49.33614,334.5 11.051035,49.336105,334.2 11.050844,49.33564,333.0 11.051533,49.335507,331.5 11.051861,49.3354,330.6 11.052338,49.335152,328.8 11.052858,49.334986,326.9 11.053241,49.334803,325.2 11.053571,49.334489,323.1 11.053753,49.334404,322.3 11.053982,49.334351,321.4 11.05421,49.334298,320.7 11.055051,49.334325,319.5 11.055098,49.334324,319.5 11.055235,49.334314,319.5 11.055352,49.334298,319.5 11.055522,49.334267,319.6 11.05646,49.333918,321.3 11.056698,49.333799,322.1 11.056793,49.33376,322.4 11.05704,49.333372,324.3 11.05704,49.333207,325.0 11.057195,49.332179,326.5 11.057289,49.331763,326.4 11.057299,49.331548,326.3 11.057403,49.331537,326.2 11.057456,49.331485,326.2 11.057395,49.331392,326.1 11.05633,49.330521,324.8 11.055509,49.329803,324.5 11.055567,49.329772,324.5 11.0561,49.32949,324.8 11.056146,49.329466,324.8 11.056204,49.32953,324.9 11.05723,49.330177,327.9 11.057595,49.330323,329.1 11.058726,49.330613,332.3 11.059282,49.330714,333.5 11.060475,49.33082,334.6 11.060733,49.330843,334.6 11.061119,49.33091,334.7 11.06198,49.331136,334.6 11.062152,49.331165,334.5 11.062356,49.33115,334.4 11.062931,49.33099,334.2 11.064435,49.330571,333.3 11.06489,49.33034,332.7 11.065266,49.330055,331.9 11.065339,49.329969,331.6 11.065526,49.329745,330.7 11.065526,49.329749,330.7 11.065536,49.330088,329.2 11.065604,49.330284,328.1 11.065777,49.330384,327.1 11.065986,49.330402,326.2 11.066047,49.330402,325.9 11.066606,49.330226,323.1 11.066805,49.330186,322.2 11.06699,49.330213,321.4 11.067012,49.330219,321.3 11.067564,49.329987,318.7 11.067701,49.330317,317.0 11.067714,49.331039,314.4 11.067808,49.331195,314.2 11.06813,49.331415,313.7 11.06831,49.331481,313.5 11.068549,49.331534,313.2 11.068809,49.33156,313.0 11.069026,49.331625,312.8 11.069139,49.331712,312.6 11.069144,49.331971,312.3 11.06901,49.3321,312.2 11.068916,49.332268,312.1 11.068876,49.332425,312.0 11.068884,49.332892,312.1 11.068932,49.333058,312.1 11.06894,49.333322,312.0 11.068983,49.333376,312.0 11.069061,49.333444,312.0 11.069192,49.333845,311.8 11.069208,49.333967,311.7 11.069197,49.333982,311.7 11.069133,49.334061,311.6 11.068994,49.334114,311.6 11.068849,49.334121,311.5 11.068307,49.334093,311.4 11.067991,49.334012,311.3 11.067562,49.333712,311.2 11.067237,49.333574,311.2 11.066945,49.333467,311.2 11.06658,49.333411,311.3 11.06621,49.333464,311.4 11.065834,49.33361,311.5 11.065686,49.333625,311.5 11.06573,49.334411,311.4 11.065661,49.334772,311.1 11.065704,49.335204,310.9 11.065761,49.335416,310.8 11.065936,49.33562,310.8 11.066622,49.33616,311.1 11.066959,49.336467,311.4 11.066957,49.336557,311.4 11.066828,49.336745,311.5 11.066805,49.336853,311.5 11.066502,49.337204,311.5 11.06639,49.337237,311.5 11.065861,49.337449,311.4 11.06517,49.337765,311.0 11.06478,49.338035,310.6 11.064652,49.338186,310.4 11.064359,49.338384,310.3 11.063685,49.338583,310.2 11.062938,49.338665,310.3 11.062588,49.338701,310.4 11.061495,49.33905,311.2 11.061049,49.33905,311.6 11.060692,49.338846,312.1 11.060224,49.338802,312.5 11.059889,49.338962,312.7 11.059064,49.338962,312.8 11.058752,49.339151,312.6 11.058194,49.339224,312.2 11.05811,49.339376,312.0 11.057913,49.339624,311.7 11.057613,49.3399,311.3 11.056897,49.340424,310.8 11.05679,49.34047,310.8 11.056612,49.340547,310.8 11.056043,49.340663,310.8 11.055484,49.340823,310.8 11.054123,49.341217,311.1 11.053938,49.341251,311.3 11.05375,49.341252,311.5 11.053418,49.341238,311.9 11.053345,49.341288,312.1 11.053232,49.341425,312.6 11.053147,49.341533,313.0 11.053069,49.341575,313.2 11.052938,49.341589,313.5 11.05252,49.341453,314.5 11.052351,49.341421,315.0 11.052118,49.341489,315.6 11.052034,49.341611,316.1 11.052008,49.341713,316.5 11.051927,49.341713,316.7 11.051866,49.341625,317.1 11.051916,49.341362,318.1 11.051945,49.341207,318.7 11.051829,49.340791,320.1 11.051723,49.340568,321.0 11.051733,49.340198,322.9 11.051829,49.339837,324.8 11.051699,49.339884,325.4 11.051484,49.339679,326.8 11.051124,49.339615,328.2 11.050935,49.340337,333.2 11.050794,49.340383,333.8 11.04963,49.340184,336.9 11.048633,49.339929,338.5 11.046888,49.339225,337.8 11.046389,49.339059,337.4 11.046186,49.339055,337.2 11.04612,49.339061,337.2 11.046062,49.338764,336.8 11.04596,49.338692,336.6 11.045842,49.338683,336.5 11.045605,49.338685,336.3 11.045596,49.338642,336.3 11.045381,49.338659,336.1 11.045153,49.338698,335.9 11.045023,49.338713,335.8 11.044979,49.338662,335.7 11.044948,49.338619,335.7 11.044937,49.338606,335.7 11.044885,49.338479,335.6 11.044806,49.338395,335.5</coordinates>
                </LineString>
            </MultiGeometry>
        </Placemark>
        <Placemark id="5097">
            <name>Schwabach-Limbach</name>
            <Point id="5096">
                <coordinates>11.044757,49.338414,0</coordinates>
            </Point>
        </Placemark>
        <Placemark id="5099">
            <name>Schwabach Valley at Rennmühle</name>
            <Point id="5098">
                <coordinates>11.055058,49.334322,338.1</coordinates>
            </Point>
        </Placemark>
        <Placemark id="5101">
            <name>Penzendorf Adventure Trail</name>
            <Point id="5100">
                <coordinates>11.060468,49.330851,370.4</coordinates>
            </Point>
        </Placemark>
        <Placemark id="5103">
            <name>Painted Rocks and Mushroom Stump in Wiesengrund Forest</name>
            <Point id="5102">
                <coordinates>11.062916,49.330967,400.5</coordinates>
            </Point>
        </Placemark>
        <Placemark id="5105">
            <name>Painted Stones Penzendorf</name>
            <Point id="5104">
                <coordinates>11.06539,49.329987,364.3</coordinates>
            </Point>
        </Placemark>
        <Placemark id="5107">
            <name>Confluence of Schwabach and Rednitz</name>
            <Point id="5106">
                <coordinates>11.056983,49.340659,361.5</coordinates>
            </Point>
        </Placemark>
        <Placemark id="5109">
            <name>Information Boards on the Green Snaketail</name>
            <Point id="5108">
                <coordinates>11.052063,49.341374,317.2</coordinates>
            </Point>
        </Placemark>
    </Document>
</kml>
