<?xml version="1.0" encoding="UTF-8"?>
<kml xmlns="http://www.opengis.net/kml/2.2" xmlns:gx="http://www.google.com/kml/ext/2.2">
    <Document id="5043">
        <name>Schöner Ausblick – Blick auf den Riegsee Runde von Aidling-2005578341.gpx</name>
        <Placemark id="5045">
            <name>Schöner Ausblick – Blick auf den Riegsee Runde von Aidling</name>
            <MultiGeometry id="5044">
                <LineString id="5046">
                    <coordinates>11.239206,47.713474,689.6 11.239226,47.713527,689.4 11.238837,47.71362,688.6 11.238185,47.712752,683.4 11.237898,47.712609,681.9 11.237544,47.712507,680.4 11.237463,47.71242,679.9 11.237262,47.712193,678.6 11.236893,47.712122,677.2 11.236066,47.712009,674.4 11.235914,47.711973,673.9 11.235771,47.711921,673.4 11.235622,47.711767,672.7 11.23546,47.711701,672.2 11.234931,47.711728,670.7 11.234509,47.71169,669.1 11.233732,47.711554,666.2 11.233434,47.711479,665.1 11.232723,47.711214,662.8 11.233138,47.710797,661.3 11.23357,47.710265,660.3 11.233803,47.709915,660.2 11.234154,47.709094,660.7 11.234292,47.708562,660.8 11.234021,47.708516,660.7 11.233531,47.708484,660.4 11.233191,47.70856,660.1 11.232862,47.708621,659.7 11.230999,47.708689,657.5 11.23095,47.708652,657.5 11.230843,47.708354,657.2 11.230806,47.708321,657.2 11.230664,47.708274,657.2 11.230578,47.708137,657.1 11.230512,47.708033,657.1 11.230242,47.707605,657.1 11.22985,47.707336,656.9 11.229775,47.707258,656.8 11.229556,47.706852,656.1 11.229556,47.706852,656.1 11.229213,47.706252,654.8 11.229051,47.706067,654.3 11.229051,47.706067,654.3 11.22891,47.705949,653.9 11.22866,47.705872,653.5 11.228325,47.705751,653.0 11.228211,47.705657,652.8 11.22815,47.705567,652.7 11.22812,47.70512,652.4 11.228088,47.705064,652.4 11.227169,47.703885,653.2 11.227278,47.703725,653.4 11.226963,47.703128,654.7 11.227012,47.701822,658.4 11.227055,47.70173,658.7 11.227543,47.701115,660.1 11.227725,47.701036,660.4 11.227855,47.701009,660.5 11.228439,47.700661,661.0 11.228611,47.700652,661.0 11.229112,47.700549,661.2 11.229362,47.700466,661.2 11.229443,47.700439,661.3 11.229817,47.700289,661.3 11.230574,47.700164,661.1 11.230614,47.70015,661.1 11.230787,47.700094,661.1 11.231741,47.699656,660.7 11.232305,47.699248,660.3 11.232499,47.699155,660.3 11.232677,47.699118,660.2 11.232819,47.699058,660.2 11.232969,47.698955,660.2 11.23331,47.69861,660.4 11.233823,47.698754,660.5 11.234208,47.698379,660.4 11.234509,47.698097,660.3 11.234566,47.69804,660.3 11.234831,47.697689,660.1 11.234902,47.697522,660.0 11.235105,47.696757,659.9 11.235304,47.696282,660.3 11.235827,47.695765,660.5 11.23588,47.695711,660.4 11.235525,47.695396,660.1 11.235246,47.695091,659.5 11.235,47.694871,658.9 11.234909,47.694657,658.3 11.23471,47.694495,657.6 11.23455,47.693375,654.3 11.234307,47.692933,653.5 11.234099,47.692703,653.3 11.233911,47.692511,653.4 11.233484,47.692215,653.6 11.233143,47.691931,654.1 11.23298,47.691815,654.3 11.232582,47.691439,655.1 11.232017,47.690778,655.7 11.231566,47.690382,655.6 11.231566,47.690382,655.6 11.231243,47.690179,655.5 11.23097,47.689958,655.5 11.230689,47.689596,655.4 11.230689,47.689596,655.4 11.23063,47.689486,655.4 11.23063,47.689484,655.4 11.230599,47.689235,655.4 11.230239,47.688649,656.3 11.230123,47.688107,657.3 11.230071,47.688088,657.3 11.230187,47.687931,657.6 11.230137,47.687913,657.7 11.228542,47.687978,658.8 11.227839,47.687955,658.7 11.227246,47.687903,658.6 11.22699,47.687886,658.6 11.226583,47.687896,658.5 11.226388,47.687921,658.5 11.225828,47.688089,658.6 11.225598,47.688185,658.6 11.225282,47.688278,658.8 11.224882,47.688312,659.0 11.223694,47.688257,659.8 11.222913,47.688186,660.0 11.222447,47.688121,660.1 11.221748,47.687991,660.1 11.221469,47.687886,660.0 11.221466,47.687936,660.0 11.221457,47.688111,659.9 11.221424,47.688712,659.8 11.221213,47.690058,660.0 11.220885,47.690446,660.0 11.220778,47.690718,660.0 11.220768,47.691056,660.0 11.22047,47.69195,660.0 11.220172,47.692844,661.2 11.219927,47.693458,663.0 11.2198,47.693639,663.7 11.219533,47.693899,664.9 11.218891,47.694181,666.6 11.218651,47.694252,667.1 11.218426,47.694255,667.3 11.218111,47.694199,667.6 11.217851,47.694143,667.8 11.217429,47.694063,667.9 11.217111,47.694158,667.8 11.217023,47.694218,667.7 11.216951,47.694701,667.5 11.216965,47.694892,667.3 11.217024,47.695071,667.1 11.21722,47.695366,666.7 11.217447,47.695693,666.2 11.217618,47.696027,665.4 11.217891,47.696295,664.4 11.218473,47.696725,661.7 11.219012,47.697079,659.8 11.219144,47.697227,659.4 11.219224,47.697339,659.3 11.219264,47.697689,659.2 11.219243,47.697782,659.3 11.219074,47.698031,659.8 11.218928,47.698147,660.3 11.218319,47.698505,662.2 11.218011,47.698747,663.4 11.217827,47.698946,664.0 11.217652,47.699303,664.7 11.217533,47.700135,665.5 11.217453,47.700408,665.9 11.217358,47.700598,666.1 11.21732,47.700657,666.2 11.217222,47.700811,666.4 11.21711,47.700861,666.6 11.216511,47.700731,667.1 11.216333,47.70088,667.3 11.216169,47.701094,667.6 11.215096,47.702803,666.7 11.214863,47.703097,666.6 11.214647,47.703301,666.5 11.21443,47.703708,666.4 11.214398,47.703808,666.3 11.215771,47.704028,665.8 11.21612,47.704058,665.7 11.216318,47.704398,665.7 11.216351,47.704453,665.8 11.216566,47.704889,665.5 11.216696,47.705153,665.3 11.216793,47.705242,665.2 11.21702,47.705386,665.0 11.217059,47.705452,665.0 11.217184,47.70553,664.8 11.217437,47.705626,664.5 11.217512,47.705738,664.3 11.217519,47.705829,664.0 11.217647,47.706209,662.3 11.217889,47.706623,660.8 11.218019,47.706714,660.5 11.218423,47.706803,660.1 11.218554,47.706853,660.1 11.218583,47.706919,660.1 11.218095,47.707312,660.5 11.217972,47.707579,661.1 11.217847,47.708216,664.2 11.21757,47.708625,666.0 11.217104,47.709451,668.5 11.216856,47.709896,669.5 11.216787,47.710144,670.1 11.216563,47.710572,671.3 11.216291,47.711765,674.8 11.216248,47.712098,675.6 11.216073,47.713108,675.4 11.217211,47.713296,674.6 11.217156,47.713379,674.5 11.217096,47.713485,674.3 11.216885,47.713926,673.2 11.216879,47.71406,672.9 11.217601,47.713993,671.6 11.218578,47.713973,669.2 11.218725,47.71418,668.3 11.21873,47.714467,667.3 11.218829,47.714808,666.3 11.218963,47.714976,665.9 11.219485,47.715332,665.2 11.219733,47.715458,665.0 11.219947,47.715496,664.9 11.220202,47.715579,664.7 11.222536,47.715351,664.5 11.222948,47.715359,664.3 11.223229,47.715369,664.1 11.226009,47.715652,658.2 11.226355,47.715727,657.5 11.227005,47.715824,657.0 11.22722,47.715823,657.0 11.227901,47.71575,657.6 11.228666,47.715608,659.7 11.22892,47.715539,660.7 11.229307,47.715377,662.1 11.229513,47.715338,662.6 11.230325,47.715388,664.0 11.230443,47.715098,664.2 11.230459,47.714979,664.1 11.230405,47.714635,663.6 11.230267,47.713751,660.4 11.230264,47.713434,659.6 11.230331,47.713296,659.4 11.230512,47.713109,659.1 11.23089,47.712975,659.0 11.230997,47.712894,659.1 11.231245,47.712641,659.4 11.23225,47.711798,661.5 11.232444,47.711595,662.1 11.232723,47.711214,663.4 11.233434,47.711479,665.4 11.233732,47.711554,666.3 11.234509,47.71169,669.1 11.234931,47.711728,670.7 11.23546,47.711701,672.2 11.235622,47.711767,672.7 11.235771,47.711921,673.4 11.235914,47.711973,673.9 11.236066,47.712009,674.4 11.236893,47.712122,677.2 11.237262,47.712193,678.6 11.237463,47.71242,679.9 11.237544,47.712507,680.4 11.237898,47.712609,681.9 11.238185,47.712752,683.4 11.238837,47.71362,688.6 11.239226,47.713527,689.4 11.239206,47.713474,689.6</coordinates>
                </LineString>
            </MultiGeometry>
        </Placemark>
        <Placemark id="5049">
            <name>Aidling, Aussiedlerhof</name>
            <Point id="5048">
                <coordinates>11.239281,47.713462,0</coordinates>
            </Point>
        </Placemark>
        <Placemark id="5051">
            <name>Pebble Beach Swimming Area at Riegsee</name>
            <Point id="5050">
                <coordinates>11.23095,47.708652,659.4</coordinates>
            </Point>
        </Placemark>
        <Placemark id="5053">
            <name>Caution: Wild Cattle</name>
            <Point id="5052">
                <coordinates>11.230623,47.708124,710.5</coordinates>
            </Point>
        </Placemark>
        <Placemark id="5055">
            <name>View of Lake Riegsee</name>
            <Point id="5054">
                <coordinates>11.230567,47.708059,707.4</coordinates>
            </Point>
        </Placemark>
        <Placemark id="5057">
            <name>View of Riegsee and the Alps</name>
            <Point id="5056">
                <coordinates>11.228648,47.700806,736.8</coordinates>
            </Point>
        </Placemark>
        <Placemark id="5059">
            <name>Lake Riegsee</name>
            <Point id="5058">
                <coordinates>11.230576,47.689487,711.8</coordinates>
            </Point>
        </Placemark>
        <Placemark id="5061">
            <name>View of Lake Riegsee</name>
            <Point id="5060">
                <coordinates>11.216542,47.704894,719.8</coordinates>
            </Point>
        </Placemark>
        <Placemark id="5063">
            <name>Panoramic Trail at Riegsee</name>
            <Point id="5062">
                <coordinates>11.230391,47.714636,716.1</coordinates>
            </Point>
        </Placemark>
    </Document>
</kml>
