<?xml version="1.0" encoding="UTF-8"?>
<kml xmlns="http://www.opengis.net/kml/2.2" xmlns:gx="http://www.google.com/kml/ext/2.2">
    <Document id="5147">
        <name>Schöner Ausblick – Blick auf den Riegsee Runde von Aidling-2005685647.gpx</name>
        <Placemark id="5149">
            <name>Schöner Ausblick – Blick auf den Riegsee Runde von Aidling (Completed)</name>
            <MultiGeometry id="5148">
                <LineString id="5150">
                    <coordinates>11.2234,47.688276,725.3 11.223264,47.688275,725.3 11.223131,47.688258,725.3 11.222992,47.688241,725.3 11.222827,47.688215,725.3 11.222705,47.688178,725.3 11.222566,47.688157,725.3 11.222429,47.68813,725.3 11.222293,47.688122,725.3 11.222147,47.688097,725.3 11.222006,47.688061,725.3 11.221874,47.688034,725.3 11.221769,47.687961,725.4 11.221629,47.688015,725.4 11.22151,47.688058,725.4 11.221416,47.688122,725.5 11.221439,47.688234,725.5 11.221451,47.688328,725.5 11.221472,47.688425,725.6 11.221442,47.688512,725.6 11.221409,47.688605,725.6 11.221383,47.688702,725.7 11.221379,47.688797,725.7 11.221371,47.688894,725.7 11.221341,47.688985,725.8 11.221334,47.689082,725.8 11.221336,47.689177,725.8 11.221343,47.68928,725.9 11.221317,47.689381,725.9 11.221271,47.689477,725.8 11.22124,47.689568,725.8 11.22124,47.68966,725.7 11.221226,47.689773,725.6 11.221209,47.689863,725.6 11.221174,47.689966,725.5 11.221143,47.69007,725.4 11.221102,47.69016,725.4 11.221037,47.69025,725.3 11.220971,47.690344,725.2 11.220891,47.690418,725.2 11.220829,47.690499,725.1 11.220746,47.690571,725.0 11.220738,47.690666,725.0 11.220705,47.690758,724.9 11.220699,47.69085,724.8 11.220686,47.690947,724.8 11.220668,47.691042,724.7 11.220665,47.691134,724.7 11.220643,47.691222,724.7 11.220598,47.691321,724.7 11.220566,47.69141,724.7 11.220559,47.691506,724.6 11.220523,47.691609,724.6 11.220503,47.691708,724.6 11.220495,47.691801,724.6 11.220473,47.691892,724.6 11.220383,47.691965,724.6 11.220235,47.691963,724.6 11.220103,47.691948,724.6 11.219975,47.691917,724.6 11.219835,47.691877,724.5 11.219894,47.691974,724.5 11.220015,47.692036,724.5 11.220131,47.692093,724.5 11.220204,47.692168,724.5 11.220331,47.692253,724.5 11.220395,47.692347,724.7 11.220364,47.692444,724.8 11.220289,47.692539,724.9 11.220294,47.692642,725.0 11.220262,47.692739,725.2 11.220273,47.692835,725.3 11.220211,47.692951,725.4 11.220152,47.69309,725.6 11.220103,47.693212,725.8 11.220046,47.693347,725.9 11.219986,47.693462,726.1 11.219925,47.693562,726.2 11.21981,47.69367,726.4 11.219722,47.693776,726.5 11.219617,47.693882,726.7 11.219316,47.694018,727.1 11.219192,47.694088,727.3 11.219019,47.694158,727.5 11.218813,47.694228,727.8 11.218592,47.694286,728.1 11.218374,47.694294,728.3 11.218161,47.694255,728.6 11.217941,47.694201,728.9 11.21773,47.694154,729.1 11.217526,47.694118,729.4 11.217323,47.694058,729.6 11.217107,47.694011,729.9 11.216908,47.693966,730.0 11.216684,47.693941,730.2 11.216476,47.693908,730.3 11.216261,47.693875,730.5 11.216014,47.693883,730.7 11.21586,47.69389,730.8 11.215706,47.693925,730.9 11.215555,47.693969,731.1 11.215416,47.694018,731.2 11.215287,47.694059,731.3 11.215181,47.694115,731.4 11.214999,47.694228,731.6 11.214804,47.69435,731.8 11.214699,47.69441,732.0 11.214587,47.694469,732.2 11.214458,47.694531,732.5 11.21432,47.694566,732.7 11.21418,47.694592,733.0 11.214048,47.694614,733.2 11.213788,47.694635,733.7 11.213644,47.694627,733.9 11.213499,47.694615,734.2 11.213341,47.694599,734.5 11.213173,47.694576,734.8 11.213008,47.694554,735.1 11.212854,47.694537,735.3 11.212707,47.694519,735.6 11.212561,47.694499,735.9 11.212417,47.694477,736.1 11.212275,47.694453,736.4 11.212116,47.694428,736.6 11.21196,47.694406,736.8 11.21179,47.694383,737.0 11.211625,47.694359,737.2 11.211457,47.694334,737.4 11.211295,47.69431,737.6 11.211132,47.694286,737.8 11.210953,47.694262,738.0 11.210768,47.694237,738.2 11.210578,47.694214,738.4 11.210384,47.694191,738.6 11.210192,47.694168,738.8 11.210009,47.694147,739.1 11.209834,47.694124,739.3 11.209654,47.694105,739.5 11.20948,47.694086,739.6 11.209309,47.694069,739.6 11.209141,47.694053,739.6 11.208972,47.694036,739.6 11.208818,47.694015,739.6 11.208655,47.693993,739.7 11.208488,47.693968,739.7 11.208319,47.693947,739.7 11.208142,47.693923,739.7 11.207969,47.693895,739.8 11.207795,47.693865,739.8 11.20762,47.693834,739.8 11.207447,47.693808,739.8 11.207273,47.693779,739.8 11.207105,47.693749,739.9 11.206941,47.693715,739.9 11.206781,47.693684,740.0 11.206629,47.69365,740.1 11.206476,47.693604,740.2 11.206317,47.693561,740.4 11.206162,47.693502,740.5 11.206019,47.693477,740.6 11.205853,47.693443,740.7 11.205721,47.693425,740.8 11.205558,47.693416,740.9 11.205386,47.693397,741.0 11.205179,47.69337,741.2 11.20492,47.693336,741.4 11.204667,47.693308,741.5 11.204424,47.693276,741.7 11.204215,47.693245,741.8 11.204058,47.693235,741.9 11.203932,47.693281,741.9 11.203827,47.693356,742.0 11.203752,47.693454,742.0 11.203761,47.693556,742.1 11.203795,47.693683,742.2 11.203864,47.693863,742.3 11.20391,47.69397,742.4 11.20395,47.694083,742.4 11.203989,47.694198,742.5 11.204023,47.694322,742.6 11.204057,47.694444,742.7 11.204088,47.694563,742.7 11.204114,47.694681,742.8 11.204136,47.694798,742.8 11.204154,47.694918,742.8 11.204173,47.695038,742.7 11.204189,47.695156,742.7 11.204214,47.695274,742.7 11.20426,47.695389,742.7 11.204328,47.695502,742.7 11.204413,47.695606,742.7 11.20451,47.695705,742.7 11.204616,47.695812,742.6 11.204714,47.695918,742.6 11.204811,47.696025,742.6 11.204909,47.696137,742.6 11.205007,47.696252,742.6 11.205106,47.696369,742.6 11.205198,47.696476,742.5 11.205292,47.696586,742.5 11.205391,47.696701,742.4 11.205498,47.696822,742.4 11.205616,47.696945,742.4 11.20574,47.697064,742.3 11.205893,47.697182,742.3 11.206051,47.697288,742.2 11.206211,47.697393,742.2 11.206384,47.697505,742.2 11.206547,47.697622,742.1 11.206705,47.697754,742.1 11.206827,47.697906,742.1 11.206918,47.698054,742.1 11.206982,47.698208,742.1 11.207016,47.698369,742.1 11.207044,47.698539,742.1 11.207043,47.698705,742.1 11.207018,47.698866,742.1 11.206969,47.699025,742.1 11.206912,47.69918,742.1 11.206842,47.69933,742.1 11.206776,47.699467,742.1 11.206712,47.699598,742.1 11.206654,47.699724,742.1 11.20662,47.69985,742.1 11.206609,47.699997,742.2 11.206604,47.700152,742.2 11.206615,47.700306,742.2 11.206631,47.700464,742.2 11.206662,47.70063,742.2 11.206703,47.700796,742.3 11.206741,47.70096,742.3 11.206803,47.701123,742.3 11.206862,47.701287,742.3 11.206929,47.70145,742.1 11.206987,47.701609,742.0 11.207057,47.701768,741.9 11.207129,47.701924,741.8 11.207209,47.702078,741.6 11.207303,47.702234,741.5 11.207405,47.702388,741.4 11.207498,47.702539,741.3 11.207595,47.702691,741.1 11.207695,47.702842,741.0 11.207791,47.702985,740.8 11.207886,47.703131,740.5 11.207986,47.703277,740.3 11.20808,47.70342,740.0 11.208167,47.70357,739.7 11.208245,47.703728,739.4 11.208319,47.703891,739.1 11.208382,47.704058,738.8 11.208439,47.704219,738.5 11.208515,47.704377,738.2 11.2086,47.70453,737.9 11.2087,47.704673,737.7 11.208817,47.704815,737.4 11.208951,47.704954,737.1 11.209082,47.705094,736.8 11.209208,47.705228,736.5 11.209346,47.705372,736.2 11.209482,47.705515,735.9 11.20962,47.705666,735.6 11.209745,47.70581,735.3 11.209861,47.705945,735.0 11.209984,47.706082,734.7 11.210109,47.706223,734.5 11.210244,47.706364,734.3 11.210375,47.706507,734.2 11.210506,47.706654,734.0 11.210624,47.706803,733.9 11.21075,47.706957,733.7 11.210873,47.707115,733.6 11.210986,47.707276,733.4 11.211088,47.707438,733.3 11.211188,47.707595,733.1 11.211287,47.707753,733.0 11.211368,47.707911,733.2 11.211441,47.708073,733.4 11.211497,47.708237,733.6 11.211522,47.708391,733.8 11.211539,47.708544,734.0 11.211561,47.708709,734.1 11.211583,47.708879,734.3 11.211611,47.709048,734.5 11.211638,47.709202,734.7 11.211663,47.70936,734.9 11.211695,47.709526,735.1 11.211734,47.709697,735.7 11.211777,47.709865,736.2 11.211808,47.710016,736.7 11.211854,47.710159,737.2 11.21191,47.710304,737.7 11.211978,47.710446,738.1 11.212039,47.710585,738.6 11.212111,47.710723,739.1 11.212192,47.710855,739.5 11.21228,47.71098,740.0 11.212368,47.711104,740.4 11.212459,47.711228,740.8 11.21254,47.711347,740.9 11.21263,47.711469,741.0 11.212716,47.711586,741.0 11.212804,47.711704,741.1 11.212884,47.711812,741.2 11.212966,47.71192,741.2 11.213047,47.71202,741.3 11.213126,47.712109,741.4 11.213217,47.712189,741.4 11.213356,47.71228,741.5 11.213512,47.712361,741.5 11.213666,47.712441,741.6 11.213819,47.712516,741.7 11.213972,47.712587,741.8 11.214128,47.712654,741.7 11.214291,47.712723,741.6 11.214455,47.712785,741.5 11.214624,47.712844,741.4 11.214798,47.712901,741.2 11.214975,47.712949,741.1 11.215157,47.712991,741.0 11.215342,47.713035,740.9 11.215532,47.713076,740.7 11.215716,47.713116,740.6 11.215902,47.713153,740.5 11.216079,47.713192,740.4 11.216255,47.713231,740.3 11.216438,47.71327,740.1 11.216624,47.713308,740.0 11.216808,47.71334,739.9 11.216989,47.713379,739.8 11.21718,47.713419,739.6 11.217373,47.71346,739.5 11.217562,47.713502,739.4 11.217748,47.713543,739.2 11.217929,47.713583,739.1 11.218102,47.713628,739.0 11.218287,47.713672,738.9 11.218479,47.713719,738.7 11.218678,47.713768,738.6 11.218888,47.713818,738.4 11.219112,47.71387,738.3 11.219339,47.713918,738.1 11.219566,47.713965,737.9 11.219787,47.714012,737.7 11.22001,47.714064,737.5 11.220234,47.714115,737.4 11.22046,47.714171,737.2 11.22068,47.714224,737.0 11.2209,47.714276,736.8 11.22112,47.714331,736.6 11.221336,47.714395,736.4 11.221557,47.714457,736.2 11.221769,47.714534,736.3 11.221972,47.714619,736.4 11.222165,47.714713,736.4 11.222346,47.714812,736.5 11.22252,47.714916,736.6 11.222677,47.715026,736.7 11.222819,47.715139,736.7 11.222951,47.71526,736.8 11.22307,47.715387,736.9 11.223181,47.715517,736.9 11.223276,47.715651,737.0 11.223369,47.715787,737.0 11.223444,47.715929,737.0 11.223508,47.716075,737.0 11.223561,47.716224,737.0 11.223602,47.716375,736.9 11.223632,47.716524,736.9 11.223651,47.716675,736.9 11.223663,47.716828,736.9 11.223666,47.716976,736.9 11.223669,47.717123,736.8 11.223674,47.71727,736.8 11.223685,47.717415,736.8 11.223704,47.71756,736.7 11.223733,47.717696,736.4 11.223788,47.717825,736.1 11.223846,47.717939,735.9 11.223905,47.718029,735.7 11.223999,47.718151,735.4 11.224092,47.71825,735.2 11.224239,47.718295,735.0 11.224429,47.718226,734.7 11.224594,47.718105,734.3 11.224676,47.718028,734.1 11.224761,47.717943,733.9 11.224842,47.717849,733.7 11.22492,47.717752,733.5 11.225002,47.717657,733.3 11.225092,47.717558,733.0 11.225184,47.717452,732.7 11.225274,47.71735,732.3 11.225362,47.717246,732.0 11.225459,47.717144,731.7 11.225558,47.717044,731.4 11.225662,47.716947,731.1 11.225768,47.716854,730.7 11.22587,47.716759,730.4 11.225972,47.716661,730.1 11.226075,47.716563,729.8 11.226173,47.716465,729.5 11.226278,47.716366,729.1 11.22639,47.716275,728.8 11.226489,47.71619,728.5 11.226586,47.716111,728.3 11.226685,47.716037,728.3 11.226792,47.715976,728.4 11.22698,47.715892,728.4 11.227179,47.715853,728.5 11.227425,47.715819,728.5 11.227687,47.715788,728.6 11.227853,47.715768,728.6 11.228035,47.715743,728.7 11.228224,47.715713,728.7 11.228417,47.715674,728.8 11.228606,47.715631,728.8 11.22879,47.715589,728.9 11.228962,47.715539,728.9 11.229122,47.715474,729.1 11.229278,47.715409,729.4 11.229428,47.715354,729.6 11.22959,47.715336,729.9 11.229755,47.715334,730.1 11.229923,47.71535,730.4 11.230085,47.715371,730.6 11.230243,47.71539,730.9 11.230408,47.715406,731.1 11.230578,47.715416,731.4 11.230747,47.715416,731.6 11.230904,47.715415,731.9 11.231053,47.715396,732.1 11.231196,47.715369,732.3 11.231341,47.715333,732.6 11.231477,47.715275,732.8 11.231611,47.715213,733.0 11.231744,47.715151,733.2 11.231883,47.715091,733.3 11.232032,47.715032,733.4 11.232193,47.71498,733.6 11.232357,47.714926,733.7 11.232529,47.714874,733.9 11.232706,47.714822,734.0 11.232895,47.714773,734.2 11.233093,47.714736,734.4 11.233292,47.714704,734.6 11.233496,47.714676,734.7 11.233707,47.714655,734.9 11.233921,47.714637,735.1 11.234135,47.71462,735.3 11.234344,47.714608,735.5 11.234549,47.714587,735.7 11.234754,47.714567,736.0 11.234959,47.714539,736.2 11.235165,47.714498,736.4 11.235366,47.714451,736.7 11.235561,47.714395,736.9 11.235758,47.714336,737.1 11.235952,47.714277,737.4 11.236146,47.714223,737.6 11.236343,47.714175,737.8 11.236541,47.714131,738.1 11.236748,47.714095,738.1 11.236958,47.714065,738.1 11.237169,47.714036,738.1 11.237377,47.714008,738.1 11.237578,47.713975,738.1 11.237772,47.713942,738.1 11.237956,47.713896,738.1 11.23813,47.713839,738.1 11.238295,47.713779,738.1 11.238446,47.713717,738.1 11.238595,47.713668,738.1 11.238733,47.713626,738.1 11.238865,47.71359,738.1 11.239064,47.713543,738.1 11.2392,47.713487,738.1 11.239163,47.71339,738.1</coordinates>
                </LineString>
            </MultiGeometry>
        </Placemark>
    </Document>
</kml>
