<?xml version="1.0" encoding="UTF-8"?>
<kml xmlns="http://www.opengis.net/kml/2.2" xmlns:gx="http://www.google.com/kml/ext/2.2">
    <Document id="5195">
        <name>Silberbrünnel-Quelle – Silberbrünnel-Teich Runde von Silberbrünnel-2908127140.gpx</name>
        <Placemark id="5197">
            <name>Silberbrünnel-Quelle – Silberbrünnel-Teich Runde von Silberbrünnel</name>
            <MultiGeometry id="5196">
                <LineString id="5198">
                    <coordinates>11.095401,48.471461,470.8 11.094871,48.471461,470.7 11.094619,48.471503,470.7 11.094126,48.471478,470.9 11.093803,48.471487,471.1 11.093551,48.471578,471.3 11.093316,48.47159,471.5 11.093289,48.471804,471.8 11.093204,48.47207,472.0 11.093065,48.472303,472.1 11.092834,48.472591,472.6 11.092324,48.472932,473.6 11.091898,48.473002,473.7 11.0912,48.473403,473.2 11.091122,48.47364,472.7 11.091027,48.473657,472.6 11.090877,48.473744,472.3 11.090624,48.473964,471.3 11.08975,48.474336,467.6 11.089221,48.474443,465.9 11.08886,48.474607,464.9 11.088919,48.475103,463.1 11.08881,48.475511,462.1 11.088571,48.475694,461.8 11.088352,48.475778,461.6 11.088131,48.475904,461.5 11.088055,48.47602,461.4 11.088046,48.476138,461.3 11.088063,48.476254,461.2 11.08807,48.476296,461.1 11.088074,48.476335,461.1 11.088079,48.476393,461.0 11.08811,48.476645,460.6 11.088117,48.476701,460.5 11.088467,48.476919,460.3 11.088536,48.477277,460.3 11.088524,48.477283,460.3 11.088294,48.477399,460.1 11.08842,48.477523,460.0 11.088498,48.477662,459.9 11.088481,48.477815,459.8 11.088406,48.47815,459.6 11.088431,48.478431,459.5 11.088288,48.478665,459.5 11.088153,48.478782,459.6 11.088071,48.478854,459.7 11.088057,48.478863,459.7 11.087981,48.478935,459.8 11.088067,48.479082,459.9 11.087738,48.479386,459.8 11.087473,48.479736,459.5 11.087321,48.479843,459.4 11.087344,48.480047,459.1 11.087402,48.480196,458.8 11.087506,48.480339,458.5 11.087598,48.480432,458.3 11.088123,48.480733,457.0 11.088193,48.480869,456.4 11.088678,48.481244,455.0 11.08854,48.481238,454.8 11.087047,48.481389,454.1 11.086474,48.481472,454.3 11.084499,48.481681,455.9 11.083587,48.481822,455.7 11.083235,48.482471,455.0 11.08319,48.482605,454.8 11.083125,48.483099,454.3 11.082959,48.483033,454.2 11.08268,48.483019,454.1 11.082316,48.483039,454.0 11.081401,48.483156,454.7 11.081137,48.483139,455.0 11.080939,48.483097,455.3 11.079816,48.482606,458.3 11.079755,48.482525,458.7 11.079702,48.482278,459.9 11.079564,48.48214,460.7 11.078015,48.481841,464.4 11.077323,48.481823,465.0 11.077332,48.481801,465.0 11.076581,48.481651,464.4 11.076141,48.481479,463.6 11.075848,48.48148,463.3 11.075366,48.481588,463.4 11.074994,48.481624,463.8 11.074843,48.481718,464.1 11.075026,48.481521,464.7 11.075277,48.481167,465.8 11.075322,48.481058,466.2 11.075379,48.480919,466.8 11.07537,48.480796,467.4 11.075305,48.480661,468.2 11.074944,48.480165,471.6 11.074766,48.479923,473.3 11.074746,48.4798,474.1 11.074783,48.479574,475.3 11.074891,48.479471,476.0 11.07548,48.479162,478.5 11.075482,48.479118,478.8 11.074693,48.478897,481.5 11.073474,48.478491,482.4 11.072759,48.478291,482.0 11.072553,48.478265,481.8 11.069585,48.477672,477.7 11.069852,48.477139,476.4 11.070468,48.475897,475.6 11.070549,48.475675,476.0 11.070576,48.475459,476.5 11.070555,48.475271,477.1 11.070484,48.475077,477.8 11.06999,48.474372,480.2 11.069864,48.474065,480.3 11.069831,48.473938,480.2 11.069788,48.473776,480.0 11.069701,48.473178,479.1 11.069708,48.472958,478.9 11.069831,48.472473,478.7 11.070276,48.472467,478.8 11.070519,48.472463,478.9 11.070768,48.472442,479.1 11.071191,48.472406,479.6 11.072269,48.47262,480.7 11.072421,48.47267,480.8 11.072269,48.47262,480.9 11.072375,48.472207,481.4 11.072862,48.472113,482.1 11.07368,48.471899,483.8 11.074329,48.47161,485.6 11.074998,48.471211,487.4 11.075755,48.470804,488.3 11.076548,48.470388,488.4 11.076769,48.47034,488.2 11.076966,48.470298,488.1 11.077693,48.470248,487.6 11.079352,48.470493,484.6 11.080514,48.470637,482.0 11.081196,48.470621,480.7 11.082787,48.470586,479.5 11.0839,48.470674,480.1 11.085106,48.470856,481.6 11.085699,48.470911,482.4 11.086465,48.470932,483.1 11.08745,48.471007,482.9 11.088412,48.47113,481.3 11.089087,48.471166,479.6 11.089842,48.471145,477.2 11.091017,48.471025,474.2 11.091256,48.471033,473.8 11.092197,48.471063,473.1 11.093299,48.470915,473.7 11.094121,48.470881,474.3 11.0942,48.470897,474.3 11.094526,48.470666,474.4 11.095218,48.470574,474.0 11.09541,48.470517,473.8 11.095581,48.470466,473.6 11.095802,48.470537,473.3 11.095578,48.47118,472.0 11.095428,48.4713,471.7 11.095401,48.471461,471.5</coordinates>
                </LineString>
            </MultiGeometry>
        </Placemark>
        <Placemark id="5201">
            <name>Silberbrünnel Spring</name>
            <Point id="5200">
                <coordinates>11.088106,48.476334,499.0</coordinates>
            </Point>
        </Placemark>
        <Placemark id="5203">
            <name>Silberbrünnel Nature Conservation Sign</name>
            <Point id="5202">
                <coordinates>11.088121,48.476644,513.9</coordinates>
            </Point>
        </Placemark>
        <Placemark id="5205">
            <name>Silberbrünnel Pond</name>
            <Point id="5204">
                <coordinates>11.088117,48.478764,503.0</coordinates>
            </Point>
        </Placemark>
        <Placemark id="5207">
            <name>Wooden sculptures and bench in Bernbacher Wald</name>
            <Point id="5206">
                <coordinates>11.070277,48.472497,520.0</coordinates>
            </Point>
        </Placemark>
        <Placemark id="5209">
            <name>Forest Crucifix</name>
            <Point id="5208">
                <coordinates>11.070769,48.472448,524.2</coordinates>
            </Point>
        </Placemark>
        <Placemark id="5211">
            <name>Bench in the Forest</name>
            <Point id="5210">
                <coordinates>11.072491,48.472575,525.8</coordinates>
            </Point>
        </Placemark>
        <Placemark id="5213">
            <name>Bernbacher Forest</name>
            <Point id="5212">
                <coordinates>11.0812,48.4707,479.2</coordinates>
            </Point>
        </Placemark>
        <Placemark id="5215">
            <name>Wooden Crucifix in the Forest</name>
            <Point id="5214">
                <coordinates>11.09541,48.470517,524.0</coordinates>
            </Point>
        </Placemark>
    </Document>
</kml>
