<?xml version="1.0" encoding="UTF-8"?>
<kml xmlns="http://www.opengis.net/kml/2.2" xmlns:gx="http://www.google.com/kml/ext/2.2">
    <Document id="5409">
        <name>Staudamm Brombachsee – Hauptdamm des Großen Brombachsees Runde von Mandlesmühle-3328691399.gpx</name>
        <Placemark id="5411">
            <name>Staudamm Brombachsee – Hauptdamm des Großen Brombachsees Runde von Mandlesmühle</name>
            <MultiGeometry id="5410">
                <LineString id="5412">
                    <coordinates>10.972125,49.122534,385.5 10.971986,49.122562,385.4 10.972017,49.122708,385.1 10.971928,49.122836,384.8 10.971859,49.123019,384.3 10.97185,49.123137,384.1 10.97193,49.123262,383.7 10.971938,49.123414,383.2 10.972125,49.123745,381.8 10.972056,49.123984,380.8 10.97208,49.124065,380.5 10.972089,49.124095,380.4 10.972069,49.124256,379.7 10.972226,49.124361,379.2 10.972323,49.124448,378.8 10.972341,49.124557,378.4 10.97228,49.124559,378.3 10.97229,49.124591,378.1 10.972303,49.124627,378.0 10.972375,49.124758,377.5 10.972434,49.124864,377.2 10.972381,49.124926,376.9 10.972347,49.124966,376.8 10.972293,49.12503,376.5 10.972185,49.12514,376.1 10.972167,49.125159,376.0 10.971986,49.125241,375.5 10.971604,49.125369,374.8 10.971424,49.1254,374.5 10.970836,49.125401,374.0 10.970333,49.125428,373.9 10.969797,49.125388,374.1 10.969153,49.125376,374.4 10.968776,49.125411,374.7 10.968429,49.125517,375.1 10.967724,49.125742,376.3 10.967197,49.125824,377.3 10.966775,49.12586,378.1 10.966233,49.125873,379.1 10.966039,49.125824,379.5 10.965875,49.125731,380.0 10.96549,49.12646,382.8 10.965191,49.126863,384.2 10.965049,49.127196,385.5 10.964959,49.12763,387.2 10.965029,49.128384,390.1 10.964945,49.128691,391.2 10.964809,49.128912,391.9 10.964416,49.129393,392.7 10.964285,49.129656,392.8 10.964246,49.129819,392.9 10.964129,49.130703,393.3 10.964023,49.13096,393.6 10.963736,49.131306,394.3 10.963372,49.131664,395.3 10.963189,49.131922,396.2 10.963157,49.131973,396.4 10.962844,49.132594,398.6 10.962704,49.132767,399.4 10.962308,49.133134,401.2 10.962028,49.133415,402.8 10.961892,49.133774,404.9 10.961882,49.133898,405.6 10.961953,49.134114,406.9 10.962189,49.134323,408.5 10.962391,49.134481,409.7 10.9618,49.134539,411.1 10.961279,49.134507,411.9 10.960933,49.134451,412.0 10.961013,49.13428,411.9 10.961407,49.133451,409.9 10.961484,49.13329,409.3 10.961787,49.132656,407.6 10.961915,49.132389,407.2 10.962318,49.131445,406.7 10.962633,49.130656,406.5 10.963071,49.129405,406.3 10.963598,49.12771,405.4 10.964073,49.125806,404.2 10.964384,49.123981,404.8 10.96446,49.123452,405.0 10.964474,49.123355,405.1 10.964588,49.121921,406.2 10.964658,49.120393,409.7 10.964665,49.120109,409.9 10.964673,49.119801,409.9 10.964665,49.120109,409.9 10.964658,49.120393,409.7 10.964588,49.121921,406.2 10.964474,49.123355,404.7 10.96446,49.123452,404.5 10.964384,49.123981,403.2 10.964433,49.124052,403.0 10.964467,49.124208,402.4 10.964555,49.125077,398.1 10.964783,49.126222,391.0 10.964978,49.127127,386.3 10.965049,49.127196,385.9 10.965191,49.126863,384.5 10.96549,49.12646,383.0 10.965875,49.125731,381.9 10.966153,49.125057,382.1 10.966175,49.124669,382.7 10.966137,49.124546,383.0 10.965976,49.124305,383.7 10.96573,49.124088,384.5 10.965568,49.123899,385.2 10.96552,49.123779,385.6 10.965522,49.123683,386.0 10.965544,49.123594,386.2 10.965655,49.123427,386.7 10.966011,49.123091,387.6 10.966241,49.12276,388.1 10.966446,49.122758,388.2 10.966902,49.122998,388.2 10.968058,49.123332,386.7 10.969214,49.123666,385.0 10.970055,49.123747,384.2 10.970406,49.123753,383.9 10.971086,49.123583,383.9 10.971938,49.123414,384.4 10.97193,49.123262,384.6 10.97185,49.123137,384.7 10.971859,49.123019,384.8 10.971928,49.122836,385.1 10.972017,49.122708,385.2 10.971986,49.122562,385.4 10.972125,49.122534,385.5</coordinates>
                </LineString>
            </MultiGeometry>
        </Placemark>
        <Placemark id="5415">
            <name>Mandelsmühle</name>
            <Point id="5414">
                <coordinates>10.972109,49.122498,0</coordinates>
            </Point>
        </Placemark>
        <Placemark id="5417">
            <name>Mandlesmühle</name>
            <Point id="5416">
                <coordinates>10.972287,49.124624,428.7</coordinates>
            </Point>
        </Placemark>
        <Placemark id="5419">
            <name>Mandlesmühle Watermill and Information Centre</name>
            <Point id="5418">
                <coordinates>10.972365,49.124753,376.7</coordinates>
            </Point>
        </Placemark>
        <Placemark id="5421">
            <name>Mandlesweiher Pond</name>
            <Point id="5420">
                <coordinates>10.972793,49.125395,376.0</coordinates>
            </Point>
        </Placemark>
        <Placemark id="5423">
            <name>Allmannsdorf Beach at the Brombachsee</name>
            <Point id="5422">
                <coordinates>10.961419,49.13348,457.8</coordinates>
            </Point>
        </Placemark>
        <Placemark id="5425">
            <name>Brombachsee Dam</name>
            <Point id="5424">
                <coordinates>10.961765,49.132651,462.9</coordinates>
            </Point>
        </Placemark>
        <Placemark id="5427">
            <name>Main Dam of the Großer Brombachsee</name>
            <Point id="5426">
                <coordinates>10.964467,49.123452,412.4</coordinates>
            </Point>
        </Placemark>
        <Placemark id="5429">
            <name>Bench with a View of Brombachsee</name>
            <Point id="5428">
                <coordinates>10.964545,49.120108,413.1</coordinates>
            </Point>
        </Placemark>
        <Placemark id="5431">
            <name>Water Power Trail at Brombachsee</name>
            <Point id="5430">
                <coordinates>10.964673,49.119801,417.0</coordinates>
            </Point>
        </Placemark>
    </Document>
</kml>
