<?xml version="1.0" encoding="UTF-8"?>
<kml xmlns="http://www.opengis.net/kml/2.2" xmlns:gx="http://www.google.com/kml/ext/2.2">
    <Document id="5433">
        <name>Steinerne Rinne bei Wolfsbronn – Steinerne Rinne Rest Area Runde von Markt Berolzheim-2711730220.gpx</name>
        <Placemark id="5435">
            <name>Steinerne Rinne bei Wolfsbronn – Steinerne Rinne Rest Area Runde von Markt Berolzheim</name>
            <MultiGeometry id="5434">
                <LineString id="5436">
                    <coordinates>10.849107,48.998799,503.9 10.849261,48.998933,504.4 10.849059,48.998937,504.8 10.849082,48.999052,505.1 10.849053,48.999251,505.7 10.848947,48.999387,506.0 10.84874,48.999863,506.8 10.848629,49.00002,506.9 10.848478,49.000175,506.8 10.847514,49.000942,504.8 10.847497,49.001048,504.6 10.847428,49.001082,504.6 10.847188,49.001105,504.5 10.84709,49.001171,504.5 10.846939,49.001246,504.5 10.846746,49.001203,504.6 10.845874,49.001149,505.7 10.844582,49.001191,508.6 10.843887,49.00127,509.7 10.84334,49.001277,510.3 10.842819,49.001201,510.7 10.841342,49.001291,511.8 10.841106,49.00132,512.2 10.841056,49.001378,512.4 10.839723,49.001182,516.8 10.839377,49.00111,517.9 10.83908,49.000998,518.9 10.838831,49.000958,519.5 10.838402,49.000954,520.5 10.838037,49.000908,521.2 10.837275,49.000732,521.8 10.836948,49.000619,521.7 10.836374,49.0005,522.2 10.834851,49.000447,525.7 10.833027,49.000288,532.3 10.832572,49.000186,534.2 10.831381,49.000034,538.3 10.831038,49.0,539.6 10.830231,48.999966,543.1 10.829767,48.999899,545.5 10.827063,48.999229,567.7 10.826652,48.999172,571.0 10.826282,48.999263,574.0 10.824443,48.999441,586.1 10.823721,48.999535,589.5 10.822929,48.999705,592.5 10.822444,48.999807,593.9 10.822024,48.999942,595.2 10.82082,49.00053,599.7 10.820073,49.000806,602.8 10.819421,49.00111,605.7 10.81808,49.001475,610.4 10.817548,49.001649,611.9 10.81673,49.001852,613.6 10.816356,49.001914,614.2 10.815686,49.002026,615.4 10.814723,49.002118,617.1 10.814374,49.002137,617.8 10.81367,49.0021,619.3 10.812909,49.001999,620.8 10.811984,49.001962,622.0 10.811474,49.001905,622.4 10.810446,49.001742,622.5 10.809582,49.001579,622.2 10.808823,49.001408,622.0 10.808619,49.001411,622.0 10.80762,49.000722,622.2 10.807362,49.000587,622.2 10.807002,49.000446,622.2 10.806748,49.000408,622.2 10.806702,49.000445,622.2 10.806533,49.000465,622.2 10.806308,49.00044,622.1 10.805926,49.000222,622.1 10.805091,48.999992,621.7 10.80461,48.999946,621.3 10.803656,48.999972,620.8 10.803568,48.999975,620.7 10.802772,49.000039,619.8 10.802185,49.000211,618.8 10.800743,49.0007,615.2 10.8005,49.000802,614.4 10.800188,49.00098,612.9 10.799802,49.001248,610.8 10.798639,49.001867,606.1 10.797835,49.002195,605.2 10.797534,49.002274,605.3 10.796699,49.00259,606.9 10.796448,49.003205,608.5 10.796183,49.003375,609.0 10.795904,49.003439,609.3 10.795006,49.003581,610.2 10.794808,49.003602,610.3 10.794699,49.003704,610.4 10.794465,49.003793,610.6 10.794029,49.003967,610.7 10.793654,49.004139,610.7 10.79252,49.004658,609.8 10.79218,49.004819,609.2 10.791254,49.005288,607.5 10.791023,49.005377,607.2 10.790817,49.005416,606.9 10.790611,49.005469,606.7 10.79014,49.005531,606.3 10.789004,49.005585,605.6 10.787983,49.005688,605.1 10.787622,49.005769,605.0 10.787331,49.005884,604.8 10.78649,49.006297,604.2 10.785052,49.007135,603.4 10.784368,49.007401,603.0 10.784126,49.007539,602.6 10.783418,49.008023,599.6 10.783664,49.008064,598.4 10.784974,49.00858,586.8 10.785318,49.008974,579.7 10.785466,49.009071,577.5 10.785738,49.009509,569.7 10.785768,49.009557,569.0 10.786034,49.009543,567.0 10.786326,49.00951,565.4 10.786472,49.009628,564.4 10.786644,49.009679,563.6 10.786833,49.009687,562.8 10.786893,49.00969,562.5 10.78695,49.009727,562.1 10.786893,49.00969,561.8 10.786833,49.009687,561.6 10.786644,49.009679,560.7 10.786472,49.009628,559.7 10.786326,49.00951,558.3 10.786034,49.009543,556.4 10.786326,49.00951,554.2 10.786472,49.009628,552.4 10.786644,49.009679,550.9 10.786893,49.00969,548.6 10.786996,49.009757,546.9 10.78715,49.009791,544.8 10.787373,49.009926,540.9 10.787614,49.00996,537.9 10.787802,49.010039,535.5 10.78818,49.010073,532.3 10.788678,49.01023,527.5 10.78818,49.010073,523.2 10.787802,49.010039,520.8 10.787757,49.01002,520.6 10.787802,49.010039,520.3 10.78818,49.010073,518.9 10.788678,49.01023,517.6 10.788739,49.010261,517.3 10.788929,49.010193,516.4 10.789257,49.010074,514.3 10.789333,49.010115,513.5 10.789681,49.010088,511.5 10.789941,49.010117,510.6 10.790075,49.010133,510.3 10.790091,49.010134,510.3 10.790288,49.010193,510.1 10.79068,49.010369,510.6 10.79075,49.010402,510.8 10.790928,49.010201,511.8 10.79154,49.00962,517.8 10.791824,49.009578,520.3 10.791974,49.009472,522.2 10.792543,49.008698,534.8 10.792961,49.008424,540.6 10.793546,49.008213,547.1 10.794206,49.008104,553.4 10.794533,49.008005,556.6 10.795037,49.007907,560.8 10.795322,49.007783,563.1 10.795505,49.007663,564.4 10.795682,49.007788,565.3 10.796026,49.008153,567.4 10.796172,49.008476,568.4 10.79624,49.008615,568.5 10.796477,49.008811,567.9 10.796584,49.008897,567.5 10.796678,49.009032,566.8 10.79679,49.009105,566.3 10.796952,49.009201,565.3 10.79733,49.00933,563.2 10.797656,49.009533,561.2 10.798772,49.01003,552.0 10.799081,49.010147,549.4 10.799672,49.010284,545.1 10.80036,49.010406,540.5 10.80089,49.010533,537.1 10.802006,49.010892,531.0 10.802928,49.011154,528.0 10.803617,49.011079,528.2 10.804292,49.010967,530.5 10.804395,49.010675,533.1 10.804635,49.010404,536.3 10.805537,49.009973,544.2 10.806262,49.009749,547.9 10.806652,49.009661,548.8 10.807038,49.009701,549.2 10.807279,49.009853,549.4 10.807399,49.010151,549.9 10.80745,49.010404,550.8 10.807639,49.01081,552.6 10.808,49.011181,554.9 10.808227,49.011282,556.1 10.808343,49.011333,556.8 10.808515,49.011474,558.2 10.808969,49.011756,561.8 10.809664,49.012125,564.7 10.809974,49.01229,564.9 10.810454,49.012459,564.8 10.810729,49.012701,564.6 10.810643,49.012927,564.6 10.81043,49.013122,564.6 10.810171,49.013294,564.5 10.810214,49.013293,564.6 10.810488,49.013288,564.7 10.811704,49.01315,568.2 10.812339,49.013105,570.8 10.81281,49.013118,572.1 10.813199,49.013103,572.7 10.813584,49.013089,572.8 10.81409,49.013033,572.6 10.815027,49.012869,573.3 10.81541,49.012768,573.7 10.815731,49.012357,574.5 10.815999,49.012147,575.2 10.816083,49.012081,575.4 10.817482,49.011597,578.1 10.818254,49.011445,577.3 10.818512,49.011372,576.8 10.818684,49.011349,576.5 10.818993,49.011349,575.8 10.819276,49.011428,575.0 10.819791,49.011448,573.2 10.820297,49.011402,571.2 10.820752,49.011335,569.3 10.820984,49.011273,568.4 10.821352,49.011214,567.2 10.821739,49.011048,566.2 10.822082,49.010862,565.8 10.822462,49.010558,565.9 10.82272,49.01026,566.4 10.822787,49.010059,566.7 10.822814,49.009978,566.9 10.822831,49.009815,567.3 10.82278,49.009567,567.8 10.822606,49.009198,568.6 10.822245,49.00881,569.5 10.821945,49.008557,570.1 10.821559,49.008303,571.1 10.820857,49.007902,574.4 10.82074,49.007843,575.1 10.820538,49.00774,576.4 10.820323,49.00769,577.6 10.819061,49.007509,586.3 10.818289,49.007318,592.4 10.817576,49.007245,597.2 10.81685,49.007106,601.6 10.815205,49.006674,609.4 10.81502,49.006388,610.8 10.814918,49.006077,612.0 10.814861,49.005705,613.1 10.814898,49.005435,613.7 10.814993,49.005201,614.2 10.815027,49.005127,614.3 10.815152,49.00486,614.8 10.815671,49.004016,615.9 10.81609,49.003036,615.9 10.81647,49.002035,614.3 10.81673,49.001852,613.7 10.817548,49.001649,611.9 10.81808,49.001475,610.4 10.819421,49.00111,605.7 10.820073,49.000806,602.8 10.82082,49.00053,599.7 10.822024,48.999942,595.2 10.822444,48.999807,593.9 10.822929,48.999705,592.5 10.823721,48.999535,589.5 10.824443,48.999441,586.1 10.826282,48.999263,574.0 10.826652,48.999172,571.0 10.827063,48.999229,567.7 10.829767,48.999899,545.5 10.830231,48.999966,543.1 10.831038,49.0,539.6 10.831381,49.000034,538.3 10.832572,49.000186,534.2 10.833027,49.000288,532.3 10.834851,49.000447,525.7 10.836374,49.0005,522.2 10.836948,49.000619,521.7 10.837275,49.000732,521.8 10.838037,49.000908,521.2 10.838402,49.000954,520.5 10.838831,49.000958,519.5 10.83908,49.000998,518.9 10.839377,49.00111,517.9 10.839723,49.001182,516.8 10.841056,49.001378,512.4 10.841106,49.00132,512.2 10.841342,49.001291,511.8 10.842819,49.001201,510.7 10.84334,49.001277,510.3 10.843887,49.00127,509.7 10.844582,49.001191,508.6 10.845874,49.001149,505.7 10.846746,49.001203,504.6 10.846939,49.001246,504.5 10.84709,49.001171,504.5 10.847188,49.001105,504.5 10.847428,49.001082,504.6 10.847497,49.001048,504.6 10.847514,49.000942,504.8 10.848478,49.000175,506.8 10.848629,49.00002,506.9 10.84874,48.999863,506.8 10.848947,48.999387,506.0 10.849053,48.999251,505.7 10.849082,48.999052,505.1 10.849059,48.998937,504.8 10.849261,48.998933,504.4 10.849107,48.998799,503.9</coordinates>
                </LineString>
            </MultiGeometry>
        </Placemark>
        <Placemark id="5439">
            <name>Steinerne Rinne near Wolfsbronn — Wild Garlic Paradise</name>
            <Point id="5438">
                <coordinates>10.785686,49.009523,569.3</coordinates>
            </Point>
        </Placemark>
        <Placemark id="5441">
            <name>Steinerne Rinne near Wolfsbronn</name>
            <Point id="5440">
                <coordinates>10.786997,49.009762,558.6</coordinates>
            </Point>
        </Placemark>
        <Placemark id="5443">
            <name>Steinerne Rinne Rest Area</name>
            <Point id="5442">
                <coordinates>10.787822,49.009953,582.2</coordinates>
            </Point>
        </Placemark>
        <Placemark id="5445">
            <name>Picnic area at Rinne Nature Reserve</name>
            <Point id="5444">
                <coordinates>10.788879,49.010133,550.0</coordinates>
            </Point>
        </Placemark>
        <Placemark id="5447">
            <name>Hiking parking and rest area Steinerne Rinne</name>
            <Point id="5446">
                <coordinates>10.789943,49.010108,564.2</coordinates>
            </Point>
        </Placemark>
    </Document>
</kml>
