<?xml version="1.0" encoding="UTF-8"?>
<kml xmlns="http://www.opengis.net/kml/2.2" xmlns:gx="http://www.google.com/kml/ext/2.2">
    <Document id="5401">
        <name>Strada Franca del Monferrato (via Route 846)-2860985072.gpx</name>
        <Placemark id="5403">
            <name>Strada Franca del Monferrato (via Route 846)</name>
            <MultiGeometry id="5402">
                <LineString id="5404">
                    <coordinates>8.411889,44.941545,151.9 8.410931,44.94171,152.3 8.410457,44.941182,151.9 8.410036,44.940629,150.0 8.409966,44.94047,149.3 8.409984,44.939924,146.4 8.409923,44.939732,145.2 8.409484,44.939063,140.8 8.409358,44.938699,139.1 8.409255,44.93855,138.5 8.40891,44.938328,137.6 8.408748,44.938243,137.4 8.40784,44.937838,137.8 8.407744,44.937766,138.1 8.407636,44.937643,138.5 8.40722,44.936588,141.3 8.407014,44.936403,141.6 8.406852,44.936342,141.7 8.406777,44.936259,141.8 8.406571,44.935499,141.7 8.406254,44.934125,140.3 8.407246,44.93348,139.2 8.408129,44.93268,138.0 8.40815,44.932456,137.8 8.408096,44.931706,136.9 8.408252,44.930804,134.9 8.408931,44.930614,133.0 8.408747,44.929632,129.8 8.408846,44.92884,129.1 8.40862,44.927126,133.3 8.408542,44.925764,135.7 8.408111,44.923631,135.4 8.409989,44.922898,134.1 8.411381,44.922019,132.9 8.4114,44.922006,132.9 8.412204,44.921441,132.0 8.412982,44.920835,130.2 8.414022,44.919825,127.0 8.414199,44.919595,126.7 8.414759,44.918069,128.0 8.415209,44.91674,129.5 8.41533,44.91655,129.6 8.416184,44.915749,129.1 8.41636,44.915574,128.8 8.417341,44.914779,126.8 8.417992,44.914288,125.4 8.418726,44.913444,124.3 8.419008,44.91313,124.2 8.419143,44.913045,124.2 8.420191,44.912864,124.5 8.420492,44.912775,124.5 8.420659,44.91267,124.6 8.420749,44.912524,124.6 8.420939,44.912049,124.6 8.421009,44.911639,124.5 8.42107,44.910972,124.5 8.421119,44.910809,124.5 8.421345,44.910572,124.6 8.421647,44.910315,124.7 8.421784,44.91011,124.8 8.421809,44.91004,124.8 8.421791,44.909792,124.9 8.421718,44.909488,125.0 8.421715,44.909288,125.1 8.421761,44.909155,125.2 8.421919,44.909009,125.2 8.422496,44.908788,125.0 8.423189,44.908581,124.5 8.424952,44.908375,122.2 8.425251,44.908383,121.8 8.426644,44.907742,119.8 8.427484,44.907484,118.8 8.427858,44.907333,118.3 8.428248,44.907097,117.8 8.428655,44.906804,117.3 8.429334,44.906074,116.5 8.429763,44.905431,116.1 8.429934,44.904918,115.8 8.430108,44.904716,115.7 8.431602,44.903678,114.9 8.433734,44.902089,113.5 8.434485,44.901752,113.1 8.435154,44.901401,112.8 8.43561,44.901029,112.6 8.435767,44.900809,112.6 8.436003,44.900594,112.6 8.435172,44.900101,112.9 8.435045,44.900057,113.0 8.435533,44.899411,113.4 8.435545,44.899394,113.4 8.435552,44.899276,113.4 8.435518,44.899185,113.3 8.435592,44.898869,112.9 8.435345,44.898826,112.8 8.435125,44.898756,112.9 8.435071,44.898739,112.9 8.435125,44.898756,112.9 8.435314,44.898224,113.0 8.435125,44.898756,112.9 8.435345,44.898826,112.8 8.435592,44.898869,112.8 8.435518,44.899185,113.2 8.435552,44.899276,113.3 8.435545,44.899394,113.3 8.435533,44.899411,113.3 8.435045,44.900057,113.0 8.435172,44.900101,112.9 8.436003,44.900594,112.6 8.435767,44.900809,112.6 8.43561,44.901029,112.6 8.435154,44.901401,112.8 8.434485,44.901752,113.1 8.433734,44.902089,113.5 8.431602,44.903678,114.9 8.430108,44.904716,115.7 8.429934,44.904918,115.8 8.429763,44.905431,116.1 8.429334,44.906074,116.5 8.428655,44.906804,117.3 8.428248,44.907097,117.8 8.427858,44.907333,118.3 8.427484,44.907484,118.8 8.426644,44.907742,119.8 8.425251,44.908383,121.8 8.424952,44.908375,122.2 8.423189,44.908581,124.5 8.422496,44.908788,125.0 8.421919,44.909009,125.2 8.421761,44.909155,125.2 8.421715,44.909288,125.1 8.421718,44.909488,125.0 8.421791,44.909792,124.9 8.421809,44.91004,124.8 8.421784,44.91011,124.8 8.421647,44.910315,124.7 8.421345,44.910572,124.6 8.421119,44.910809,124.5 8.42107,44.910972,124.5 8.421009,44.911639,124.5 8.420939,44.912049,124.6 8.420749,44.912524,124.6 8.420659,44.91267,124.6 8.420492,44.912775,124.5 8.420191,44.912864,124.5 8.419143,44.913045,124.2 8.419008,44.91313,124.2 8.418726,44.913444,124.3 8.417992,44.914288,125.4 8.417341,44.914779,126.8 8.41636,44.915574,128.8 8.416184,44.915749,129.1 8.41533,44.91655,129.6 8.415209,44.91674,129.5 8.414759,44.918069,128.0 8.414199,44.919595,126.7 8.414022,44.919825,127.0 8.412982,44.920835,130.2 8.412204,44.921441,132.0 8.4114,44.922006,132.9 8.411381,44.922019,132.9 8.409989,44.922898,134.1 8.408111,44.923631,135.4 8.408542,44.925764,135.7 8.40862,44.927126,133.3 8.408846,44.92884,129.1 8.408747,44.929632,129.8 8.408931,44.930614,133.0 8.408252,44.930804,134.9 8.408096,44.931706,136.9 8.40815,44.932456,137.8 8.408129,44.93268,138.0 8.407246,44.93348,139.2 8.406254,44.934125,140.3 8.406571,44.935499,141.7 8.406777,44.936259,141.8 8.406852,44.936342,141.7 8.407014,44.936403,141.6 8.40722,44.936588,141.3 8.407636,44.937643,138.5 8.407744,44.937766,138.1 8.40784,44.937838,137.8 8.408748,44.938243,137.4 8.40891,44.938328,137.6 8.409255,44.93855,138.5 8.409358,44.938699,139.1 8.409484,44.939063,140.8 8.409923,44.939732,145.2 8.409984,44.939924,146.4 8.409966,44.94047,149.3 8.410036,44.940629,150.0 8.410457,44.941182,152.2 8.410931,44.94171,153.7 8.411397,44.942205,154.7 8.411471,44.942316,154.9 8.411958,44.943049,155.6 8.412304,44.943602,155.8 8.412798,44.944483,155.7 8.412866,44.944653,155.7 8.413562,44.947289,155.0 8.413722,44.947607,154.4 8.413936,44.947813,153.8 8.41437,44.948084,152.6 8.415116,44.948495,150.2 8.41555,44.948797,148.5 8.415666,44.948909,148.0 8.415907,44.949262,146.5 8.416527,44.950276,142.9 8.416576,44.950439,142.6 8.416571,44.950541,142.4 8.416516,44.950626,142.2 8.416142,44.950942,141.9 8.416068,44.951054,141.8 8.416061,44.951162,141.8 8.416142,44.951358,141.9 8.41695,44.952648,143.7 8.417024,44.952828,144.0 8.41701,44.95298,144.2 8.416707,44.95337,145.0 8.418413,44.956477,150.7 8.418751,44.956938,151.5 8.419919,44.958094,154.1 8.420167,44.958319,154.9 8.420458,44.958502,155.9 8.420686,44.958593,156.7 8.420908,44.958623,157.4 8.421517,44.958565,159.9 8.421996,44.958475,162.4 8.423206,44.958109,166.0 8.423452,44.958094,165.9 8.423789,44.958117,165.4 8.423878,44.958122,165.3 8.424264,44.958156,164.2 8.424913,44.958489,160.7 8.426162,44.959182,154.0 8.426379,44.95927,153.3 8.427266,44.959482,151.2 8.427449,44.959577,150.8 8.428422,44.960336,149.5 8.427449,44.959577,150.8 8.427266,44.959482,151.2 8.426379,44.95927,153.3 8.426162,44.959182,154.0 8.424913,44.958489,160.7 8.424264,44.958156,164.2 8.423878,44.958122,165.3 8.423789,44.958117,165.4 8.423452,44.958094,165.9 8.423206,44.958109,166.0 8.421996,44.958475,162.4 8.421517,44.958565,159.9 8.420908,44.958623,157.4 8.420686,44.958593,156.7 8.420458,44.958502,155.9 8.420167,44.958319,154.9 8.419919,44.958094,154.1 8.418751,44.956938,151.5 8.418413,44.956477,150.7 8.416707,44.95337,145.0 8.41701,44.95298,144.2 8.417024,44.952828,144.0 8.41695,44.952648,143.7 8.416142,44.951358,141.9 8.416061,44.951162,141.8 8.416068,44.951054,141.8 8.416142,44.950942,141.9 8.416516,44.950626,142.2 8.416571,44.950541,142.4 8.416576,44.950439,142.6 8.416527,44.950276,142.9 8.415907,44.949262,146.5 8.415666,44.948909,148.0 8.41555,44.948797,148.5 8.415116,44.948495,150.2 8.41437,44.948084,152.6 8.413936,44.947813,153.8 8.413722,44.947607,154.4 8.413562,44.947289,155.0 8.412866,44.944653,155.7 8.412798,44.944483,155.7 8.412304,44.943602,155.8 8.411958,44.943049,155.6 8.411471,44.942316,154.8 8.411397,44.942205,154.6 8.410931,44.94171,153.3 8.411889,44.941545,152.1</coordinates>
                </LineString>
            </MultiGeometry>
        </Placemark>
        <Placemark id="5407">
            <name>Parking</name>
            <Point id="5406">
                <coordinates>8.411979,44.941807,0</coordinates>
            </Point>
        </Placemark>
        <Placemark id="5409">
            <name>chiesa di San Michele e San Pietro</name>
            <Point id="5408">
                <coordinates>8.435012,44.898833,0</coordinates>
            </Point>
        </Placemark>
    </Document>
</kml>
