<?xml version="1.0" encoding="UTF-8"?>
<kml xmlns="http://www.opengis.net/kml/2.2" xmlns:gx="http://www.google.com/kml/ext/2.2">
    <Document id="5411">
        <name>Studentenwald – Biberteich an der Lindenhofallee Runde von Universität Bayreuth-3089256424.gpx</name>
        <Placemark id="5413">
            <name>Studentenwald – Biberteich an der Lindenhofallee Runde von Universität Bayreuth</name>
            <MultiGeometry id="5412">
                <LineString id="5414">
                    <coordinates>11.59555,49.916313,364.6 11.595551,49.916242,364.6 11.595549,49.916095,364.4 11.595547,49.916099,364.4 11.595257,49.916109,364.2 11.594299,49.916167,363.1 11.593862,49.916211,362.4 11.592782,49.916385,360.0 11.592537,49.916421,359.4 11.59175,49.916518,357.6 11.591123,49.916531,357.1 11.590545,49.916495,357.1 11.590249,49.916422,357.3 11.590227,49.916476,357.3 11.590064,49.9164,357.5 11.589525,49.915962,358.7 11.589324,49.915901,359.1 11.589279,49.915847,359.3 11.588931,49.915749,360.0 11.587107,49.915556,361.2 11.586282,49.915208,361.0 11.585416,49.914966,360.8 11.585032,49.915105,360.7 11.585123,49.914789,360.5 11.58474,49.914795,360.3 11.584368,49.914853,360.1 11.583637,49.915162,359.8 11.582901,49.915525,359.7 11.582435,49.915688,360.1 11.58227,49.915711,360.3 11.582006,49.91571,360.7 11.581658,49.915678,361.3 11.580819,49.915533,363.2 11.580437,49.915467,364.1 11.580341,49.915449,364.4 11.580477,49.91524,365.3 11.580168,49.914859,366.9 11.580227,49.914289,368.9 11.580313,49.913962,370.2 11.58031,49.913794,370.9 11.580196,49.913669,371.5 11.580006,49.913596,372.1 11.579761,49.913538,372.8 11.578027,49.913125,378.9 11.578232,49.912754,381.1 11.578563,49.912326,383.3 11.578667,49.912059,384.3 11.578625,49.911804,385.2 11.578639,49.911433,386.3 11.578629,49.910925,387.3 11.578687,49.910661,387.7 11.578901,49.90966,389.7 11.579157,49.908703,389.5 11.579177,49.90855,389.1 11.579208,49.908313,388.3 11.578969,49.907743,386.2 11.578746,49.907372,384.8 11.578384,49.907562,384.0 11.577838,49.907618,383.7 11.577423,49.907768,383.9 11.576987,49.908054,384.8 11.576293,49.908692,387.1 11.575914,49.908829,387.8 11.575042,49.909002,389.8 11.57502,49.908928,390.1 11.575154,49.908704,391.0 11.57502,49.908928,391.9 11.575042,49.909002,392.2 11.573808,49.909469,394.2 11.573134,49.909644,393.9 11.572498,49.909868,392.6 11.572072,49.910117,390.4 11.571835,49.910334,388.5 11.57165,49.910504,386.9 11.571583,49.910297,385.4 11.571161,49.910417,383.3 11.570722,49.91046,381.9 11.569656,49.910339,378.8 11.568983,49.910287,377.3 11.568846,49.910496,376.7 11.568885,49.911083,374.8 11.569142,49.911497,372.9 11.568866,49.912658,367.4 11.568719,49.913252,365.2 11.568624,49.913634,364.1 11.568456,49.914227,362.8 11.568274,49.91478,362.1 11.568011,49.915334,361.5 11.567681,49.915861,361.2 11.5675,49.916065,361.1 11.567274,49.916211,361.1 11.56706,49.916305,361.2 11.567224,49.916348,361.2 11.568108,49.91622,361.4 11.569532,49.916235,361.0 11.570164,49.916032,360.7 11.570255,49.916016,360.6 11.570352,49.916018,360.6 11.571156,49.916008,360.0 11.571684,49.916093,359.5 11.571808,49.916088,359.4 11.571834,49.916142,359.3 11.571794,49.9162,359.3 11.571566,49.916339,359.2 11.570644,49.916727,358.7 11.570727,49.916894,358.5 11.570761,49.917188,358.4 11.570901,49.917514,358.3 11.570732,49.917701,358.3 11.5699,49.918246,358.6 11.568961,49.918771,358.8 11.568539,49.919047,358.5 11.568469,49.919152,358.3 11.568216,49.919535,357.8 11.56825,49.919653,357.7 11.568272,49.920061,357.2 11.568741,49.920774,356.5 11.569125,49.921051,356.3 11.56961,49.921205,356.3 11.569898,49.921297,356.3 11.570401,49.921304,356.4 11.571145,49.921364,356.5 11.571611,49.921517,356.5 11.571825,49.921656,356.6 11.572223,49.921912,356.8 11.572587,49.92217,357.0 11.572968,49.922394,357.1 11.573295,49.922475,357.2 11.573648,49.922523,357.4 11.574008,49.921626,358.0 11.574029,49.921573,358.0 11.574516,49.920768,358.2 11.574656,49.920473,358.1 11.574898,49.920749,358.1 11.57506,49.921021,358.1 11.575604,49.920962,358.0 11.575836,49.92091,357.8 11.575983,49.920851,357.7 11.576186,49.920681,357.5 11.576255,49.920625,357.4 11.576605,49.920714,357.1 11.577271,49.920773,356.5 11.577327,49.92078,356.4 11.57744,49.920568,356.0 11.577581,49.920577,355.7 11.577621,49.920449,355.4 11.57764,49.920573,355.0 11.579478,49.920099,352.5 11.579704,49.919984,352.3 11.579936,49.91983,352.2 11.580574,49.9191,352.1 11.580774,49.918975,352.2 11.581013,49.918868,352.2 11.581917,49.918576,352.4 11.582458,49.918402,352.4 11.583329,49.918194,352.6 11.584443,49.918057,353.2 11.585774,49.917971,354.1 11.586278,49.917908,354.6 11.587919,49.9177,356.1 11.588472,49.91763,356.4 11.589131,49.917547,356.6 11.589161,49.917543,356.7 11.589518,49.917495,356.8 11.589662,49.917529,356.8 11.589762,49.917624,356.8 11.589817,49.917678,356.8 11.589965,49.917823,356.9 11.589983,49.917836,356.9 11.590394,49.918141,356.9 11.590404,49.918246,356.9 11.590962,49.917804,357.2 11.591803,49.917096,358.2 11.592537,49.916421,359.9 11.592782,49.916385,360.4 11.593862,49.916211,362.4 11.594299,49.916167,363.1 11.595257,49.916109,364.2 11.595547,49.916099,364.4 11.595549,49.916095,364.4 11.595551,49.916242,364.6 11.59555,49.916313,364.6</coordinates>
                </LineString>
            </MultiGeometry>
        </Placemark>
        <Placemark id="5417">
            <name>Hohlmühle</name>
            <Point id="5416">
                <coordinates>11.595548,49.916312,0</coordinates>
            </Point>
        </Placemark>
        <Placemark id="5419">
            <name>Stone Wayside Shrine</name>
            <Point id="5418">
                <coordinates>11.575132,49.908698,437.0</coordinates>
            </Point>
        </Placemark>
        <Placemark id="5421">
            <name>Student Forest</name>
            <Point id="5420">
                <coordinates>11.569608,49.921208,401.3</coordinates>
            </Point>
        </Placemark>
        <Placemark id="5423">
            <name>Beaver Pond on Lindenhofallee</name>
            <Point id="5422">
                <coordinates>11.581897,49.91855,408.9</coordinates>
            </Point>
        </Placemark>
        <Placemark id="5425">
            <name>Lindenhof Nature Reserve (LBV Upper Franconia)</name>
            <Point id="5424">
                <coordinates>11.586286,49.917934,355.1</coordinates>
            </Point>
        </Placemark>
        <Placemark id="5427">
            <name>White Donkey Paddock at Lindenhof</name>
            <Point id="5426">
                <coordinates>11.587927,49.917727,402.2</coordinates>
            </Point>
        </Placemark>
        <Placemark id="5429">
            <name>Observation Platform Overlooking Wetlands</name>
            <Point id="5428">
                <coordinates>11.588426,49.917478,408.2</coordinates>
            </Point>
        </Placemark>
    </Document>
</kml>
