<?xml version="1.0" encoding="UTF-8"?>
<kml xmlns="http://www.opengis.net/kml/2.2" xmlns:gx="http://www.google.com/kml/ext/2.2">
    <Document id="5491">
        <name>Teufelstein Unteralting – Keltenschanze Unteralting Runde von Grafrath-2893001951.gpx</name>
        <Placemark id="5493">
            <name>Teufelstein Unteralting – Keltenschanze Unteralting Runde von Grafrath</name>
            <MultiGeometry id="5492">
                <LineString id="5494">
                    <coordinates>11.156866,48.120807,536.0 11.156994,48.120176,536.5 11.156969,48.120073,536.5 11.156949,48.119994,536.6 11.15675,48.119828,536.7 11.156441,48.119655,536.8 11.155977,48.119345,536.6 11.155173,48.118521,536.9 11.155633,48.118272,537.6 11.155843,48.118164,538.1 11.156117,48.11797,538.8 11.156264,48.117691,539.7 11.156276,48.117658,539.8 11.156485,48.117071,541.5 11.156491,48.117058,541.6 11.156583,48.116797,542.2 11.156633,48.116582,542.6 11.15665,48.11646,542.9 11.15666,48.116291,543.0 11.156671,48.116123,543.0 11.156616,48.115841,542.7 11.156611,48.115823,542.6 11.15657,48.115552,542.0 11.156555,48.115447,541.7 11.156542,48.115006,540.3 11.156543,48.114694,539.2 11.156486,48.114521,538.5 11.156458,48.114278,537.6 11.156402,48.11418,537.2 11.156187,48.114003,536.6 11.156022,48.113945,536.3 11.155647,48.113934,535.9 11.154917,48.11399,535.7 11.154148,48.11391,536.0 11.153452,48.1138,536.3 11.152853,48.113594,536.4 11.152818,48.112512,536.5 11.152604,48.111785,536.8 11.152518,48.111366,537.4 11.152689,48.110593,538.8 11.153076,48.109991,540.0 11.153608,48.109446,541.0 11.153662,48.10922,541.2 11.153805,48.108999,541.5 11.154039,48.108815,541.8 11.154298,48.10868,542.1 11.154865,48.108451,542.8 11.155179,48.108268,543.3 11.155891,48.107498,545.2 11.156281,48.107231,546.1 11.156793,48.106985,546.9 11.157006,48.106615,547.6 11.157129,48.106326,548.0 11.157427,48.10537,549.1 11.157437,48.105347,549.1 11.157668,48.104865,549.8 11.158097,48.10441,552.0 11.158641,48.104028,555.8 11.159641,48.104108,562.1 11.15996,48.104047,564.3 11.160258,48.10408,566.4 11.160462,48.104251,568.6 11.160664,48.104303,570.0 11.161052,48.104308,572.2 11.161225,48.104351,573.1 11.162125,48.104679,577.7 11.162649,48.104646,580.0 11.16317,48.104706,582.5 11.163279,48.104748,583.1 11.164016,48.105028,587.3 11.16441,48.105262,589.6 11.164919,48.105374,591.4 11.165658,48.105653,592.6 11.166176,48.106006,591.7 11.16723,48.107227,582.2 11.16743,48.10727,581.2 11.167463,48.107424,580.2 11.167417,48.107837,577.9 11.167278,48.108155,576.5 11.16713,48.108327,575.8 11.167045,48.108587,575.0 11.167179,48.10883,574.4 11.167561,48.109178,573.6 11.168243,48.109606,572.2 11.168347,48.109671,571.9 11.169649,48.110345,569.3 11.169816,48.110593,569.0 11.169835,48.110789,568.8 11.17002,48.111414,568.8 11.170152,48.111692,568.9 11.170195,48.11207,568.9 11.170622,48.112064,568.7 11.170195,48.11207,568.4 11.170271,48.112547,567.8 11.170208,48.11266,567.6 11.170111,48.112757,567.4 11.169985,48.112806,567.2 11.169888,48.112818,567.1 11.169863,48.112821,567.1 11.169336,48.11278,566.3 11.168874,48.112823,565.9 11.168596,48.112752,565.7 11.16842,48.112765,565.6 11.167955,48.112983,565.7 11.167719,48.113064,565.9 11.167554,48.113074,566.0 11.167436,48.113052,566.2 11.167123,48.112892,566.9 11.166998,48.112901,567.1 11.166404,48.113043,568.3 11.165767,48.113201,569.2 11.165039,48.11369,568.0 11.164575,48.114216,564.5 11.16439,48.114438,562.4 11.16429,48.114772,559.2 11.16423,48.115263,555.7 11.16404,48.11568,553.8 11.164071,48.11574,553.6 11.164405,48.115924,552.8 11.164495,48.116024,552.6 11.164503,48.116089,552.5 11.164499,48.116148,552.4 11.164155,48.116647,552.8 11.164088,48.116722,553.0 11.164054,48.116759,553.1 11.164051,48.116846,553.2 11.164217,48.116982,553.5 11.164426,48.117096,553.8 11.16477,48.117285,554.3 11.164706,48.117576,554.6 11.164553,48.11773,554.7 11.164397,48.117692,554.8 11.164296,48.117814,554.7 11.164244,48.117838,554.7 11.164217,48.117882,554.7 11.164166,48.117906,554.7 11.164217,48.117882,554.7 11.164244,48.117838,554.7 11.164296,48.117814,554.6 11.164397,48.117692,554.5 11.164019,48.117558,554.0 11.16374,48.117492,553.6 11.163469,48.117514,553.2 11.163067,48.11766,552.6 11.16284,48.117743,552.2 11.162666,48.117879,551.7 11.162341,48.118133,550.7 11.162036,48.118371,549.6 11.161951,48.118537,548.8 11.161824,48.118785,547.3 11.161732,48.118849,546.7 11.161398,48.118868,545.3 11.161184,48.118928,544.4 11.160899,48.119138,542.6 11.160659,48.119462,540.5 11.160502,48.119616,539.5 11.160597,48.119667,539.2 11.160664,48.119691,539.0 11.160754,48.119964,537.8 11.160839,48.120209,537.0 11.160754,48.119964,536.5 11.160664,48.119691,536.4 11.160597,48.119667,536.4 11.160502,48.119616,536.3 11.160335,48.119673,536.3 11.158917,48.120024,536.6 11.158579,48.120088,536.7 11.158224,48.120115,536.8 11.157528,48.120145,536.7 11.156994,48.120176,536.5 11.156866,48.120807,536.0</coordinates>
                </LineString>
            </MultiGeometry>
        </Placemark>
        <Placemark id="5497">
            <name>Grafrath, Rassosiedlung</name>
            <Point id="5496">
                <coordinates>11.156932,48.120817,0</coordinates>
            </Point>
        </Placemark>
        <Placemark id="5499">
            <name>Teufelstein Unteralting</name>
            <Point id="5498">
                <coordinates>11.157441,48.105348,546.8</coordinates>
            </Point>
        </Placemark>
        <Placemark id="5501">
            <name>Small Biotope in a Kettle Hole</name>
            <Point id="5500">
                <coordinates>11.163261,48.104769,633.9</coordinates>
            </Point>
        </Placemark>
        <Placemark id="5503">
            <name>Keltenschanze Unteralting</name>
            <Point id="5502">
                <coordinates>11.168261,48.109592,575.4</coordinates>
            </Point>
        </Placemark>
        <Placemark id="5505">
            <name>View of the Kettle Hole Landscape</name>
            <Point id="5504">
                <coordinates>11.170623,48.112085,623.3</coordinates>
            </Point>
        </Placemark>
        <Placemark id="5507">
            <name>Kettle Hole</name>
            <Point id="5506">
                <coordinates>11.16989,48.112826,617.2</coordinates>
            </Point>
        </Placemark>
        <Placemark id="5509">
            <name>Wooden Carving Rest Area</name>
            <Point id="5508">
                <coordinates>11.164502,48.117761,606.9</coordinates>
            </Point>
        </Placemark>
        <Placemark id="5511">
            <name>St. Mauritius Church, Unteralting (Grafrath)</name>
            <Point id="5510">
                <coordinates>11.16419,48.11791,557.0</coordinates>
            </Point>
        </Placemark>
        <Placemark id="5513">
            <name>Wooden Covered Bridge Over the Amper</name>
            <Point id="5512">
                <coordinates>11.16083,48.12021,542.6</coordinates>
            </Point>
        </Placemark>
    </Document>
</kml>
