<?xml version="1.0" encoding="UTF-8"?>
<kml xmlns="http://www.opengis.net/kml/2.2" xmlns:gx="http://www.google.com/kml/ext/2.2">
    <Document id="5537">
        <name>Tillys Armeelager – Kleine Wehr Runde von Oberndorf a.Lech-2789336526.gpx</name>
        <Placemark id="5539">
            <name>Tillys Armeelager – Kleine Wehr Runde von Oberndorf a.Lech</name>
            <MultiGeometry id="5538">
                <LineString id="5540">
                    <coordinates>10.86568,48.672125,406.7 10.865826,48.672119,406.8 10.865983,48.672066,406.8 10.866149,48.67206,406.8 10.867225,48.672058,406.9 10.867225,48.671886,406.9 10.867225,48.671731,406.9 10.867226,48.671471,406.9 10.867226,48.67138,406.9 10.867226,48.671285,407.0 10.867319,48.671058,407.0 10.867358,48.670963,407.0 10.868122,48.671099,407.1 10.868482,48.67115,407.2 10.868706,48.671181,407.2 10.869038,48.671262,407.2 10.869065,48.671277,407.2 10.869308,48.671409,407.1 10.869526,48.671485,407.1 10.86983,48.67152,407.0 10.870342,48.671551,406.8 10.870541,48.671565,406.8 10.871091,48.671606,406.7 10.871607,48.671643,406.7 10.871681,48.671648,406.7 10.871983,48.671669,406.7 10.872015,48.6716,406.7 10.872091,48.671389,406.7 10.872144,48.671189,406.8 10.872268,48.670355,407.0 10.872941,48.670404,407.0 10.873155,48.670575,407.0 10.873949,48.671209,407.1 10.874492,48.671554,407.1 10.874563,48.671569,407.1 10.876435,48.67147,407.1 10.876886,48.671503,407.1 10.877264,48.671462,407.1 10.877359,48.671658,407.1 10.877887,48.671689,407.1 10.87799,48.671687,407.1 10.878448,48.671679,407.1 10.881649,48.671622,406.9 10.881841,48.671664,406.8 10.88289,48.671621,406.4 10.884467,48.671614,405.7 10.886928,48.671561,405.4 10.886955,48.671678,405.4 10.886909,48.6719,405.4 10.886191,48.672896,404.8 10.886134,48.673223,404.4 10.886332,48.673736,403.6 10.886494,48.674026,403.1 10.886587,48.674048,403.0 10.886719,48.674061,402.9 10.886805,48.674101,402.8 10.886813,48.674157,402.7 10.88676,48.674282,402.4 10.886746,48.674766,401.7 10.886695,48.674946,401.5 10.886596,48.675118,401.3 10.886183,48.675517,401.0 10.886125,48.675643,401.0 10.886118,48.675781,400.9 10.886565,48.678184,400.9 10.88677,48.67866,400.7 10.886934,48.678821,400.6 10.886744,48.678872,400.6 10.886583,48.678884,400.5 10.886221,48.678908,400.5 10.88656,48.681441,400.9 10.887164,48.682586,400.8 10.88812,48.684375,401.0 10.887529,48.684461,401.3 10.886866,48.684695,401.6 10.886082,48.685171,401.5 10.885938,48.685415,401.4 10.885893,48.685636,401.2 10.885935,48.686045,400.7 10.886397,48.68648,400.1 10.887668,48.687354,399.6 10.888403,48.687977,399.7 10.888669,48.688304,399.7 10.888701,48.688806,399.7 10.888503,48.689636,400.2 10.888438,48.690133,400.6 10.888525,48.690419,400.9 10.889,48.690753,401.2 10.889396,48.691092,401.4 10.890043,48.691296,401.2 10.890915,48.69199,400.7 10.890994,48.6921,400.6 10.891129,48.69247,400.5 10.890898,48.693929,400.4 10.891201,48.694969,400.5 10.891559,48.695051,400.5 10.892563,48.695158,400.4 10.892888,48.69516,400.3 10.893954,48.694949,400.2 10.894377,48.694824,400.2 10.894699,48.694565,400.0 10.894756,48.694328,399.9 10.894801,48.694132,399.7 10.895221,48.693975,399.6 10.896019,48.693753,399.7 10.896026,48.693729,399.7 10.896065,48.693655,399.8 10.896159,48.693566,399.9 10.896208,48.693463,400.0 10.89597,48.693033,400.7 10.896072,48.692282,402.0 10.896365,48.69231,402.3 10.896432,48.692343,402.4 10.896465,48.692341,402.5 10.897227,48.692308,403.3 10.897218,48.692399,403.4 10.897229,48.692471,403.5 10.89724,48.692542,403.5 10.897288,48.692612,403.6 10.897745,48.692578,403.7 10.89818,48.692473,403.8 10.898088,48.692574,403.8 10.89818,48.692473,403.9 10.898331,48.692422,403.9 10.899433,48.692383,403.5 10.899896,48.692358,403.0 10.899842,48.691676,401.8 10.899855,48.69071,400.5 10.899817,48.689965,400.1 10.899655,48.686384,400.6 10.899279,48.686495,400.4 10.898248,48.685988,399.7 10.898061,48.685989,399.6 10.897677,48.684853,399.4 10.896494,48.683742,399.8 10.896377,48.683505,399.8 10.894969,48.682719,399.8 10.894444,48.682268,400.2 10.89445,48.681932,400.6 10.894452,48.681805,400.8 10.894094,48.681475,401.3 10.893969,48.681206,401.6 10.893561,48.680853,401.9 10.893161,48.680309,402.1 10.892601,48.679745,402.2 10.892311,48.679357,402.5 10.892242,48.679156,402.7 10.892229,48.678989,402.9 10.892365,48.678449,403.4 10.892132,48.677748,403.8 10.892119,48.677159,403.7 10.892489,48.676761,403.5 10.892661,48.676602,403.3 10.892967,48.676326,403.2 10.893579,48.676011,403.3 10.894255,48.675753,403.5 10.894526,48.675615,403.6 10.89472,48.675447,403.8 10.894854,48.675288,403.9 10.895009,48.674943,404.2 10.895099,48.674598,404.4 10.895141,48.674241,404.7 10.895172,48.673973,404.9 10.895148,48.673854,405.0 10.895199,48.673347,405.5 10.895193,48.672871,406.2 10.89514,48.672646,406.5 10.894927,48.672099,406.8 10.894927,48.671974,406.7 10.894982,48.671884,406.6 10.894857,48.671847,406.5 10.894631,48.671819,406.2 10.89433,48.671791,405.8 10.894051,48.671691,405.4 10.89369,48.671607,404.9 10.893459,48.671519,404.5 10.892923,48.671379,403.8 10.892478,48.671263,403.3 10.892232,48.671147,403.1 10.892012,48.670993,402.9 10.891747,48.67094,402.8 10.891542,48.670756,402.7 10.890935,48.670705,402.6 10.890681,48.669612,402.0 10.890273,48.668101,403.0 10.888428,48.662129,407.4 10.888234,48.661644,407.4 10.888,48.660963,407.0 10.887757,48.660254,406.0 10.887673,48.659741,405.5 10.887688,48.659284,405.3 10.888,48.658396,406.0 10.88828,48.657719,406.8 10.888376,48.657023,407.5 10.887814,48.654958,407.7 10.887573,48.653783,407.2 10.887576,48.653761,407.1 10.887591,48.653645,407.0 10.887409,48.653607,406.8 10.887295,48.653583,406.6 10.886909,48.653485,406.2 10.886173,48.653422,405.5 10.885731,48.653354,405.0 10.885321,48.653215,404.7 10.885152,48.653129,404.7 10.88497,48.653093,404.7 10.884237,48.653124,404.8 10.883997,48.653065,404.9 10.883794,48.652979,405.0 10.882559,48.651836,405.5 10.881665,48.650883,405.7 10.880905,48.649848,406.1 10.880556,48.649198,406.4 10.880353,48.648631,406.6 10.880358,48.648456,406.7 10.880424,48.648163,406.9 10.880395,48.647982,407.1 10.880262,48.647723,407.4 10.880183,48.64734,408.0 10.880229,48.646973,408.6 10.880389,48.646627,409.1 10.880661,48.646215,409.7 10.880589,48.646239,409.7 10.879997,48.646229,410.0 10.879926,48.646231,410.0 10.879187,48.646231,410.1 10.87919,48.646305,410.1 10.879198,48.646478,410.0 10.878597,48.64648,409.7 10.878346,48.646413,409.6 10.878096,48.646413,409.4 10.878315,48.646643,409.1 10.87841,48.646802,408.9 10.878489,48.647029,408.7 10.878521,48.647156,408.5 10.878847,48.64806,407.2 10.878984,48.648642,406.6 10.879009,48.648943,406.5 10.87914,48.649616,406.2 10.879558,48.649912,406.2 10.880434,48.651147,406.2 10.880565,48.651497,406.2 10.880779,48.651822,406.2 10.881018,48.652054,406.2 10.881547,48.652437,406.0 10.882787,48.653728,405.4 10.883963,48.655188,404.7 10.884462,48.655957,404.5 10.884704,48.65639,404.4 10.884931,48.656698,404.3 10.885194,48.657201,404.1 10.885504,48.65822,403.8 10.885512,48.658405,403.8 10.885412,48.658496,403.8 10.885359,48.658716,403.9 10.88645,48.662596,406.3 10.88698,48.664187,404.2 10.886818,48.664177,404.0 10.88647,48.664277,403.6 10.886333,48.664346,403.5 10.88596,48.664382,403.1 10.885697,48.664366,402.9 10.885446,48.664397,402.7 10.885103,48.664496,402.5 10.884435,48.664787,402.3 10.884396,48.664787,402.3 10.88427,48.664776,402.3 10.883758,48.664678,402.2 10.883164,48.664614,402.4 10.882396,48.664598,402.7 10.882072,48.664621,403.0 10.881669,48.664888,403.5 10.881501,48.665146,404.0 10.881271,48.665181,404.2 10.880044,48.665293,405.5 10.879804,48.665343,405.6 10.879147,48.665836,406.0 10.878709,48.666362,406.0 10.878376,48.666703,406.0 10.87812,48.666917,406.1 10.877737,48.666955,406.2 10.877217,48.666841,406.4 10.877021,48.666837,406.5 10.876826,48.666863,406.6 10.87652,48.666969,406.8 10.876221,48.667117,406.9 10.875998,48.667167,407.0 10.875607,48.667163,407.2 10.874504,48.667065,407.5 10.874034,48.667046,407.5 10.873868,48.667019,407.5 10.873044,48.666976,407.5 10.872908,48.667015,407.5 10.872867,48.667027,407.5 10.872504,48.667178,407.5 10.872485,48.667409,407.4 10.872457,48.667733,407.3 10.872396,48.66816,407.1 10.872286,48.668161,407.1 10.871568,48.668168,407.2 10.871514,48.66817,407.2 10.871128,48.668182,407.2 10.871024,48.668185,407.3 10.870971,48.668188,407.3 10.870313,48.66825,407.4 10.870085,48.668272,407.5 10.870193,48.668559,407.6 10.870246,48.668777,407.7 10.870263,48.668988,407.8 10.870181,48.668981,407.8 10.870049,48.668877,407.8 10.869955,48.668852,407.8 10.869889,48.668877,407.8 10.869871,48.668927,407.8 10.869907,48.669004,407.8 10.869876,48.669319,407.7 10.86979,48.669667,407.6 10.869483,48.669691,407.6 10.869414,48.669772,407.6 10.869356,48.670034,407.6 10.869258,48.670405,407.5 10.869166,48.670426,407.5 10.868885,48.670387,407.4 10.86846,48.670328,407.3 10.868413,48.670322,407.3 10.867656,48.67026,407.2 10.867651,48.670278,407.2 10.867526,48.67063,407.1 10.867471,48.670721,407.1 10.867388,48.670883,407.0 10.867358,48.670963,407.0 10.867319,48.671058,406.9 10.867226,48.671285,406.9 10.867226,48.67138,406.9 10.867226,48.671471,406.8 10.867225,48.671731,406.8 10.867225,48.671886,406.8 10.867225,48.672058,406.9 10.866149,48.67206,406.8 10.865983,48.672066,406.8 10.865826,48.672119,406.8 10.86568,48.672125,406.7</coordinates>
                </LineString>
            </MultiGeometry>
        </Placemark>
        <Placemark id="5543">
            <name>Rathaus</name>
            <Point id="5542">
                <coordinates>10.865683,48.672155,0</coordinates>
            </Point>
        </Placemark>
        <Placemark id="5545">
            <name>Kastanienallee Oberndorf</name>
            <Point id="5544">
                <coordinates>10.8731,48.670605,458.9</coordinates>
            </Point>
        </Placemark>
        <Placemark id="5547">
            <name>Herrgottsruh Chapel and Lourdes Grotto</name>
            <Point id="5546">
                <coordinates>10.87845,48.67173,454.7</coordinates>
            </Point>
        </Placemark>
        <Placemark id="5549">
            <name>Lech Weir and Rain Hydroelectric Power Plant</name>
            <Point id="5548">
                <coordinates>10.897151,48.692476,405.5</coordinates>
            </Point>
        </Placemark>
        <Placemark id="5551">
            <name>Picnic Area at the Weir</name>
            <Point id="5550">
                <coordinates>10.898051,48.69256,404.4</coordinates>
            </Point>
        </Placemark>
        <Placemark id="5553">
            <name>View of Unterpeiching Church</name>
            <Point id="5552">
                <coordinates>10.895091,48.674238,455.0</coordinates>
            </Point>
        </Placemark>
        <Placemark id="5555">
            <name>Tilly's Army Camp Site</name>
            <Point id="5554">
                <coordinates>10.888057,48.660954,457.3</coordinates>
            </Point>
        </Placemark>
        <Placemark id="5557">
            <name>Small Weir</name>
            <Point id="5556">
                <coordinates>10.887749,48.65377,462.0</coordinates>
            </Point>
        </Placemark>
        <Placemark id="5559">
            <name>Oberpeiching Run-of-River Power Plant on the Lech</name>
            <Point id="5558">
                <coordinates>10.879209,48.646234,412.7</coordinates>
            </Point>
        </Placemark>
    </Document>
</kml>
