<?xml version="1.0" encoding="UTF-8"?>
<kml xmlns="http://www.opengis.net/kml/2.2" xmlns:gx="http://www.google.com/kml/ext/2.2">
    <Document id="5565">
        <name>Uferweg an der Amper – Blick auf Amperkanal Runde von Mitterndorf-2573151187.gpx</name>
        <Placemark id="5567">
            <name>Uferweg an der Amper – Blick auf Amperkanal Runde von Mitterndorf</name>
            <MultiGeometry id="5566">
                <LineString id="5568">
                    <coordinates>11.417512,48.253482,485.5 11.41723,48.253513,485.4 11.417229,48.253224,485.2 11.417315,48.252987,485.0 11.417328,48.25295,484.9 11.417294,48.252938,484.9 11.41726,48.252928,484.9 11.415894,48.252621,483.9 11.41562,48.25258,483.7 11.414961,48.252558,483.2 11.414568,48.252635,482.8 11.414171,48.252844,482.3 11.413507,48.253365,481.2 11.413445,48.253414,481.2 11.413507,48.253365,481.1 11.413263,48.253223,480.9 11.413263,48.253169,480.8 11.413217,48.253123,480.8 11.412481,48.253059,480.6 11.412155,48.252984,480.6 11.412147,48.252982,480.6 11.411807,48.252851,480.7 11.411483,48.252685,480.8 11.411201,48.252494,481.0 11.410887,48.252211,481.1 11.41067,48.251955,481.2 11.410303,48.25129,481.2 11.409998,48.251034,481.1 11.409832,48.250927,481.1 11.40953,48.25081,481.0 11.409263,48.25074,481.0 11.40905,48.250708,481.0 11.408228,48.25077,481.1 11.408142,48.250784,481.2 11.406416,48.251055,481.5 11.405876,48.251109,481.5 11.405052,48.251088,481.4 11.404319,48.251041,481.4 11.40412,48.250847,481.5 11.402544,48.250524,482.0 11.402125,48.250462,482.3 11.402079,48.250441,482.3 11.401592,48.250223,482.8 11.401101,48.250052,483.1 11.400736,48.249992,483.3 11.400398,48.249971,483.5 11.400233,48.249848,483.6 11.400278,48.249727,483.6 11.400256,48.249623,483.7 11.395366,48.247449,484.1 11.394083,48.246884,484.4 11.393985,48.246841,484.4 11.394008,48.246817,484.4 11.394167,48.246644,484.4 11.394188,48.246616,484.4 11.394222,48.246505,484.3 11.39427,48.246392,484.2 11.394454,48.246186,484.0 11.394466,48.246143,483.9 11.394401,48.245966,483.7 11.394441,48.245668,483.2 11.394524,48.245674,483.1 11.395016,48.245724,482.5 11.395615,48.245786,482.0 11.396714,48.245826,481.3 11.396955,48.245753,481.2 11.397021,48.245733,481.2 11.397665,48.245541,481.0 11.398096,48.245415,480.9 11.398396,48.245392,480.9 11.398997,48.245489,480.8 11.399539,48.245665,480.7 11.400284,48.246158,480.4 11.400346,48.246399,480.3 11.401057,48.246804,480.4 11.401641,48.247072,480.6 11.401804,48.247227,480.7 11.402104,48.24768,481.0 11.402179,48.248196,481.2 11.402248,48.248216,481.2 11.402273,48.248221,481.2 11.402213,48.248453,481.1 11.401688,48.24896,480.8 11.401586,48.249325,480.5 11.401741,48.249635,480.3 11.402447,48.249924,480.2 11.40269,48.249954,480.3 11.403321,48.25003,480.5 11.403607,48.250185,480.7 11.403932,48.250313,480.9 11.404879,48.250591,481.7 11.405459,48.250656,482.0 11.406227,48.25062,482.2 11.406934,48.250524,482.1 11.408181,48.250309,481.4 11.408571,48.250248,481.3 11.409121,48.250217,481.2 11.409797,48.250341,481.2 11.410425,48.250566,481.3 11.410952,48.250861,481.3 11.411354,48.251271,481.1 11.411431,48.251342,481.1 11.411823,48.251706,480.9 11.412282,48.251902,480.8 11.412831,48.252012,480.8 11.41289,48.252007,480.8 11.414336,48.251874,481.0 11.415039,48.251859,481.2 11.415534,48.251895,481.5 11.41617,48.252056,481.8 11.417435,48.252431,483.4 11.417429,48.252519,483.6 11.417281,48.252868,484.2 11.41726,48.252928,484.3 11.417294,48.252938,484.4 11.417328,48.25295,484.4 11.417315,48.252987,484.5 11.417229,48.253224,484.8 11.41723,48.253513,485.2 11.417512,48.253482,485.4</coordinates>
                </LineString>
            </MultiGeometry>
        </Placemark>
        <Placemark id="5571">
            <name>View of the Amper River</name>
            <Point id="5570">
                <coordinates>11.418333,48.252778,597.0</coordinates>
            </Point>
        </Placemark>
        <Placemark id="5573">
            <name>Footbridge over the Maisach tributary</name>
            <Point id="5572">
                <coordinates>11.41352,48.253457,486.4</coordinates>
            </Point>
        </Placemark>
        <Placemark id="5575">
            <name>Riverside path on the Amper</name>
            <Point id="5574">
                <coordinates>11.41046,48.251455,486.7</coordinates>
            </Point>
        </Placemark>
        <Placemark id="5577">
            <name>Wooden bridge over the Amper near Naturfreundehaus Dachau</name>
            <Point id="5576">
                <coordinates>11.402544,48.250564,533.4</coordinates>
            </Point>
        </Placemark>
        <Placemark id="5579">
            <name>View of the Amper Canal</name>
            <Point id="5578">
                <coordinates>11.394114,48.246853,537.4</coordinates>
            </Point>
        </Placemark>
        <Placemark id="5581">
            <name>Riverside Path Along the Amper</name>
            <Point id="5580">
                <coordinates>11.400127,48.246197,526.5</coordinates>
            </Point>
        </Placemark>
        <Placemark id="5583">
            <name>Footpath along the Amper</name>
            <Point id="5582">
                <coordinates>11.41143,48.251342,527.0</coordinates>
            </Point>
        </Placemark>
        <Placemark id="5585">
            <name>Amper River near Mitterndorf</name>
            <Point id="5584">
                <coordinates>11.412889,48.252,481.7</coordinates>
            </Point>
        </Placemark>
    </Document>
</kml>
