<?xml version="1.0" encoding="UTF-8"?>
<kml xmlns="http://www.opengis.net/kml/2.2" xmlns:gx="http://www.google.com/kml/ext/2.2">
    <Document id="5587">
        <name>Unterstand an der Wegkreuzung – Steinpilz Runde von Rettenbergen-2741030765.gpx</name>
        <Placemark id="5589">
            <name>Unterstand an der Wegkreuzung – Steinpilz Runde von Rettenbergen</name>
            <MultiGeometry id="5588">
                <LineString id="5590">
                    <coordinates>10.78004,48.443293,500.3 10.780158,48.44327,500.3 10.780251,48.443257,500.3 10.780571,48.443201,500.3 10.780404,48.443066,500.4 10.780431,48.443057,500.4 10.780553,48.443103,500.5 10.780431,48.443057,500.6 10.780404,48.443066,500.6 10.780278,48.44302,500.7 10.779939,48.442904,501.3 10.77985,48.442824,501.7 10.779706,48.442773,502.1 10.779578,48.443032,503.5 10.779381,48.442985,504.3 10.779197,48.442978,505.0 10.778535,48.442946,507.5 10.77814,48.442962,509.0 10.777795,48.442896,510.3 10.777347,48.44268,512.4 10.775867,48.442152,517.0 10.775236,48.442178,518.6 10.77443,48.442152,520.3 10.773421,48.442268,522.3 10.77243,48.442191,524.0 10.771838,48.442274,525.0 10.769683,48.442371,527.4 10.768994,48.442364,527.4 10.768334,48.442248,527.2 10.767463,48.442129,526.5 10.767167,48.442244,526.2 10.766941,48.442391,526.0 10.766982,48.442479,525.9 10.766941,48.442391,525.8 10.766725,48.442329,525.7 10.766208,48.442252,525.5 10.764535,48.441846,526.0 10.764459,48.441827,526.1 10.762929,48.441491,527.5 10.760672,48.440914,527.5 10.760351,48.440888,527.5 10.759676,48.440727,527.8 10.759401,48.440664,528.1 10.758342,48.440472,530.1 10.757931,48.440419,531.2 10.756995,48.440156,534.2 10.755798,48.439927,536.3 10.755382,48.439812,536.6 10.75476,48.439602,536.3 10.754353,48.439514,535.8 10.754025,48.439497,535.2 10.753745,48.439437,534.6 10.752897,48.439205,532.7 10.751934,48.439001,531.4 10.752332,48.438386,531.1 10.752764,48.437455,531.7 10.753048,48.43699,531.7 10.753334,48.436231,531.0 10.753903,48.436314,530.4 10.754447,48.436326,529.7 10.754773,48.436288,529.4 10.755009,48.43579,528.6 10.755577,48.435526,528.2 10.756202,48.435293,528.0 10.756758,48.435146,528.3 10.757962,48.434872,528.7 10.758181,48.434852,528.7 10.758781,48.434897,528.4 10.759496,48.43489,527.6 10.759735,48.435084,527.0 10.759796,48.435133,526.8 10.760434,48.435573,524.5 10.761213,48.435656,522.2 10.762311,48.435573,519.1 10.762834,48.435669,517.4 10.763606,48.435727,514.6 10.764219,48.435963,511.9 10.764915,48.436373,508.5 10.765213,48.436583,507.1 10.766324,48.43674,504.5 10.766656,48.436706,504.1 10.767197,48.436721,503.8 10.767291,48.436617,503.8 10.767344,48.436676,503.7 10.767806,48.436926,503.6 10.76813,48.436986,503.5 10.768292,48.437058,503.5 10.768408,48.437015,503.5 10.769741,48.436895,503.4 10.770576,48.436912,503.5 10.770971,48.436963,503.9 10.771914,48.437153,504.7 10.772323,48.437214,505.0 10.77235,48.437269,505.1 10.772506,48.437373,505.3 10.773267,48.437679,505.9 10.774569,48.438072,505.8 10.775485,48.438239,505.1 10.776116,48.438432,504.5 10.776279,48.438514,504.3 10.77642,48.43864,504.0 10.776456,48.438751,503.7 10.776426,48.438818,503.6 10.7765,48.43969,501.0 10.776422,48.440015,500.4 10.776413,48.440412,499.8 10.776911,48.441048,499.4 10.777289,48.441326,499.5 10.778037,48.441495,500.0 10.778257,48.441596,500.1 10.778802,48.442047,500.3 10.779517,48.442385,500.6 10.779621,48.442457,500.6 10.779708,48.442543,500.6 10.779764,48.442654,500.6 10.779706,48.442773,500.7 10.779578,48.443032,500.8 10.780119,48.443226,501.0 10.780158,48.44327,501.0 10.78004,48.443293,501.1</coordinates>
                </LineString>
            </MultiGeometry>
        </Placemark>
        <Placemark id="5593">
            <name>Gersthofen Peterhof</name>
            <Point id="5592">
                <coordinates>10.780023,48.443255,0</coordinates>
            </Point>
        </Placemark>
        <Placemark id="5595">
            <name>Peterhof and St. Peter's Chapel</name>
            <Point id="5594">
                <coordinates>10.780566,48.443088,504.0</coordinates>
            </Point>
        </Placemark>
        <Placemark id="5597">
            <name>Shelter at Trail Junction</name>
            <Point id="5596">
                <coordinates>10.766949,48.442486,583.9</coordinates>
            </Point>
        </Placemark>
        <Placemark id="5599">
            <name>Porcini</name>
            <Point id="5598">
                <coordinates>10.764229,48.4424,577.1</coordinates>
            </Point>
        </Placemark>
    </Document>
</kml>
