<?xml version="1.0" encoding="UTF-8"?>
<kml xmlns="http://www.opengis.net/kml/2.2" xmlns:gx="http://www.google.com/kml/ext/2.2">
    <Document id="5731">
        <name>View of Großer Alpsee – Uferpromenade Bühl (Alpsee) Runde von Bühl am Alpsee-2694910430.gpx</name>
        <Placemark id="5733">
            <name>View of Großer Alpsee – Uferpromenade Bühl (Alpsee) Runde von Bühl am Alpsee</name>
            <MultiGeometry id="5732">
                <LineString id="5734">
                    <coordinates>10.192723,47.569438,726.2 10.192804,47.569494,726.2 10.192972,47.569391,726.1 10.192804,47.569494,726.1 10.192914,47.569569,726.1 10.19301,47.569636,726.1 10.193055,47.569667,726.1 10.19311,47.569705,726.1 10.193236,47.569791,726.1 10.193301,47.569837,726.1 10.193533,47.569898,726.0 10.192883,47.570341,725.8 10.192872,47.570348,725.8 10.192769,47.570419,725.8 10.192373,47.570686,726.0 10.192237,47.570738,726.1 10.192172,47.570791,726.1 10.192108,47.570936,726.2 10.192107,47.570951,726.2 10.192106,47.570968,726.2 10.192106,47.570968,726.2 10.192118,47.571066,726.2 10.192255,47.572125,726.8 10.192514,47.5728,727.2 10.192767,47.573447,727.2 10.192771,47.573452,727.2 10.193028,47.573769,726.9 10.193134,47.573863,726.8 10.193134,47.573863,726.8 10.193579,47.574248,726.3 10.193629,47.574323,726.2 10.193729,47.574674,725.9 10.193783,47.574865,725.7 10.194062,47.575598,725.5 10.194047,47.575703,725.6 10.193895,47.576086,725.9 10.193858,47.57618,726.0 10.193858,47.576261,726.0 10.193897,47.576316,726.1 10.194241,47.576562,726.4 10.194329,47.57666,726.5 10.194348,47.576809,726.7 10.19432,47.57689,726.7 10.194012,47.577145,726.9 10.193725,47.577342,727.0 10.193484,47.577489,727.2 10.19336,47.577535,727.2 10.192957,47.577737,727.5 10.1929,47.577766,727.6 10.192881,47.577796,727.7 10.192904,47.577823,727.7 10.19298,47.577905,728.0 10.193019,47.577912,728.0 10.193284,47.577819,728.7 10.193329,47.577814,728.8 10.193376,47.577842,729.0 10.193218,47.577923,729.7 10.193049,47.577979,730.4 10.19312,47.578092,731.3 10.19312,47.578092,731.3 10.193224,47.578315,733.4 10.193224,47.578378,734.1 10.193137,47.578565,736.5 10.193116,47.57861,737.1 10.193115,47.578724,738.6 10.19335,47.578904,741.9 10.19342,47.579143,745.4 10.193637,47.579285,748.4 10.193813,47.5794,751.1 10.193635,47.579604,755.0 10.193586,47.57963,755.7 10.193483,47.57963,757.0 10.193293,47.579718,759.7 10.19318,47.579741,761.1 10.193089,47.579761,762.2 10.193006,47.57978,763.3 10.19246,47.579978,770.7 10.192262,47.580104,773.7 10.192012,47.580139,776.5 10.191493,47.580283,783.5 10.191372,47.58034,785.4 10.191321,47.580412,787.0 10.191334,47.580444,787.6 10.191408,47.58046,788.6 10.191643,47.58046,791.8 10.191782,47.580483,793.8 10.192861,47.580951,810.8 10.19309,47.581184,816.1 10.193145,47.581283,818.1 10.193196,47.581434,821.0 10.19319,47.581617,824.3 10.193181,47.581928,829.5 10.193233,47.582068,831.7 10.193197,47.582226,834.0 10.193136,47.582498,837.6 10.193222,47.582702,840.1 10.193279,47.582945,842.9 10.193239,47.583449,848.1 10.193384,47.583803,851.3 10.193428,47.583993,852.9 10.193438,47.584177,854.1 10.193325,47.58445,855.5 10.193647,47.584472,856.2 10.194033,47.584492,856.5 10.194202,47.584492,856.5 10.194007,47.584409,856.3 10.193821,47.584295,855.9 10.193668,47.58416,855.3 10.193593,47.583994,854.6 10.193536,47.583717,853.3 10.193516,47.583622,852.8 10.193537,47.583535,852.3 10.193598,47.583486,851.9 10.19383,47.583422,851.0 10.194649,47.583316,848.5 10.196197,47.583189,845.2 10.197044,47.58317,843.2 10.198177,47.583188,840.1 10.19896,47.58316,837.9 10.199279,47.583105,837.0 10.199491,47.583045,836.3 10.199651,47.58295,835.7 10.199803,47.582792,834.9 10.199983,47.582607,834.0 10.200044,47.582497,833.5 10.200223,47.581809,830.2 10.200319,47.581564,828.9 10.20045,47.581393,827.7 10.200666,47.581213,826.3 10.200988,47.581045,824.4 10.201432,47.580904,821.8 10.201818,47.58082,819.3 10.202224,47.58068,816.2 10.202146,47.580514,814.4 10.202246,47.580398,813.0 10.202315,47.580223,811.0 10.202267,47.580086,809.4 10.201988,47.579885,806.2 10.200683,47.579428,793.3 10.200411,47.579304,790.1 10.200161,47.579124,786.3 10.199896,47.578682,778.2 10.199713,47.57848,773.9 10.198961,47.578051,761.7 10.198576,47.577882,756.2 10.19751,47.577908,745.8 10.197043,47.577919,742.1 10.196891,47.577978,740.9 10.196858,47.578079,739.9 10.196793,47.578142,739.1 10.196669,47.578185,738.3 10.196342,47.578085,736.2 10.196342,47.578085,736.2 10.196031,47.577597,732.8 10.195766,47.577318,731.2 10.195583,47.577219,730.5 10.19481,47.576796,728.1 10.194934,47.576674,727.8 10.194877,47.576644,727.7 10.194798,47.576719,727.5 10.194761,47.576729,727.4 10.194702,47.5767,727.4 10.194587,47.576642,727.2 10.194535,47.576631,727.1 10.194329,47.57666,726.9 10.194241,47.576562,726.7 10.193897,47.576316,726.3 10.193858,47.576261,726.2 10.193858,47.57618,726.1 10.194047,47.575703,725.6 10.194062,47.575598,725.5 10.193783,47.574865,725.7 10.193629,47.574323,726.2 10.193579,47.574248,726.3 10.193134,47.573863,726.8 10.193134,47.573863,726.8 10.193028,47.573769,726.9 10.192767,47.573447,727.2 10.192514,47.5728,727.2 10.192255,47.572125,726.8 10.192118,47.571066,726.2 10.192106,47.570968,726.2 10.192106,47.570968,726.2 10.192107,47.570951,726.2 10.192108,47.570936,726.2 10.192172,47.570791,726.1 10.192237,47.570738,726.1 10.192373,47.570686,726.0 10.192769,47.570419,725.8 10.192872,47.570348,725.8 10.192883,47.570341,725.8 10.193533,47.569898,726.0 10.193301,47.569837,726.1 10.193236,47.569791,726.1 10.19311,47.569705,726.1 10.193055,47.569667,726.1 10.19301,47.569636,726.1 10.192914,47.569569,726.1 10.192804,47.569494,726.1 10.192723,47.569438,726.2</coordinates>
                </LineString>
            </MultiGeometry>
        </Placemark>
        <Placemark id="5737">
            <name>Bühl, AlpSeeHaus</name>
            <Point id="5736">
                <coordinates>10.192685,47.569463,0</coordinates>
            </Point>
        </Placemark>
        <Placemark id="5739">
            <name>Nagelfluhkette Nature Park Center AlpSeeHaus</name>
            <Point id="5738">
                <coordinates>10.193029,47.569413,726.2</coordinates>
            </Point>
        </Placemark>
        <Placemark id="5741">
            <name>Großer Alpsee</name>
            <Point id="5740">
                <coordinates>10.192791,47.573444,780.6</coordinates>
            </Point>
        </Placemark>
        <Placemark id="5743">
            <name>Bench with a View of Großer Alpsee</name>
            <Point id="5742">
                <coordinates>10.19367,47.574682,775.5</coordinates>
            </Point>
        </Placemark>
        <Placemark id="5745">
            <name>Small beach at the Großer Alpsee with a beach bar</name>
            <Point id="5744">
                <coordinates>10.193788,47.576067,711.3</coordinates>
            </Point>
        </Placemark>
        <Placemark id="5747">
            <name>Bench overlooking the Großer Alpsee</name>
            <Point id="5746">
                <coordinates>10.193153,47.578568,785.0</coordinates>
            </Point>
        </Placemark>
        <Placemark id="5749">
            <name>View of the Großer Alpsee</name>
            <Point id="5748">
                <coordinates>10.193651,47.579276,802.0</coordinates>
            </Point>
        </Placemark>
        <Placemark id="5751">
            <name>View of Großer Alpsee and mountain panorama</name>
            <Point id="5750">
                <coordinates>10.193153,47.582222,882.6</coordinates>
            </Point>
        </Placemark>
        <Placemark id="5753">
            <name>Bühl lakeside promenade (Alpsee)</name>
            <Point id="5752">
                <coordinates>10.192161,47.571064,766.0</coordinates>
            </Point>
        </Placemark>
    </Document>
</kml>
