<?xml version="1.0" encoding="UTF-8"?>
<kml xmlns="http://www.opengis.net/kml/2.2" xmlns:gx="http://www.google.com/kml/ext/2.2">
    <Document id="5761">
        <name>Vogelschutzgebiet Thierhaupten Runde von Ellgau-2758052964.gpx</name>
        <Placemark id="5763">
            <name>Vogelschutzgebiet Thierhaupten Runde von Ellgau</name>
            <MultiGeometry id="5762">
                <LineString id="5764">
                    <coordinates>10.876075,48.597896,418.3 10.87616,48.59788,418.4 10.87678,48.597756,418.7 10.877083,48.597679,419.0 10.877437,48.597422,419.4 10.877816,48.596967,419.8 10.877942,48.596915,419.9 10.878251,48.596897,420.0 10.878413,48.596996,420.0 10.878666,48.59694,420.0 10.878753,48.596921,420.0 10.878729,48.596868,420.0 10.879101,48.596788,419.7 10.879136,48.596863,419.6 10.880126,48.596668,418.7 10.880063,48.596554,418.5 10.880254,48.596539,418.4 10.876644,48.588897,417.7 10.875616,48.586467,419.3 10.87487,48.584824,419.8 10.874833,48.584542,419.7 10.874724,48.583959,419.3 10.874721,48.583799,419.2 10.874715,48.583425,418.9 10.874923,48.582278,418.3 10.875128,48.581524,418.7 10.875214,48.581023,419.2 10.875215,48.579493,420.3 10.875388,48.579791,420.3 10.875983,48.581242,418.8 10.876006,48.581293,418.8 10.876553,48.582514,417.6 10.879611,48.589107,417.6 10.882134,48.594505,418.8 10.882916,48.596179,419.0 10.882971,48.596379,418.9 10.882994,48.596623,418.7 10.882848,48.596812,418.6 10.88159,48.597339,417.8 10.880884,48.597423,417.6 10.880521,48.597435,417.6 10.880466,48.597219,417.7 10.880458,48.597172,417.7 10.88042,48.596972,417.9 10.880401,48.596794,418.0 10.880332,48.5966,418.3 10.880254,48.596539,418.4 10.880063,48.596554,418.6 10.880126,48.596668,418.7 10.879136,48.596863,419.6 10.879101,48.596788,419.7 10.878729,48.596868,420.0 10.878753,48.596921,420.1 10.878666,48.59694,420.1 10.878413,48.596996,420.2 10.878582,48.597118,420.2 10.878413,48.596996,420.2 10.878251,48.596897,420.2 10.877942,48.596915,420.0 10.877816,48.596967,419.9 10.877437,48.597422,419.4 10.877083,48.597679,419.0 10.87678,48.597756,418.7 10.87616,48.59788,418.4 10.876075,48.597896,418.3</coordinates>
                </LineString>
            </MultiGeometry>
        </Placemark>
        <Placemark id="5767">
            <name>Thierhaupten Bird Sanctuary</name>
            <Point id="5766">
                <coordinates>10.874732,48.583799,10.9</coordinates>
            </Point>
        </Placemark>
        <Placemark id="5769">
            <name>Lechauen bei Thierhaupten</name>
            <Point id="5768">
                <coordinates>10.876725,48.581152,0</coordinates>
            </Point>
        </Placemark>
        <Placemark id="5771">
            <name>Information Board: History of Rafting on the Lech River</name>
            <Point id="5770">
                <coordinates>10.878574,48.597118,492.2</coordinates>
            </Point>
        </Placemark>
    </Document>
</kml>
