<?xml version="1.0" encoding="UTF-8"?>
<kml xmlns="http://www.opengis.net/kml/2.2" xmlns:gx="http://www.google.com/kml/ext/2.2">
    <Document id="5779">
        <name>Von Rocca d'Arazzo nach Belveglio (über Trail 204)-2860984177.gpx</name>
        <Placemark id="5781">
            <name>Von Rocca d'Arazzo nach Belveglio (über Trail 204)</name>
            <MultiGeometry id="5780">
                <LineString id="5782">
                    <coordinates>8.289198,44.873747,174.7 8.289174,44.873675,174.5 8.289064,44.873582,174.3 8.288932,44.873615,174.0 8.288775,44.873686,173.5 8.288066,44.873713,169.6 8.288279,44.873618,167.9 8.28852,44.873449,165.6 8.288457,44.873377,164.7 8.288377,44.873308,163.8 8.288496,44.873209,162.4 8.288689,44.873058,160.1 8.288644,44.873016,159.5 8.289146,44.872829,154.8 8.289761,44.87279,149.7 8.291599,44.873072,139.5 8.291904,44.873078,138.0 8.29282,44.87297,133.5 8.293632,44.872948,129.1 8.29368,44.872882,128.5 8.295099,44.872484,119.7 8.295598,44.872507,117.3 8.296516,44.87259,116.1 8.297041,44.872653,117.6 8.297202,44.872549,118.5 8.297558,44.872379,120.4 8.297769,44.872309,121.6 8.298348,44.872172,124.9 8.298516,44.87216,125.9 8.30075,44.872006,131.3 8.301247,44.872006,131.6 8.302525,44.872178,131.5 8.303825,44.872404,129.8 8.305701,44.872417,127.6 8.306193,44.872408,127.2 8.306783,44.872334,126.8 8.307357,44.872228,126.3 8.308841,44.872143,123.8 8.31001,44.871857,120.8 8.310243,44.87175,120.2 8.310583,44.871269,119.0 8.310857,44.871008,118.5 8.311868,44.870436,117.8 8.312622,44.869927,116.9 8.312926,44.869811,116.1 8.313721,44.869633,113.5 8.314522,44.869525,111.4 8.314949,44.8695,110.4 8.315093,44.869511,110.1 8.315216,44.869423,109.8 8.315276,44.869326,109.6 8.315294,44.869156,109.3 8.315241,44.868701,109.2 8.314856,44.867731,112.0 8.314774,44.867441,113.0 8.314657,44.866791,115.0 8.314581,44.866612,115.5 8.314501,44.866516,115.8 8.314084,44.866136,116.8 8.313768,44.865726,117.3 8.31361,44.865461,117.3 8.313418,44.864835,117.5 8.313078,44.864313,117.9 8.312821,44.863849,118.5 8.312635,44.863253,119.4 8.312459,44.862689,120.0 8.312389,44.862519,120.0 8.312143,44.862109,119.9 8.312056,44.861843,119.6 8.311898,44.861069,119.2 8.311861,44.860461,119.5 8.311647,44.859623,121.2 8.311655,44.859589,121.2 8.311801,44.858975,122.9 8.311416,44.85827,124.2 8.311479,44.856958,125.0 8.311533,44.856578,125.2 8.311302,44.855612,126.1 8.311254,44.855042,126.5 8.309917,44.853737,127.4 8.309439,44.853399,128.0 8.30867,44.852947,129.2 8.307449,44.851847,132.2 8.307289,44.851566,132.7 8.306945,44.851358,133.3 8.306415,44.85117,134.0 8.305433,44.850963,135.1 8.304332,44.85069,136.3 8.303377,44.850333,137.2 8.302727,44.850117,137.9 8.301918,44.849929,138.7 8.30075,44.849524,140.8 8.299624,44.849105,142.9 8.299259,44.848926,143.4 8.298827,44.848659,144.2 8.29811,44.848358,145.4 8.2975,44.848283,146.4 8.296678,44.848264,147.9 8.295868,44.848307,149.4 8.294973,44.848257,150.7 8.29361,44.848109,152.9 8.292934,44.847926,154.3 8.292693,44.8479,154.8 8.292135,44.848071,156.0 8.292113,44.847987,156.2 8.292462,44.847736,157.1 8.292419,44.847656,157.3 8.291797,44.84701,159.0 8.291057,44.846104,160.8 8.290858,44.845952,161.1 8.290397,44.845747,161.8 8.289345,44.845389,163.5 8.289227,44.84526,163.9 8.289142,44.845096,164.5 8.289024,44.84499,165.1 8.288879,44.844906,165.7 8.288777,44.84488,166.1 8.288664,44.844903,166.5 8.288562,44.844893,166.9 8.28824,44.845053,168.8 8.288019,44.845096,170.0 8.287532,44.845038,173.0 8.286185,44.844929,180.5 8.285873,44.844891,181.7 8.285541,44.844807,182.6 8.284839,44.844794,183.2 8.283974,44.844404,181.5 8.283659,44.844209,180.5 8.283444,44.844201,180.0 8.283219,44.844383,179.3 8.283058,44.844429,178.9 8.282887,44.844437,178.6 8.282644,44.844358,178.2 8.282061,44.843843,177.6 8.281872,44.843552,177.7 8.281696,44.843349,178.0 8.281041,44.842847,179.4 8.280949,44.842616,180.0 8.280788,44.84235,180.7 8.280638,44.841985,181.7 8.280494,44.841767,182.2 8.280054,44.841394,183.3 8.279915,44.841219,183.7 8.279346,44.840359,186.1 8.279125,44.839946,187.4 8.27896,44.839857,187.9 8.278224,44.839292,190.0 8.277866,44.839058,190.8 8.277655,44.838934,191.2 8.277415,44.838921,191.6 8.276282,44.838957,193.9 8.275917,44.838775,195.4 8.275306,44.8386,198.5 8.274394,44.83844,203.8 8.273799,44.838404,207.2 8.273472,44.838307,209.1 8.272877,44.838024,213.0 8.271456,44.837282,224.1 8.271159,44.836876,228.1 8.27093,44.836626,230.4 8.270443,44.836078,233.1 8.270282,44.835763,233.7 8.27014,44.835557,234.2 8.270108,44.8353,234.8 8.270284,44.835359,235.3 8.27075,44.835439,236.6 8.271025,44.835447,237.5 8.271332,44.835422,238.8 8.272009,44.835269,243.2 8.272301,44.835169,244.9 8.272428,44.835072,245.7 8.272636,44.834824,247.0 8.272887,44.834604,247.5 8.273026,44.834444,247.4 8.273216,44.834337,247.0 8.273464,44.8343,246.4 8.273699,44.834373,245.4 8.274043,44.834562,243.0 8.274265,44.834652,241.5 8.274703,44.834716,238.7 8.275271,44.834689,236.1 8.275881,44.834725,234.8 8.276456,44.834672,235.0 8.276644,44.834701,235.4 8.276843,44.834776,236.0 8.277152,44.834936,237.1 8.277615,44.835347,239.2 8.27777,44.83545,239.5 8.278241,44.835625,239.8 8.27843,44.835726,239.6 8.278844,44.836156,238.2 8.278989,44.836259,237.7 8.279475,44.836495,236.5 8.279909,44.836766,236.0 8.2801,44.836851,236.1 8.280297,44.83689,236.2 8.28058,44.836897,236.6 8.280782,44.836861,237.0 8.281643,44.836539,239.6 8.282047,44.836431,240.6 8.282511,44.836231,241.3 8.28278,44.836178,241.4 8.283094,44.836148,241.4 8.284296,44.836142,239.0 8.285148,44.835488,235.3 8.285519,44.835264,234.0 8.286039,44.835056,232.3 8.286762,44.834906,230.5 8.287633,44.83482,228.9 8.287839,44.834766,228.7 8.28806,44.834673,228.6 8.288417,44.834465,228.9 8.28885,44.834173,230.0 8.28916,44.833884,231.7 8.289293,44.833794,232.4 8.290024,44.833436,235.8 8.290392,44.833335,237.0 8.290795,44.833283,237.8 8.291266,44.833285,238.2 8.29189,44.833401,238.2 8.292122,44.833506,237.9 8.292355,44.83367,237.6 8.292581,44.833769,237.2 8.293685,44.833953,234.4 8.293937,44.833895,233.4 8.294289,44.833679,231.4 8.294578,44.833547,229.6 8.296148,44.833489,216.9 8.296715,44.833331,212.4 8.297041,44.833312,210.7 8.297112,44.833287,210.4 8.29741,44.833047,209.1 8.297704,44.832894,208.9 8.297763,44.832911,209.0 8.297955,44.832764,209.8 8.298037,44.832761,210.1 8.298112,44.832786,210.6 8.298183,44.832861,211.3 8.298265,44.832861,211.8 8.29832,44.832831,212.3 8.298332,44.832778,212.8 8.298273,44.832636,214.5 8.298273,44.832588,215.2 8.298308,44.832552,215.8 8.298457,44.832586,217.4 8.298602,44.832677,219.5 8.298924,44.832783,223.6 8.29934,44.832858,228.7 8.299606,44.832967,232.2 8.299826,44.833095,235.3 8.300173,44.833374,240.4 8.300728,44.834066,248.0 8.300854,44.834194,249.1 8.300917,44.834202,249.4 8.300964,44.83416,249.7 8.300854,44.834035,250.7 8.300771,44.833863,251.8 8.300771,44.833721,252.7 8.300772,44.833538,253.9 8.300709,44.833384,254.9 8.300662,44.833117,256.2 8.300662,44.833039,256.6 8.300811,44.832555,257.8 8.300889,44.832494,257.9 8.301262,44.83236,257.6 8.301564,44.832291,256.8 8.302188,44.83226,254.1 8.302521,44.832271,252.1 8.302749,44.832305,250.4 8.3042,44.832758,238.8 8.304553,44.832797,237.0 8.304867,44.832911,235.5 8.305137,44.833064,234.5 8.305314,44.833265,234.0 8.305611,44.833407,233.8 8.306205,44.833582,234.5 8.306849,44.833835,235.9 8.307505,44.834247,236.4 8.307702,44.834472,236.3 8.307869,44.834786,235.9 8.308231,44.835224,234.9 8.308563,44.835443,234.0 8.308917,44.835542,233.1 8.30918,44.835547,232.6 8.310152,44.835387,230.8 8.310728,44.835253,229.7 8.311356,44.835287,229.1 8.312629,44.835549,230.4 8.312786,44.835551,230.8 8.314132,44.835605,234.1 8.315652,44.835518,235.4 8.317215,44.835894,232.0 8.32017,44.836704,222.8 8.320822,44.836721,221.0 8.322028,44.836844,217.8 8.322799,44.836735,217.2 8.323451,44.836681,218.4 8.323686,44.836727,219.2 8.324744,44.836931,224.3 8.325701,44.837245,229.7 8.326773,44.837901,232.6 8.327267,44.838383,232.6 8.327615,44.838804,232.4 8.32799,44.839656,232.4 8.328307,44.840853,233.2 8.328496,44.84098,233.1 8.330292,44.841537,230.4 8.331098,44.841636,228.7 8.331758,44.841812,227.0 8.332593,44.842079,224.5 8.332715,44.842168,224.0 8.333237,44.843004,220.6 8.333523,44.843561,218.9 8.333409,44.843877,218.2 8.332933,44.846448,214.7 8.332885,44.846963,214.1 8.332945,44.848463,212.7 8.333023,44.848802,211.9 8.331627,44.848997,206.4 8.331423,44.84901,205.2 8.331197,44.848988,203.8 8.330404,44.848816,198.8 8.329394,44.848805,190.6 8.329268,44.848852,189.3 8.3289,44.84917,183.7 8.328374,44.849773,172.1 8.328227,44.850007,167.4 8.328106,44.850277,162.4 8.327967,44.850388,160.1 8.327733,44.850497,157.3 8.327398,44.850612,154.0 8.3273,44.850672,153.0 8.327148,44.850812,151.3 8.327126,44.850896,150.6 8.327187,44.851521,146.8 8.327264,44.85196,145.9 8.327224,44.852218,145.4 8.327021,44.852522,144.7 8.32657,44.852902,143.8 8.326419,44.853396,143.1 8.326389,44.853879,142.8 8.326612,44.854518,142.9 8.326543,44.854779,143.2 8.326389,44.855095,143.7 8.326377,44.855538,144.1 8.326282,44.856039,144.3 8.326539,44.856552,143.9 8.32657,44.856935,143.2 8.326543,44.857134,143.0 8.326347,44.8576,143.0 8.326232,44.857997,144.2 8.326118,44.857685,145.1 8.325909,44.85751,145.9 8.325532,44.857423,147.4 8.325245,44.857434,148.8 8.325398,44.857683,151.0 8.325447,44.857919,153.1 8.324659,44.858641,161.3 8.324373,44.85875,163.9 8.324236,44.858861,165.5 8.324157,44.858891,166.2 8.324079,44.858873,166.8 8.323922,44.858716,168.8 8.323689,44.858602,170.8 8.322771,44.858249,177.0 8.32229,44.858098,179.4 8.321345,44.857666,184.5 8.320536,44.857527,189.4 8.320229,44.85744,191.8 8.319876,44.857376,194.6 8.319528,44.857253,197.7 8.319446,44.857243,198.4 8.319277,44.857248,199.7 8.318811,44.857335,203.2 8.318389,44.857464,206.2 8.317969,44.857675,208.7 8.318077,44.857235,210.7 8.318079,44.857197,210.8 8.318096,44.857122,211.0 8.3181,44.856103,211.6 8.318155,44.855956,211.3 8.317953,44.856072,210.7 8.31789,44.856172,210.3 8.317792,44.856331,209.3 8.317792,44.856817,205.1 8.317627,44.857075,202.1 8.317414,44.857127,200.2 8.316888,44.85704,195.1 8.316354,44.85701,189.3 8.316244,44.856979,187.9 8.316286,44.856896,186.5 8.316581,44.856814,182.6 8.316733,44.856825,180.8 8.316758,44.856789,180.1 8.316709,44.856747,179.2 8.315478,44.856495,164.5 8.315111,44.856617,160.4 8.314902,44.856827,157.3 8.314676,44.856814,155.6 8.314647,44.856735,154.8 8.315077,44.856279,150.2 8.31507,44.856222,149.8 8.314946,44.856209,149.3 8.31469,44.856452,147.3 8.314341,44.856872,143.7 8.31421,44.857123,141.3 8.313926,44.85742,137.8 8.31363,44.857632,135.1 8.313099,44.85774,132.2 8.312874,44.857892,130.8 8.312674,44.858308,128.9 8.31275,44.858501,128.2 8.312974,44.858742,127.4 8.312941,44.859217,126.1 8.312853,44.859619,124.9 8.312622,44.859671,124.3 8.312305,44.859618,123.4 8.311655,44.859589,121.6 8.311647,44.859623,121.4 8.311861,44.860461,119.5 8.311898,44.861069,119.2 8.312056,44.861843,119.6 8.312143,44.862109,119.9 8.312389,44.862519,120.0 8.312459,44.862689,120.0 8.312635,44.863253,119.4 8.312821,44.863849,118.5 8.313078,44.864313,117.9 8.313418,44.864835,117.5 8.31361,44.865461,117.3 8.313768,44.865726,117.3 8.314084,44.866136,116.8 8.314501,44.866516,115.8 8.314581,44.866612,115.5 8.314657,44.866791,115.0 8.314774,44.867441,113.0 8.314856,44.867731,112.0 8.315241,44.868701,109.2 8.315294,44.869156,109.3 8.315276,44.869326,109.6 8.315216,44.869423,109.8 8.315093,44.869511,110.1 8.314949,44.8695,110.4 8.314522,44.869525,111.4 8.313721,44.869633,113.5 8.312926,44.869811,116.1 8.312622,44.869927,116.9 8.311868,44.870436,117.8 8.310857,44.871008,118.5 8.310583,44.871269,119.0 8.310243,44.87175,120.2 8.31001,44.871857,120.8 8.308841,44.872143,123.8 8.307357,44.872228,126.3 8.306783,44.872334,126.8 8.306193,44.872408,127.2 8.305701,44.872417,127.6 8.303825,44.872404,129.8 8.302525,44.872178,131.5 8.301247,44.872006,131.6 8.30075,44.872006,131.3 8.298516,44.87216,125.9 8.298348,44.872172,124.9 8.297769,44.872309,121.6 8.297558,44.872379,120.4 8.297202,44.872549,118.5 8.297041,44.872653,117.6 8.296516,44.87259,116.1 8.295598,44.872507,117.3 8.295099,44.872484,119.7 8.29368,44.872882,128.5 8.293632,44.872948,129.1 8.29282,44.87297,133.5 8.291904,44.873078,138.0 8.291599,44.873072,139.5 8.289761,44.87279,149.7 8.289146,44.872829,154.8 8.288644,44.873016,159.5 8.288689,44.873058,160.1 8.288496,44.873209,162.4 8.288377,44.873308,163.8 8.288457,44.873377,164.7 8.28852,44.873449,165.6 8.288279,44.873618,168.0 8.288066,44.873713,170.0 8.287796,44.873705,172.1 8.287565,44.873683,173.5 8.287362,44.873646,174.5 8.28718,44.873582,175.2 8.286931,44.873456,175.9 8.286839,44.873723,177.0 8.28677,44.873694,177.2 8.286839,44.873723,177.5 8.286931,44.873456,178.5 8.286621,44.873334,179.3 8.286168,44.873205,179.7 8.286065,44.873151,179.7 8.285976,44.87312,179.5 8.285887,44.873068,179.2 8.285674,44.872931,178.5 8.285604,44.873119,177.9 8.285526,44.873204,177.4 8.285105,44.873377,174.9 8.284574,44.87369,170.3 8.284099,44.874186,167.2 8.283943,44.874279,167.1 8.284099,44.874186,167.2 8.284574,44.87369,170.3 8.285105,44.873377,174.9 8.285526,44.873204,177.4 8.285604,44.873119,177.9 8.285674,44.872931,178.5 8.285887,44.873068,178.8 8.285976,44.87312,178.8 8.286065,44.873151,178.8 8.286168,44.873205,178.7 8.286621,44.873334,177.8 8.286931,44.873456,176.8 8.28718,44.873582,176.1 8.287362,44.873646,175.6 8.287565,44.873683,175.2 8.287796,44.873705,174.8 8.288066,44.873713,174.6 8.288775,44.873686,174.4 8.288932,44.873615,174.5 8.289064,44.873582,174.5 8.289174,44.873675,174.7 8.289198,44.873747,174.7</coordinates>
                </LineString>
            </MultiGeometry>
        </Placemark>
        <Placemark id="5785">
            <name>Parking</name>
            <Point id="5784">
                <coordinates>8.289315,44.873728,0</coordinates>
            </Point>
        </Placemark>
        <Placemark id="5787">
            <name>Chiesa dei Santi Genesio e Stefano</name>
            <Point id="5786">
                <coordinates>8.286717,44.873757,0</coordinates>
            </Point>
        </Placemark>
    </Document>
</kml>
