<?xml version="1.0" encoding="UTF-8"?>
<kml xmlns="http://www.opengis.net/kml/2.2" xmlns:gx="http://www.google.com/kml/ext/2.2">
    <Document id="5793">
        <name>Von Maria Birnbaum nach Blumenthal-2637878144.gpx</name>
        <Placemark id="5795">
            <name>Von Maria Birnbaum nach Blumenthal</name>
            <MultiGeometry id="5794">
                <LineString id="5796">
                    <coordinates>11.161017,48.392746,468.2 11.160747,48.392702,468.0 11.160676,48.392671,467.9 11.160646,48.392635,467.8 11.160675,48.392498,467.8 11.160481,48.39248,467.5 11.160447,48.392175,467.2 11.160378,48.392169,467.1 11.160105,48.392109,467.0 11.15993,48.392015,466.8 11.159825,48.391953,466.7 11.158582,48.391587,466.5 11.158483,48.39156,466.5 11.158062,48.391447,466.5 11.157566,48.391388,466.7 11.157204,48.39137,467.0 11.157104,48.391385,467.1 11.157015,48.391412,467.2 11.156367,48.391838,468.9 11.15632,48.391866,469.0 11.156158,48.39196,469.5 11.156064,48.392009,469.8 11.155956,48.392041,470.1 11.155591,48.392109,471.1 11.155171,48.392167,472.2 11.154863,48.392186,473.2 11.154293,48.392159,474.9 11.152661,48.392077,480.3 11.151535,48.392047,483.2 11.151532,48.392047,483.2 11.151186,48.392093,483.9 11.150896,48.392191,484.4 11.150348,48.392471,485.6 11.150288,48.392513,485.8 11.150608,48.392893,486.8 11.150588,48.393092,486.9 11.150458,48.393197,486.9 11.150251,48.393276,486.7 11.149097,48.393501,485.0 11.148922,48.393564,484.6 11.148881,48.393667,484.4 11.148854,48.394306,483.5 11.148953,48.394927,482.6 11.148923,48.395051,482.3 11.148808,48.395143,482.1 11.147083,48.395818,485.6 11.146981,48.395897,486.1 11.147331,48.396963,491.2 11.147347,48.397048,491.6 11.147319,48.397124,492.0 11.146707,48.397065,493.7 11.145321,48.397097,496.8 11.144839,48.397056,497.5 11.144454,48.399663,498.1 11.144455,48.399775,497.6 11.144551,48.400136,495.7 11.14466,48.400502,493.3 11.144623,48.4007,491.9 11.144519,48.400859,490.4 11.143817,48.40131,484.8 11.143645,48.401521,482.9 11.143611,48.401638,482.0 11.143627,48.401869,480.5 11.14377,48.402182,478.7 11.143915,48.402427,478.0 11.143966,48.402637,477.7 11.143892,48.403043,477.8 11.143732,48.403342,478.3 11.143573,48.403544,479.0 11.143481,48.403607,479.3 11.143353,48.403652,479.6 11.143061,48.403664,480.2 11.142254,48.403532,481.4 11.14205,48.403525,481.5 11.141861,48.403545,481.6 11.141728,48.403591,481.6 11.14156,48.403707,481.4 11.141472,48.403911,481.0 11.141608,48.404365,479.2 11.14159,48.40459,478.3 11.141456,48.404906,476.7 11.1415,48.405074,475.9 11.141626,48.405322,474.6 11.141616,48.405562,473.3 11.14145,48.406424,470.7 11.141474,48.406639,470.4 11.141537,48.406734,470.4 11.141749,48.406864,470.5 11.142484,48.407081,471.5 11.142843,48.407116,472.0 11.143109,48.407119,472.4 11.14359,48.407125,473.2 11.143964,48.407213,473.9 11.14412,48.407335,474.3 11.144354,48.407584,475.1 11.145046,48.408022,476.5 11.145182,48.408236,476.9 11.145204,48.408349,477.1 11.145178,48.408512,477.4 11.144611,48.410105,478.1 11.144592,48.410577,478.5 11.144606,48.410687,478.5 11.144764,48.411614,478.8 11.144972,48.411913,478.5 11.145509,48.412431,477.4 11.146081,48.412986,474.7 11.146218,48.413096,474.0 11.146444,48.41319,473.2 11.146731,48.413262,472.2 11.146904,48.413412,471.2 11.146944,48.413525,470.7 11.147035,48.414203,467.8 11.147101,48.414462,467.0 11.147159,48.414522,466.7 11.147288,48.414586,466.5 11.148178,48.41492,465.5 11.148407,48.415036,465.4 11.148569,48.415239,465.3 11.148584,48.415333,465.3 11.148567,48.415457,465.2 11.148434,48.415759,465.1 11.147748,48.416837,464.9 11.147683,48.417082,464.8 11.14765,48.417388,464.8 11.147562,48.417675,464.8 11.147417,48.417945,464.7 11.146684,48.41901,463.8 11.146253,48.419648,463.4 11.146197,48.419815,463.2 11.146198,48.419909,463.1 11.146257,48.419984,463.0 11.146429,48.420098,462.8 11.146475,48.420201,462.7 11.146333,48.42042,462.3 11.145944,48.420827,461.4 11.145902,48.420968,461.2 11.145921,48.421037,461.1 11.146039,48.42119,460.9 11.146374,48.421372,460.5 11.146712,48.421495,460.2 11.146889,48.421527,460.0 11.147383,48.421564,459.5 11.147752,48.421547,459.2 11.147883,48.421514,459.0 11.148174,48.421441,458.8 11.148663,48.421108,458.3 11.148554,48.42109,458.2 11.148476,48.42107,458.1 11.148333,48.421032,458.3 11.148476,48.42107,458.3 11.148554,48.42109,458.3 11.148663,48.421108,458.4 11.148779,48.4211,458.6 11.148907,48.421127,458.8 11.149271,48.421276,459.5 11.149521,48.421387,460.1 11.149616,48.421424,460.3 11.149736,48.42147,460.6 11.149928,48.421549,461.1 11.149855,48.421677,461.5 11.15031,48.421782,462.6 11.150515,48.421782,463.0 11.15074,48.421742,463.6 11.150923,48.421657,464.0 11.1515,48.421939,465.6 11.151687,48.421789,466.2 11.151848,48.421615,466.8 11.151911,48.421537,467.0 11.151848,48.421615,467.2 11.151687,48.421789,467.6 11.1515,48.421939,467.9 11.151884,48.422127,468.0 11.152194,48.422214,468.0 11.152939,48.422323,467.8 11.154409,48.422498,467.2 11.155201,48.422558,466.7 11.155812,48.422729,466.4 11.155743,48.422976,466.3 11.15556,48.423398,466.2 11.155509,48.423637,466.2 11.155493,48.423738,466.2 11.156848,48.42337,466.3 11.157355,48.423258,466.6 11.157839,48.423196,467.0 11.158305,48.423171,467.4 11.159085,48.423111,467.9 11.160177,48.42302,468.6 11.161224,48.42277,469.4 11.161578,48.422674,469.7 11.162321,48.422479,470.5 11.162952,48.422342,471.2 11.164575,48.422117,473.9 11.165437,48.422058,475.7 11.165859,48.422002,476.7 11.167305,48.421619,480.0 11.167476,48.421543,480.3 11.167717,48.421413,480.9 11.167811,48.421334,481.1 11.168283,48.420891,482.3 11.169082,48.419998,485.1 11.169305,48.41981,486.0 11.169458,48.419745,486.4 11.169749,48.419712,487.3 11.170023,48.419597,488.5 11.170149,48.419562,489.0 11.170534,48.419455,490.9 11.170554,48.418665,497.3 11.171149,48.418229,501.6 11.171501,48.418153,503.2 11.171965,48.417633,506.5 11.173453,48.416196,510.1 11.17363,48.416129,510.2 11.173984,48.415637,510.2 11.174078,48.415619,510.3 11.174542,48.415625,510.3 11.174618,48.415141,510.2 11.174617,48.41491,510.0 11.174605,48.414564,509.6 11.174531,48.414388,509.2 11.173944,48.41321,505.0 11.173618,48.41247,502.9 11.173378,48.412059,501.9 11.173284,48.41193,501.7 11.173067,48.411753,501.3 11.172368,48.411366,500.8 11.172151,48.411194,500.8 11.172045,48.411076,500.8 11.171889,48.410821,500.8 11.171753,48.410496,500.7 11.171675,48.410212,500.3 11.171629,48.409417,499.2 11.171564,48.409031,498.6 11.171394,48.408826,498.1 11.170931,48.408567,497.0 11.170852,48.408529,496.9 11.170642,48.408426,496.2 11.170559,48.408385,495.9 11.170177,48.408211,494.7 11.16993,48.408066,493.7 11.169804,48.407952,493.0 11.169689,48.407811,492.3 11.169584,48.407617,491.2 11.169393,48.407405,490.0 11.16911,48.407209,488.4 11.168437,48.406893,484.6 11.168216,48.406753,483.2 11.168037,48.406611,481.8 11.167548,48.406108,477.9 11.167093,48.405792,475.1 11.166782,48.405633,473.7 11.166701,48.405595,473.2 11.166408,48.405431,472.0 11.166148,48.405274,471.0 11.165924,48.405056,470.1 11.165829,48.40496,469.7 11.165625,48.404719,469.1 11.165598,48.404636,468.9 11.165451,48.404602,468.8 11.165172,48.404458,468.4 11.165238,48.404343,468.4 11.165273,48.404237,468.2 11.165271,48.40419,468.2 11.165221,48.404142,468.1 11.165228,48.40411,468.0 11.165257,48.403996,467.9 11.165271,48.403907,467.9 11.165294,48.40372,467.8 11.165357,48.403499,467.7 11.16538,48.403432,467.6 11.165516,48.403163,467.5 11.165555,48.403055,467.4 11.165547,48.40289,467.4 11.165432,48.402721,467.3 11.165416,48.402706,467.3 11.165285,48.40258,467.2 11.165128,48.402425,467.1 11.165083,48.40238,467.1 11.164813,48.402123,466.8 11.164712,48.401969,466.7 11.164687,48.40191,466.6 11.164647,48.40182,466.6 11.164635,48.401763,466.5 11.164577,48.401477,466.4 11.164559,48.401317,466.3 11.164561,48.401036,466.2 11.164574,48.400926,466.2 11.164583,48.40085,466.1 11.164599,48.400711,466.1 11.16462,48.400494,466.2 11.164628,48.400335,466.3 11.164632,48.400296,466.3 11.164677,48.400105,466.5 11.16471,48.399909,466.7 11.164729,48.399773,466.9 11.164734,48.399737,466.9 11.164759,48.39957,467.1 11.16481,48.399288,467.5 11.164856,48.39907,467.7 11.164869,48.399013,467.8 11.164891,48.398879,467.9 11.164916,48.398734,468.0 11.164945,48.398565,468.1 11.16495,48.398475,468.1 11.164948,48.398425,468.1 11.164944,48.398287,468.2 11.164938,48.398071,468.2 11.164937,48.398045,468.2 11.164936,48.397911,468.2 11.164925,48.397775,468.2 11.164907,48.3977,468.1 11.164899,48.397668,468.1 11.164871,48.397573,468.1 11.164787,48.397405,468.1 11.164687,48.397242,468.1 11.164655,48.397191,468.1 11.164614,48.39712,468.1 11.164516,48.396926,468.0 11.164459,48.396697,468.0 11.16443,48.396375,467.9 11.164427,48.396311,467.9 11.164406,48.396219,467.8 11.164314,48.396093,467.8 11.163638,48.395742,467.7 11.16328,48.395433,467.8 11.163165,48.395249,468.0 11.163075,48.394984,468.3 11.163028,48.394863,468.4 11.162866,48.394635,468.5 11.162565,48.394355,468.4 11.162263,48.394124,468.3 11.162302,48.393992,468.4 11.161885,48.393713,468.5 11.161802,48.393658,468.5 11.161311,48.393334,468.5 11.161046,48.393129,468.6 11.160869,48.393076,468.6 11.160916,48.392954,468.7 11.161164,48.392847,468.6 11.161103,48.392784,468.7 11.161017,48.392746,468.6</coordinates>
                </LineString>
            </MultiGeometry>
        </Placemark>
        <Placemark id="5799">
            <name>Parking</name>
            <Point id="5798">
                <coordinates>11.161053,48.392673,0</coordinates>
            </Point>
        </Placemark>
        <Placemark id="5801">
            <name>Blumenthal Castle Beer Garden</name>
            <Point id="5800">
                <coordinates>11.148655,48.421113,458.9</coordinates>
            </Point>
        </Placemark>
        <Placemark id="5803">
            <name>Ruins of St. George and St. Elisabeth Tower</name>
            <Point id="5802">
                <coordinates>11.15175,48.42148,470.7</coordinates>
            </Point>
        </Placemark>
        <Placemark id="5805">
            <name>Maria Birnbaum Pilgrimage Church</name>
            <Point id="5804">
                <coordinates>11.161946,48.393562,502.0</coordinates>
            </Point>
        </Placemark>
    </Document>
</kml>
