<?xml version="1.0" encoding="UTF-8"?>
<kml xmlns="http://www.opengis.net/kml/2.2" xmlns:gx="http://www.google.com/kml/ext/2.2">
    <Document id="5815">
        <name>Von Mombaruzzo nach Fontanile (über Trail 407)-2860983031.gpx</name>
        <Placemark id="5817">
            <name>Von Mombaruzzo nach Fontanile (über Trail 407)</name>
            <MultiGeometry id="5816">
                <LineString id="5818">
                    <coordinates>8.423113,44.754048,274.1 8.423134,44.754028,274.0 8.42307,44.753997,274.0 8.423159,44.753913,273.8 8.42323,44.75396,273.7 8.423451,44.754019,273.5 8.4239,44.753911,273.3 8.42395,44.753879,273.2 8.424035,44.753939,273.2 8.424122,44.75401,273.2 8.424216,44.754089,273.2 8.424446,44.754158,273.1 8.424717,44.754266,273.2 8.424763,44.754363,273.1 8.424858,44.754567,273.1 8.425047,44.754796,273.3 8.425044,44.755028,272.9 8.425103,44.755343,272.2 8.425191,44.7556,271.2 8.425288,44.755693,270.7 8.425433,44.755833,269.7 8.425451,44.755903,269.2 8.425371,44.756062,268.1 8.425141,44.75638,265.3 8.425095,44.756538,263.8 8.424939,44.756853,260.5 8.424898,44.757087,258.6 8.424874,44.757694,254.0 8.424983,44.757928,252.0 8.425329,44.758282,248.0 8.425578,44.75863,244.2 8.426232,44.759315,235.0 8.426235,44.75954,232.0 8.426296,44.759769,228.9 8.426339,44.759828,228.0 8.426618,44.760377,220.2 8.426683,44.760575,217.5 8.426723,44.760777,214.8 8.426718,44.760931,212.7 8.426752,44.761003,211.6 8.427266,44.761566,202.7 8.42805,44.762319,192.5 8.428551,44.762722,188.3 8.428839,44.762906,186.5 8.429221,44.763112,184.8 8.429508,44.763162,183.9 8.430061,44.763196,182.7 8.430856,44.763332,181.5 8.431383,44.763365,180.9 8.432251,44.763341,180.0 8.432418,44.764331,179.0 8.432597,44.764692,178.8 8.433678,44.764638,179.1 8.433571,44.764786,179.4 8.433141,44.765049,180.2 8.433018,44.76517,180.7 8.432801,44.765586,182.5 8.432707,44.765963,184.8 8.432744,44.766241,186.7 8.432881,44.766442,188.4 8.433286,44.766867,192.5 8.433546,44.767084,194.8 8.433791,44.7674,198.0 8.433914,44.768126,205.3 8.434043,44.768387,208.4 8.434169,44.768541,210.5 8.434346,44.76864,212.4 8.43448,44.768682,213.6 8.434601,44.768692,214.7 8.43471,44.768665,215.6 8.434847,44.768532,217.6 8.434992,44.768318,220.3 8.43522,44.768122,223.0 8.435424,44.767979,225.0 8.435684,44.767846,226.9 8.435856,44.767785,228.0 8.435934,44.767789,228.4 8.43603,44.76781,228.9 8.436116,44.767871,229.5 8.436357,44.768391,232.9 8.436433,44.76873,234.8 8.436349,44.76935,238.4 8.436524,44.769701,240.8 8.437098,44.770596,246.9 8.437256,44.770836,247.8 8.43742,44.770977,248.3 8.437567,44.771034,248.5 8.438816,44.771116,249.4 8.439108,44.771186,249.7 8.439624,44.771451,251.6 8.439935,44.771659,253.8 8.44009,44.771806,255.4 8.440359,44.772164,259.2 8.440463,44.772233,260.2 8.440569,44.772263,261.0 8.440783,44.772254,262.6 8.4409,44.772215,263.5 8.441918,44.771708,272.2 8.442811,44.771442,279.2 8.442957,44.771405,280.5 8.443179,44.771393,282.6 8.443543,44.771279,286.4 8.443852,44.771164,289.5 8.444442,44.770991,294.9 8.44467,44.771002,296.7 8.444835,44.771061,298.0 8.444927,44.771138,298.9 8.445396,44.771593,303.5 8.445691,44.771777,304.8 8.445691,44.771777,304.8 8.445994,44.771903,305.4 8.446463,44.772035,306.0 8.44659,44.772073,306.0 8.446463,44.772035,306.0 8.445994,44.771903,305.4 8.445691,44.771777,304.8 8.445396,44.771593,303.5 8.444927,44.771138,298.9 8.444835,44.771061,298.0 8.44467,44.771002,296.7 8.444442,44.770991,294.9 8.443852,44.771164,289.5 8.443543,44.771279,286.4 8.443179,44.771393,282.6 8.442957,44.771405,280.5 8.442811,44.771442,279.2 8.441918,44.771708,272.2 8.4409,44.772215,263.5 8.440783,44.772254,262.6 8.440569,44.772263,261.0 8.440463,44.772233,260.2 8.440359,44.772164,259.2 8.44009,44.771806,255.4 8.439935,44.771659,253.8 8.439624,44.771451,251.6 8.439108,44.771186,249.7 8.438816,44.771116,249.4 8.437567,44.771034,248.5 8.43742,44.770977,248.3 8.437256,44.770836,247.8 8.437098,44.770596,246.9 8.436524,44.769701,240.8 8.436349,44.76935,238.4 8.436433,44.76873,234.8 8.436357,44.768391,232.9 8.436116,44.767871,229.5 8.43603,44.76781,228.9 8.435934,44.767789,228.4 8.435856,44.767785,228.0 8.435684,44.767846,226.9 8.435424,44.767979,225.0 8.43522,44.768122,223.0 8.434992,44.768318,220.3 8.434847,44.768532,217.6 8.43471,44.768665,215.6 8.434601,44.768692,214.7 8.43448,44.768682,213.6 8.434346,44.76864,212.4 8.434169,44.768541,210.5 8.434043,44.768387,208.4 8.433914,44.768126,205.3 8.433791,44.7674,198.0 8.433546,44.767084,194.8 8.433286,44.766867,192.5 8.432881,44.766442,188.4 8.432744,44.766241,186.7 8.432707,44.765963,184.8 8.432801,44.765586,182.5 8.433018,44.76517,180.7 8.433141,44.765049,180.2 8.433571,44.764786,179.4 8.433678,44.764638,179.1 8.432597,44.764692,178.8 8.432418,44.764331,179.0 8.432251,44.763341,180.0 8.431383,44.763365,180.9 8.430856,44.763332,181.5 8.430061,44.763196,182.7 8.429508,44.763162,183.9 8.429221,44.763112,184.8 8.428839,44.762906,186.5 8.428551,44.762722,188.3 8.42805,44.762319,192.5 8.427266,44.761566,202.7 8.426752,44.761003,211.6 8.426718,44.760931,212.7 8.426723,44.760777,214.8 8.426683,44.760575,217.5 8.426618,44.760377,220.2 8.426339,44.759828,228.0 8.426296,44.759769,228.9 8.426235,44.75954,232.0 8.426232,44.759315,235.0 8.425578,44.75863,244.2 8.425329,44.758282,248.0 8.424983,44.757928,252.0 8.424874,44.757694,254.0 8.424898,44.757087,258.6 8.424939,44.756853,260.5 8.425095,44.756538,263.8 8.425141,44.75638,265.3 8.425371,44.756062,268.1 8.425451,44.755903,269.2 8.425433,44.755833,269.7 8.425288,44.755693,270.7 8.425191,44.7556,271.2 8.425103,44.755343,272.2 8.425044,44.755028,272.9 8.425047,44.754796,273.4 8.424858,44.754567,273.7 8.424717,44.754266,273.9 8.424446,44.754158,274.0 8.424216,44.754089,273.9 8.424116,44.75411,273.9 8.423896,44.754224,273.8 8.423794,44.754245,273.7 8.423463,44.754289,273.7 8.423249,44.754278,273.8 8.422714,44.754129,273.7 8.422291,44.753979,273.3 8.42203,44.753885,273.1 8.422059,44.753845,273.1 8.422144,44.753728,273.1 8.4222,44.753652,273.1 8.422242,44.753665,273.1 8.422294,44.753625,273.1 8.422954,44.753812,273.4 8.423159,44.753913,273.5 8.42307,44.753997,273.6 8.423134,44.754028,273.7 8.423113,44.754048,273.7</coordinates>
                </LineString>
            </MultiGeometry>
        </Placemark>
        <Placemark id="5821">
            <name>Parking</name>
            <Point id="5820">
                <coordinates>8.423036,44.754104,0</coordinates>
            </Point>
        </Placemark>
        <Placemark id="5823">
            <name>Chiesa di San Rocco</name>
            <Point id="5822">
                <coordinates>8.42481,44.754352,0</coordinates>
            </Point>
        </Placemark>
    </Document>
</kml>
