<?xml version="1.0" encoding="UTF-8"?>
<kml xmlns="http://www.opengis.net/kml/2.2" xmlns:gx="http://www.google.com/kml/ext/2.2">
    <Document id="5957">
        <name>Waldweg mit Pilzen – Hochlandrinder und Pferde Runde von Langerringen-2953797488.gpx</name>
        <Placemark id="5959">
            <name>Waldweg mit Pilzen – Hochlandrinder und Pferde Runde von Langerringen</name>
            <MultiGeometry id="5958">
                <LineString id="5960">
                    <coordinates>10.754556,48.151313,559.5 10.754217,48.151466,559.6 10.754075,48.151525,559.6 10.753549,48.151743,559.7 10.753334,48.151832,559.7 10.753167,48.151905,559.8 10.752848,48.152042,559.8 10.75245,48.152194,559.8 10.751742,48.152405,559.6 10.751711,48.152413,559.6 10.751023,48.152578,559.4 10.750862,48.152616,559.3 10.750629,48.152671,559.2 10.750193,48.152772,558.9 10.749804,48.152863,558.6 10.749232,48.153015,558.2 10.749017,48.153064,558.1 10.748966,48.153076,558.1 10.748942,48.153083,558.1 10.748252,48.153217,557.6 10.747869,48.15323,557.4 10.747033,48.153185,557.1 10.742338,48.152868,558.0 10.742113,48.152852,558.0 10.742075,48.152765,558.1 10.741761,48.15245,558.2 10.737256,48.151604,560.6 10.737241,48.151601,560.6 10.733654,48.150804,561.5 10.731862,48.154008,560.4 10.728288,48.153222,560.4 10.724517,48.152383,560.8 10.720819,48.151574,560.8 10.717992,48.150941,560.1 10.71754,48.152086,559.6 10.716176,48.151813,559.1 10.716176,48.152205,558.9 10.71562,48.153166,558.5 10.714168,48.154674,558.1 10.713657,48.155149,558.2 10.713463,48.155091,558.3 10.715432,48.153166,558.5 10.715571,48.152918,558.5 10.715633,48.152713,558.6 10.715967,48.152202,559.0 10.715944,48.151965,559.1 10.715857,48.15169,559.4 10.715855,48.151358,559.6 10.715665,48.151167,559.8 10.715171,48.150752,560.1 10.714819,48.150263,560.2 10.714573,48.150043,560.2 10.714309,48.149697,560.3 10.713898,48.148864,560.6 10.713448,48.148246,561.0 10.71322,48.147585,561.4 10.712311,48.146021,562.3 10.712214,48.145747,562.4 10.712221,48.145335,562.7 10.712129,48.144761,563.1 10.712088,48.144082,563.4 10.711749,48.142798,563.8 10.71176,48.142207,564.0 10.711827,48.142042,564.0 10.711956,48.141908,564.1 10.712015,48.14178,564.1 10.712103,48.141329,564.2 10.712248,48.140913,564.2 10.71223,48.140797,564.2 10.712212,48.140685,564.3 10.712098,48.139191,564.5 10.712127,48.139027,564.6 10.712004,48.138687,564.6 10.711951,48.137386,564.9 10.711925,48.137279,564.9 10.711782,48.137054,565.1 10.71175,48.136886,565.2 10.711767,48.136769,565.2 10.712092,48.136305,565.6 10.712514,48.135561,566.0 10.713139,48.13405,566.6 10.713342,48.133707,566.8 10.713439,48.133597,566.9 10.71346,48.133456,567.0 10.713439,48.133286,567.1 10.71364,48.133272,567.2 10.713969,48.133244,567.3 10.714281,48.133004,567.5 10.714467,48.132901,567.6 10.714999,48.132803,567.6 10.714467,48.132901,567.6 10.714281,48.133004,567.6 10.713969,48.133244,567.7 10.71364,48.133272,567.7 10.713439,48.133286,567.7 10.712912,48.131634,568.4 10.712555,48.130356,568.7 10.712327,48.129868,568.9 10.712311,48.129536,569.1 10.712412,48.12903,569.4 10.712427,48.128291,569.9 10.7123,48.128289,569.9 10.710693,48.128002,570.3 10.710164,48.127907,570.4 10.707489,48.127429,570.1 10.702943,48.126618,569.1 10.702637,48.126581,569.0 10.702475,48.126785,569.1 10.701672,48.126658,569.3 10.700832,48.126524,569.9 10.699514,48.126256,570.6 10.697306,48.125678,569.9 10.697171,48.125551,569.9 10.697676,48.122683,572.1 10.698044,48.122051,572.6 10.699012,48.120785,572.9 10.699953,48.119477,573.1 10.700494,48.118088,574.1 10.700591,48.117858,574.3 10.70092,48.117035,574.9 10.70338,48.110059,578.0 10.699509,48.109313,578.5 10.70022,48.105398,579.9 10.70024,48.105286,580.0 10.700803,48.101674,581.5 10.702857,48.10206,581.4 10.704815,48.102439,580.8 10.704878,48.102486,580.7 10.704899,48.102555,580.7 10.70431,48.106078,579.3 10.70338,48.110059,578.1 10.70776,48.111213,577.8 10.708003,48.110599,577.8 10.708265,48.110171,578.0 10.708384,48.109897,578.2 10.708474,48.109566,578.4 10.708532,48.109205,578.6 10.708603,48.107777,579.1 10.708766,48.106579,578.9 10.708813,48.106182,578.9 10.708912,48.105568,579.2 10.709174,48.104939,579.7 10.709673,48.104165,580.5 10.71019,48.103364,581.0 10.710679,48.102548,581.1 10.710729,48.102557,581.1 10.710868,48.102567,581.1 10.712658,48.102706,581.6 10.714106,48.102956,582.2 10.714599,48.103042,582.3 10.715003,48.1032,582.2 10.71744,48.103623,580.9 10.71764,48.103716,580.8 10.717831,48.103821,580.8 10.71813,48.104046,580.6 10.71969,48.105502,580.1 10.722463,48.107044,579.5 10.722525,48.107078,579.5 10.722974,48.107303,579.4 10.724006,48.107729,579.2 10.72615,48.108612,578.8 10.726295,48.108671,578.8 10.724056,48.1111,577.4 10.72248,48.114239,575.8 10.721271,48.117819,574.1 10.720245,48.120283,573.6 10.718294,48.122453,573.4 10.717481,48.123621,573.3 10.717439,48.123685,573.3 10.71737,48.12379,573.3 10.717285,48.123919,573.3 10.71718,48.124104,573.2 10.716869,48.124677,573.1 10.716788,48.124827,573.0 10.718571,48.12544,572.1 10.720069,48.125992,571.4 10.719178,48.128092,570.5 10.717621,48.131787,570.2 10.717964,48.131795,570.1 10.718463,48.131864,570.0 10.71905,48.132026,569.8 10.719454,48.132197,569.7 10.72102,48.132585,569.1 10.721573,48.132741,568.8 10.723988,48.133426,567.6 10.727402,48.134515,567.8 10.728409,48.134829,567.9 10.730793,48.135571,567.6 10.731035,48.135075,567.3 10.73309,48.135354,566.7 10.736531,48.135297,567.3 10.736676,48.135253,567.3 10.736922,48.13513,567.5 10.73706,48.134976,567.6 10.737229,48.134842,567.9 10.737789,48.134943,568.6 10.738443,48.134896,569.5 10.739059,48.134709,570.0 10.739534,48.134549,570.2 10.739713,48.134495,570.2 10.739834,48.134713,570.2 10.740017,48.135264,569.8 10.740418,48.135882,568.6 10.741501,48.13733,567.0 10.742973,48.139374,566.5 10.744238,48.141157,565.6 10.744619,48.141663,565.3 10.747035,48.144876,563.2 10.747168,48.144984,563.2 10.747303,48.144991,563.1 10.747431,48.145055,563.1 10.747502,48.145123,563.1 10.747194,48.145222,563.0 10.747015,48.145282,563.0 10.746651,48.145393,562.9 10.746731,48.145456,562.9 10.746826,48.145484,562.9 10.746978,48.145484,562.8 10.749166,48.148407,561.3 10.751587,48.151641,560.5 10.751708,48.15189,560.4 10.751753,48.15216,560.3 10.751742,48.152405,560.2 10.75245,48.152194,559.9 10.752848,48.152042,559.9 10.753167,48.151905,559.8 10.753334,48.151832,559.7 10.753549,48.151743,559.7 10.754075,48.151525,559.6 10.754217,48.151466,559.6 10.754556,48.151313,559.5</coordinates>
                </LineString>
            </MultiGeometry>
        </Placemark>
        <Placemark id="5963">
            <name>Langerringen Hiltenfinger Straße</name>
            <Point id="5962">
                <coordinates>10.754484,48.151288,0</coordinates>
            </Point>
        </Placemark>
        <Placemark id="5965">
            <name>Forest Path With Mushrooms</name>
            <Point id="5964">
                <coordinates>10.714989,48.132779,624.0</coordinates>
            </Point>
        </Placemark>
        <Placemark id="5967">
            <name>Highland Cattle and Horses</name>
            <Point id="5966">
                <coordinates>10.744617,48.141664,568.1</coordinates>
            </Point>
        </Placemark>
    </Document>
</kml>
