<?xml version="1.0" encoding="UTF-8"?>
<kml xmlns="http://www.opengis.net/kml/2.2" xmlns:gx="http://www.google.com/kml/ext/2.2">
    <Document id="6023">
        <name>Waldweg zu Piemonts monumentaler Buche-2860983334.gpx</name>
        <Placemark id="6025">
            <name>Waldweg zu Piemonts monumentaler Buche</name>
            <MultiGeometry id="6024">
                <LineString id="6026">
                    <coordinates>8.317967,44.856702,211.3 8.317946,44.856875,211.3 8.317842,44.857115,211.1 8.317913,44.857168,211.0 8.318079,44.857197,210.9 8.318077,44.857235,210.9 8.317969,44.857675,210.3 8.317876,44.858525,208.8 8.317753,44.859647,205.6 8.317692,44.85982,205.0 8.3175,44.860167,203.8 8.317186,44.860634,202.8 8.316767,44.861171,202.0 8.31665,44.861395,201.7 8.316538,44.861719,201.2 8.316586,44.861881,200.9 8.316802,44.862192,200.0 8.317176,44.862539,198.1 8.317956,44.863124,192.4 8.318233,44.86325,190.4 8.318584,44.863325,188.2 8.318839,44.863329,186.7 8.319092,44.863294,185.1 8.319687,44.863127,181.4 8.319868,44.863097,180.2 8.31997,44.863092,179.6 8.32008,44.863149,178.8 8.320116,44.863221,178.2 8.320133,44.863662,174.4 8.320253,44.863851,172.7 8.320807,44.864117,169.2 8.320998,44.864261,167.8 8.321123,44.864436,166.4 8.321139,44.864729,164.4 8.321085,44.865012,162.7 8.321252,44.865394,160.8 8.321784,44.866398,158.2 8.321943,44.866809,157.6 8.322055,44.86794,155.5 8.323336,44.868996,150.0 8.323336,44.868996,150.0 8.323448,44.869204,148.9 8.323429,44.869357,148.2 8.323281,44.869613,147.0 8.322684,44.870397,142.6 8.322733,44.870541,141.8 8.322833,44.87066,141.0 8.322991,44.870761,140.1 8.323803,44.87111,135.7 8.324142,44.871195,133.9 8.324835,44.871282,130.3 8.326489,44.871695,122.0 8.326912,44.871887,120.0 8.327312,44.872264,117.5 8.327505,44.872303,116.8 8.327657,44.87226,116.3 8.32806,44.871988,114.6 8.328354,44.871871,113.7 8.328963,44.871821,112.3 8.329873,44.871462,110.9 8.329574,44.871109,110.8 8.329028,44.870762,111.2 8.328813,44.870703,111.4 8.328323,44.870663,112.1 8.328213,44.870629,112.3 8.327703,44.870025,114.2 8.327481,44.869667,115.5 8.32728,44.869506,116.2 8.326646,44.869221,118.2 8.326472,44.869103,118.8 8.325979,44.867714,123.6 8.325405,44.867113,124.8 8.324881,44.866628,125.1 8.324436,44.866267,125.1 8.324192,44.865871,125.1 8.324042,44.865541,125.2 8.323872,44.863825,126.9 8.323902,44.863695,127.2 8.324074,44.863455,127.8 8.324126,44.863192,128.4 8.324098,44.862836,129.4 8.324254,44.862297,131.1 8.32466,44.861297,135.3 8.324885,44.86062,138.3 8.325047,44.86031,139.6 8.325308,44.859941,140.9 8.325369,44.859728,141.4 8.325334,44.859389,141.8 8.325621,44.858988,141.7 8.325653,44.858746,141.6 8.325882,44.858242,141.5 8.326232,44.857997,141.8 8.326347,44.8576,142.2 8.326543,44.857134,142.9 8.32657,44.856935,143.2 8.326539,44.856552,143.9 8.326282,44.856039,144.3 8.326377,44.855538,144.1 8.326389,44.855095,143.7 8.326543,44.854779,143.2 8.326612,44.854518,142.9 8.326389,44.853879,143.2 8.326419,44.853396,144.4 8.32571,44.85323,146.8 8.32562,44.853233,147.2 8.325383,44.853326,148.4 8.325165,44.853447,150.0 8.325113,44.853515,150.8 8.325186,44.853582,151.6 8.325308,44.853637,152.7 8.325388,44.853731,154.0 8.325449,44.854024,157.8 8.325409,44.854067,158.5 8.325319,44.854075,159.4 8.325147,44.853985,161.6 8.325029,44.853996,162.8 8.324497,44.854286,170.7 8.324322,44.854364,173.2 8.324115,44.854423,176.0 8.323453,44.854392,183.6 8.323244,44.854327,185.9 8.322974,44.854163,189.0 8.322832,44.854109,190.2 8.322541,44.854247,192.5 8.322463,44.854252,192.9 8.321316,44.853669,197.7 8.321316,44.853669,197.7 8.320975,44.853518,198.8 8.320291,44.853333,201.3 8.319962,44.853276,202.8 8.31933,44.853236,206.1 8.319149,44.853262,207.1 8.318578,44.853587,211.7 8.317424,44.853975,216.7 8.318076,44.855663,213.7 8.318155,44.855956,213.0 8.317953,44.856072,212.7 8.31789,44.856172,212.5 8.318026,44.856236,212.3 8.317967,44.856702,211.9</coordinates>
                </LineString>
            </MultiGeometry>
        </Placemark>
        <Placemark id="6029">
            <name>Parcheggio centrale</name>
            <Point id="6028">
                <coordinates>8.317971,44.856752,0</coordinates>
            </Point>
        </Placemark>
        <Placemark id="6031">
            <name>Parco Naturale Rocchetta Tanaro</name>
            <Point id="6030">
                <coordinates>8.318236,44.858545,0</coordinates>
            </Point>
        </Placemark>
    </Document>
</kml>
