<?xml version="1.0" encoding="UTF-8"?>
<kml xmlns="http://www.opengis.net/kml/2.2" xmlns:gx="http://www.google.com/kml/ext/2.2">
    <Document id="6063">
        <name>Wanderrunde von Feigenhofen-2797548410.gpx</name>
        <Placemark id="6065">
            <name>Wanderrunde von Feigenhofen</name>
            <MultiGeometry id="6064">
                <LineString id="6066">
                    <coordinates>10.775539,48.493626,458.8 10.775565,48.493548,458.8 10.775641,48.493426,458.7 10.775742,48.493298,458.6 10.775818,48.493238,458.5 10.77592,48.493206,458.4 10.776121,48.493232,458.3 10.77639,48.49333,458.1 10.776555,48.493397,458.0 10.77693,48.493532,457.6 10.777402,48.493702,456.7 10.777923,48.4939,455.6 10.778023,48.493946,455.4 10.778177,48.494018,455.2 10.778782,48.494297,454.4 10.779332,48.494607,453.4 10.779887,48.495037,451.9 10.780048,48.495202,451.4 10.78013,48.495341,451.0 10.780071,48.495498,450.6 10.780035,48.495564,450.4 10.780819,48.495879,448.8 10.781312,48.496102,447.8 10.781641,48.496292,447.4 10.782535,48.496668,446.9 10.784771,48.497724,446.7 10.786091,48.498423,445.9 10.786035,48.498469,445.9 10.785905,48.498579,445.8 10.785516,48.498886,445.6 10.78528,48.499128,445.4 10.784966,48.499552,445.3 10.784934,48.499595,445.3 10.784805,48.499721,445.3 10.784502,48.499869,445.4 10.785231,48.500201,445.6 10.786226,48.500869,445.7 10.786894,48.501104,445.6 10.787824,48.501353,445.9 10.788394,48.501584,446.3 10.788593,48.501723,446.6 10.788742,48.501869,446.9 10.789295,48.502683,447.5 10.789578,48.502867,447.5 10.790741,48.503435,446.3 10.79117,48.503678,445.8 10.791255,48.50378,445.7 10.791625,48.504226,445.2 10.792107,48.504737,445.1 10.793525,48.505398,444.9 10.794057,48.505732,445.2 10.79447,48.506103,445.6 10.794659,48.506338,445.8 10.794788,48.506653,445.9 10.794823,48.506888,445.9 10.794829,48.506918,445.8 10.79488,48.507348,445.4 10.79504,48.507689,444.9 10.795326,48.508065,444.2 10.795641,48.508324,443.7 10.795948,48.508604,443.3 10.795382,48.508638,443.2 10.794521,48.508755,443.5 10.793758,48.508899,443.8 10.792153,48.50929,444.5 10.790925,48.509581,445.0 10.79047,48.509635,445.4 10.788766,48.509724,446.8 10.78813,48.509789,447.4 10.78798,48.509762,447.6 10.78778,48.509648,447.9 10.78798,48.509762,448.2 10.78813,48.509789,448.4 10.787317,48.509947,449.7 10.785303,48.510264,453.1 10.783967,48.510459,454.9 10.783094,48.510536,455.1 10.782784,48.510567,455.0 10.78126,48.510724,454.2 10.78073,48.510349,454.2 10.780551,48.510031,454.7 10.78004,48.509701,456.2 10.779715,48.509585,457.2 10.779504,48.509569,457.8 10.779341,48.509455,458.5 10.776714,48.508552,469.1 10.77594,48.508423,472.7 10.775604,48.508332,474.2 10.775248,48.508238,475.9 10.774849,48.508193,477.4 10.774437,48.508207,479.0 10.773971,48.508122,480.6 10.772904,48.507783,482.0 10.771793,48.507572,481.7 10.769715,48.507485,482.5 10.768242,48.506875,486.1 10.767085,48.50672,488.4 10.766601,48.506572,489.1 10.764809,48.506022,489.0 10.763001,48.505443,484.7 10.762549,48.505187,484.2 10.762788,48.505102,484.1 10.762991,48.505029,484.1 10.763912,48.50459,485.5 10.764046,48.504545,485.9 10.764232,48.504443,486.6 10.765079,48.503824,488.7 10.765354,48.503603,489.0 10.766285,48.502744,488.0 10.766298,48.502733,487.9 10.766532,48.502525,487.3 10.766907,48.502224,486.4 10.767924,48.501542,483.7 10.768431,48.501109,481.9 10.768744,48.500825,480.4 10.768828,48.50069,479.7 10.768999,48.500108,476.2 10.769108,48.499867,474.6 10.769261,48.499647,473.0 10.76943,48.49945,471.6 10.770066,48.498909,467.4 10.770636,48.498435,464.1 10.771308,48.497755,460.3 10.771894,48.497067,456.9 10.772299,48.496639,454.6 10.772502,48.496492,453.8 10.772896,48.496313,452.6 10.77386,48.495947,450.8 10.774091,48.495834,450.5 10.774348,48.495714,450.2 10.774692,48.495452,450.2 10.774727,48.495404,450.2 10.774818,48.495277,450.4 10.774971,48.494944,451.2 10.775021,48.494889,451.4 10.775275,48.494407,453.2 10.775539,48.493626,456.0</coordinates>
                </LineString>
            </MultiGeometry>
        </Placemark>
        <Placemark id="6069">
            <name>Feigenhofen</name>
            <Point id="6068">
                <coordinates>10.775424,48.493609,0</coordinates>
            </Point>
        </Placemark>
        <Placemark id="6071">
            <name>Beaver dam on the Offenbach near Albertshofen</name>
            <Point id="6070">
                <coordinates>10.787772,48.509653,449.7</coordinates>
            </Point>
        </Placemark>
        <Placemark id="6073">
            <name>Beaver Dams in Naturpark Augsburg - Westliche Wälder</name>
            <Point id="6072">
                <coordinates>10.782749,48.510418,496.2</coordinates>
            </Point>
        </Placemark>
    </Document>
</kml>
