<?xml version="1.0" encoding="UTF-8"?>
<kml xmlns="http://www.opengis.net/kml/2.2" xmlns:gx="http://www.google.com/kml/ext/2.2">
    <Document id="6115">
        <name>Wanderrunde von Mertingen-2975818914.gpx</name>
        <Placemark id="6117">
            <name>Wanderrunde von Mertingen</name>
            <MultiGeometry id="6116">
                <LineString id="6118">
                    <coordinates>10.786151,48.650672,408.1 10.785956,48.650842,407.8 10.78583,48.650772,407.6 10.785956,48.650842,407.4 10.785825,48.650907,407.2 10.785199,48.651081,406.2 10.784585,48.651252,405.2 10.784472,48.651417,404.8 10.783378,48.652667,403.0 10.783096,48.65306,402.8 10.782562,48.653904,402.4 10.782008,48.654937,402.1 10.781654,48.655431,402.0 10.780219,48.657092,401.5 10.780172,48.65722,401.4 10.779744,48.657084,401.3 10.775106,48.655912,400.9 10.770678,48.654823,400.6 10.770394,48.654758,400.6 10.766793,48.653836,400.5 10.763832,48.653115,400.7 10.76378,48.653107,400.7 10.763743,48.653105,400.7 10.76377,48.652897,400.7 10.763848,48.652281,400.7 10.763981,48.651791,400.7 10.764714,48.649797,400.6 10.765295,48.648665,400.8 10.766137,48.648075,401.0 10.76771,48.646564,401.7 10.768829,48.645551,402.2 10.769502,48.645067,402.5 10.770295,48.644348,402.9 10.771005,48.643821,403.2 10.771581,48.644099,403.3 10.772312,48.644517,403.4 10.772996,48.644987,403.4 10.773815,48.645617,403.4 10.774898,48.646386,403.5 10.775643,48.646788,403.7 10.776176,48.646999,403.8 10.776275,48.647017,403.9 10.777688,48.647272,404.4 10.778216,48.647246,404.5 10.77856,48.647283,404.6 10.779469,48.647629,404.8 10.779917,48.647844,404.8 10.780957,48.648488,405.0 10.781719,48.648924,405.1 10.78204,48.649143,405.1 10.783253,48.650256,404.7 10.784585,48.651252,405.6 10.785199,48.651081,406.4 10.785825,48.650907,407.2 10.785956,48.650842,407.4 10.786151,48.650672,407.8</coordinates>
                </LineString>
            </MultiGeometry>
        </Placemark>
        <Placemark id="6121">
            <name>Parking</name>
            <Point id="6120">
                <coordinates>10.786094,48.650643,0</coordinates>
            </Point>
        </Placemark>
        <Placemark id="6123">
            <name>Observation tower on the former Mertingen–Wertingen railway line</name>
            <Point id="6122">
                <coordinates>10.785883,48.65073,402.4</coordinates>
            </Point>
        </Placemark>
        <Placemark id="6125">
            <name>Old Local Railway Line and Rest Area Wertingen</name>
            <Point id="6124">
                <coordinates>10.785238,48.651142,450.0</coordinates>
            </Point>
        </Placemark>
    </Document>
</kml>
