<?xml version="1.0" encoding="UTF-8"?>
<kml xmlns="http://www.opengis.net/kml/2.2" xmlns:gx="http://www.google.com/kml/ext/2.2">
    <Document id="6075">
        <name>Wanderrunde von Haldenburg-2840707913.gpx</name>
        <Placemark id="6077">
            <name>Wanderrunde von Haldenburg</name>
            <MultiGeometry id="6076">
                <LineString id="6078">
                    <coordinates>10.664599,48.192025,608.9 10.664518,48.191995,609.0 10.664353,48.191983,609.1 10.664518,48.191995,609.2 10.664599,48.192025,609.3 10.665546,48.192372,609.8 10.666052,48.192509,610.0 10.666537,48.192639,610.1 10.667211,48.19292,610.1 10.66773,48.193212,610.0 10.668953,48.194062,610.2 10.669414,48.194583,610.4 10.669457,48.194671,610.4 10.667968,48.196781,610.0 10.666618,48.198868,610.1 10.666856,48.201388,605.9 10.664465,48.202022,595.9 10.663952,48.202093,593.2 10.663025,48.201968,588.3 10.661821,48.201845,582.3 10.660813,48.201742,578.0 10.660293,48.201664,575.8 10.660014,48.201583,574.5 10.659222,48.201353,572.5 10.658584,48.201229,572.7 10.658894,48.201973,576.3 10.658947,48.202495,579.6 10.658962,48.202653,580.3 10.658772,48.203097,581.5 10.658595,48.203396,581.5 10.658622,48.203786,581.0 10.658867,48.204194,580.5 10.660173,48.204647,580.6 10.661995,48.204971,582.9 10.664428,48.205321,588.2 10.664612,48.205358,588.6 10.66472,48.205379,588.9 10.664883,48.205449,589.3 10.66496,48.205589,589.8 10.664953,48.205885,590.6 10.665474,48.205881,591.3 10.665787,48.205837,591.7 10.666022,48.205754,592.0 10.665839,48.206184,593.1 10.664991,48.20725,595.2 10.664735,48.207687,595.7 10.66438,48.208509,596.4 10.663933,48.208967,596.7 10.663856,48.209562,597.1 10.663907,48.209937,597.3 10.664364,48.210798,597.1 10.66438,48.210951,597.0 10.664303,48.211163,596.8 10.664205,48.211658,596.9 10.664194,48.212026,597.1 10.665102,48.212676,598.4 10.665102,48.212092,599.3 10.665035,48.21114,599.4 10.66506,48.210814,599.2 10.665165,48.210787,599.1 10.666642,48.210744,598.6 10.666598,48.210647,598.6 10.666276,48.209989,598.9 10.665705,48.209024,599.9 10.665667,48.208818,600.0 10.665696,48.207963,599.3 10.665769,48.207475,598.3 10.665904,48.206978,597.2 10.666237,48.206242,596.8 10.666491,48.205943,597.1 10.667243,48.205635,597.8 10.668045,48.205574,598.3 10.668471,48.205619,598.3 10.668565,48.205643,598.3 10.668734,48.205684,598.2 10.669108,48.205925,597.9 10.669525,48.206148,597.7 10.669939,48.206326,597.4 10.670309,48.206433,597.3 10.670855,48.206645,597.4 10.67066,48.206754,597.4 10.670519,48.206898,597.3 10.67066,48.206754,597.2 10.670855,48.206645,597.0 10.671078,48.206699,596.7 10.672381,48.206872,592.9 10.672802,48.206378,588.8 10.673244,48.205937,585.2 10.673741,48.205579,582.3 10.673822,48.205545,582.0 10.673902,48.20554,581.7 10.673997,48.20558,581.3 10.674632,48.206033,578.9 10.67567,48.206604,575.7 10.676435,48.206947,573.0 10.676919,48.207009,571.5 10.677123,48.20707,570.8 10.677439,48.207395,569.1 10.678145,48.208227,567.7 10.678376,48.208138,568.0 10.678295,48.208023,568.3 10.678342,48.207913,568.7 10.6791,48.20752,571.7 10.679615,48.206925,575.6 10.679718,48.206886,575.9 10.680628,48.206542,577.9 10.681953,48.205789,576.9 10.682002,48.205761,576.8 10.682881,48.205243,575.7 10.683259,48.2048,575.6 10.683115,48.203551,576.7 10.683336,48.202877,577.2 10.683412,48.202465,577.4 10.683443,48.202297,577.4 10.682699,48.202256,577.3 10.682689,48.201949,577.2 10.682386,48.201541,577.3 10.682236,48.201212,577.3 10.681946,48.199327,579.1 10.681201,48.198245,582.9 10.681109,48.19815,583.4 10.680963,48.198085,583.9 10.680337,48.197972,586.1 10.679945,48.197842,587.5 10.679157,48.19756,590.0 10.679021,48.197492,590.4 10.678935,48.197396,590.7 10.67883,48.19698,591.6 10.678642,48.196685,591.9 10.678428,48.196437,591.8 10.678304,48.196196,591.7 10.678224,48.19595,591.5 10.678174,48.195369,591.8 10.678136,48.195207,592.2 10.678056,48.194866,593.2 10.677771,48.195048,594.2 10.67563,48.196224,603.7 10.675658,48.196342,604.1 10.675656,48.196382,604.3 10.675658,48.196342,604.4 10.67563,48.196224,604.9 10.673907,48.19576,608.1 10.669457,48.194671,610.4 10.669414,48.194583,610.4 10.668953,48.194062,610.2 10.66773,48.193212,610.0 10.667211,48.19292,610.1 10.666537,48.192639,610.1 10.666052,48.192509,610.0 10.665546,48.192372,609.8 10.664599,48.192025,609.3</coordinates>
                </LineString>
            </MultiGeometry>
        </Placemark>
        <Placemark id="6081">
            <name>Parking</name>
            <Point id="6080">
                <coordinates>10.664458,48.192196,0</coordinates>
            </Point>
        </Placemark>
        <Placemark id="6083">
            <name>Wanderer Car Park Between Schwabegg and Konradshofen</name>
            <Point id="6082">
                <coordinates>10.664347,48.192022,658.6</coordinates>
            </Point>
        </Placemark>
        <Placemark id="6085">
            <name>View of Naturpark Augsburg - Westliche Wälder</name>
            <Point id="6084">
                <coordinates>10.670553,48.206913,642.2</coordinates>
            </Point>
        </Placemark>
        <Placemark id="6087">
            <name>Large anthill in Naturpark Augsburg – Westliche Wälder</name>
            <Point id="6086">
                <coordinates>10.682072,48.205882,635.2</coordinates>
            </Point>
        </Placemark>
        <Placemark id="6089">
            <name>Forest Trails in Naturpark Augsburg – Westliche Wälder</name>
            <Point id="6088">
                <coordinates>10.683484,48.202471,618.0</coordinates>
            </Point>
        </Placemark>
        <Placemark id="6091">
            <name>Celtic Square Enclosure in Naturpark Augsburg – Westliche Wälder</name>
            <Point id="6090">
                <coordinates>10.675563,48.19638,642.8</coordinates>
            </Point>
        </Placemark>
    </Document>
</kml>
