<?xml version="1.0" encoding="UTF-8"?>
<kml xmlns="http://www.opengis.net/kml/2.2" xmlns:gx="http://www.google.com/kml/ext/2.2">
    <Document id="6051">
        <name>Wanderrunde von Pöttmes-2720491735.gpx</name>
        <Placemark id="6053">
            <name>Wanderrunde von Pöttmes</name>
            <MultiGeometry id="6052">
                <LineString id="6054">
                    <coordinates>11.084145,48.581005,410.2 11.083928,48.580937,410.4 11.0838,48.580885,410.6 11.08336,48.580731,411.1 11.083045,48.58062,411.6 11.082688,48.581067,412.7 11.082593,48.581185,413.1 11.082196,48.581023,414.0 11.081596,48.580789,415.5 11.081512,48.58076,415.7 11.081204,48.580658,416.4 11.080999,48.580589,416.8 11.080929,48.580538,417.0 11.080621,48.580454,417.7 11.080265,48.580392,418.4 11.080007,48.580343,419.0 11.079953,48.580502,419.5 11.079859,48.580616,419.8 11.079747,48.58069,420.1 11.079591,48.580696,420.4 11.079342,48.58063,420.9 11.07889,48.580372,421.9 11.078827,48.580363,422.0 11.078157,48.580067,423.5 11.077848,48.579962,424.1 11.077768,48.579935,424.3 11.077429,48.57981,425.0 11.077068,48.579653,425.9 11.076999,48.579619,426.0 11.07681,48.579517,426.5 11.076778,48.579501,426.6 11.076512,48.57936,427.4 11.076444,48.579332,427.6 11.076108,48.579193,428.7 11.075857,48.579089,429.6 11.075772,48.579054,429.9 11.075568,48.578961,430.7 11.074657,48.578614,434.7 11.074291,48.578497,436.5 11.073425,48.5783,440.9 11.072559,48.578103,445.3 11.072389,48.578071,446.1 11.072021,48.578012,447.8 11.071831,48.578002,448.6 11.071151,48.578075,451.3 11.070655,48.578012,452.8 11.070277,48.577924,454.0 11.069474,48.577692,456.3 11.069177,48.577656,456.9 11.068574,48.577688,458.1 11.068074,48.57772,459.1 11.067514,48.577632,460.4 11.066735,48.577354,462.5 11.066474,48.577312,463.1 11.065805,48.577339,464.8 11.065731,48.577341,464.9 11.065526,48.577361,465.4 11.064896,48.577625,467.0 11.064341,48.577673,468.1 11.061833,48.577371,471.7 11.060465,48.577227,474.1 11.059724,48.577233,475.4 11.058438,48.577017,477.8 11.057966,48.576854,479.1 11.057451,48.576619,480.7 11.0567,48.576233,483.9 11.055877,48.575969,487.5 11.055424,48.575857,489.5 11.055046,48.575843,491.2 11.054211,48.575816,495.1 11.053209,48.575736,500.6 11.052839,48.575682,502.7 11.051462,48.575239,510.5 11.05111,48.575172,512.1 11.05078,48.575153,513.3 11.048764,48.574939,517.5 11.049208,48.573745,518.4 11.049252,48.573593,518.3 11.049319,48.57336,518.1 11.049343,48.573079,517.9 11.049155,48.572484,517.8 11.049165,48.572353,517.8 11.049257,48.572229,517.9 11.049579,48.571964,518.1 11.049907,48.571837,518.3 11.050142,48.57169,518.6 11.050287,48.571477,519.1 11.050479,48.570862,520.9 11.051222,48.569498,525.4 11.051774,48.569775,526.1 11.052423,48.569979,526.1 11.052825,48.570064,525.7 11.053582,48.570153,524.2 11.054419,48.57038,521.2 11.054895,48.570521,519.0 11.055603,48.570883,514.7 11.056095,48.571243,510.8 11.056573,48.571778,505.8 11.056902,48.572045,503.1 11.057181,48.572241,500.7 11.058043,48.572588,494.1 11.058206,48.572721,492.4 11.05833,48.572822,491.2 11.058653,48.573019,488.3 11.058849,48.573106,486.7 11.059882,48.573341,478.0 11.06005,48.573438,476.1 11.06038,48.573501,473.1 11.061146,48.573722,465.1 11.061997,48.57414,454.5 11.062633,48.574359,448.4 11.064398,48.57483,439.0 11.064544,48.574861,438.6 11.064656,48.574916,438.3 11.064795,48.57499,438.0 11.064971,48.575011,437.7 11.065485,48.575016,436.8 11.066102,48.575067,435.9 11.066652,48.575128,435.0 11.067098,48.575246,434.1 11.067648,48.575356,432.6 11.068005,48.575391,431.6 11.068437,48.575379,430.4 11.069065,48.575313,429.1 11.069543,48.575293,428.3 11.06972,48.575288,428.1 11.070544,48.575283,427.1 11.070868,48.575324,426.9 11.071118,48.575383,426.7 11.072606,48.575807,424.3 11.07444,48.576175,420.1 11.075151,48.57637,418.9 11.075501,48.576502,418.5 11.075816,48.576664,418.2 11.076419,48.577305,417.5 11.076857,48.57772,416.9 11.076966,48.577781,416.8 11.078306,48.578466,415.6 11.0788,48.578692,415.4 11.079114,48.578817,415.3 11.079688,48.579046,415.0 11.079823,48.579099,414.9 11.080074,48.579211,414.7 11.080621,48.579377,414.0 11.080885,48.579433,413.7 11.080839,48.579554,413.4 11.081029,48.579614,413.2 11.081108,48.579648,413.1 11.081446,48.579828,412.6 11.081573,48.579901,412.4 11.081589,48.57991,412.4 11.081856,48.580058,412.0 11.081986,48.58013,411.9 11.082156,48.580225,411.7 11.082379,48.580343,411.4 11.082505,48.580404,411.3 11.08299,48.580601,410.9 11.083045,48.58062,410.9 11.08336,48.580731,410.7 11.0838,48.580885,410.4 11.083928,48.580937,410.3 11.084145,48.581005,410.2</coordinates>
                </LineString>
            </MultiGeometry>
        </Placemark>
        <Placemark id="6057">
            <name>Pöttmes, Post xxx</name>
            <Point id="6056">
                <coordinates>11.084145,48.581005,0</coordinates>
            </Point>
        </Placemark>
        <Placemark id="6059">
            <name>Forest Chapel Ochsenkreuz on the Old Bavarian Oxen Trail</name>
            <Point id="6058">
                <coordinates>11.058198,48.572726,522.1</coordinates>
            </Point>
        </Placemark>
    </Document>
</kml>
