<?xml version="1.0" encoding="UTF-8"?>
<kml xmlns="http://www.opengis.net/kml/2.2" xmlns:gx="http://www.google.com/kml/ext/2.2">
    <Document id="6149">
        <name>Wasserturm vor Lützelburg – Walderlebnispfad Hub Runde von Rettenbergen-2741030540.gpx</name>
        <Placemark id="6151">
            <name>Wasserturm vor Lützelburg – Walderlebnispfad Hub Runde von Rettenbergen</name>
            <MultiGeometry id="6150">
                <LineString id="6152">
                    <coordinates>10.776433,48.446477,521.0 10.776079,48.446253,521.1 10.775823,48.446502,521.2 10.775436,48.446737,521.2 10.774751,48.446995,521.2 10.774106,48.447312,520.9 10.773362,48.447627,520.7 10.772989,48.447751,520.6 10.772331,48.447916,520.3 10.771833,48.447998,520.1 10.771861,48.448225,519.9 10.772013,48.448683,519.7 10.772021,48.448906,519.6 10.771928,48.449317,519.5 10.771908,48.449574,519.5 10.771941,48.449723,519.5 10.771348,48.450852,517.1 10.770994,48.451294,513.7 10.770913,48.451375,512.9 10.769626,48.452273,499.0 10.769004,48.452442,494.5 10.767814,48.452649,489.1 10.767212,48.452725,487.6 10.766327,48.4528,485.9 10.76549,48.45282,484.9 10.765055,48.452805,484.4 10.765167,48.452989,483.9 10.765764,48.453452,482.6 10.765892,48.453644,482.3 10.765945,48.453926,481.9 10.766094,48.454187,481.7 10.766291,48.45431,481.5 10.766638,48.454907,480.9 10.765964,48.455506,481.0 10.766082,48.45622,481.3 10.766031,48.456455,481.4 10.766341,48.457126,482.2 10.766323,48.457751,483.0 10.766074,48.45835,483.8 10.765788,48.459036,484.3 10.765445,48.459443,484.3 10.764851,48.459892,484.4 10.764594,48.459996,484.4 10.763149,48.46051,483.7 10.762922,48.460813,482.9 10.762539,48.461142,481.5 10.762341,48.461312,480.7 10.762283,48.461486,479.9 10.762374,48.461796,478.6 10.762506,48.461943,478.0 10.762539,48.461948,477.9 10.762824,48.461991,477.3 10.763217,48.462113,476.4 10.763395,48.4622,476.2 10.763649,48.462444,476.2 10.763734,48.462452,476.3 10.764515,48.46235,478.0 10.764638,48.46231,478.4 10.764685,48.462275,478.7 10.765064,48.462045,480.8 10.76521,48.461987,481.5 10.766366,48.461772,487.2 10.766719,48.461706,488.9 10.766945,48.461695,489.9 10.767761,48.461681,492.9 10.768308,48.461708,494.8 10.769329,48.461599,498.9 10.769407,48.461452,500.0 10.769481,48.461393,500.5 10.769536,48.461356,500.9 10.76987,48.461245,502.7 10.770308,48.46088,506.2 10.770554,48.460718,507.9 10.77099,48.460579,510.3 10.771128,48.46056,511.0 10.771258,48.460569,511.5 10.77179,48.460665,513.8 10.772675,48.460706,516.6 10.773156,48.460779,517.6 10.774203,48.460772,518.1 10.774344,48.460735,518.0 10.774625,48.46084,517.7 10.774974,48.461024,517.1 10.775196,48.461084,516.8 10.775448,48.461092,516.5 10.775659,48.46107,516.3 10.775823,48.461032,516.1 10.776232,48.460863,515.8 10.776325,48.460824,515.7 10.777161,48.460771,516.0 10.778023,48.460771,517.3 10.77862,48.460795,518.4 10.778961,48.460826,519.0 10.779482,48.460874,519.8 10.779573,48.460844,520.0 10.779697,48.460725,520.3 10.779909,48.460471,520.9 10.780039,48.460203,521.3 10.780221,48.460083,521.6 10.78049,48.459997,521.9 10.780629,48.459976,522.0 10.780826,48.459972,522.1 10.781938,48.460052,522.1 10.782011,48.46004,522.1 10.782119,48.459967,522.1 10.782453,48.459545,522.2 10.782531,48.459491,522.2 10.784432,48.460119,521.9 10.784531,48.460152,521.8 10.784432,48.460119,521.7 10.784649,48.459883,521.1 10.784653,48.459768,520.7 10.78416,48.4596,519.4 10.784091,48.459563,519.2 10.784056,48.459496,518.9 10.78414,48.459328,518.1 10.784436,48.458977,516.3 10.784523,48.458914,515.9 10.784979,48.458772,514.5 10.785373,48.458736,513.7 10.785876,48.458599,512.9 10.786168,48.458493,512.6 10.786323,48.4584,512.4 10.786813,48.458378,512.2 10.787427,48.458431,511.9 10.787648,48.458427,511.7 10.787799,48.458405,511.5 10.787903,48.458358,511.3 10.788041,48.458194,510.9 10.78798,48.457849,509.7 10.788118,48.45765,508.7 10.788861,48.45702,504.4 10.789008,48.456856,503.3 10.789197,48.456477,501.1 10.789586,48.456244,499.1 10.79013,48.455778,495.6 10.790621,48.455444,492.4 10.790752,48.4552,490.6 10.790772,48.455073,489.6 10.79075,48.454836,487.8 10.790845,48.45446,485.4 10.790863,48.454213,484.3 10.790865,48.454185,484.1 10.790983,48.453952,483.5 10.791186,48.453784,483.2 10.791512,48.453691,483.3 10.791843,48.453635,483.7 10.792205,48.453623,484.4 10.79295,48.453691,486.4 10.793417,48.453625,487.3 10.794175,48.453442,487.5 10.794552,48.453343,487.1 10.794954,48.453187,486.2 10.795509,48.452848,484.4 10.796515,48.452744,481.8 10.797567,48.452602,480.8 10.798907,48.452376,479.6 10.801008,48.452107,477.2 10.801305,48.452076,477.2 10.802459,48.451985,478.4 10.80335,48.452043,478.7 10.803384,48.451887,478.5 10.801691,48.451095,472.2 10.800176,48.450402,467.4 10.799214,48.44988,467.5 10.799106,48.449792,467.8 10.798296,48.449162,471.1 10.798029,48.449015,472.3 10.797842,48.448963,473.0 10.797617,48.4489,473.8 10.797379,48.448585,475.5 10.797293,48.448378,476.4 10.796226,48.447559,478.8 10.795841,48.447231,478.9 10.795708,48.447142,478.9 10.795206,48.446825,478.6 10.793945,48.44639,476.8 10.792059,48.445975,474.6 10.791502,48.445959,474.7 10.791403,48.445901,474.8 10.790978,48.445774,475.3 10.79043,48.44553,476.3 10.790203,48.445467,476.8 10.789505,48.445354,478.6 10.78898,48.445213,480.0 10.788589,48.44514,481.0 10.787505,48.445062,483.7 10.786487,48.444911,485.9 10.785051,48.444596,488.2 10.784708,48.444548,488.7 10.784506,48.44457,489.0 10.784157,48.44457,489.6 10.783416,48.44441,491.0 10.782835,48.444395,492.1 10.782017,48.444302,494.1 10.781421,48.444383,495.3 10.780554,48.444464,497.0 10.779753,48.44468,498.9 10.779142,48.444692,500.8 10.778825,48.444753,502.0 10.778421,48.444769,503.7 10.778353,48.444806,504.1 10.778185,48.44504,505.9 10.778131,48.445266,507.6 10.778032,48.445312,508.2 10.777914,48.445574,510.2 10.777896,48.4458,512.0 10.778014,48.446053,513.9 10.777914,48.446135,514.6 10.77767,48.446207,515.6 10.777118,48.446442,517.7 10.776856,48.446515,518.3 10.776737,48.446521,518.6 10.776521,48.446533,519.0 10.776433,48.446477,519.2</coordinates>
                </LineString>
            </MultiGeometry>
        </Placemark>
        <Placemark id="6155">
            <name>Wanderparkplatz Peterhof</name>
            <Point id="6154">
                <coordinates>10.776472,48.446451,0</coordinates>
            </Point>
        </Placemark>
        <Placemark id="6157">
            <name>View of Lützelburg</name>
            <Point id="6156">
                <coordinates>10.77896,48.460833,567.5</coordinates>
            </Point>
        </Placemark>
        <Placemark id="6159">
            <name>Lürzelburg Water Tower</name>
            <Point id="6158">
                <coordinates>10.78443,48.459686,524.0</coordinates>
            </Point>
        </Placemark>
        <Placemark id="6161">
            <name>Forest Adventure Trail Hub</name>
            <Point id="6160">
                <coordinates>10.776733,48.446487,548.8</coordinates>
            </Point>
        </Placemark>
    </Document>
</kml>
