<?xml version="1.0" encoding="UTF-8"?>
<kml xmlns="http://www.opengis.net/kml/2.2" xmlns:gx="http://www.google.com/kml/ext/2.2">
    <Document id="6239">
        <name>Wertachbrücke Türkheim – Walterwehr an der Wertach Runde von Türkheim-2849993288.gpx</name>
        <Placemark id="6241">
            <name>Wertachbrücke Türkheim – Walterwehr an der Wertach Runde von Türkheim</name>
            <MultiGeometry id="6240">
                <LineString id="6242">
                    <coordinates>10.648161,48.061266,597.5 10.64857,48.061353,597.4 10.648889,48.061423,597.3 10.649267,48.061469,597.2 10.649709,48.061446,597.0 10.65013,48.061367,597.0 10.650635,48.061274,597.2 10.65078,48.061248,597.4 10.650834,48.061238,597.4 10.651141,48.061179,597.7 10.651149,48.061178,597.7 10.651573,48.061097,598.3 10.652098,48.06096,599.0 10.652187,48.060917,599.1 10.652295,48.060782,599.3 10.652441,48.060662,599.5 10.652678,48.060557,599.7 10.652803,48.060557,599.8 10.653289,48.060382,600.0 10.653523,48.060352,600.0 10.653751,48.060286,599.9 10.653907,48.060214,599.9 10.654064,48.060064,599.7 10.654188,48.05976,599.5 10.654929,48.058911,599.6 10.654389,48.058727,599.8 10.65383,48.058474,600.0 10.6537,48.058415,600.0 10.653518,48.058335,600.0 10.653423,48.058293,600.0 10.653651,48.05801,600.0 10.653117,48.057395,599.8 10.653021,48.057077,599.6 10.652978,48.056862,599.5 10.652903,48.056351,599.4 10.653179,48.05623,599.3 10.653004,48.05512,599.5 10.652984,48.055002,599.5 10.65345,48.054966,599.6 10.653576,48.054937,599.6 10.653662,48.054876,599.6 10.65379,48.054544,599.7 10.653804,48.054399,599.7 10.654046,48.054413,599.8 10.654054,48.054366,599.8 10.654074,48.054244,599.8 10.654031,48.053939,599.9 10.653601,48.053378,600.0 10.653318,48.053238,600.0 10.651027,48.052705,599.8 10.649998,48.052511,599.6 10.649637,48.052024,599.2 10.648924,48.051201,598.8 10.648189,48.050669,599.1 10.647732,48.050382,599.6 10.647704,48.050261,599.8 10.647887,48.049884,600.5 10.647763,48.049531,601.3 10.647597,48.049291,601.9 10.64693,48.048514,603.2 10.64666,48.048073,603.4 10.646232,48.047479,603.2 10.645841,48.046825,603.1 10.645145,48.045119,604.5 10.644765,48.043756,605.4 10.644707,48.043217,605.4 10.644639,48.042127,605.4 10.644738,48.041859,605.4 10.644934,48.041715,605.4 10.645316,48.041499,605.3 10.645591,48.041479,605.2 10.645641,48.041412,605.2 10.644732,48.041483,605.4 10.644266,48.041516,605.5 10.643874,48.041544,605.3 10.643277,48.041583,605.2 10.643286,48.04164,605.2 10.643299,48.041687,605.2 10.643368,48.041742,605.2 10.643858,48.041742,605.2 10.643863,48.042797,604.3 10.643973,48.043644,603.4 10.644343,48.04511,601.6 10.644565,48.045761,601.1 10.645114,48.047005,600.5 10.645615,48.048257,600.3 10.645775,48.048738,600.5 10.645926,48.048994,600.6 10.646137,48.049235,600.7 10.646193,48.049415,600.7 10.646255,48.049525,600.7 10.646311,48.049656,600.7 10.646421,48.049913,600.5 10.646459,48.050056,600.4 10.646459,48.05022,600.2 10.646459,48.050288,600.1 10.646452,48.050376,600.0 10.646585,48.050794,599.2 10.646852,48.051462,598.1 10.646996,48.051818,597.5 10.647508,48.053095,596.6 10.647808,48.053843,596.5 10.649348,48.057727,596.4 10.650061,48.059385,595.7 10.650443,48.060327,596.1 10.650761,48.061117,596.6 10.65078,48.061248,596.7 10.650635,48.061274,596.7 10.65013,48.061367,596.9 10.649709,48.061446,597.0 10.649267,48.061469,597.2 10.648889,48.061423,597.3 10.64857,48.061353,597.4 10.648161,48.061266,597.5</coordinates>
                </LineString>
            </MultiGeometry>
        </Placemark>
        <Placemark id="6245">
            <name>Türkheim, Jakob-Sigle-Straße</name>
            <Point id="6244">
                <coordinates>10.648188,48.061208,0</coordinates>
            </Point>
        </Placemark>
        <Placemark id="6247">
            <name>Wertach Bridge, Türkheim</name>
            <Point id="6246">
                <coordinates>10.651161,48.061207,601.0</coordinates>
            </Point>
        </Placemark>
        <Placemark id="6249">
            <name>Mühlbach near Türkheim</name>
            <Point id="6248">
                <coordinates>10.654084,48.054368,600.7</coordinates>
            </Point>
        </Placemark>
        <Placemark id="6251">
            <name>Bridge Over the Wertach</name>
            <Point id="6250">
                <coordinates>10.644265,48.041511,654.0</coordinates>
            </Point>
        </Placemark>
        <Placemark id="6253">
            <name>Walterwehr on the Wertach</name>
            <Point id="6252">
                <coordinates>10.646328,48.04954,657.6</coordinates>
            </Point>
        </Placemark>
        <Placemark id="6255">
            <name>Wertach weir near Waltermühle (Türkheim)</name>
            <Point id="6254">
                <coordinates>10.646447,48.04963,644.0</coordinates>
            </Point>
        </Placemark>
        <Placemark id="6257">
            <name>Stepped weir waterfall in the Auwald floodplain forest</name>
            <Point id="6256">
                <coordinates>10.646945,48.050219,597.8</coordinates>
            </Point>
        </Placemark>
        <Placemark id="6259">
            <name>Wertach Trail</name>
            <Point id="6258">
                <coordinates>10.646831,48.051848,603.1</coordinates>
            </Point>
        </Placemark>
    </Document>
</kml>
