<?xml version="1.0" encoding="UTF-8"?>
<kml xmlns="http://www.opengis.net/kml/2.2" xmlns:gx="http://www.google.com/kml/ext/2.2">
    <Document id="6215">
        <name>Wertach-Wehr Ettringen – Brücke über die Wertach Runde von Ettringen-2849992916.gpx</name>
        <Placemark id="6217">
            <name>Wertach-Wehr Ettringen – Brücke über die Wertach Runde von Ettringen</name>
            <MultiGeometry id="6216">
                <LineString id="6218">
                    <coordinates>10.66757,48.108473,578.3 10.667576,48.108426,578.3 10.667549,48.108402,578.3 10.667526,48.108382,578.3 10.667336,48.10839,578.3 10.666389,48.108213,578.4 10.665643,48.108098,578.4 10.665504,48.108054,578.3 10.665614,48.107515,578.2 10.665734,48.106948,578.1 10.665804,48.106574,578.0 10.665858,48.106277,577.9 10.665988,48.105608,577.9 10.666108,48.104953,577.9 10.666155,48.104722,577.8 10.665975,48.104613,577.6 10.665961,48.10456,577.6 10.666092,48.103822,576.2 10.666098,48.103791,576.1 10.666155,48.103569,575.8 10.666226,48.103368,575.5 10.666272,48.103301,575.4 10.666358,48.103244,575.3 10.666347,48.102959,575.2 10.666407,48.102386,575.4 10.666493,48.10191,576.3 10.666673,48.101272,578.1 10.666673,48.101272,578.1 10.666967,48.101087,578.6 10.667012,48.101055,578.7 10.667011,48.100734,579.2 10.666723,48.10038,579.6 10.666862,48.099205,579.9 10.667069,48.09861,579.9 10.667111,48.09839,579.9 10.667098,48.098278,579.9 10.667137,48.098065,580.0 10.667524,48.098065,580.1 10.667692,48.097987,580.1 10.668041,48.097704,580.2 10.66826,48.097478,580.2 10.668287,48.097377,580.2 10.66927,48.097705,580.4 10.669439,48.097702,580.3 10.670314,48.097279,579.8 10.670537,48.09724,579.6 10.67063,48.097249,579.6 10.670798,48.097039,579.4 10.671445,48.097029,579.1 10.671792,48.096896,578.9 10.671824,48.096811,578.9 10.671857,48.096725,578.8 10.671785,48.096155,578.8 10.671727,48.09594,579.0 10.672015,48.095684,579.3 10.672096,48.09542,579.6 10.67198,48.095299,579.8 10.671719,48.09511,580.1 10.671394,48.094992,580.4 10.672012,48.094734,580.9 10.672458,48.094504,581.3 10.672871,48.094189,581.6 10.673197,48.093845,581.8 10.6736,48.0933,581.8 10.674029,48.092526,581.6 10.674158,48.091764,581.4 10.674141,48.091363,581.3 10.674029,48.090893,581.1 10.673617,48.090061,580.9 10.672887,48.08927,580.9 10.672632,48.089069,581.0 10.672544,48.089001,581.1 10.671772,48.088599,581.5 10.671188,48.08841,581.9 10.670716,48.088198,582.1 10.67003,48.087997,582.4 10.668596,48.087653,582.0 10.667995,48.087453,581.6 10.667515,48.087241,581.3 10.666768,48.086736,581.0 10.666107,48.086249,581.2 10.665798,48.085864,581.6 10.66482,48.084328,583.8 10.664562,48.083869,584.3 10.664279,48.083571,584.6 10.664064,48.083181,584.9 10.663206,48.08231,585.5 10.662305,48.081564,586.8 10.661919,48.081174,587.6 10.661421,48.080727,588.4 10.660803,48.080325,589.0 10.659704,48.079385,588.8 10.658245,48.078261,587.9 10.657653,48.077602,588.4 10.657303,48.077113,589.1 10.657112,48.076977,589.2 10.656752,48.076587,589.5 10.656151,48.075939,589.4 10.65579,48.075382,588.9 10.655146,48.074235,588.5 10.654803,48.073702,588.7 10.654588,48.073278,588.9 10.654245,48.07244,589.5 10.654031,48.071999,589.8 10.653919,48.071614,590.0 10.653644,48.070909,590.2 10.653473,48.069848,590.5 10.653533,48.069349,590.7 10.653524,48.068856,590.9 10.65361,48.068397,591.2 10.653616,48.068011,591.5 10.653619,48.067496,592.1 10.653533,48.066292,593.8 10.653387,48.065965,594.2 10.653335,48.065621,594.5 10.653216,48.065267,594.8 10.653018,48.064955,595.0 10.652932,48.06476,595.1 10.652906,48.064511,595.1 10.653428,48.064397,595.2 10.653329,48.064117,595.3 10.653232,48.063841,595.4 10.653222,48.063813,595.4 10.653162,48.063664,595.4 10.653104,48.063522,595.5 10.653095,48.063498,595.5 10.653023,48.06332,595.5 10.653014,48.063297,595.5 10.652938,48.06311,595.6 10.652869,48.062939,595.6 10.652856,48.062906,595.6 10.652775,48.062706,595.6 10.652728,48.06259,595.7 10.652617,48.062367,595.8 10.652579,48.062317,595.9 10.652364,48.062018,596.4 10.652355,48.061996,596.4 10.652294,48.061847,596.6 10.65232,48.061524,596.8 10.652432,48.061339,596.9 10.652455,48.061301,596.9 10.652378,48.061064,597.0 10.651573,48.061097,597.1 10.651149,48.061178,597.0 10.651141,48.061179,597.0 10.650834,48.061238,596.9 10.65078,48.061248,596.8 10.650775,48.06135,596.7 10.651507,48.063018,595.5 10.651582,48.063265,595.3 10.651786,48.063698,595.0 10.652155,48.064681,594.3 10.652399,48.06533,594.1 10.652766,48.066297,593.8 10.652754,48.066529,593.6 10.652811,48.066706,593.5 10.652888,48.067617,593.0 10.652825,48.067875,592.8 10.652775,48.068549,592.5 10.652729,48.069569,591.9 10.652773,48.070456,591.5 10.652972,48.071228,591.3 10.653178,48.071802,591.2 10.654157,48.073878,590.3 10.654944,48.075246,589.3 10.655401,48.075977,589.1 10.655745,48.076424,589.2 10.656453,48.07723,589.1 10.65656,48.077353,589.1 10.656567,48.077377,589.1 10.656637,48.077628,588.9 10.656706,48.077737,588.8 10.657072,48.077996,588.6 10.657607,48.078443,588.2 10.658637,48.079412,587.5 10.662439,48.082422,583.9 10.663083,48.083007,583.9 10.663961,48.08405,583.8 10.664122,48.084383,583.5 10.66504,48.085948,581.2 10.665486,48.086568,580.4 10.665636,48.08671,580.3 10.665976,48.087032,580.1 10.666499,48.08737,580.1 10.667752,48.087921,580.7 10.668611,48.088121,581.3 10.670276,48.088637,581.7 10.671134,48.088878,581.3 10.671649,48.089073,581.0 10.672156,48.089377,580.7 10.672533,48.089664,580.5 10.673048,48.090277,580.2 10.67334,48.09081,580.0 10.673529,48.091504,579.9 10.67352,48.092031,579.9 10.673409,48.09257,580.1 10.673168,48.09304,580.4 10.67243,48.093832,581.1 10.671924,48.094204,581.4 10.671426,48.094456,581.6 10.669984,48.094963,581.4 10.66892,48.095356,581.0 10.668327,48.095677,580.7 10.667881,48.095964,580.5 10.667546,48.096297,580.3 10.667109,48.096812,580.2 10.666834,48.097237,580.1 10.666502,48.098079,579.8 10.666264,48.098992,579.4 10.666027,48.100286,578.8 10.665959,48.100481,578.8 10.665659,48.100711,578.7 10.665628,48.100886,578.7 10.665667,48.100884,578.7 10.665734,48.100879,578.7 10.665667,48.100884,578.6 10.665628,48.100886,578.6 10.665286,48.102502,577.8 10.665269,48.102595,577.8 10.665261,48.102642,577.8 10.664746,48.105553,577.8 10.664612,48.106176,577.8 10.664779,48.106189,577.8 10.665051,48.106206,577.8 10.665229,48.106221,577.8 10.66564,48.106257,577.8 10.665858,48.106277,577.8 10.665804,48.106574,577.9 10.665734,48.106948,578.0 10.665614,48.107515,578.2 10.665504,48.108054,578.3 10.665643,48.108098,578.4 10.666389,48.108213,578.4 10.667336,48.10839,578.3 10.667526,48.108382,578.3 10.667549,48.108402,578.3 10.667576,48.108426,578.3 10.66757,48.108473,578.3</coordinates>
                </LineString>
            </MultiGeometry>
        </Placemark>
        <Placemark id="6221">
            <name>Grundschule Ettringen Ost</name>
            <Point id="6220">
                <coordinates>10.667599,48.108474,0</coordinates>
            </Point>
        </Placemark>
        <Placemark id="6223">
            <name>Wertach Weir Ettringen</name>
            <Point id="6222">
                <coordinates>10.666646,48.101265,626.0</coordinates>
            </Point>
        </Placemark>
        <Placemark id="6225">
            <name>Tree Stump</name>
            <Point id="6224">
                <coordinates>10.672615,48.089079,635.5</coordinates>
            </Point>
        </Placemark>
        <Placemark id="6227">
            <name>Wertach Bridge, Türkheim</name>
            <Point id="6226">
                <coordinates>10.651161,48.061207,601.0</coordinates>
            </Point>
        </Placemark>
        <Placemark id="6229">
            <name>Inflatable Weir</name>
            <Point id="6228">
                <coordinates>10.656563,48.077377,644.0</coordinates>
            </Point>
        </Placemark>
        <Placemark id="6231">
            <name>Idyllic lake with a bench</name>
            <Point id="6230">
                <coordinates>10.665655,48.086701,634.3</coordinates>
            </Point>
        </Placemark>
        <Placemark id="6233">
            <name>Weir on the Wertach</name>
            <Point id="6232">
                <coordinates>10.665839,48.100889,587.2</coordinates>
            </Point>
        </Placemark>
        <Placemark id="6235">
            <name>Bridge Over the Wertach</name>
            <Point id="6234">
                <coordinates>10.665222,48.106256,574.1</coordinates>
            </Point>
        </Placemark>
    </Document>
</kml>
