<?xml version="1.0" encoding="UTF-8"?>
<kml xmlns="http://www.opengis.net/kml/2.2" xmlns:gx="http://www.google.com/kml/ext/2.2">
    <Document id="6365">
        <name>Windachspeicher – Wurzelpfad am Windachsee Runde von Obermühlhausen-2538739840.gpx</name>
        <Placemark id="6367">
            <name>Windachspeicher – Wurzelpfad am Windachsee Runde von Obermühlhausen</name>
            <MultiGeometry id="6366">
                <LineString id="6368">
                    <coordinates>11.0131,48.003069,622.8 11.013549,48.002616,624.4 11.013423,48.002543,624.7 11.013399,48.002561,624.8 11.013384,48.002499,625.0 11.013414,48.002432,625.2 11.013317,48.002145,626.0 11.013075,48.001915,626.7 11.01246,48.002584,628.6 11.013075,48.001915,630.8 11.013191,48.001814,631.0 11.013154,48.001735,631.2 11.013165,48.001672,631.3 11.013264,48.001651,631.4 11.013461,48.00161,631.5 11.013321,48.001546,631.6 11.013152,48.001404,631.8 11.013321,48.001546,631.9 11.013461,48.00161,632.0 11.013264,48.001651,632.0 11.013165,48.001672,632.0 11.012865,48.001695,631.7 11.012459,48.001579,631.0 11.012286,48.001498,630.6 11.011424,48.00108,630.2 11.011119,48.00096,631.1 11.010902,48.000912,631.8 11.010817,48.00087,632.1 11.010558,48.000698,633.2 11.010491,48.000582,633.6 11.010511,48.00055,633.7 11.010587,48.000421,634.1 11.010788,48.000352,634.4 11.010795,48.000297,634.5 11.010802,48.000241,634.6 11.010684,48.000207,634.7 11.010539,48.000269,634.7 11.010421,48.00011,634.8 11.010172,48.000048,634.6 11.010013,48.000116,634.5 11.009847,48.000096,634.2 11.009489,48.000238,633.2 11.009332,48.000174,632.5 11.009259,48.000032,631.7 11.00922,47.999871,630.8 11.009097,47.999768,630.1 11.009009,47.999596,629.4 11.009029,47.999249,628.7 11.009151,47.99919,628.6 11.009276,47.999087,628.6 11.009309,47.998943,628.7 11.009412,47.998838,628.8 11.009603,47.998749,629.2 11.009681,47.998746,629.3 11.009686,47.998638,629.6 11.009803,47.99846,630.2 11.009808,47.998272,630.8 11.009889,47.998189,631.2 11.00981,47.998054,631.6 11.009851,47.997972,631.9 11.00983,47.997713,632.7 11.00985,47.997531,633.0 11.009857,47.997471,633.2 11.009833,47.997356,633.3 11.009966,47.9972,633.5 11.009516,47.996843,633.5 11.009307,47.996547,633.3 11.009077,47.996494,633.1 11.008905,47.996411,632.9 11.00858,47.996342,632.7 11.008266,47.996202,632.5 11.00808,47.996068,632.5 11.007601,47.99562,632.9 11.007351,47.995592,633.1 11.007182,47.995599,633.2 11.006749,47.995465,633.3 11.006606,47.995335,633.4 11.006386,47.995311,633.3 11.006226,47.995221,633.4 11.005986,47.99513,633.6 11.005986,47.99513,633.6 11.005771,47.995003,633.8 11.005602,47.994796,634.1 11.00553,47.994496,634.6 11.00561,47.994543,634.8 11.005708,47.994564,635.0 11.006026,47.994508,635.6 11.007236,47.994635,639.2 11.007734,47.994865,641.0 11.009322,47.99541,644.3 11.009892,47.995685,645.2 11.010231,47.995991,645.8 11.010948,47.997083,646.1 11.01145,47.997929,644.5 11.012897,47.998245,642.4 11.014265,47.998543,641.8 11.014544,47.998535,641.8 11.014966,47.998484,641.8 11.014869,47.998724,641.8 11.014847,47.99886,641.8 11.014673,47.999181,641.8 11.014403,47.999377,641.7 11.015872,48.000917,641.2 11.016108,48.00122,640.9 11.015732,48.001432,640.6 11.015478,48.001457,640.4 11.015384,48.001439,640.3 11.015113,48.00129,639.8 11.014928,48.00114,639.3 11.014743,48.00099,638.7 11.014596,48.001063,638.2 11.014403,48.001159,637.6 11.014229,48.001248,636.9 11.013931,48.001397,635.6 11.013551,48.001582,633.7 11.013461,48.00161,633.2 11.013264,48.001651,632.3 11.013165,48.001672,631.8 11.013154,48.001735,631.4 11.013191,48.001814,630.8 11.013075,48.001915,629.9 11.013317,48.002145,628.0 11.013414,48.002432,626.1 11.013384,48.002499,625.7 11.013399,48.002561,625.3 11.013423,48.002543,625.2 11.013549,48.002616,624.7 11.0131,48.003069,622.8</coordinates>
                </LineString>
            </MultiGeometry>
        </Placemark>
        <Placemark id="6371">
            <name>Parking</name>
            <Point id="6370">
                <coordinates>11.013057,48.003007,0</coordinates>
            </Point>
        </Placemark>
        <Placemark id="6373">
            <name>Windach Reservoir</name>
            <Point id="6372">
                <coordinates>11.012753,48.002261,633.5</coordinates>
            </Point>
        </Placemark>
        <Placemark id="6375">
            <name>Root Trail at Windachsee</name>
            <Point id="6374">
                <coordinates>11.009965,48.000257,626.6</coordinates>
            </Point>
        </Placemark>
    </Document>
</kml>
