<?xml version="1.0" encoding="UTF-8"?>
<kml xmlns="http://www.opengis.net/kml/2.2" xmlns:gx="http://www.google.com/kml/ext/2.2">
    <Document id="6435">
        <name>Zur Unteren Brüggele Alpe ​in​ Brand-2984432000.gpx</name>
        <Placemark id="6437">
            <name>Zur Unteren Brüggele Alpe ​in​ Brand</name>
            <MultiGeometry id="6436">
                <LineString id="6438">
                    <coordinates>9.735218,47.097655,1059.5 9.735151,47.097843,1060.4 9.735144,47.09787,1060.5 9.735095,47.097851,1060.7 9.734985,47.097697,1061.8 9.734498,47.097354,1065.5 9.734354,47.097109,1068.2 9.73418,47.096922,1070.7 9.733996,47.096816,1072.7 9.733529,47.096427,1079.4 9.733424,47.096375,1080.8 9.733301,47.096336,1082.2 9.732495,47.096294,1092.7 9.732116,47.096277,1096.7 9.731759,47.096212,1100.6 9.731461,47.09612,1104.2 9.731393,47.096126,1105.1 9.731313,47.096197,1106.4 9.731322,47.096269,1107.7 9.731377,47.096322,1108.7 9.731645,47.096433,1112.2 9.731654,47.096438,1112.3 9.731862,47.09656,1115.5 9.731493,47.096545,1120.3 9.731173,47.096466,1124.6 9.731098,47.096412,1125.9 9.730976,47.096325,1128.0 9.730733,47.096244,1131.7 9.730484,47.096106,1136.7 9.730144,47.09612,1142.3 9.730014,47.096145,1144.5 9.7299,47.096211,1146.8 9.729819,47.096241,1148.2 9.729775,47.096348,1150.7 9.729626,47.096477,1154.1 9.72963,47.096527,1155.2 9.729298,47.096664,1160.3 9.728809,47.096943,1168.0 9.728898,47.096981,1169.2 9.728734,47.097069,1171.4 9.728996,47.097084,1174.0 9.729172,47.097137,1175.8 9.729013,47.097167,1177.4 9.728817,47.097248,1179.8 9.728481,47.097534,1185.6 9.728374,47.097575,1187.0 9.728251,47.097597,1188.5 9.728162,47.097558,1189.9 9.728153,47.097465,1191.7 9.728034,47.097534,1193.9 9.727975,47.097473,1195.5 9.727881,47.097557,1197.9 9.727858,47.097679,1200.5 9.727705,47.097725,1202.9 9.727152,47.097691,1210.8 9.726975,47.09774,1213.6 9.726587,47.097686,1219.4 9.726407,47.097584,1222.8 9.726174,47.097553,1226.1 9.726069,47.097465,1228.3 9.725829,47.09746,1231.4 9.725677,47.097368,1234.0 9.72523,47.097257,1239.9 9.725111,47.097158,1242.2 9.72503,47.09716,1243.2 9.725028,47.09709,1244.5 9.72538,47.097012,1249.1 9.72538,47.09697,1249.9 9.724753,47.096655,1257.6 9.724621,47.096489,1259.6 9.724406,47.096359,1261.6 9.724178,47.096252,1263.5 9.724043,47.096266,1264.6 9.724046,47.096288,1264.8 9.724055,47.096375,1265.8 9.724217,47.096625,1269.2 9.724206,47.096769,1271.1 9.724175,47.096788,1271.5 9.724028,47.096594,1274.5 9.723315,47.096487,1281.3 9.723199,47.09642,1282.9 9.723108,47.096463,1284.3 9.72269,47.096389,1289.9 9.722441,47.096384,1293.4 9.722353,47.096451,1295.2 9.72209,47.096503,1298.8 9.721911,47.096637,1302.0 9.721735,47.09685,1305.9 9.721676,47.09685,1306.5 9.72163,47.096943,1307.9 9.721683,47.096972,1308.5 9.721521,47.09706,1310.4 9.721304,47.097137,1312.6 9.721115,47.097438,1316.7 9.721174,47.097578,1318.3 9.720809,47.097622,1321.0 9.720666,47.097586,1322.0 9.720405,47.097456,1324.3 9.720226,47.097213,1327.0 9.720123,47.097017,1329.1 9.720033,47.096647,1333.0 9.719801,47.09631,1336.9 9.719528,47.096182,1339.1 9.719055,47.09603,1342.5 9.71885,47.096035,1343.9 9.718539,47.096098,1346.1 9.717962,47.096174,1350.0 9.717725,47.096163,1351.6 9.717357,47.096145,1354.3 9.71735,47.096143,1354.3 9.716523,47.095897,1361.7 9.716435,47.095844,1362.8 9.716423,47.095791,1363.4 9.716478,47.09565,1365.2 9.716464,47.095372,1368.4 9.716345,47.095108,1371.7 9.716424,47.095022,1373.1 9.71659,47.094916,1375.2 9.716747,47.094835,1377.1 9.716952,47.094786,1379.2 9.717036,47.094765,1380.1 9.717135,47.094701,1381.5 9.717146,47.094622,1382.6 9.717075,47.094575,1383.6 9.716455,47.094487,1389.9 9.716448,47.094487,1390.0 9.716192,47.094498,1392.4 9.716029,47.094421,1394.3 9.71601,47.094417,1394.5 9.715817,47.094379,1396.5 9.715608,47.094383,1398.7 9.715401,47.094355,1400.9 9.715032,47.094221,1405.1 9.714611,47.094197,1409.0 9.713968,47.094056,1414.4 9.713577,47.094054,1417.1 9.713118,47.094096,1419.8 9.713023,47.094056,1420.4 9.71266,47.093968,1422.4 9.711759,47.093816,1426.5 9.711216,47.093656,1428.8 9.710596,47.093237,1432.1 9.710366,47.09311,1433.3 9.709696,47.09282,1436.8 9.708832,47.092246,1442.5 9.707901,47.091832,1448.1 9.707376,47.091528,1451.7 9.707018,47.091448,1453.7 9.706504,47.091466,1456.4 9.706394,47.091438,1457.0 9.70617,47.091272,1458.6 9.706064,47.09124,1459.1 9.705929,47.091265,1459.7 9.705528,47.091441,1461.4 9.705416,47.091464,1461.7 9.705307,47.091468,1461.9 9.705004,47.091376,1462.5 9.704835,47.091189,1462.6 9.705004,47.091376,1462.5 9.705307,47.091468,1461.9 9.705416,47.091464,1461.7 9.705528,47.091441,1461.4 9.705929,47.091265,1459.7 9.706064,47.09124,1459.1 9.70617,47.091272,1458.6 9.706394,47.091438,1457.0 9.706504,47.091466,1456.4 9.707018,47.091448,1453.7 9.707376,47.091528,1451.7 9.707901,47.091832,1448.1 9.708832,47.092246,1442.5 9.709696,47.09282,1436.8 9.710366,47.09311,1433.3 9.710596,47.093237,1432.1 9.711216,47.093656,1428.8 9.711759,47.093816,1426.5 9.71266,47.093968,1422.4 9.713023,47.094056,1420.4 9.713118,47.094096,1419.8 9.713577,47.094054,1417.1 9.713968,47.094056,1414.4 9.714611,47.094197,1409.0 9.715032,47.094221,1405.1 9.715401,47.094355,1400.9 9.715608,47.094383,1398.7 9.715817,47.094379,1396.5 9.71601,47.094417,1394.5 9.716029,47.094421,1394.3 9.716192,47.094498,1392.4 9.716448,47.094487,1390.0 9.716455,47.094487,1389.9 9.717075,47.094575,1383.6 9.717146,47.094622,1382.6 9.717135,47.094701,1381.5 9.717036,47.094765,1380.1 9.716952,47.094786,1379.2 9.716747,47.094835,1377.1 9.71659,47.094916,1375.2 9.716424,47.095022,1373.1 9.716345,47.095108,1371.7 9.716464,47.095372,1368.4 9.716478,47.09565,1365.2 9.716423,47.095791,1363.4 9.716435,47.095844,1362.8 9.716523,47.095897,1361.7 9.71735,47.096143,1354.3 9.717357,47.096145,1354.3 9.717725,47.096163,1351.6 9.717962,47.096174,1350.0 9.718539,47.096098,1346.1 9.71885,47.096035,1343.9 9.719055,47.09603,1342.5 9.719528,47.096182,1339.1 9.719801,47.09631,1336.9 9.720033,47.096647,1333.0 9.720123,47.097017,1329.1 9.720226,47.097213,1326.9 9.720405,47.097456,1324.0 9.720666,47.097586,1321.5 9.720809,47.097622,1320.3 9.721174,47.097578,1317.3 9.721209,47.097572,1317.0 9.721723,47.097376,1312.3 9.721946,47.097339,1310.6 9.722237,47.097377,1308.4 9.722331,47.097392,1307.7 9.722456,47.097454,1306.5 9.722545,47.097566,1304.9 9.722549,47.098082,1297.1 9.722618,47.098163,1295.8 9.722695,47.098202,1295.0 9.723652,47.098373,1285.0 9.723875,47.098379,1282.2 9.723998,47.098394,1280.7 9.724194,47.098467,1277.7 9.72435,47.098523,1275.2 9.724787,47.098538,1269.0 9.725015,47.098654,1265.0 9.725301,47.098739,1260.6 9.725788,47.098781,1253.8 9.726128,47.098851,1248.3 9.726304,47.098866,1245.6 9.726703,47.098796,1239.3 9.728336,47.098403,1214.7 9.728914,47.098131,1205.9 9.729331,47.097952,1200.2 9.729461,47.097918,1198.7 9.729608,47.097906,1197.1 9.729775,47.097929,1195.2 9.72984,47.097938,1194.5 9.730001,47.098059,1192.0 9.730087,47.098245,1189.0 9.730142,47.098285,1188.1 9.730207,47.098289,1187.5 9.730269,47.098256,1186.7 9.730289,47.098113,1184.8 9.730268,47.097926,1182.3 9.730233,47.097746,1180.0 9.730092,47.097541,1177.2 9.730111,47.097482,1176.4 9.730176,47.097465,1175.8 9.730294,47.097493,1174.8 9.73055,47.097645,1171.9 9.730685,47.097792,1169.5 9.731083,47.098529,1158.4 9.731279,47.098642,1156.0 9.731454,47.098667,1154.2 9.731593,47.09863,1152.6 9.731677,47.098504,1150.4 9.731691,47.098258,1146.2 9.731426,47.098032,1140.7 9.73144,47.097918,1138.3 9.731472,47.097828,1136.5 9.731989,47.097448,1127.4 9.732045,47.097407,1126.6 9.732115,47.097259,1124.3 9.732102,47.09715,1122.8 9.731925,47.096877,1118.9 9.731862,47.09656,1113.9 9.731654,47.096438,1111.0 9.731645,47.096433,1110.8 9.731377,47.096322,1107.4 9.731322,47.096269,1106.5 9.731313,47.096197,1105.4 9.731393,47.096126,1104.2 9.731461,47.09612,1103.4 9.731759,47.096212,1100.3 9.732116,47.096277,1096.7 9.732495,47.096294,1092.7 9.733301,47.096336,1082.2 9.733424,47.096375,1080.8 9.733529,47.096427,1079.4 9.733996,47.096816,1072.7 9.73418,47.096922,1070.7 9.734354,47.097109,1068.2 9.734498,47.097354,1065.5 9.734985,47.097697,1061.8 9.735095,47.097851,1060.7 9.735144,47.09787,1060.5 9.735151,47.097843,1060.4 9.735218,47.097655,1059.5</coordinates>
                </LineString>
            </MultiGeometry>
        </Placemark>
        <Placemark id="6441">
            <name>Brand Mountain Lodge</name>
            <Point id="6440">
                <coordinates>9.735271,47.097664,0</coordinates>
            </Point>
        </Placemark>
        <Placemark id="6443">
            <name>Glingabrunn Waterfalls</name>
            <Point id="6442">
                <coordinates>9.729697,47.096177,1158.3</coordinates>
            </Point>
        </Placemark>
        <Placemark id="6445">
            <name>Zalimscharte</name>
            <Point id="6444">
                <coordinates>9.717722,47.096189,1396.6</coordinates>
            </Point>
        </Placemark>
        <Placemark id="6447">
            <name>Untere Brüggele Alpe</name>
            <Point id="6446">
                <coordinates>9.704808,47.091205,1448.4</coordinates>
            </Point>
        </Placemark>
    </Document>
</kml>
