<?xml version="1.0" encoding="UTF-8"?>
<gpx xmlns="http://www.topografix.com/GPX/1/1" xmlns:xsi="http://www.w3.org/2001/XMLSchema-instance" xsi:schemaLocation="http://www.topografix.com/GPX/1/1 http://www.topografix.com/GPX/1/1/gpx.xsd" version="1.1" creator="Robert Kampf">
  <metadata>
    <name>Allee zum Jagdschloss Grünau – Allee zum Jagdschloss Grünau Runde von Rohrenfeld Rf</name>
    <desc>Distance: 4.547km, Estimated duration: 1.15h, Elevation up: 9.262304092420493m, Elevation down: 9.242122604918904m, Grade: easy</desc>
    <author>
      <name>Robert Kampf</name>
      <link href="https://www.komoot.de/user/4125295338453">
        <text>View Robert Kampf's Profile on Komoot</text>
      </link>
    </author>
    <link href="https://www.komoot.de/tour/3051909090">
      <text>View tour on Komoot</text>
    </link>
  </metadata>
  <wpt lat="48.726437" lon="11.274616">
    <name>Gut Rohrenfeld</name>
    <cmt></cmt>
    <desc></desc>
    <src>Komoot</src>
    <type>POI</type>
  </wpt>
  <wpt lat="48.726462" lon="11.2742">
    <ele>421.5</ele>
    <name>Chapel of the Holy Communion at Gut Rohrenfeld</name>
    <cmt>https://d2exd72xrrp1s7.cloudfront.net/www/000/1k5/v8/v8ym2ozmixu41txdo1190tatd40zc51y6-uhi45528448/0</cmt>
    <desc>Börnie: Die kleine Kapelle fügt sich sehr schön in das Gesamtbild des Gutes Rohrenfeld ein.
――――――――――
Gitte 💠: Eine schöne Kapelle mit schlankem Türmchen steht bei dem schönen Gut Rohrenfeld.
――――――――――
Monal: Kl schöne Kapelle  g
――――――――――
Andi: Nette kleine Kapelle am Donauradweg.
――――――――――
M_Winter: Frage 5</desc>
    <src>Komoot</src>
    <link href="https://www.komoot.de/highlight/3134405">
      <text>View POI on Komoot</text>
    </link>
    <type>Highlight</type>
  </wpt>
  <wpt lat="48.740623" lon="11.270236">
    <ele>429</ele>
    <name>Lake in the Auwald Forest</name>
    <cmt>https://d2exd72xrrp1s7.cloudfront.net/www/000/1k3/d5/d5y89b2867ipyel8qsnotmlv2xudl85d-uhi5399557/0</cmt>
    <desc>Rombea: Toller Platz um Vögel zu beobachten, immer wieder gibt es kleine Teiche oder Seen im Auwald.</desc>
    <src>Komoot</src>
    <link href="https://www.komoot.de/highlight/728654">
      <text>View POI on Komoot</text>
    </link>
    <type>Highlight</type>
  </wpt>
  <wpt lat="48.736347" lon="11.265525">
    <ele>375.9</ele>
    <name>Avenue to Grünau Hunting Lodge</name>
    <cmt>https://d2exd72xrrp1s7.cloudfront.net/www/000/1k4/l8/l8g04sp1rjy7ov4m8livvgpt3dq2l3b9-uhi13585232/0</cmt>
    <desc>maggl: Schöne Allee die direkt zum Jagdschloss Grünau führt.
――――――――――
Mo: Tolle Allee bei jeder Jahreszeit.
――――――――――
JakobusPilger: Da kann ich nicht widerstehen und muss mal eben den unvergleichlichen Humoristen Heinz Erhardt (1909 – 1979), der einem breiten Publikum für seinen Wortwitz und „Noch'n Gedicht“ bekannt war, mit einem kurzen Vierzeiler zitieren:
"Bäume, Bäume, nichts als Bäume,
und dazwischen - Zwischenräume.
Doch dahinter, man glaubt es kaum:
Noch'n Baum!"
(H.Erhardt)
――――――――――
Börnie: Zu jeder Jahreszeit empfehlenswert.</desc>
    <src>Komoot</src>
    <link href="https://www.komoot.de/highlight/1425488">
      <text>View POI on Komoot</text>
    </link>
    <type>Highlight</type>
  </wpt>
  <wpt lat="48.733152" lon="11.267931">
    <ele>419.7</ele>
    <name>Avenue to Grünau Hunting Lodge</name>
    <cmt>https://d2exd72xrrp1s7.cloudfront.net/www/000/1k4/pl/pl68crcdb0951evlcrclchji73h7twbsy-uhi19867038/0</cmt>
    <desc>Mo: Tolle Allee in Richtung Jagdschloss Grünau.
――――――――――
Winfried: Eine schattige Allee, wie für Radler gemacht 😉
――――――――――
Arthur: Alter Wasserturm, Schloss Grünau
――――――――――
Luca: Eine schöne Allee fürs Fahrrad, Gravelbike oder zu Fuß
――――――――――
JC_MOT: Toller Abschnitt mit schönem Blick auf das Schloss Grünau.
――――――――――
Günther🦎: Ein sehr schöner Radweg 
――――――――――
Andi R.    ⚠️🚴🏻‍♂️: Sehr schöner Radweg zwischen Neuburg und Ingolstadt.
――――――――――
JC_MOT: Schöne Gegend mit tollen Highlights.
――――――――――
Roland: Sehr gute Anfahrt mit herlichen Blick
――――――――――
Klaus-S: Schloß Grünau lohnt einen Blick
――――――――――
Monal: Sehr schöne Allee toll
――――――――――
Helga: Sehr schöne Strecke mit verschiedenen Eindrücken die auf einem Einwirken.... die Ruhe...die Allee entlang radeln mit Blick auf das Schloß.
――――――――――
Marie-Louise: Very fine gravel - also rideable by road bike
――――――――――
🚲 Klaus 🛶 🥾: Eine Gaudi die man sich nicht entgehen lassen sollte</desc>
    <src>Komoot</src>
    <link href="https://www.komoot.de/highlight/2462898">
      <text>View POI on Komoot</text>
    </link>
    <type>Highlight</type>
  </wpt>
  <wpt lat="48.73342" lon="11.268958">
    <ele>379.3</ele>
    <name>Stone Bridge Over the Zeller Canal</name>
    <cmt>https://d2exd72xrrp1s7.cloudfront.net/www/000/1k6/1n/1nswhjvpdh8571a1121l8d8ypu43b947qv-uhi47175030/0</cmt>
    <desc>Lomanfu: Normalerweise ganz versteckt und abseits der herrlichen Allee zwischen Jagdschloss Grünau und Gut Rohrenfeld liegt diese kleine Brücke über den Zeller Kanal. Der Bauform nach schätze ich ihren Ursprung im 19. Jahrhundert. Die Erbauer haben hier offensichtlich sehr gute Arbeit bei der Fundamentierung geleistet, wenn man bedenkt, dass die Brücke in ehemaligem Moorboden steht - die nicht weit entfernte Brücke der Allee wurde dagegen schon mindestens einmal in den letzten 100 Jahren erneuert. </desc>
    <src>Komoot</src>
    <link href="https://www.komoot.de/highlight/4151477">
      <text>View POI on Komoot</text>
    </link>
    <type>Highlight</type>
  </wpt>
  <wpt lat="48.726652" lon="11.273623">
    <ele>359.7</ele>
    <name>Gut Rohrenfeld</name>
    <cmt>https://d2exd72xrrp1s7.cloudfront.net/www/000/1k5/15/15hbrcfs66iuk1vc7if50rpnb83p43cf68-uhi29879918/0</cmt>
    <desc>Winfried: Wunderschöne und gut erhaltene Agrargebäude.
――――――――――
Turbo: Im Sommer auch sehr schön mit dem Rad zu besuchen.
――――――――――
Turbo: Im Sommer auch sehr schön mit dem Rad zu besuchen. Kastanienbäume spenden Schatten und herrliche Ruhe auf dem Land ausserdem gibt es hier ein Geschäft " WIld auf Wild " habe es leider noch nicht besucht , werde dies aber ganz bestimmt nachholen , bzw. dort einkaufen und mir schmecken lassen. ( bin gespannt ).........versucht es doch auch ! schöne Grüße
――――――――――
Günther🦎: Sehr schön 
――――――――――
Andi: Sehr ruhige Lage in Rohrenfeld.
――――――――――
Börnie: Abgelegenes Gut in der Nähe des Jagdschlosses. Wenig Verkehr, ideal zum Wandern.
――――――――――
Andi: Einer von unzähligen Wegweisern am Donauradweg der aus meiner Sicht hervorragend beschildert ist.
――――――――――
🚲 Klaus 🛶 🥾: Hier gibt es Wild aus dem Automaten... lecker Lecker</desc>
    <src>Komoot</src>
    <link href="https://www.komoot.de/highlight/2926721">
      <text>View POI on Komoot</text>
    </link>
    <type>Highlight</type>
  </wpt>
  <trk>
    <name>Allee zum Jagdschloss Grünau – Allee zum Jagdschloss Grünau Runde von Rohrenfeld Rf</name>
    <desc>Distance: 4.547km, Estimated duration: 1.15h, Elevation up: 9.262304092420493m, Elevation down: 9.242122604918904m, Grade: easy</desc>
    <link href="https://www.komoot.de/tour/3051909090">
      <text>View tour on Komoot</text>
    </link>
    <trkseg>
      <trkpt lat="48.726437" lon="11.274616">
        <ele>378.2</ele>
        <time>2026-06-20T12:35:46.268000Z</time>
      </trkpt>
      <trkpt lat="48.726463" lon="11.27424">
        <ele>378</ele>
        <time>2026-06-20T12:36:11.683000Z</time>
      </trkpt>
      <trkpt lat="48.726637" lon="11.274307">
        <ele>377.9</ele>
        <time>2026-06-20T12:36:29.971000Z</time>
      </trkpt>
      <trkpt lat="48.727335" lon="11.274634">
        <ele>377.1</ele>
        <time>2026-06-20T12:37:44.619000Z</time>
      </trkpt>
      <trkpt lat="48.727383" lon="11.274658">
        <ele>377.1</ele>
        <time>2026-06-20T12:37:49.821000Z</time>
      </trkpt>
      <trkpt lat="48.72789" lon="11.274908">
        <ele>376.3</ele>
        <time>2026-06-20T12:38:44.839000Z</time>
      </trkpt>
      <trkpt lat="48.728126" lon="11.274995">
        <ele>376</ele>
        <time>2026-06-20T12:39:09.737000Z</time>
      </trkpt>
      <trkpt lat="48.728596" lon="11.275026">
        <ele>375.5</ele>
        <time>2026-06-20T12:39:57.728000Z</time>
      </trkpt>
      <trkpt lat="48.728709" lon="11.275063">
        <ele>375.4</ele>
        <time>2026-06-20T12:40:09.511000Z</time>
      </trkpt>
      <trkpt lat="48.728921" lon="11.275211">
        <ele>375.3</ele>
        <time>2026-06-20T12:40:33.186000Z</time>
      </trkpt>
      <trkpt lat="48.729892" lon="11.276348">
        <ele>374.8</ele>
        <time>2026-06-20T12:42:36.897000Z</time>
      </trkpt>
      <trkpt lat="48.730903" lon="11.277403">
        <ele>374.9</ele>
        <time>2026-06-20T12:44:40.249000Z</time>
      </trkpt>
      <trkpt lat="48.731034" lon="11.27745">
        <ele>374.9</ele>
        <time>2026-06-20T12:44:53.685000Z</time>
      </trkpt>
      <trkpt lat="48.731215" lon="11.277444">
        <ele>374.9</ele>
        <time>2026-06-20T12:45:11.862000Z</time>
      </trkpt>
      <trkpt lat="48.731346" lon="11.277432">
        <ele>374.9</ele>
        <time>2026-06-20T12:45:25.024000Z</time>
      </trkpt>
      <trkpt lat="48.731455" lon="11.277206">
        <ele>374.9</ele>
        <time>2026-06-20T12:45:43.548000Z</time>
      </trkpt>
      <trkpt lat="48.731633" lon="11.27692">
        <ele>374.8</ele>
        <time>2026-06-20T12:46:09.563000Z</time>
      </trkpt>
      <trkpt lat="48.732234" lon="11.276303">
        <ele>374.7</ele>
        <time>2026-06-20T12:47:22.599000Z</time>
      </trkpt>
      <trkpt lat="48.73258" lon="11.276124">
        <ele>374.5</ele>
        <time>2026-06-20T12:47:59.598000Z</time>
      </trkpt>
      <trkpt lat="48.732917" lon="11.276077">
        <ele>374.2</ele>
        <time>2026-06-20T12:48:34.010000Z</time>
      </trkpt>
      <trkpt lat="48.733156" lon="11.276067">
        <ele>374</ele>
        <time>2026-06-20T12:48:58.362000Z</time>
      </trkpt>
      <trkpt lat="48.733777" lon="11.275783">
        <ele>373.3</ele>
        <time>2026-06-20T12:50:04.767000Z</time>
      </trkpt>
      <trkpt lat="48.734003" lon="11.275733">
        <ele>373</ele>
        <time>2026-06-20T12:50:28.221000Z</time>
      </trkpt>
      <trkpt lat="48.734126" lon="11.275755">
        <ele>372.8</ele>
        <time>2026-06-20T12:50:41.014000Z</time>
      </trkpt>
      <trkpt lat="48.734901" lon="11.276069">
        <ele>372.3</ele>
        <time>2026-06-20T12:52:02.514000Z</time>
      </trkpt>
      <trkpt lat="48.735513" lon="11.276189">
        <ele>372.5</ele>
        <time>2026-06-20T12:53:05.122000Z</time>
      </trkpt>
      <trkpt lat="48.735927" lon="11.2762">
        <ele>372.8</ele>
        <time>2026-06-20T12:53:47.432000Z</time>
      </trkpt>
      <trkpt lat="48.736194" lon="11.27616">
        <ele>372.9</ele>
        <time>2026-06-20T12:54:14.838000Z</time>
      </trkpt>
      <trkpt lat="48.736364" lon="11.276068">
        <ele>373</ele>
        <time>2026-06-20T12:54:33.141000Z</time>
      </trkpt>
      <trkpt lat="48.736563" lon="11.275967">
        <ele>373</ele>
        <time>2026-06-20T12:54:54.277000Z</time>
      </trkpt>
      <trkpt lat="48.737213" lon="11.275811">
        <ele>373</ele>
        <time>2026-06-20T12:56:00.324000Z</time>
      </trkpt>
      <trkpt lat="48.737604" lon="11.275803">
        <ele>372.8</ele>
        <time>2026-06-20T12:56:39.775000Z</time>
      </trkpt>
      <trkpt lat="48.737802" lon="11.275712">
        <ele>372.8</ele>
        <time>2026-06-20T12:57:00.613000Z</time>
      </trkpt>
      <trkpt lat="48.738047" lon="11.275429">
        <ele>372.7</ele>
        <time>2026-06-20T12:57:31.521000Z</time>
      </trkpt>
      <trkpt lat="48.738319" lon="11.274965">
        <ele>372.8</ele>
        <time>2026-06-20T12:58:12.611000Z</time>
      </trkpt>
      <trkpt lat="48.738462" lon="11.274574">
        <ele>372.8</ele>
        <time>2026-06-20T12:58:42.364000Z</time>
      </trkpt>
      <trkpt lat="48.738548" lon="11.274186">
        <ele>372.9</ele>
        <time>2026-06-20T12:59:09.631000Z</time>
      </trkpt>
      <trkpt lat="48.738596" lon="11.273847">
        <ele>372.9</ele>
        <time>2026-06-20T12:59:32.622000Z</time>
      </trkpt>
      <trkpt lat="48.738629" lon="11.273122">
        <ele>372.9</ele>
        <time>2026-06-20T13:00:20.622000Z</time>
      </trkpt>
      <trkpt lat="48.738687" lon="11.273024">
        <ele>372.9</ele>
        <time>2026-06-20T13:00:29.356000Z</time>
      </trkpt>
      <trkpt lat="48.738762" lon="11.272975">
        <ele>372.9</ele>
        <time>2026-06-20T13:00:37.579000Z</time>
      </trkpt>
      <trkpt lat="48.738834" lon="11.272989">
        <ele>372.9</ele>
        <time>2026-06-20T13:00:44.859000Z</time>
      </trkpt>
      <trkpt lat="48.739098" lon="11.273217">
        <ele>372.8</ele>
        <time>2026-06-20T13:01:15.525000Z</time>
      </trkpt>
      <trkpt lat="48.73915" lon="11.273217">
        <ele>372.7</ele>
        <time>2026-06-20T13:01:20.818000Z</time>
      </trkpt>
      <trkpt lat="48.739407" lon="11.273024">
        <ele>372.6</ele>
        <time>2026-06-20T13:01:49.777000Z</time>
      </trkpt>
      <trkpt lat="48.739523" lon="11.273008">
        <ele>372.5</ele>
        <time>2026-06-20T13:02:01.579000Z</time>
      </trkpt>
      <trkpt lat="48.739926" lon="11.273228">
        <ele>372.3</ele>
        <time>2026-06-20T13:02:44.901000Z</time>
      </trkpt>
      <trkpt lat="48.740043" lon="11.273236">
        <ele>372.3</ele>
        <time>2026-06-20T13:02:56.785000Z</time>
      </trkpt>
      <trkpt lat="48.740106" lon="11.273275">
        <ele>372.2</ele>
        <time>2026-06-20T13:03:03.579000Z</time>
      </trkpt>
      <trkpt lat="48.740282" lon="11.273552">
        <ele>372.2</ele>
        <time>2026-06-20T13:03:29.129000Z</time>
      </trkpt>
      <trkpt lat="48.740364" lon="11.273636">
        <ele>372.1</ele>
        <time>2026-06-20T13:03:39.070000Z</time>
      </trkpt>
      <trkpt lat="48.740707" lon="11.273792">
        <ele>372.1</ele>
        <time>2026-06-20T13:04:15Z</time>
      </trkpt>
      <trkpt lat="48.741059" lon="11.274112">
        <ele>372.1</ele>
        <time>2026-06-20T13:04:56.094000Z</time>
      </trkpt>
      <trkpt lat="48.741098" lon="11.273851">
        <ele>372</ele>
        <time>2026-06-20T13:05:13.823000Z</time>
      </trkpt>
      <trkpt lat="48.741394" lon="11.272844">
        <ele>371.6</ele>
        <time>2026-06-20T13:06:27.575000Z</time>
      </trkpt>
      <trkpt lat="48.741464" lon="11.272277">
        <ele>371.3</ele>
        <time>2026-06-20T13:07:06.138000Z</time>
      </trkpt>
      <trkpt lat="48.741248" lon="11.271782">
        <ele>371.2</ele>
        <time>2026-06-20T13:07:45.674000Z</time>
      </trkpt>
      <trkpt lat="48.741138" lon="11.271712">
        <ele>371.1</ele>
        <time>2026-06-20T13:07:57.693000Z</time>
      </trkpt>
      <trkpt lat="48.740817" lon="11.271644">
        <ele>371</ele>
        <time>2026-06-20T13:08:30.396000Z</time>
      </trkpt>
      <trkpt lat="48.74065" lon="11.271574">
        <ele>371</ele>
        <time>2026-06-20T13:08:47.793000Z</time>
      </trkpt>
      <trkpt lat="48.740399" lon="11.271541">
        <ele>371</ele>
        <time>2026-06-20T13:09:12.963000Z</time>
      </trkpt>
      <trkpt lat="48.740273" lon="11.271475">
        <ele>371.1</ele>
        <time>2026-06-20T13:09:26.464000Z</time>
      </trkpt>
      <trkpt lat="48.740189" lon="11.271348">
        <ele>371.1</ele>
        <time>2026-06-20T13:09:38.481000Z</time>
      </trkpt>
      <trkpt lat="48.7401" lon="11.270975">
        <ele>371.1</ele>
        <time>2026-06-20T13:10:04.708000Z</time>
      </trkpt>
      <trkpt lat="48.74011" lon="11.270745">
        <ele>371.1</ele>
        <time>2026-06-20T13:10:20.007000Z</time>
      </trkpt>
      <trkpt lat="48.740293" lon="11.27019">
        <ele>371.3</ele>
        <time>2026-06-20T13:11:01.698000Z</time>
      </trkpt>
      <trkpt lat="48.740329" lon="11.269953">
        <ele>371.4</ele>
        <time>2026-06-20T13:11:18.050000Z</time>
      </trkpt>
      <trkpt lat="48.740368" lon="11.269958">
        <ele>371.4</ele>
        <time>2026-06-20T13:11:22.005000Z</time>
      </trkpt>
      <trkpt lat="48.740549" lon="11.270155">
        <ele>371.6</ele>
        <time>2026-06-20T13:11:44.754000Z</time>
      </trkpt>
      <trkpt lat="48.740621" lon="11.270108">
        <ele>371.6</ele>
        <time>2026-06-20T13:11:52.666000Z</time>
      </trkpt>
      <trkpt lat="48.740549" lon="11.270155">
        <ele>371.6</ele>
        <time>2026-06-20T13:12:00.639000Z</time>
      </trkpt>
      <trkpt lat="48.740368" lon="11.269958">
        <ele>371.7</ele>
        <time>2026-06-20T13:12:23.321000Z</time>
      </trkpt>
      <trkpt lat="48.740329" lon="11.269953">
        <ele>371.8</ele>
        <time>2026-06-20T13:12:27.312000Z</time>
      </trkpt>
      <trkpt lat="48.740261" lon="11.269679">
        <ele>371.9</ele>
        <time>2026-06-20T13:12:46.979000Z</time>
      </trkpt>
      <trkpt lat="48.740156" lon="11.26947">
        <ele>371.9</ele>
        <time>2026-06-20T13:13:04.685000Z</time>
      </trkpt>
      <trkpt lat="48.739973" lon="11.269168">
        <ele>372.1</ele>
        <time>2026-06-20T13:13:32.394000Z</time>
      </trkpt>
      <trkpt lat="48.739753" lon="11.268877">
        <ele>372.5</ele>
        <time>2026-06-20T13:14:02.858000Z</time>
      </trkpt>
      <trkpt lat="48.739665" lon="11.268776">
        <ele>372.6</ele>
        <time>2026-06-20T13:14:14.314000Z</time>
      </trkpt>
      <trkpt lat="48.739187" lon="11.268464">
        <ele>373</ele>
        <time>2026-06-20T13:15:07.934000Z</time>
      </trkpt>
      <trkpt lat="48.73894" lon="11.268256">
        <ele>373.3</ele>
        <time>2026-06-20T13:15:37.298000Z</time>
      </trkpt>
      <trkpt lat="48.738459" lon="11.268108">
        <ele>374</ele>
        <time>2026-06-20T13:16:28.855000Z</time>
      </trkpt>
      <trkpt lat="48.738331" lon="11.268008">
        <ele>374.3</ele>
        <time>2026-06-20T13:16:44.137000Z</time>
      </trkpt>
      <trkpt lat="48.738252" lon="11.2679">
        <ele>374.5</ele>
        <time>2026-06-20T13:16:55.557000Z</time>
      </trkpt>
      <trkpt lat="48.737976" lon="11.267332">
        <ele>375.3</ele>
        <time>2026-06-20T13:17:45.206000Z</time>
      </trkpt>
      <trkpt lat="48.73782" lon="11.266653">
        <ele>376</ele>
        <time>2026-06-20T13:18:35.048000Z</time>
      </trkpt>
      <trkpt lat="48.737884" lon="11.266402">
        <ele>376.2</ele>
        <time>2026-06-20T13:18:53.525000Z</time>
      </trkpt>
      <trkpt lat="48.738025" lon="11.266024">
        <ele>376.4</ele>
        <time>2026-06-20T13:19:23.052000Z</time>
      </trkpt>
      <trkpt lat="48.738052" lon="11.265822">
        <ele>376.5</ele>
        <time>2026-06-20T13:19:36.877000Z</time>
      </trkpt>
      <trkpt lat="48.737794" lon="11.265735">
        <ele>376.6</ele>
        <time>2026-06-20T13:20:03.676000Z</time>
      </trkpt>
      <trkpt lat="48.737559" lon="11.265602">
        <ele>376.6</ele>
        <time>2026-06-20T13:20:28.789000Z</time>
      </trkpt>
      <trkpt lat="48.737075" lon="11.265034">
        <ele>376.4</ele>
        <time>2026-06-20T13:21:30.416000Z</time>
      </trkpt>
      <trkpt lat="48.736901" lon="11.265028">
        <ele>376.4</ele>
        <time>2026-06-20T13:21:47.855000Z</time>
      </trkpt>
      <trkpt lat="48.736331" lon="11.265481">
        <ele>376.5</ele>
        <time>2026-06-20T13:22:52.475000Z</time>
      </trkpt>
      <trkpt lat="48.733199" lon="11.267967">
        <ele>377.2</ele>
        <time>2026-06-20T13:28:48.748000Z</time>
      </trkpt>
      <trkpt lat="48.733638" lon="11.268621">
        <ele>377.2</ele>
        <time>2026-06-20T13:29:50.489000Z</time>
      </trkpt>
      <trkpt lat="48.733199" lon="11.267967">
        <ele>377.2</ele>
        <time>2026-06-20T13:30:52.109000Z</time>
      </trkpt>
      <trkpt lat="48.727619" lon="11.2723">
        <ele>376.5</ele>
        <time>2026-06-20T13:41:21.001000Z</time>
      </trkpt>
      <trkpt lat="48.727472" lon="11.272689">
        <ele>376.7</ele>
        <time>2026-06-20T13:41:51.143000Z</time>
      </trkpt>
      <trkpt lat="48.726853" lon="11.273341">
        <ele>377.4</ele>
        <time>2026-06-20T13:43:09.003000Z</time>
      </trkpt>
      <trkpt lat="48.726643" lon="11.273607">
        <ele>377.6</ele>
        <time>2026-06-20T13:43:37.362000Z</time>
      </trkpt>
      <trkpt lat="48.726594" lon="11.27367">
        <ele>377.7</ele>
        <time>2026-06-20T13:43:44.011000Z</time>
      </trkpt>
      <trkpt lat="48.726543" lon="11.273809">
        <ele>377.8</ele>
        <time>2026-06-20T13:43:54.912000Z</time>
      </trkpt>
      <trkpt lat="48.726463" lon="11.27424">
        <ele>378.1</ele>
        <time>2026-06-20T13:44:25.459000Z</time>
      </trkpt>
      <trkpt lat="48.726437" lon="11.274616">
        <ele>378.3</ele>
        <time>2026-06-20T13:44:51.107000Z</time>
      </trkpt>
    </trkseg>
  </trk>
</gpx>