<?xml version="1.0" encoding="UTF-8"?>
<gpx xmlns="http://www.topografix.com/GPX/1/1" xmlns:xsi="http://www.w3.org/2001/XMLSchema-instance" xsi:schemaLocation="http://www.topografix.com/GPX/1/1 http://www.topografix.com/GPX/1/1/gpx.xsd" version="1.1" creator="Robert Kampf">
  <metadata>
    <name>Amper bei Geiselbullach – Blick auf den Mühlbach Runde von Olching</name>
    <desc>Distance: 5.164km, Estimated duration: 1.32h, Elevation up: 17.93720703342734m, Elevation down: 17.945281690743286m, Grade: easy</desc>
    <author>
      <name>Robert Kampf</name>
      <link href="https://www.komoot.de/user/4125295338453">
        <text>View Robert Kampf's Profile on Komoot</text>
      </link>
    </author>
    <link href="https://www.komoot.de/tour/2829815535">
      <text>View tour on Komoot</text>
    </link>
  </metadata>
  <wpt lat="48.212621" lon="11.337601">
    <name>Olching, Daxerstraße</name>
    <cmt></cmt>
    <desc>Accessible</desc>
    <src>Komoot</src>
    <type>POI</type>
  </wpt>
  <wpt lat="48.212629" lon="11.337527">
    <ele>557.1</ele>
    <name>Moriskentänzer statue in Olching</name>
    <cmt>https://d2exd72xrrp1s7.cloudfront.net/www/000/1k6/1s/1sm83ltv9xll51wf62h7lw5lit41254g26-uhi45618738/0</cmt>
    <desc>Puffin: 1984 vom "Komitte Faschingszug Olching" gestiftete Figur. Die Figur ist dem Moriskentänzer mit löwenbesetzter Mütze („Zauberer“) von Erasmus Grasser nachempfunden.
――――――――――
Peter: Moriskentänzerskulptur in Olching nach Erasmus Grasser der Zauberer gestiftet vom "Komitte Faschingszug Olching" im Jahr 1984.</desc>
    <src>Komoot</src>
    <link href="https://www.komoot.de/highlight/3833033">
      <text>View POI on Komoot</text>
    </link>
    <type>Highlight</type>
  </wpt>
  <wpt lat="48.21302" lon="11.337774">
    <ele>547</ele>
    <name>Daxerhof Beer Garden</name>
    <cmt>https://d2exd72xrrp1s7.cloudfront.net/www/000/1k6/1i/1is0wj22e2fkhnw5myhjr7ihv4125408i-uhi45618708/0</cmt>
    <desc>Puffin: Hier wird gutes und schmackhaftes Essen zu zivilen Preisen serviert, bei entsprechender Witterung auch im Biergarten</desc>
    <src>Komoot</src>
    <link href="https://www.komoot.de/highlight/3833005">
      <text>View POI on Komoot</text>
    </link>
    <type>Highlight</type>
  </wpt>
  <wpt lat="48.215961" lon="11.338388">
    <ele>11.3</ele>
    <name>Playground on the Amper River</name>
    <cmt>https://d2exd72xrrp1s7.cloudfront.net/www/000/1k3/bx/bxz2kkurfyq01v5zepcqx6atb2zk3pt2l-uhi5983989/0</cmt>
    <desc>Robert: Toller kleiner Spielplatz zum Verweilen.
――――――――――
Knersi (📍Maisach): Für die lieben Kinder genau das Richtige nach dem spazieren an der Amper.  😉🛴⚽</desc>
    <src>Komoot</src>
    <link href="https://www.komoot.de/highlight/790369">
      <text>View POI on Komoot</text>
    </link>
    <type>Highlight</type>
  </wpt>
  <wpt lat="48.222396" lon="11.343943">
    <ele>497.5</ele>
    <name>Golf course on the Amper Trail</name>
    <cmt>https://d2exd72xrrp1s7.cloudfront.net/www/000/1k4/nd/ndmtdrgxg2uk1vw5xd3g2vcwt3cfwt44v-uhi11792971/0</cmt>
    <desc>Apollo831: Markanter Golfplatz entlang des Amper-Wanderwegs am Ufer. Viel Betrieb auch im November, aller Orts bemüht sich ein Golfer mit seinem Schläger den Rasen zu matretieren, den andere aufwändig vorbereitet haben... Landschaftlich ist es zumindest schön anzusehen und immerhin ein Flecken Natur.
――――――――――
RITTER MARTON 🐑 🐿: Schön angelegt
――――――――――
Knersi (📍Maisach): Landschaftlich ist es schön anzusehen. 🌿🌳👍
⛳
――――――――――
Knersi (📍Maisach): Schöner Golfplatz, 
Achtung Golfbälle 😜🙃.
――――――――――
Ralf: Der Golfplatz hat ein überraschende Ausdehnung und sieht sehr gepflegt aus. Leider ist der Radweg in schlechtem Zustand.</desc>
    <src>Komoot</src>
    <link href="https://www.komoot.de/highlight/1259670">
      <text>View POI on Komoot</text>
    </link>
    <type>Highlight</type>
  </wpt>
  <wpt lat="48.224802" lon="11.344302">
    <ele>549.6</ele>
    <name>Amper River near Geiselbullach</name>
    <cmt>https://d2exd72xrrp1s7.cloudfront.net/www/000/1k5/1v/1vdwtrwfpfndtnpg3a8633y6l3rlvqpyz-uhi33015989/0</cmt>
    <desc>Anne FFB: Die Amper mit ihren tollen Trails
――――――――――
Carsten (📍FFB): Es gibt so viel schönen Stellen entlang der Amper.
――――――――――
Babsi🚴MUC: Wunderschön, an der Amper entlang.... tolle Wege und nette Brücken🤩👍
――――――――――
Knersi (📍Maisach): So schöne und viele Wege an der Amper.
――――――――――
Rhodan59: Vom Weg entlang der Amper sieht man durch das Tor in der Mauer Schloß Geiselbullach. Leider heute in Privatbesitz und nicht zu besichtigen.
Und jetzt der Eintrag aus Wiki:
Bayerns Kurfürst Max Emanuel überließ seinem Hofkammerrat Johann Adam Geisler 1724 ein großes Areal in der Flur am „Buelach“ (gemeint ist vermutlich ein Buchenwald) in der Nähe der Amper zur Bewirtschaftung und verlieh ihm zudem das Adelsprädikat von Geiselbullach. Geisler erbaute dort ein Schloss mit eingefriedetem Park, eine große Kapelle zu Ehren des Hl. Johannes Nepomuk sowie Häuser für abhängige „Gütler“ und Handwerker. Häufig wechselnden Nachfolgern fehlte wohl das Geschick für die Wirtschaftsführung des Gutes. Erst der aus Udine stammende Kaufmann Alois Sabbadini scheint das nötige wirtschaftliche Gespür besessen zu haben. Unter seiner Zeit entstand 1816 der Turm zu der Kapelle, die ein früherer Schlossbesitzer, der Hofmaler Johann Adam von Schöpf, in feinstem Rokoko ausgemalt hatte. 1891 kaufte Adolf Scheller das Schloss, das 1894 ausbrannte. 1895 erfolgte die Errichtung des heutigen Schlosses. 1918 erwarb die aus Ungarn stammende Familie Raadts das Schloßgut. Ernst Raadts machte daraus einen Musterbetrieb. 1947 wurde er im Übrigen Landrat des Landkreises Fürstenfeldbruck. Besitzer des Schlosses ist seit 1964 die Familie Stürzer, die das Anwesen aufwendig restauriert hat. Die ehemalige Schlosskapelle St. Johann Nepomuk gehört inzwischen der Stadt Olching und wurde 2017 renoviert.[1]
――――――――――
HamiHH: Die Amper ist ein Fluss im bayerischen Alpenvorland und bildet zusammen mit der Ammer ein zusammenhängendes Flusssystem. Dabei bezeichnet der Name Ammer den Oberlauf bis zum Ammersee, der Name Amper den Abschnitt vom Seeausfluss bis zur Mündung in die Isar bei Moosburg.
Quelle: Wikipedia
――――――――――
Carsten (📍FFB): Auch hier ein schöner Platz an der Amper.
――――――――――
Knersi (📍Maisach): Viele schöne Wege entlang der Amper. 🌿👍
――――――――――
Rolf: lEnnpfehlenswert ist am Umkehrpunkt in Fürstenfeldbruck der "Grieche " Poseidon.
――――――――――
Monal: Schöne idyllische Amper, toller Weg
――――――――――
Robert: Tolle Wanderwege entlang der Amper  !
――――――――――
Monal: Schöne idyllischer Fluss,  ideal zum spazieren gehen
――――――――――
Knersi (📍Maisach): Entlang der Amper gibt es jede Menge zu entdecken.
――――――――――
PfalzGraveller: Wunderschöner Weg entlang der Amper.</desc>
    <src>Komoot</src>
    <link href="https://www.komoot.de/highlight/1663411">
      <text>View POI on Komoot</text>
    </link>
    <type>Highlight</type>
  </wpt>
  <wpt lat="48.222141" lon="11.341477">
    <ele>548</ele>
    <name>Amper River</name>
    <cmt>https://d2exd72xrrp1s7.cloudfront.net/www/000/1k6/14/14lckbv8n85g61k4hvoqz2oyxj4ee9ukcq-uhi56644725/0</cmt>
    <desc>RITTER MARTON 🐑 🐿: schöner Weg
――――――――――
Knersi (📍Maisach): Immer wieder schön am Fluss entlang. 🌿👍</desc>
    <src>Komoot</src>
    <link href="https://www.komoot.de/highlight/2620991">
      <text>View POI on Komoot</text>
    </link>
    <type>Highlight</type>
  </wpt>
  <wpt lat="48.215397" lon="11.334055">
    <ele>503</ele>
    <name>View of the Amper River</name>
    <cmt>https://d2exd72xrrp1s7.cloudfront.net/www/000/1k5/bx/bxkd92qmy3m6b73kj0nkxtqo3x4ik260-uhi41926882/0</cmt>
    <desc>Knersi (📍Maisach): Direkt an der Amper entlang.
 👍😁🌿🍄🌳📸</desc>
    <src>Komoot</src>
    <link href="https://www.komoot.de/highlight/3817188">
      <text>View POI on Komoot</text>
    </link>
    <type>Highlight</type>
  </wpt>
  <wpt lat="48.214955" lon="11.335433">
    <ele>518.8</ele>
    <name>View of the Mühlbach</name>
    <cmt>https://d2exd72xrrp1s7.cloudfront.net/www/000/1k5/rn/rnz64w61l03iqz6y2z2iizd23o8n0cba-uhi28797076/0</cmt>
    <desc>Carsten (📍FFB): Kurzer Blick und weiter geht's.😉
Achtung. Wer die Brücke nicht nimmt und auf den Weg bleibt kommt später nicht mehr weiter.
Daher von FFB kommend hier die Seite wechseln.
Es sind auch Schilder da.👍
――――――――――
Knersi (📍Maisach): Schöner Blick auf den Mühlbach-Amper-Kanal.
――――――――――
Markus: Ein wirklich schönes Fleckchen
――――――――――
FatmodulAnt🖤: Schöner Weg
――――――――――
Markus: Schöner Platz in toller Umgebung
――――――――――
RITTER MARTON 🐑 🐿: schöner Blick auf das Wehr
――――――――――
RITTER MARTON 🐑 🐿: Schöne Holzbrücke
――――――――――
Puffin: Brücke mit schönem Blick auf den Mühlbach, der auch als Amper Kanal bezeichnet wird
――――――――――
valdez: Mühlbachsteg ab 10/2025 gesperrt.
https://www.olching.de/politik-and-service/aktuelles/sperrung-muehlbachsteg

Aktualisierung 21.04.2026
... der neue Steg könne erst nächstes Jahr gebaut werden ...
https://www.sueddeutsche.de/muenchen/fuerstenfeldbruck/olching-muehlbachsteg-neubau-fussgaenger-radler-li.3465497
</desc>
    <src>Komoot</src>
    <link href="https://www.komoot.de/highlight/3420189">
      <text>View POI on Komoot</text>
    </link>
    <type>Highlight</type>
  </wpt>
  <trk>
    <name>Amper bei Geiselbullach – Blick auf den Mühlbach Runde von Olching</name>
    <desc>Distance: 5.164km, Estimated duration: 1.32h, Elevation up: 17.93720703342734m, Elevation down: 17.945281690743286m, Grade: easy</desc>
    <link href="https://www.komoot.de/tour/2829815535">
      <text>View tour on Komoot</text>
    </link>
    <trkseg>
      <trkpt lat="48.212621" lon="11.337601">
        <ele>503.6</ele>
        <time>2026-03-16T08:59:10.909000Z</time>
      </trkpt>
      <trkpt lat="48.212602" lon="11.337549">
        <ele>503.6</ele>
        <time>2026-03-16T08:59:14.867000Z</time>
      </trkpt>
      <trkpt lat="48.212621" lon="11.337601">
        <ele>503.6</ele>
        <time>2026-03-16T08:59:18.844000Z</time>
      </trkpt>
      <trkpt lat="48.212696" lon="11.337806">
        <ele>503.6</ele>
        <time>2026-03-16T08:59:34.439000Z</time>
      </trkpt>
      <trkpt lat="48.212747" lon="11.337868">
        <ele>503.6</ele>
        <time>2026-03-16T08:59:41.030000Z</time>
      </trkpt>
      <trkpt lat="48.212798" lon="11.337866">
        <ele>503.6</ele>
        <time>2026-03-16T08:59:46.178000Z</time>
      </trkpt>
      <trkpt lat="48.212972" lon="11.337676">
        <ele>503.5</ele>
        <time>2026-03-16T09:00:07.891000Z</time>
      </trkpt>
      <trkpt lat="48.213492" lon="11.337105">
        <ele>502.8</ele>
        <time>2026-03-16T09:01:13.846000Z</time>
      </trkpt>
      <trkpt lat="48.213652" lon="11.336919">
        <ele>502.5</ele>
        <time>2026-03-16T09:01:34.719000Z</time>
      </trkpt>
      <trkpt lat="48.214098" lon="11.336411">
        <ele>501.7</ele>
        <time>2026-03-16T09:02:32.267000Z</time>
      </trkpt>
      <trkpt lat="48.214141" lon="11.336448">
        <ele>501.7</ele>
        <time>2026-03-16T09:02:37.276000Z</time>
      </trkpt>
      <trkpt lat="48.214199" lon="11.336426">
        <ele>501.6</ele>
        <time>2026-03-16T09:02:43.449000Z</time>
      </trkpt>
      <trkpt lat="48.214411" lon="11.336951">
        <ele>501.1</ele>
        <time>2026-03-16T09:03:25.471000Z</time>
      </trkpt>
      <trkpt lat="48.21442" lon="11.336976">
        <ele>501</ele>
        <time>2026-03-16T09:03:27.462000Z</time>
      </trkpt>
      <trkpt lat="48.214499" lon="11.337195">
        <ele>500.8</ele>
        <time>2026-03-16T09:03:44.513000Z</time>
      </trkpt>
      <trkpt lat="48.214649" lon="11.337494">
        <ele>500.6</ele>
        <time>2026-03-16T09:04:10.027000Z</time>
      </trkpt>
      <trkpt lat="48.214903" lon="11.338003">
        <ele>500.2</ele>
        <time>2026-03-16T09:04:53.215000Z</time>
      </trkpt>
      <trkpt lat="48.215009" lon="11.33819">
        <ele>500</ele>
        <time>2026-03-16T09:05:09.913000Z</time>
      </trkpt>
      <trkpt lat="48.215115" lon="11.338261">
        <ele>499.9</ele>
        <time>2026-03-16T09:05:21.759000Z</time>
      </trkpt>
      <trkpt lat="48.215222" lon="11.338332">
        <ele>499.8</ele>
        <time>2026-03-16T09:05:33.748000Z</time>
      </trkpt>
      <trkpt lat="48.215295" lon="11.338415">
        <ele>499.7</ele>
        <time>2026-03-16T09:05:43.136000Z</time>
      </trkpt>
      <trkpt lat="48.215515" lon="11.338191">
        <ele>499.3</ele>
        <time>2026-03-16T09:06:10.567000Z</time>
      </trkpt>
      <trkpt lat="48.215813" lon="11.33785">
        <ele>498.5</ele>
        <time>2026-03-16T09:06:49.583000Z</time>
      </trkpt>
      <trkpt lat="48.215994" lon="11.338361">
        <ele>497.7</ele>
        <time>2026-03-16T09:07:29.781000Z</time>
      </trkpt>
      <trkpt lat="48.216011" lon="11.33841">
        <ele>497.7</ele>
        <time>2026-03-16T09:07:33.631000Z</time>
      </trkpt>
      <trkpt lat="48.216292" lon="11.338991">
        <ele>496.6</ele>
        <time>2026-03-16T09:08:23.653000Z</time>
      </trkpt>
      <trkpt lat="48.216462" lon="11.339134">
        <ele>496.4</ele>
        <time>2026-03-16T09:08:43.766000Z</time>
      </trkpt>
      <trkpt lat="48.216575" lon="11.33935">
        <ele>496.2</ele>
        <time>2026-03-16T09:09:02.480000Z</time>
      </trkpt>
      <trkpt lat="48.216607" lon="11.339623">
        <ele>496</ele>
        <time>2026-03-16T09:09:21.219000Z</time>
      </trkpt>
      <trkpt lat="48.216706" lon="11.339931">
        <ele>496</ele>
        <time>2026-03-16T09:09:44.078000Z</time>
      </trkpt>
      <trkpt lat="48.216808" lon="11.34005">
        <ele>496</ele>
        <time>2026-03-16T09:09:57.065000Z</time>
      </trkpt>
      <trkpt lat="48.217017" lon="11.340549">
        <ele>496.2</ele>
        <time>2026-03-16T09:10:37.032000Z</time>
      </trkpt>
      <trkpt lat="48.217417" lon="11.34131">
        <ele>496.9</ele>
        <time>2026-03-16T09:11:44.176000Z</time>
      </trkpt>
      <trkpt lat="48.217798" lon="11.341919">
        <ele>497.5</ele>
        <time>2026-03-16T09:12:42.133000Z</time>
      </trkpt>
      <trkpt lat="48.217955" lon="11.342347">
        <ele>497.7</ele>
        <time>2026-03-16T09:13:15.398000Z</time>
      </trkpt>
      <trkpt lat="48.218324" lon="11.342925">
        <ele>497.7</ele>
        <time>2026-03-16T09:14:08.755000Z</time>
      </trkpt>
      <trkpt lat="48.218531" lon="11.343312">
        <ele>497.5</ele>
        <time>2026-03-16T09:14:42.098000Z</time>
      </trkpt>
      <trkpt lat="48.219042" lon="11.344075">
        <ele>497.1</ele>
        <time>2026-03-16T09:15:55.158000Z</time>
      </trkpt>
      <trkpt lat="48.219277" lon="11.344317">
        <ele>496.9</ele>
        <time>2026-03-16T09:16:24.070000Z</time>
      </trkpt>
      <trkpt lat="48.219513" lon="11.344496">
        <ele>496.8</ele>
        <time>2026-03-16T09:16:50.843000Z</time>
      </trkpt>
      <trkpt lat="48.220274" lon="11.344581">
        <ele>496.4</ele>
        <time>2026-03-16T09:18:07.955000Z</time>
      </trkpt>
      <trkpt lat="48.220695" lon="11.344819">
        <ele>496.4</ele>
        <time>2026-03-16T09:18:53.093000Z</time>
      </trkpt>
      <trkpt lat="48.220906" lon="11.344865">
        <ele>496.4</ele>
        <time>2026-03-16T09:19:14.439000Z</time>
      </trkpt>
      <trkpt lat="48.221066" lon="11.34482">
        <ele>496.4</ele>
        <time>2026-03-16T09:19:30.917000Z</time>
      </trkpt>
      <trkpt lat="48.221218" lon="11.344751">
        <ele>496.5</ele>
        <time>2026-03-16T09:19:46.993000Z</time>
      </trkpt>
      <trkpt lat="48.221401" lon="11.344564">
        <ele>496.6</ele>
        <time>2026-03-16T09:20:09.571000Z</time>
      </trkpt>
      <trkpt lat="48.221706" lon="11.343969">
        <ele>496.8</ele>
        <time>2026-03-16T09:21:00.478000Z</time>
      </trkpt>
      <trkpt lat="48.221867" lon="11.34381">
        <ele>496.8</ele>
        <time>2026-03-16T09:21:19.848000Z</time>
      </trkpt>
      <trkpt lat="48.221968" lon="11.343761">
        <ele>496.9</ele>
        <time>2026-03-16T09:21:30.589000Z</time>
      </trkpt>
      <trkpt lat="48.222062" lon="11.34375">
        <ele>496.9</ele>
        <time>2026-03-16T09:21:40.088000Z</time>
      </trkpt>
      <trkpt lat="48.222127" lon="11.343792">
        <ele>496.9</ele>
        <time>2026-03-16T09:21:47.282000Z</time>
      </trkpt>
      <trkpt lat="48.222348" lon="11.344062">
        <ele>497.1</ele>
        <time>2026-03-16T09:22:16.256000Z</time>
      </trkpt>
      <trkpt lat="48.222694" lon="11.344682">
        <ele>497.3</ele>
        <time>2026-03-16T09:23:11.209000Z</time>
      </trkpt>
      <trkpt lat="48.222937" lon="11.34492">
        <ele>497.4</ele>
        <time>2026-03-16T09:23:40.514000Z</time>
      </trkpt>
      <trkpt lat="48.223069" lon="11.344947">
        <ele>497.4</ele>
        <time>2026-03-16T09:23:53.967000Z</time>
      </trkpt>
      <trkpt lat="48.22329" lon="11.344905">
        <ele>497.5</ele>
        <time>2026-03-16T09:24:16.452000Z</time>
      </trkpt>
      <trkpt lat="48.223875" lon="11.344934">
        <ele>497.8</ele>
        <time>2026-03-16T09:25:16.184000Z</time>
      </trkpt>
      <trkpt lat="48.224014" lon="11.344836">
        <ele>497.9</ele>
        <time>2026-03-16T09:25:31.857000Z</time>
      </trkpt>
      <trkpt lat="48.22417" lon="11.344643">
        <ele>498</ele>
        <time>2026-03-16T09:25:52.359000Z</time>
      </trkpt>
      <trkpt lat="48.22423" lon="11.344565">
        <ele>498</ele>
        <time>2026-03-16T09:26:00.374000Z</time>
      </trkpt>
      <trkpt lat="48.224332" lon="11.344504">
        <ele>498</ele>
        <time>2026-03-16T09:26:11.484000Z</time>
      </trkpt>
      <trkpt lat="48.224441" lon="11.344497">
        <ele>498</ele>
        <time>2026-03-16T09:26:22.430000Z</time>
      </trkpt>
      <trkpt lat="48.224564" lon="11.344542">
        <ele>498.1</ele>
        <time>2026-03-16T09:26:35.152000Z</time>
      </trkpt>
      <trkpt lat="48.224603" lon="11.34457">
        <ele>498.1</ele>
        <time>2026-03-16T09:26:39.570000Z</time>
      </trkpt>
      <trkpt lat="48.224558" lon="11.344652">
        <ele>498.1</ele>
        <time>2026-03-16T09:26:46.726000Z</time>
      </trkpt>
      <trkpt lat="48.224604" lon="11.344665">
        <ele>498.1</ele>
        <time>2026-03-16T09:26:51.440000Z</time>
      </trkpt>
      <trkpt lat="48.2247" lon="11.344473">
        <ele>498.1</ele>
        <time>2026-03-16T09:27:07.578000Z</time>
      </trkpt>
      <trkpt lat="48.224792" lon="11.344291">
        <ele>498.1</ele>
        <time>2026-03-16T09:27:22.808000Z</time>
      </trkpt>
      <trkpt lat="48.2247" lon="11.344473">
        <ele>498.1</ele>
        <time>2026-03-16T09:27:38.045000Z</time>
      </trkpt>
      <trkpt lat="48.224604" lon="11.344665">
        <ele>498.1</ele>
        <time>2026-03-16T09:27:54.139000Z</time>
      </trkpt>
      <trkpt lat="48.224558" lon="11.344652">
        <ele>498.1</ele>
        <time>2026-03-16T09:27:58.844000Z</time>
      </trkpt>
      <trkpt lat="48.224603" lon="11.34457">
        <ele>498.1</ele>
        <time>2026-03-16T09:28:05.991000Z</time>
      </trkpt>
      <trkpt lat="48.224564" lon="11.344542">
        <ele>498.1</ele>
        <time>2026-03-16T09:28:10.413000Z</time>
      </trkpt>
      <trkpt lat="48.224639" lon="11.344401">
        <ele>498</ele>
        <time>2026-03-16T09:28:22.513000Z</time>
      </trkpt>
      <trkpt lat="48.224821" lon="11.344048">
        <ele>497.9</ele>
        <time>2026-03-16T09:28:52.577000Z</time>
      </trkpt>
      <trkpt lat="48.224862" lon="11.343967">
        <ele>497.9</ele>
        <time>2026-03-16T09:28:59.410000Z</time>
      </trkpt>
      <trkpt lat="48.224796" lon="11.34386">
        <ele>497.8</ele>
        <time>2026-03-16T09:29:09.265000Z</time>
      </trkpt>
      <trkpt lat="48.224676" lon="11.343758">
        <ele>497.8</ele>
        <time>2026-03-16T09:29:23.276000Z</time>
      </trkpt>
      <trkpt lat="48.224401" lon="11.343619">
        <ele>497.6</ele>
        <time>2026-03-16T09:29:52.621000Z</time>
      </trkpt>
      <trkpt lat="48.224024" lon="11.343141">
        <ele>497.3</ele>
        <time>2026-03-16T09:30:42.570000Z</time>
      </trkpt>
      <trkpt lat="48.223863" lon="11.342689">
        <ele>497.2</ele>
        <time>2026-03-16T09:31:16.965000Z</time>
      </trkpt>
      <trkpt lat="48.223726" lon="11.342197">
        <ele>497.2</ele>
        <time>2026-03-16T09:31:52.645000Z</time>
      </trkpt>
      <trkpt lat="48.223467" lon="11.341642">
        <ele>497.2</ele>
        <time>2026-03-16T09:32:37.953000Z</time>
      </trkpt>
      <trkpt lat="48.223013" lon="11.341254">
        <ele>497.2</ele>
        <time>2026-03-16T09:33:30.282000Z</time>
      </trkpt>
      <trkpt lat="48.222575" lon="11.341242">
        <ele>497</ele>
        <time>2026-03-16T09:34:14.506000Z</time>
      </trkpt>
      <trkpt lat="48.222346" lon="11.341314">
        <ele>496.9</ele>
        <time>2026-03-16T09:34:38.152000Z</time>
      </trkpt>
      <trkpt lat="48.222139" lon="11.341472">
        <ele>496.8</ele>
        <time>2026-03-16T09:35:01.607000Z</time>
      </trkpt>
      <trkpt lat="48.221938" lon="11.341626">
        <ele>496.7</ele>
        <time>2026-03-16T09:35:24.480000Z</time>
      </trkpt>
      <trkpt lat="48.221817" lon="11.341818">
        <ele>496.5</ele>
        <time>2026-03-16T09:35:42.361000Z</time>
      </trkpt>
      <trkpt lat="48.221786" lon="11.341867">
        <ele>496.5</ele>
        <time>2026-03-16T09:35:46.948000Z</time>
      </trkpt>
      <trkpt lat="48.221736" lon="11.341948">
        <ele>496.4</ele>
        <time>2026-03-16T09:35:54.457000Z</time>
      </trkpt>
      <trkpt lat="48.221637" lon="11.34231">
        <ele>496.2</ele>
        <time>2026-03-16T09:36:21.008000Z</time>
      </trkpt>
      <trkpt lat="48.22152" lon="11.342969">
        <ele>495.9</ele>
        <time>2026-03-16T09:37:07.104000Z</time>
      </trkpt>
      <trkpt lat="48.221288" lon="11.343738">
        <ele>495.8</ele>
        <time>2026-03-16T09:38:03.721000Z</time>
      </trkpt>
      <trkpt lat="48.221077" lon="11.344013">
        <ele>495.8</ele>
        <time>2026-03-16T09:38:31.674000Z</time>
      </trkpt>
      <trkpt lat="48.220847" lon="11.344155">
        <ele>495.7</ele>
        <time>2026-03-16T09:38:56.562000Z</time>
      </trkpt>
      <trkpt lat="48.22017" lon="11.344141">
        <ele>495.8</ele>
        <time>2026-03-16T09:40:04.618000Z</time>
      </trkpt>
      <trkpt lat="48.219938" lon="11.343974">
        <ele>495.8</ele>
        <time>2026-03-16T09:40:30.367000Z</time>
      </trkpt>
      <trkpt lat="48.219828" lon="11.343851">
        <ele>495.8</ele>
        <time>2026-03-16T09:40:44.085000Z</time>
      </trkpt>
      <trkpt lat="48.219757" lon="11.343655">
        <ele>495.8</ele>
        <time>2026-03-16T09:40:59.033000Z</time>
      </trkpt>
      <trkpt lat="48.219669" lon="11.343224">
        <ele>495.8</ele>
        <time>2026-03-16T09:41:29.116000Z</time>
      </trkpt>
      <trkpt lat="48.219332" lon="11.342057">
        <ele>495.7</ele>
        <time>2026-03-16T09:42:54.138000Z</time>
      </trkpt>
      <trkpt lat="48.219543" lon="11.341132">
        <ele>495.7</ele>
        <time>2026-03-16T09:43:59.358000Z</time>
      </trkpt>
      <trkpt lat="48.219522" lon="11.340596">
        <ele>495.6</ele>
        <time>2026-03-16T09:44:35.224000Z</time>
      </trkpt>
      <trkpt lat="48.219419" lon="11.340274">
        <ele>495.6</ele>
        <time>2026-03-16T09:44:59.158000Z</time>
      </trkpt>
      <trkpt lat="48.219141" lon="11.339885">
        <ele>495.4</ele>
        <time>2026-03-16T09:45:37.467000Z</time>
      </trkpt>
      <trkpt lat="48.218833" lon="11.339812">
        <ele>495.3</ele>
        <time>2026-03-16T09:46:08.984000Z</time>
      </trkpt>
      <trkpt lat="48.218554" lon="11.339821">
        <ele>495.1</ele>
        <time>2026-03-16T09:46:37.306000Z</time>
      </trkpt>
      <trkpt lat="48.21826" lon="11.3397">
        <ele>494.9</ele>
        <time>2026-03-16T09:47:08.293000Z</time>
      </trkpt>
      <trkpt lat="48.218063" lon="11.339452">
        <ele>494.6</ele>
        <time>2026-03-16T09:47:34.516000Z</time>
      </trkpt>
      <trkpt lat="48.217993" lon="11.339164">
        <ele>494.5</ele>
        <time>2026-03-16T09:47:55.385000Z</time>
      </trkpt>
      <trkpt lat="48.217992" lon="11.338309">
        <ele>493.9</ele>
        <time>2026-03-16T09:48:53.517000Z</time>
      </trkpt>
      <trkpt lat="48.217875" lon="11.337588">
        <ele>493.5</ele>
        <time>2026-03-16T09:49:43.796000Z</time>
      </trkpt>
      <trkpt lat="48.217558" lon="11.336705">
        <ele>493.2</ele>
        <time>2026-03-16T09:50:51.352000Z</time>
      </trkpt>
      <trkpt lat="48.21726" lon="11.336361">
        <ele>493.2</ele>
        <time>2026-03-16T09:51:29.008000Z</time>
      </trkpt>
      <trkpt lat="48.216934" lon="11.336192">
        <ele>493.4</ele>
        <time>2026-03-16T09:52:04.229000Z</time>
      </trkpt>
      <trkpt lat="48.216532" lon="11.336082">
        <ele>493.9</ele>
        <time>2026-03-16T09:52:46.671000Z</time>
      </trkpt>
      <trkpt lat="48.216251" lon="11.3359">
        <ele>494.3</ele>
        <time>2026-03-16T09:53:18.939000Z</time>
      </trkpt>
      <trkpt lat="48.215964" lon="11.335272">
        <ele>495.1</ele>
        <time>2026-03-16T09:54:12.457000Z</time>
      </trkpt>
      <trkpt lat="48.21579" lon="11.335023">
        <ele>495.4</ele>
        <time>2026-03-16T09:54:37.630000Z</time>
      </trkpt>
      <trkpt lat="48.215485" lon="11.334414">
        <ele>495.8</ele>
        <time>2026-03-16T09:55:30.071000Z</time>
      </trkpt>
      <trkpt lat="48.215441" lon="11.334198">
        <ele>495.9</ele>
        <time>2026-03-16T09:55:45.365000Z</time>
      </trkpt>
      <trkpt lat="48.215435" lon="11.334051">
        <ele>495.9</ele>
        <time>2026-03-16T09:55:55.303000Z</time>
      </trkpt>
      <trkpt lat="48.215432" lon="11.333975">
        <ele>496</ele>
        <time>2026-03-16T09:56:00.426000Z</time>
      </trkpt>
      <trkpt lat="48.215582" lon="11.333412">
        <ele>495.9</ele>
        <time>2026-03-16T09:56:40.873000Z</time>
      </trkpt>
      <trkpt lat="48.215845" lon="11.332988">
        <ele>495.8</ele>
        <time>2026-03-16T09:57:19.752000Z</time>
      </trkpt>
      <trkpt lat="48.216258" lon="11.332088">
        <ele>495.7</ele>
        <time>2026-03-16T09:58:32.932000Z</time>
      </trkpt>
      <trkpt lat="48.216315" lon="11.331573">
        <ele>495.8</ele>
        <time>2026-03-16T09:59:08.230000Z</time>
      </trkpt>
      <trkpt lat="48.216136" lon="11.330497">
        <ele>496.9</ele>
        <time>2026-03-16T10:00:26.108000Z</time>
      </trkpt>
      <trkpt lat="48.216261" lon="11.3297">
        <ele>497.9</ele>
        <time>2026-03-16T10:01:24.288000Z</time>
      </trkpt>
      <trkpt lat="48.216291" lon="11.329304">
        <ele>498.3</ele>
        <time>2026-03-16T10:01:52.233000Z</time>
      </trkpt>
      <trkpt lat="48.216343" lon="11.329148">
        <ele>498.4</ele>
        <time>2026-03-16T10:02:04.344000Z</time>
      </trkpt>
      <trkpt lat="48.216357" lon="11.329035">
        <ele>498.5</ele>
        <time>2026-03-16T10:02:12.359000Z</time>
      </trkpt>
      <trkpt lat="48.216341" lon="11.329034">
        <ele>498.6</ele>
        <time>2026-03-16T10:02:14.046000Z</time>
      </trkpt>
      <trkpt lat="48.216107" lon="11.328929">
        <ele>498.8</ele>
        <time>2026-03-16T10:02:39.166000Z</time>
      </trkpt>
      <trkpt lat="48.21578" lon="11.328763">
        <ele>498.7</ele>
        <time>2026-03-16T10:03:13.815000Z</time>
      </trkpt>
      <trkpt lat="48.215727" lon="11.328838">
        <ele>498.7</ele>
        <time>2026-03-16T10:03:21.214000Z</time>
      </trkpt>
      <trkpt lat="48.215756" lon="11.328926">
        <ele>498.6</ele>
        <time>2026-03-16T10:03:27.849000Z</time>
      </trkpt>
      <trkpt lat="48.216015" lon="11.329199">
        <ele>498.1</ele>
        <time>2026-03-16T10:04:00.614000Z</time>
      </trkpt>
      <trkpt lat="48.21604" lon="11.329289">
        <ele>498</ele>
        <time>2026-03-16T10:04:07.402000Z</time>
      </trkpt>
      <trkpt lat="48.21584" lon="11.330627">
        <ele>496</ele>
        <time>2026-03-16T10:05:42.874000Z</time>
      </trkpt>
      <trkpt lat="48.215945" lon="11.331141">
        <ele>495.5</ele>
        <time>2026-03-16T10:06:19.934000Z</time>
      </trkpt>
      <trkpt lat="48.216012" lon="11.331431">
        <ele>495.2</ele>
        <time>2026-03-16T10:06:40.894000Z</time>
      </trkpt>
      <trkpt lat="48.216033" lon="11.331776">
        <ele>495.1</ele>
        <time>2026-03-16T10:07:04.303000Z</time>
      </trkpt>
      <trkpt lat="48.215862" lon="11.332334">
        <ele>495.1</ele>
        <time>2026-03-16T10:07:45.321000Z</time>
      </trkpt>
      <trkpt lat="48.215592" lon="11.332789">
        <ele>495.4</ele>
        <time>2026-03-16T10:08:27.106000Z</time>
      </trkpt>
      <trkpt lat="48.215203" lon="11.333681">
        <ele>496.9</ele>
        <time>2026-03-16T10:09:43.655000Z</time>
      </trkpt>
      <trkpt lat="48.215209" lon="11.334141">
        <ele>497.7</ele>
        <time>2026-03-16T10:10:16.910000Z</time>
      </trkpt>
      <trkpt lat="48.215056" lon="11.334212">
        <ele>498</ele>
        <time>2026-03-16T10:10:34.066000Z</time>
      </trkpt>
      <trkpt lat="48.214589" lon="11.334262">
        <ele>498.9</ele>
        <time>2026-03-16T10:11:24.222000Z</time>
      </trkpt>
      <trkpt lat="48.214632" lon="11.334441">
        <ele>499.2</ele>
        <time>2026-03-16T10:11:37.807000Z</time>
      </trkpt>
      <trkpt lat="48.214672" lon="11.334609">
        <ele>499.4</ele>
        <time>2026-03-16T10:11:50.649000Z</time>
      </trkpt>
      <trkpt lat="48.214817" lon="11.334876">
        <ele>499.9</ele>
        <time>2026-03-16T10:12:15.233000Z</time>
      </trkpt>
      <trkpt lat="48.214948" lon="11.335144">
        <ele>500.2</ele>
        <time>2026-03-16T10:12:38.686000Z</time>
      </trkpt>
      <trkpt lat="48.215048" lon="11.335374">
        <ele>500.4</ele>
        <time>2026-03-16T10:12:57.694000Z</time>
      </trkpt>
      <trkpt lat="48.214977" lon="11.335463">
        <ele>500.5</ele>
        <time>2026-03-16T10:13:07.201000Z</time>
      </trkpt>
      <trkpt lat="48.214833" lon="11.335625">
        <ele>500.6</ele>
        <time>2026-03-16T10:13:25.599000Z</time>
      </trkpt>
      <trkpt lat="48.214802" lon="11.335652">
        <ele>500.6</ele>
        <time>2026-03-16T10:13:29.344000Z</time>
      </trkpt>
      <trkpt lat="48.214756" lon="11.3357">
        <ele>500.7</ele>
        <time>2026-03-16T10:13:35.093000Z</time>
      </trkpt>
      <trkpt lat="48.214686" lon="11.335755">
        <ele>500.7</ele>
        <time>2026-03-16T10:13:43.132000Z</time>
      </trkpt>
      <trkpt lat="48.214615" lon="11.335829">
        <ele>500.8</ele>
        <time>2026-03-16T10:13:52.080000Z</time>
      </trkpt>
      <trkpt lat="48.214208" lon="11.336266">
        <ele>501.5</ele>
        <time>2026-03-16T10:14:44.766000Z</time>
      </trkpt>
      <trkpt lat="48.214167" lon="11.336232">
        <ele>501.6</ele>
        <time>2026-03-16T10:14:49.708000Z</time>
      </trkpt>
      <trkpt lat="48.214121" lon="11.336241">
        <ele>501.7</ele>
        <time>2026-03-16T10:14:54.650000Z</time>
      </trkpt>
      <trkpt lat="48.214112" lon="11.336217">
        <ele>501.7</ele>
        <time>2026-03-16T10:14:56.625000Z</time>
      </trkpt>
      <trkpt lat="48.213603" lon="11.336811">
        <ele>502.6</ele>
        <time>2026-03-16T10:16:04.192000Z</time>
      </trkpt>
      <trkpt lat="48.213366" lon="11.337077">
        <ele>503</ele>
        <time>2026-03-16T10:16:35.038000Z</time>
      </trkpt>
      <trkpt lat="48.213331" lon="11.337116">
        <ele>503</ele>
        <time>2026-03-16T10:16:39.616000Z</time>
      </trkpt>
      <trkpt lat="48.213345" lon="11.337154">
        <ele>503</ele>
        <time>2026-03-16T10:16:42.649000Z</time>
      </trkpt>
      <trkpt lat="48.21311" lon="11.337396">
        <ele>503.3</ele>
        <time>2026-03-16T10:17:12.263000Z</time>
      </trkpt>
      <trkpt lat="48.213086" lon="11.337374">
        <ele>503.4</ele>
        <time>2026-03-16T10:17:15.174000Z</time>
      </trkpt>
      <trkpt lat="48.212879" lon="11.337614">
        <ele>503.5</ele>
        <time>2026-03-16T10:17:41.854000Z</time>
      </trkpt>
      <trkpt lat="48.212696" lon="11.337806">
        <ele>503.6</ele>
        <time>2026-03-16T10:18:04.405000Z</time>
      </trkpt>
      <trkpt lat="48.212621" lon="11.337601">
        <ele>503.6</ele>
        <time>2026-03-16T10:18:20.002000Z</time>
      </trkpt>
    </trkseg>
  </trk>
</gpx>