<?xml version="1.0" encoding="UTF-8"?>
<gpx xmlns="http://www.topografix.com/GPX/1/1" xmlns:xsi="http://www.w3.org/2001/XMLSchema-instance" xsi:schemaLocation="http://www.topografix.com/GPX/1/1 http://www.topografix.com/GPX/1/1/gpx.xsd" version="1.1" creator="Robert Kampf">
  <metadata>
    <name>Aussicht auf Tapfheim – Spielplatz am Tapfheimer See Runde von Schloss Donaumünster</name>
    <desc>Distance: 7.776km, Estimated duration: 1.97h, Elevation up: 17.333701741963353m, Elevation down: 17.333701741963296m, Grade: easy</desc>
    <author>
      <name>Robert Kampf</name>
      <link href="https://www.komoot.de/user/4125295338453">
        <text>View Robert Kampf's Profile on Komoot</text>
      </link>
    </author>
    <link href="https://www.komoot.de/tour/3057571275">
      <text>View tour on Komoot</text>
    </link>
  </metadata>
  <wpt lat="48.6804" lon="10.709177">
    <name>Donaumünster, Schützenheim</name>
    <cmt></cmt>
    <desc></desc>
    <src>Komoot</src>
    <type>POI</type>
  </wpt>
  <wpt lat="48.679764" lon="10.709362">
    <ele>454</ele>
    <name>Village Fountain in Donaumünster</name>
    <cmt>https://d2exd72xrrp1s7.cloudfront.net/www/000/1k5/wa/wa24ax250qw5auoj70mlbxys3y06t2jq-uhi43153692/0</cmt>
    <desc></desc>
    <src>Komoot</src>
    <link href="https://www.komoot.de/highlight/3879598">
      <text>View POI on Komoot</text>
    </link>
    <type>Highlight</type>
  </wpt>
  <wpt lat="48.677336" lon="10.70939">
    <ele>452.1</ele>
    <name>Danube River Information Board</name>
    <cmt>https://d2exd72xrrp1s7.cloudfront.net/www/000/1k5/1s/1s0p7hdgzabdtmc9t6e3qx2jz3qysu1bu-uhi32025422/0</cmt>
    <desc></desc>
    <src>Komoot</src>
    <link href="https://www.komoot.de/highlight/3133298">
      <text>View POI on Komoot</text>
    </link>
    <type>Highlight</type>
  </wpt>
  <wpt lat="48.663961" lon="10.70261">
    <ele>439</ele>
    <name>View of Tapfheim</name>
    <cmt>https://d2exd72xrrp1s7.cloudfront.net/www/000/1k9/j6/j6nl0yd5lbz3aypaq5krzbab5lz5442d-uhi96795110/0</cmt>
    <desc></desc>
    <src>Komoot</src>
    <link href="https://www.komoot.de/highlight/8155943">
      <text>View POI on Komoot</text>
    </link>
    <type>Highlight</type>
  </wpt>
  <wpt lat="48.660186" lon="10.702162">
    <ele>408.7</ele>
    <name>Beaver Activity at Tapfheimer Lakes</name>
    <cmt>https://d2exd72xrrp1s7.cloudfront.net/www/000/1k5/kv/kv46fsxd5m5g2twllxrekv9p3n8th0xe-uhi28102093/0</cmt>
    <desc></desc>
    <src>Komoot</src>
    <link href="https://www.komoot.de/highlight/2077215">
      <text>View POI on Komoot</text>
    </link>
    <type>Highlight</type>
  </wpt>
  <wpt lat="48.65409" lon="10.700035">
    <ele>450</ele>
    <name>Donauauen Information Board at Tapfheimer See</name>
    <cmt>https://d2exd72xrrp1s7.cloudfront.net/www/000/1k5/hx/hxct2pssy723lez6960cna3r3r22cwdw-uhi32230328/0</cmt>
    <desc>Walter: Sehr schöne Info für meinen weiteren Weg nach Donauwörth.</desc>
    <src>Komoot</src>
    <link href="https://www.komoot.de/highlight/3146566">
      <text>View POI on Komoot</text>
    </link>
    <type>Highlight</type>
  </wpt>
  <wpt lat="48.668561" lon="10.699407">
    <ele>453.2</ele>
    <name>Playground at Tapfheim Lake</name>
    <cmt>https://d2exd72xrrp1s7.cloudfront.net/www/000/1k5/uj/ujyk3neguqqc1lhwkvavtmt7z3qytf3dk-uhi32025803/0</cmt>
    <desc></desc>
    <src>Komoot</src>
    <link href="https://www.komoot.de/highlight/3133327">
      <text>View POI on Komoot</text>
    </link>
    <type>Highlight</type>
  </wpt>
  <wpt lat="48.670902" lon="10.695912">
    <ele>451.6</ele>
    <name>Playground and swimming area at Geopark Ries Lake</name>
    <cmt>https://d2exd72xrrp1s7.cloudfront.net/www/000/1k5/1w/1w9f8y9y64fd51298oz0m3mltb3qytsg79-uhi32026049/0</cmt>
    <desc>Walter: Blaualgen im Wasser. Deutet auf Güllewirtschaft hin. Das ist doch eher ein Low Light. Im weiteren Verlauf des Badesees wird es jedoch besser.</desc>
    <src>Komoot</src>
    <link href="https://www.komoot.de/highlight/3133346">
      <text>View POI on Komoot</text>
    </link>
    <type>Highlight</type>
  </wpt>
  <wpt lat="48.679363" lon="10.709526">
    <ele>457</ele>
    <name>Church of the Assumption of Mary</name>
    <cmt>https://d2exd72xrrp1s7.cloudfront.net/www/000/1k5/s9/s9twhynggo1j1fq2tqczhnbim3y05jpv2-uhi43149190/0</cmt>
    <desc></desc>
    <src>Komoot</src>
    <link href="https://www.komoot.de/highlight/3879309">
      <text>View POI on Komoot</text>
    </link>
    <type>Highlight</type>
  </wpt>
  <trk>
    <name>Aussicht auf Tapfheim – Spielplatz am Tapfheimer See Runde von Schloss Donaumünster</name>
    <desc>Distance: 7.776km, Estimated duration: 1.97h, Elevation up: 17.333701741963353m, Elevation down: 17.333701741963296m, Grade: easy</desc>
    <link href="https://www.komoot.de/tour/3057571275">
      <text>View tour on Komoot</text>
    </link>
    <trkseg>
      <trkpt lat="48.680409" lon="10.70908">
        <ele>407.6</ele>
        <time>2026-06-22T16:49:01.749000Z</time>
      </trkpt>
      <trkpt lat="48.680326" lon="10.709064">
        <ele>407.6</ele>
        <time>2026-06-22T16:49:10.166000Z</time>
      </trkpt>
      <trkpt lat="48.680118" lon="10.709147">
        <ele>407.7</ele>
        <time>2026-06-22T16:49:31.942000Z</time>
      </trkpt>
      <trkpt lat="48.679992" lon="10.70929">
        <ele>407.7</ele>
        <time>2026-06-22T16:49:47.834000Z</time>
      </trkpt>
      <trkpt lat="48.679886" lon="10.70937">
        <ele>407.7</ele>
        <time>2026-06-22T16:49:59.650000Z</time>
      </trkpt>
      <trkpt lat="48.679858" lon="10.709382">
        <ele>407.7</ele>
        <time>2026-06-22T16:50:02.573000Z</time>
      </trkpt>
      <trkpt lat="48.679771" lon="10.709411">
        <ele>407.7</ele>
        <time>2026-06-22T16:50:11.579000Z</time>
      </trkpt>
      <trkpt lat="48.679608" lon="10.709464">
        <ele>407.6</ele>
        <time>2026-06-22T16:50:28.393000Z</time>
      </trkpt>
      <trkpt lat="48.679488" lon="10.709504">
        <ele>407.5</ele>
        <time>2026-06-22T16:50:40.864000Z</time>
      </trkpt>
      <trkpt lat="48.679312" lon="10.709606">
        <ele>407.4</ele>
        <time>2026-06-22T16:51:00.045000Z</time>
      </trkpt>
      <trkpt lat="48.679269" lon="10.709641">
        <ele>407.4</ele>
        <time>2026-06-22T16:51:04.945000Z</time>
      </trkpt>
      <trkpt lat="48.679235" lon="10.70967">
        <ele>407.3</ele>
        <time>2026-06-22T16:51:08.980000Z</time>
      </trkpt>
      <trkpt lat="48.679103" lon="10.709779">
        <ele>407.1</ele>
        <time>2026-06-22T16:51:24.467000Z</time>
      </trkpt>
      <trkpt lat="48.679012" lon="10.709861">
        <ele>406.9</ele>
        <time>2026-06-22T16:51:35.417000Z</time>
      </trkpt>
      <trkpt lat="48.678987" lon="10.709931">
        <ele>406.9</ele>
        <time>2026-06-22T16:51:40.827000Z</time>
      </trkpt>
      <trkpt lat="48.678942" lon="10.710133">
        <ele>406.7</ele>
        <time>2026-06-22T16:51:55.331000Z</time>
      </trkpt>
      <trkpt lat="48.678882" lon="10.710382">
        <ele>406.4</ele>
        <time>2026-06-22T16:52:13.426000Z</time>
      </trkpt>
      <trkpt lat="48.678826" lon="10.710537">
        <ele>406.3</ele>
        <time>2026-06-22T16:52:25.380000Z</time>
      </trkpt>
      <trkpt lat="48.678786" lon="10.710624">
        <ele>406.2</ele>
        <time>2026-06-22T16:52:32.540000Z</time>
      </trkpt>
      <trkpt lat="48.678762" lon="10.710675">
        <ele>406.1</ele>
        <time>2026-06-22T16:52:36.788000Z</time>
      </trkpt>
      <trkpt lat="48.678669" lon="10.710834">
        <ele>405.9</ele>
        <time>2026-06-22T16:52:51.233000Z</time>
      </trkpt>
      <trkpt lat="48.678629" lon="10.710893">
        <ele>405.9</ele>
        <time>2026-06-22T16:52:56.921000Z</time>
      </trkpt>
      <trkpt lat="48.678401" lon="10.710645">
        <ele>405.5</ele>
        <time>2026-06-22T16:53:25.791000Z</time>
      </trkpt>
      <trkpt lat="48.677365" lon="10.709338">
        <ele>405</ele>
        <time>2026-06-22T16:55:41.844000Z</time>
      </trkpt>
      <trkpt lat="48.677007" lon="10.708886">
        <ele>405.1</ele>
        <time>2026-06-22T16:56:28.952000Z</time>
      </trkpt>
      <trkpt lat="48.675539" lon="10.706577">
        <ele>405.6</ele>
        <time>2026-06-22T17:00:02.478000Z</time>
      </trkpt>
      <trkpt lat="48.674125" lon="10.70473">
        <ele>404.7</ele>
        <time>2026-06-22T17:03:11.132000Z</time>
      </trkpt>
      <trkpt lat="48.674111" lon="10.704493">
        <ele>404.6</ele>
        <time>2026-06-22T17:03:27.065000Z</time>
      </trkpt>
      <trkpt lat="48.674175" lon="10.704313">
        <ele>404.5</ele>
        <time>2026-06-22T17:03:40.800000Z</time>
      </trkpt>
      <trkpt lat="48.674043" lon="10.704328">
        <ele>404.4</ele>
        <time>2026-06-22T17:03:54.289000Z</time>
      </trkpt>
      <trkpt lat="48.673886" lon="10.704261">
        <ele>404.3</ele>
        <time>2026-06-22T17:04:10.856000Z</time>
      </trkpt>
      <trkpt lat="48.67303" lon="10.703145">
        <ele>403.3</ele>
        <time>2026-06-22T17:06:05.975000Z</time>
      </trkpt>
      <trkpt lat="48.672775" lon="10.702974">
        <ele>403.1</ele>
        <time>2026-06-22T17:06:34.378000Z</time>
      </trkpt>
      <trkpt lat="48.672112" lon="10.702141">
        <ele>402.7</ele>
        <time>2026-06-22T17:08:01.266000Z</time>
      </trkpt>
      <trkpt lat="48.671645" lon="10.701642">
        <ele>402.7</ele>
        <time>2026-06-22T17:08:58.511000Z</time>
      </trkpt>
      <trkpt lat="48.670771" lon="10.700945">
        <ele>402.7</ele>
        <time>2026-06-22T17:10:37.374000Z</time>
      </trkpt>
      <trkpt lat="48.670123" lon="10.700591">
        <ele>402.7</ele>
        <time>2026-06-22T17:11:46.467000Z</time>
      </trkpt>
      <trkpt lat="48.669222" lon="10.700301">
        <ele>402.9</ele>
        <time>2026-06-22T17:13:19.358000Z</time>
      </trkpt>
      <trkpt lat="48.668653" lon="10.700165">
        <ele>402.8</ele>
        <time>2026-06-22T17:14:17.274000Z</time>
      </trkpt>
      <trkpt lat="48.668543" lon="10.699998">
        <ele>402.7</ele>
        <time>2026-06-22T17:14:33.017000Z</time>
      </trkpt>
      <trkpt lat="48.668478" lon="10.699701">
        <ele>402.6</ele>
        <time>2026-06-22T17:14:53.887000Z</time>
      </trkpt>
      <trkpt lat="48.668439" lon="10.699858">
        <ele>402.5</ele>
        <time>2026-06-22T17:15:05.150000Z</time>
      </trkpt>
      <trkpt lat="48.668269" lon="10.700054">
        <ele>402.4</ele>
        <time>2026-06-22T17:15:26.814000Z</time>
      </trkpt>
      <trkpt lat="48.668091" lon="10.700194">
        <ele>402.2</ele>
        <time>2026-06-22T17:15:47.250000Z</time>
      </trkpt>
      <trkpt lat="48.667313" lon="10.700301">
        <ele>401.7</ele>
        <time>2026-06-22T17:17:06.605000Z</time>
      </trkpt>
      <trkpt lat="48.666846" lon="10.700442">
        <ele>401.6</ele>
        <time>2026-06-22T17:17:54.455000Z</time>
      </trkpt>
      <trkpt lat="48.666168" lon="10.70073">
        <ele>401.8</ele>
        <time>2026-06-22T17:19:05.753000Z</time>
      </trkpt>
      <trkpt lat="48.665752" lon="10.700959">
        <ele>402.1</ele>
        <time>2026-06-22T17:19:50.945000Z</time>
      </trkpt>
      <trkpt lat="48.665351" lon="10.701243">
        <ele>402.4</ele>
        <time>2026-06-22T17:20:36.416000Z</time>
      </trkpt>
      <trkpt lat="48.664847" lon="10.701678">
        <ele>402.8</ele>
        <time>2026-06-22T17:21:36.077000Z</time>
      </trkpt>
      <trkpt lat="48.663966" lon="10.70262">
        <ele>403.5</ele>
        <time>2026-06-22T17:23:26.503000Z</time>
      </trkpt>
      <trkpt lat="48.663582" lon="10.703031">
        <ele>403.6</ele>
        <time>2026-06-22T17:24:13.889000Z</time>
      </trkpt>
      <trkpt lat="48.663497" lon="10.703087">
        <ele>403.6</ele>
        <time>2026-06-22T17:24:23.209000Z</time>
      </trkpt>
      <trkpt lat="48.663422" lon="10.702926">
        <ele>403.6</ele>
        <time>2026-06-22T17:24:36.322000Z</time>
      </trkpt>
      <trkpt lat="48.663358" lon="10.70299">
        <ele>403.6</ele>
        <time>2026-06-22T17:24:44.041000Z</time>
      </trkpt>
      <trkpt lat="48.663187" lon="10.703287">
        <ele>403.4</ele>
        <time>2026-06-22T17:25:10.402000Z</time>
      </trkpt>
      <trkpt lat="48.662618" lon="10.703648">
        <ele>402.8</ele>
        <time>2026-06-22T17:26:13.421000Z</time>
      </trkpt>
      <trkpt lat="48.662559" lon="10.703638">
        <ele>402.7</ele>
        <time>2026-06-22T17:26:19.609000Z</time>
      </trkpt>
      <trkpt lat="48.662486" lon="10.703527">
        <ele>402.6</ele>
        <time>2026-06-22T17:26:30.217000Z</time>
      </trkpt>
      <trkpt lat="48.662314" lon="10.702825">
        <ele>402</ele>
        <time>2026-06-22T17:27:20.842000Z</time>
      </trkpt>
      <trkpt lat="48.66217" lon="10.702407">
        <ele>401.7</ele>
        <time>2026-06-22T17:27:52.637000Z</time>
      </trkpt>
      <trkpt lat="48.662079" lon="10.702237">
        <ele>401.6</ele>
        <time>2026-06-22T17:28:07.356000Z</time>
      </trkpt>
      <trkpt lat="48.661516" lon="10.701803">
        <ele>401.3</ele>
        <time>2026-06-22T17:29:11.271000Z</time>
      </trkpt>
      <trkpt lat="48.661333" lon="10.701693">
        <ele>401.2</ele>
        <time>2026-06-22T17:29:31.103000Z</time>
      </trkpt>
      <trkpt lat="48.661039" lon="10.701692">
        <ele>401.2</ele>
        <time>2026-06-22T17:30:00.483000Z</time>
      </trkpt>
      <trkpt lat="48.660863" lon="10.701724">
        <ele>401.2</ele>
        <time>2026-06-22T17:30:18.234000Z</time>
      </trkpt>
      <trkpt lat="48.66065" lon="10.701814">
        <ele>401.2</ele>
        <time>2026-06-22T17:30:40.448000Z</time>
      </trkpt>
      <trkpt lat="48.660177" lon="10.702132">
        <ele>401.2</ele>
        <time>2026-06-22T17:31:32.300000Z</time>
      </trkpt>
      <trkpt lat="48.660166" lon="10.702139">
        <ele>401.2</ele>
        <time>2026-06-22T17:31:33.523000Z</time>
      </trkpt>
      <trkpt lat="48.659689" lon="10.702577">
        <ele>401.2</ele>
        <time>2026-06-22T17:32:29.397000Z</time>
      </trkpt>
      <trkpt lat="48.65949" lon="10.702666">
        <ele>401.2</ele>
        <time>2026-06-22T17:32:50.249000Z</time>
      </trkpt>
      <trkpt lat="48.658806" lon="10.702698">
        <ele>401.1</ele>
        <time>2026-06-22T17:33:58.722000Z</time>
      </trkpt>
      <trkpt lat="48.6585" lon="10.702634">
        <ele>401.2</ele>
        <time>2026-06-22T17:34:29.895000Z</time>
      </trkpt>
      <trkpt lat="48.658385" lon="10.702731">
        <ele>401.2</ele>
        <time>2026-06-22T17:34:43.165000Z</time>
      </trkpt>
      <trkpt lat="48.658091" lon="10.703322">
        <ele>401.5</ele>
        <time>2026-06-22T17:35:33.107000Z</time>
      </trkpt>
      <trkpt lat="48.657768" lon="10.703614">
        <ele>401.8</ele>
        <time>2026-06-22T17:36:11.901000Z</time>
      </trkpt>
      <trkpt lat="48.657601" lon="10.703707">
        <ele>402</ele>
        <time>2026-06-22T17:36:30.337000Z</time>
      </trkpt>
      <trkpt lat="48.657196" lon="10.703531">
        <ele>402.4</ele>
        <time>2026-06-22T17:37:14.024000Z</time>
      </trkpt>
      <trkpt lat="48.656405" lon="10.703054">
        <ele>403.3</ele>
        <time>2026-06-22T17:38:42.185000Z</time>
      </trkpt>
      <trkpt lat="48.655755" lon="10.702524">
        <ele>403.6</ele>
        <time>2026-06-22T17:39:57.436000Z</time>
      </trkpt>
      <trkpt lat="48.655355" lon="10.702134">
        <ele>403.7</ele>
        <time>2026-06-22T17:40:45.202000Z</time>
      </trkpt>
      <trkpt lat="48.655066" lon="10.7018">
        <ele>403.7</ele>
        <time>2026-06-22T17:41:21.596000Z</time>
      </trkpt>
      <trkpt lat="48.654547" lon="10.701166">
        <ele>403.6</ele>
        <time>2026-06-22T17:42:28.472000Z</time>
      </trkpt>
      <trkpt lat="48.654327" lon="10.700833">
        <ele>403.6</ele>
        <time>2026-06-22T17:42:59.691000Z</time>
      </trkpt>
      <trkpt lat="48.654208" lon="10.700558">
        <ele>403.6</ele>
        <time>2026-06-22T17:43:21.458000Z</time>
      </trkpt>
      <trkpt lat="48.654197" lon="10.70039">
        <ele>403.6</ele>
        <time>2026-06-22T17:43:32.653000Z</time>
      </trkpt>
      <trkpt lat="48.654233" lon="10.700158">
        <ele>403.6</ele>
        <time>2026-06-22T17:43:48.428000Z</time>
      </trkpt>
      <trkpt lat="48.654321" lon="10.699845">
        <ele>403.6</ele>
        <time>2026-06-22T17:44:10.937000Z</time>
      </trkpt>
      <trkpt lat="48.65421" lon="10.699877">
        <ele>403.6</ele>
        <time>2026-06-22T17:44:22.282000Z</time>
      </trkpt>
      <trkpt lat="48.654072" lon="10.69998">
        <ele>403.6</ele>
        <time>2026-06-22T17:44:37.678000Z</time>
      </trkpt>
      <trkpt lat="48.65421" lon="10.699877">
        <ele>403.6</ele>
        <time>2026-06-22T17:44:53.075000Z</time>
      </trkpt>
      <trkpt lat="48.654321" lon="10.699845">
        <ele>403.6</ele>
        <time>2026-06-22T17:45:04.424000Z</time>
      </trkpt>
      <trkpt lat="48.654233" lon="10.700158">
        <ele>403.6</ele>
        <time>2026-06-22T17:45:26.963000Z</time>
      </trkpt>
      <trkpt lat="48.654197" lon="10.70039">
        <ele>403.6</ele>
        <time>2026-06-22T17:45:42.757000Z</time>
      </trkpt>
      <trkpt lat="48.654208" lon="10.700558">
        <ele>403.6</ele>
        <time>2026-06-22T17:45:53.965000Z</time>
      </trkpt>
      <trkpt lat="48.654327" lon="10.700833">
        <ele>403.6</ele>
        <time>2026-06-22T17:46:15.744000Z</time>
      </trkpt>
      <trkpt lat="48.654547" lon="10.701166">
        <ele>403.6</ele>
        <time>2026-06-22T17:46:46.947000Z</time>
      </trkpt>
      <trkpt lat="48.655066" lon="10.7018">
        <ele>403.7</ele>
        <time>2026-06-22T17:47:53.912000Z</time>
      </trkpt>
      <trkpt lat="48.655355" lon="10.702134">
        <ele>403.7</ele>
        <time>2026-06-22T17:48:30.348000Z</time>
      </trkpt>
      <trkpt lat="48.655755" lon="10.702524">
        <ele>403.6</ele>
        <time>2026-06-22T17:49:18.040000Z</time>
      </trkpt>
      <trkpt lat="48.656405" lon="10.703054">
        <ele>403.3</ele>
        <time>2026-06-22T17:50:32.732000Z</time>
      </trkpt>
      <trkpt lat="48.657196" lon="10.703531">
        <ele>402.5</ele>
        <time>2026-06-22T17:51:59.467000Z</time>
      </trkpt>
      <trkpt lat="48.657601" lon="10.703707">
        <ele>402.2</ele>
        <time>2026-06-22T17:52:42.294000Z</time>
      </trkpt>
      <trkpt lat="48.658408" lon="10.704011">
        <ele>401.8</ele>
        <time>2026-06-22T17:54:06.520000Z</time>
      </trkpt>
      <trkpt lat="48.659633" lon="10.704242">
        <ele>401.7</ele>
        <time>2026-06-22T17:56:10.077000Z</time>
      </trkpt>
      <trkpt lat="48.660807" lon="10.704182">
        <ele>402</ele>
        <time>2026-06-22T17:58:08.537000Z</time>
      </trkpt>
      <trkpt lat="48.6616" lon="10.703993">
        <ele>402.4</ele>
        <time>2026-06-22T17:59:30.246000Z</time>
      </trkpt>
      <trkpt lat="48.662618" lon="10.703648">
        <ele>403.1</ele>
        <time>2026-06-22T18:01:17.147000Z</time>
      </trkpt>
      <trkpt lat="48.663187" lon="10.703287">
        <ele>403.3</ele>
        <time>2026-06-22T18:02:19.576000Z</time>
      </trkpt>
      <trkpt lat="48.663358" lon="10.70299">
        <ele>403.3</ele>
        <time>2026-06-22T18:02:45.646000Z</time>
      </trkpt>
      <trkpt lat="48.663422" lon="10.702926">
        <ele>403.3</ele>
        <time>2026-06-22T18:02:53.326000Z</time>
      </trkpt>
      <trkpt lat="48.663647" lon="10.702848">
        <ele>403.2</ele>
        <time>2026-06-22T18:03:16.505000Z</time>
      </trkpt>
      <trkpt lat="48.663795" lon="10.702728">
        <ele>403.1</ele>
        <time>2026-06-22T18:03:33.495000Z</time>
      </trkpt>
      <trkpt lat="48.664724" lon="10.701723">
        <ele>402.5</ele>
        <time>2026-06-22T18:05:29.088000Z</time>
      </trkpt>
      <trkpt lat="48.665246" lon="10.701254">
        <ele>402.2</ele>
        <time>2026-06-22T18:06:30.470000Z</time>
      </trkpt>
      <trkpt lat="48.666149" lon="10.70066">
        <ele>401.7</ele>
        <time>2026-06-22T18:08:09.978000Z</time>
      </trkpt>
      <trkpt lat="48.666409" lon="10.700551">
        <ele>401.6</ele>
        <time>2026-06-22T18:08:37.184000Z</time>
      </trkpt>
      <trkpt lat="48.666672" lon="10.700438">
        <ele>401.5</ele>
        <time>2026-06-22T18:09:04.693000Z</time>
      </trkpt>
      <trkpt lat="48.667384" lon="10.700218">
        <ele>401.7</ele>
        <time>2026-06-22T18:10:18.092000Z</time>
      </trkpt>
      <trkpt lat="48.668028" lon="10.70014">
        <ele>402.5</ele>
        <time>2026-06-22T18:11:25.545000Z</time>
      </trkpt>
      <trkpt lat="48.668273" lon="10.699954">
        <ele>402.9</ele>
        <time>2026-06-22T18:11:54.331000Z</time>
      </trkpt>
      <trkpt lat="48.668478" lon="10.699701">
        <ele>403.3</ele>
        <time>2026-06-22T18:12:22.154000Z</time>
      </trkpt>
      <trkpt lat="48.66857" lon="10.699414">
        <ele>403.6</ele>
        <time>2026-06-22T18:12:44.438000Z</time>
      </trkpt>
      <trkpt lat="48.668573" lon="10.699407">
        <ele>403.6</ele>
        <time>2026-06-22T18:12:45.010000Z</time>
      </trkpt>
      <trkpt lat="48.669065" lon="10.698433">
        <ele>404.9</ele>
        <time>2026-06-22T18:14:10.562000Z</time>
      </trkpt>
      <trkpt lat="48.669405" lon="10.69764">
        <ele>405.4</ele>
        <time>2026-06-22T18:15:15.094000Z</time>
      </trkpt>
      <trkpt lat="48.669634" lon="10.697235">
        <ele>405.6</ele>
        <time>2026-06-22T18:15:50.915000Z</time>
      </trkpt>
      <trkpt lat="48.669837" lon="10.697031">
        <ele>405.7</ele>
        <time>2026-06-22T18:16:15.620000Z</time>
      </trkpt>
      <trkpt lat="48.670244" lon="10.696716">
        <ele>405.7</ele>
        <time>2026-06-22T18:17:01.357000Z</time>
      </trkpt>
      <trkpt lat="48.67078" lon="10.696131">
        <ele>405.5</ele>
        <time>2026-06-22T18:18:07.906000Z</time>
      </trkpt>
      <trkpt lat="48.670876" lon="10.695869">
        <ele>405.4</ele>
        <time>2026-06-22T18:18:27.809000Z</time>
      </trkpt>
      <trkpt lat="48.67078" lon="10.696131">
        <ele>405.3</ele>
        <time>2026-06-22T18:18:47.672000Z</time>
      </trkpt>
      <trkpt lat="48.670873" lon="10.696222">
        <ele>405.3</ele>
        <time>2026-06-22T18:18:58.886000Z</time>
      </trkpt>
      <trkpt lat="48.67096" lon="10.696251">
        <ele>405.3</ele>
        <time>2026-06-22T18:19:07.828000Z</time>
      </trkpt>
      <trkpt lat="48.671675" lon="10.696395">
        <ele>405.2</ele>
        <time>2026-06-22T18:20:20.164000Z</time>
      </trkpt>
      <trkpt lat="48.672052" lon="10.696688">
        <ele>405.2</ele>
        <time>2026-06-22T18:21:02.593000Z</time>
      </trkpt>
      <trkpt lat="48.672376" lon="10.69704">
        <ele>405.3</ele>
        <time>2026-06-22T18:21:42.790000Z</time>
      </trkpt>
      <trkpt lat="48.672749" lon="10.697508">
        <ele>405.4</ele>
        <time>2026-06-22T18:22:31.751000Z</time>
      </trkpt>
      <trkpt lat="48.67343" lon="10.6994">
        <ele>405.7</ele>
        <time>2026-06-22T18:24:55.278000Z</time>
      </trkpt>
      <trkpt lat="48.67346" lon="10.699877">
        <ele>405.6</ele>
        <time>2026-06-22T18:25:27.360000Z</time>
      </trkpt>
      <trkpt lat="48.673661" lon="10.700358">
        <ele>405.1</ele>
        <time>2026-06-22T18:26:05.841000Z</time>
      </trkpt>
      <trkpt lat="48.673677" lon="10.701479">
        <ele>404</ele>
        <time>2026-06-22T18:27:22.398000Z</time>
      </trkpt>
      <trkpt lat="48.673549" lon="10.701771">
        <ele>403.6</ele>
        <time>2026-06-22T18:27:46.347000Z</time>
      </trkpt>
      <trkpt lat="48.672966" lon="10.702594">
        <ele>402.9</ele>
        <time>2026-06-22T18:29:07.444000Z</time>
      </trkpt>
      <trkpt lat="48.672775" lon="10.702974">
        <ele>403</ele>
        <time>2026-06-22T18:29:39.166000Z</time>
      </trkpt>
      <trkpt lat="48.67303" lon="10.703145">
        <ele>403.2</ele>
        <time>2026-06-22T18:30:07.824000Z</time>
      </trkpt>
      <trkpt lat="48.673886" lon="10.704261">
        <ele>404.3</ele>
        <time>2026-06-22T18:32:04.717000Z</time>
      </trkpt>
      <trkpt lat="48.674043" lon="10.704328">
        <ele>404.4</ele>
        <time>2026-06-22T18:32:21.482000Z</time>
      </trkpt>
      <trkpt lat="48.674175" lon="10.704313">
        <ele>404.5</ele>
        <time>2026-06-22T18:32:35.120000Z</time>
      </trkpt>
      <trkpt lat="48.674111" lon="10.704493">
        <ele>404.6</ele>
        <time>2026-06-22T18:32:48.997000Z</time>
      </trkpt>
      <trkpt lat="48.674125" lon="10.70473">
        <ele>404.7</ele>
        <time>2026-06-22T18:33:05.085000Z</time>
      </trkpt>
      <trkpt lat="48.675539" lon="10.706577">
        <ele>405.6</ele>
        <time>2026-06-22T18:36:15.032000Z</time>
      </trkpt>
      <trkpt lat="48.677007" lon="10.708886">
        <ele>405.1</ele>
        <time>2026-06-22T18:39:47.836000Z</time>
      </trkpt>
      <trkpt lat="48.677365" lon="10.709338">
        <ele>405</ele>
        <time>2026-06-22T18:40:34.766000Z</time>
      </trkpt>
      <trkpt lat="48.678401" lon="10.710645">
        <ele>405.5</ele>
        <time>2026-06-22T18:42:51.615000Z</time>
      </trkpt>
      <trkpt lat="48.678629" lon="10.710893">
        <ele>405.9</ele>
        <time>2026-06-22T18:43:21.006000Z</time>
      </trkpt>
      <trkpt lat="48.678669" lon="10.710834">
        <ele>405.9</ele>
        <time>2026-06-22T18:43:26.804000Z</time>
      </trkpt>
      <trkpt lat="48.678762" lon="10.710675">
        <ele>406.1</ele>
        <time>2026-06-22T18:43:41.509000Z</time>
      </trkpt>
      <trkpt lat="48.678786" lon="10.710624">
        <ele>406.2</ele>
        <time>2026-06-22T18:43:45.831000Z</time>
      </trkpt>
      <trkpt lat="48.678826" lon="10.710537">
        <ele>406.3</ele>
        <time>2026-06-22T18:43:53.111000Z</time>
      </trkpt>
      <trkpt lat="48.678882" lon="10.710382">
        <ele>406.4</ele>
        <time>2026-06-22T18:44:05.291000Z</time>
      </trkpt>
      <trkpt lat="48.678942" lon="10.710133">
        <ele>406.7</ele>
        <time>2026-06-22T18:44:23.753000Z</time>
      </trkpt>
      <trkpt lat="48.678987" lon="10.709931">
        <ele>406.9</ele>
        <time>2026-06-22T18:44:38.579000Z</time>
      </trkpt>
      <trkpt lat="48.679012" lon="10.709861">
        <ele>406.9</ele>
        <time>2026-06-22T18:44:44.107000Z</time>
      </trkpt>
      <trkpt lat="48.679103" lon="10.709779">
        <ele>407.1</ele>
        <time>2026-06-22T18:44:55.309000Z</time>
      </trkpt>
      <trkpt lat="48.679235" lon="10.70967">
        <ele>407.3</ele>
        <time>2026-06-22T18:45:11.091000Z</time>
      </trkpt>
      <trkpt lat="48.679269" lon="10.709641">
        <ele>407.4</ele>
        <time>2026-06-22T18:45:15.193000Z</time>
      </trkpt>
      <trkpt lat="48.679312" lon="10.709606">
        <ele>407.4</ele>
        <time>2026-06-22T18:45:20.154000Z</time>
      </trkpt>
      <trkpt lat="48.679374" lon="10.70957">
        <ele>407.5</ele>
        <time>2026-06-22T18:45:27.043000Z</time>
      </trkpt>
      <trkpt lat="48.679488" lon="10.709504">
        <ele>407.5</ele>
        <time>2026-06-22T18:45:39.542000Z</time>
      </trkpt>
      <trkpt lat="48.679608" lon="10.709464">
        <ele>407.6</ele>
        <time>2026-06-22T18:45:52.116000Z</time>
      </trkpt>
      <trkpt lat="48.679858" lon="10.709382">
        <ele>407.7</ele>
        <time>2026-06-22T18:46:18.089000Z</time>
      </trkpt>
      <trkpt lat="48.679886" lon="10.70937">
        <ele>407.7</ele>
        <time>2026-06-22T18:46:21.006000Z</time>
      </trkpt>
      <trkpt lat="48.679992" lon="10.70929">
        <ele>407.7</ele>
        <time>2026-06-22T18:46:32.814000Z</time>
      </trkpt>
      <trkpt lat="48.680118" lon="10.709147">
        <ele>407.7</ele>
        <time>2026-06-22T18:46:48.649000Z</time>
      </trkpt>
      <trkpt lat="48.680326" lon="10.709064">
        <ele>407.6</ele>
        <time>2026-06-22T18:47:10.335000Z</time>
      </trkpt>
      <trkpt lat="48.680409" lon="10.70908">
        <ele>407.6</ele>
        <time>2026-06-22T18:47:18.731000Z</time>
      </trkpt>
    </trkseg>
  </trk>
</gpx>