<?xml version="1.0" encoding="UTF-8"?>
<gpx xmlns="http://www.topografix.com/GPX/1/1" xmlns:xsi="http://www.w3.org/2001/XMLSchema-instance" xsi:schemaLocation="http://www.topografix.com/GPX/1/1 http://www.topografix.com/GPX/1/1/gpx.xsd" version="1.1" creator="Robert Kampf">
  <metadata>
    <name>Bank mit Kreuz – Blick auf Eismannsberg Runde von Rehrosbach</name>
    <desc>Distance: 7.677km, Estimated duration: 2.06h, Elevation up: 93.37796963800668m, Elevation down: 93.37796963800668m, Grade: moderate</desc>
    <author>
      <name>Robert Kampf</name>
      <link href="https://www.komoot.de/user/4125295338453">
        <text>View Robert Kampf's Profile on Komoot</text>
      </link>
    </author>
    <link href="https://www.komoot.de/tour/2721389018">
      <text>View tour on Komoot</text>
    </link>
  </metadata>
  <wpt lat="48.326738" lon="11.060659">
    <name>Eichenloft</name>
    <cmt></cmt>
    <desc></desc>
    <src>Komoot</src>
    <type>POI</type>
  </wpt>
  <wpt lat="48.32164" lon="11.062439">
    <ele>538.9</ele>
    <name>Eisenbach Field Cross</name>
    <cmt>https://d2exd72xrrp1s7.cloudfront.net/www/000/1k5/1s/1sqfwpyl6qqky16am1ry7x45dd3sx67viy-uhi35296553/0</cmt>
    <desc>GutZuFuss: Eisenbach
――――――――――
GutZuFuss: Feldkreuz</desc>
    <src>Komoot</src>
    <link href="https://www.komoot.de/highlight/3339946">
      <text>View POI on Komoot</text>
    </link>
    <type>Highlight</type>
  </wpt>
  <wpt lat="48.31148" lon="11.079737">
    <ele>568</ele>
    <name>Bench With Cross</name>
    <cmt>https://d2exd72xrrp1s7.cloudfront.net/www/000/1k5/vr/vrnkj8fh1sof19jocam4miv693zv9e00b-uhi44909431/0</cmt>
    <desc>JakobusPilger: „Jedes dieser Kreuze kann seine eigene Geschichte erzählen und was Menschen bewogen hat, „ihr“ Kreuz an dieser Stelle zu errichten. (...) Diese Wegekreuze sind als sichtbare Zeichen errichtet worden und ziehen die Blicke vieler Menschen auf sich. Das Kreuz ist ein Symbol des Lebens. Es steht als ein Zeichen für unsere christliche Hoffnung und will unseren Blick auf Jesus Christus richten, der den Tod überwunden hat (…). Das Kreuz gehört zu unserem Leben, so wie es im Leben Jesu dazu gehörte. 
So wünsche ich mir, dass viele Menschen … die Wegekreuze aufsuchen, ob als Orte der Stille und des Atemholens vor Gott, ob als Orte der Gemeindeversammlung, des Gebetes und des Gotteslobes.“
(Textquelle: Dechant Rainald M. Ollig 
in: „Wegekreuze... Sakrale Kleindenkmäler als Zeichen der Volksfrömmigkeit“)
――――――――――
petra schmid: Ein ruhiger Platz mit schöner Aussicht
――――――――――
KlaPePe: Die Bank ist ziemlich eingewachsen</desc>
    <src>Komoot</src>
    <link href="https://www.komoot.de/highlight/3340033">
      <text>View POI on Komoot</text>
    </link>
    <type>Highlight</type>
  </wpt>
  <wpt lat="48.31038" lon="11.078936">
    <ele>552.6</ele>
    <name>View of Eismannsberg</name>
    <cmt>https://d2exd72xrrp1s7.cloudfront.net/www/000/1k5/tz/tzs3ij4s8v7i1qbkyxtv34w0u3r0kzl2r-uhi32102065/0</cmt>
    <desc>michael scooot: In Rohrbach, bei der Kirche, ist eine ausgezeichnete Wirtschaft mit schönem Biergarten.</desc>
    <src>Komoot</src>
    <link href="https://www.komoot.de/highlight/3137682">
      <text>View POI on Komoot</text>
    </link>
    <type>Highlight</type>
  </wpt>
  <wpt lat="48.313321" lon="11.066379">
    <ele>538.7</ele>
    <name>Bench by the forest edge and giant willow</name>
    <cmt>https://d2exd72xrrp1s7.cloudfront.net/www/000/1k5/2h/2hkhjbz2e0bfpk7bykittkp53sx689ek-uhi35296569/0</cmt>
    <desc>KlaPePe: Eine Infotafel gibt es auch
――――――――――
petra schmid: Die Bank steht neben einer gigantischen Weide
――――――――――
GutZuFuss: Schöne Bank am Waldrand
――――――――――
GutZuFuss: Bank am Waldrand</desc>
    <src>Komoot</src>
    <link href="https://www.komoot.de/highlight/3340030">
      <text>View POI on Komoot</text>
    </link>
    <type>Highlight</type>
  </wpt>
  <trk>
    <name>Bank mit Kreuz – Blick auf Eismannsberg Runde von Rehrosbach</name>
    <desc>Distance: 7.677km, Estimated duration: 2.06h, Elevation up: 93.37796963800668m, Elevation down: 93.37796963800668m, Grade: moderate</desc>
    <link href="https://www.komoot.de/tour/2721389018">
      <text>View tour on Komoot</text>
    </link>
    <trkseg>
      <trkpt lat="48.326708" lon="11.060643">
        <ele>502.7</ele>
        <time>2025-12-20T11:47:41.360000Z</time>
      </trkpt>
      <trkpt lat="48.326649" lon="11.060893">
        <ele>502.5</ele>
        <time>2025-12-20T11:47:59.627000Z</time>
      </trkpt>
      <trkpt lat="48.32663" lon="11.060958">
        <ele>502.4</ele>
        <time>2025-12-20T11:48:04.547000Z</time>
      </trkpt>
      <trkpt lat="48.327329" lon="11.061452">
        <ele>500.1</ele>
        <time>2025-12-20T11:49:26.412000Z</time>
      </trkpt>
      <trkpt lat="48.327451" lon="11.061558">
        <ele>499.6</ele>
        <time>2025-12-20T11:49:41.634000Z</time>
      </trkpt>
      <trkpt lat="48.327483" lon="11.061652">
        <ele>499.3</ele>
        <time>2025-12-20T11:49:49.256000Z</time>
      </trkpt>
      <trkpt lat="48.327402" lon="11.061879">
        <ele>498.6</ele>
        <time>2025-12-20T11:50:07.839000Z</time>
      </trkpt>
      <trkpt lat="48.326064" lon="11.064951">
        <ele>487.1</ele>
        <time>2025-12-20T11:54:35.528000Z</time>
      </trkpt>
      <trkpt lat="48.325975" lon="11.065035">
        <ele>486.8</ele>
        <time>2025-12-20T11:54:46.656000Z</time>
      </trkpt>
      <trkpt lat="48.325258" lon="11.063734">
        <ele>485.8</ele>
        <time>2025-12-20T11:56:41.288000Z</time>
      </trkpt>
      <trkpt lat="48.324971" lon="11.063346">
        <ele>486.1</ele>
        <time>2025-12-20T11:57:21.027000Z</time>
      </trkpt>
      <trkpt lat="48.324684" lon="11.062958">
        <ele>486.5</ele>
        <time>2025-12-20T11:58:01.253000Z</time>
      </trkpt>
      <trkpt lat="48.324238" lon="11.062499">
        <ele>487.5</ele>
        <time>2025-12-20T11:58:58.667000Z</time>
      </trkpt>
      <trkpt lat="48.32409" lon="11.06241">
        <ele>487.7</ele>
        <time>2025-12-20T11:59:15.646000Z</time>
      </trkpt>
      <trkpt lat="48.323774" lon="11.06336">
        <ele>489.5</ele>
        <time>2025-12-20T12:00:32.676000Z</time>
      </trkpt>
      <trkpt lat="48.323577" lon="11.063206">
        <ele>490.2</ele>
        <time>2025-12-20T12:00:57.184000Z</time>
      </trkpt>
      <trkpt lat="48.32243" lon="11.063058">
        <ele>493.1</ele>
        <time>2025-12-20T12:03:02.570000Z</time>
      </trkpt>
      <trkpt lat="48.322229" lon="11.062664">
        <ele>493.6</ele>
        <time>2025-12-20T12:03:37.351000Z</time>
      </trkpt>
      <trkpt lat="48.322128" lon="11.062523">
        <ele>493.7</ele>
        <time>2025-12-20T12:03:51.642000Z</time>
      </trkpt>
      <trkpt lat="48.321975" lon="11.062406">
        <ele>493.8</ele>
        <time>2025-12-20T12:04:09.340000Z</time>
      </trkpt>
      <trkpt lat="48.321835" lon="11.062404">
        <ele>493.9</ele>
        <time>2025-12-20T12:04:23.587000Z</time>
      </trkpt>
      <trkpt lat="48.321722" lon="11.062478">
        <ele>494</ele>
        <time>2025-12-20T12:04:36.106000Z</time>
      </trkpt>
      <trkpt lat="48.321666" lon="11.062466">
        <ele>494</ele>
        <time>2025-12-20T12:04:41.786000Z</time>
      </trkpt>
      <trkpt lat="48.321648" lon="11.062475">
        <ele>494</ele>
        <time>2025-12-20T12:04:43.697000Z</time>
      </trkpt>
      <trkpt lat="48.321489" lon="11.062558">
        <ele>494</ele>
        <time>2025-12-20T12:05:00.549000Z</time>
      </trkpt>
      <trkpt lat="48.321389" lon="11.062647">
        <ele>494</ele>
        <time>2025-12-20T12:05:12.208000Z</time>
      </trkpt>
      <trkpt lat="48.321337" lon="11.062754">
        <ele>494</ele>
        <time>2025-12-20T12:05:21.071000Z</time>
      </trkpt>
      <trkpt lat="48.321208" lon="11.063277">
        <ele>494.1</ele>
        <time>2025-12-20T12:05:58.392000Z</time>
      </trkpt>
      <trkpt lat="48.321121" lon="11.063489">
        <ele>494.2</ele>
        <time>2025-12-20T12:06:15.398000Z</time>
      </trkpt>
      <trkpt lat="48.320961" lon="11.063769">
        <ele>494.4</ele>
        <time>2025-12-20T12:06:40.872000Z</time>
      </trkpt>
      <trkpt lat="48.320337" lon="11.064514">
        <ele>495.3</ele>
        <time>2025-12-20T12:08:03.716000Z</time>
      </trkpt>
      <trkpt lat="48.320428" lon="11.064741">
        <ele>495.5</ele>
        <time>2025-12-20T12:08:22.172000Z</time>
      </trkpt>
      <trkpt lat="48.320444" lon="11.064889">
        <ele>495.7</ele>
        <time>2025-12-20T12:08:32.622000Z</time>
      </trkpt>
      <trkpt lat="48.320409" lon="11.065051">
        <ele>495.8</ele>
        <time>2025-12-20T12:08:44.528000Z</time>
      </trkpt>
      <trkpt lat="48.320131" lon="11.065722">
        <ele>496.6</ele>
        <time>2025-12-20T12:09:39.995000Z</time>
      </trkpt>
      <trkpt lat="48.319521" lon="11.067312">
        <ele>498.8</ele>
        <time>2025-12-20T12:11:49.847000Z</time>
      </trkpt>
      <trkpt lat="48.319354" lon="11.067822">
        <ele>499.8</ele>
        <time>2025-12-20T12:12:31.277000Z</time>
      </trkpt>
      <trkpt lat="48.319142" lon="11.06889">
        <ele>502.3</ele>
        <time>2025-12-20T12:13:54.297000Z</time>
      </trkpt>
      <trkpt lat="48.319018" lon="11.069753">
        <ele>504.4</ele>
        <time>2025-12-20T12:15:00.425000Z</time>
      </trkpt>
      <trkpt lat="48.319002" lon="11.069927">
        <ele>504.8</ele>
        <time>2025-12-20T12:15:13.453000Z</time>
      </trkpt>
      <trkpt lat="48.319035" lon="11.070072">
        <ele>505.1</ele>
        <time>2025-12-20T12:15:24.726000Z</time>
      </trkpt>
      <trkpt lat="48.31903" lon="11.070343">
        <ele>505.7</ele>
        <time>2025-12-20T12:15:44.624000Z</time>
      </trkpt>
      <trkpt lat="48.318733" lon="11.072355">
        <ele>509.4</ele>
        <time>2025-12-20T12:18:15.157000Z</time>
      </trkpt>
      <trkpt lat="48.318705" lon="11.072739">
        <ele>510.2</ele>
        <time>2025-12-20T12:18:43.477000Z</time>
      </trkpt>
      <trkpt lat="48.318619" lon="11.073173">
        <ele>511.1</ele>
        <time>2025-12-20T12:19:16.753000Z</time>
      </trkpt>
      <trkpt lat="48.318363" lon="11.073218">
        <ele>511.9</ele>
        <time>2025-12-20T12:19:45.443000Z</time>
      </trkpt>
      <trkpt lat="48.317802" lon="11.072646">
        <ele>514.2</ele>
        <time>2025-12-20T12:21:01.181000Z</time>
      </trkpt>
      <trkpt lat="48.316906" lon="11.072619">
        <ele>517.3</ele>
        <time>2025-12-20T12:22:41.924000Z</time>
      </trkpt>
      <trkpt lat="48.316289" lon="11.072464">
        <ele>520.1</ele>
        <time>2025-12-20T12:23:54.179000Z</time>
      </trkpt>
      <trkpt lat="48.316062" lon="11.072634">
        <ele>521.3</ele>
        <time>2025-12-20T12:24:23.849000Z</time>
      </trkpt>
      <trkpt lat="48.315165" lon="11.073306">
        <ele>526.9</ele>
        <time>2025-12-20T12:26:23.371000Z</time>
      </trkpt>
      <trkpt lat="48.315016" lon="11.07328">
        <ele>527.5</ele>
        <time>2025-12-20T12:26:40.607000Z</time>
      </trkpt>
      <trkpt lat="48.314662" lon="11.072816">
        <ele>529.3</ele>
        <time>2025-12-20T12:27:33.672000Z</time>
      </trkpt>
      <trkpt lat="48.313795" lon="11.073417">
        <ele>530.7</ele>
        <time>2025-12-20T12:29:14.267000Z</time>
      </trkpt>
      <trkpt lat="48.313162" lon="11.074565">
        <ele>530.4</ele>
        <time>2025-12-20T12:30:54.116000Z</time>
      </trkpt>
      <trkpt lat="48.313736" lon="11.075164">
        <ele>531.1</ele>
        <time>2025-12-20T12:32:06.485000Z</time>
      </trkpt>
      <trkpt lat="48.314207" lon="11.075774">
        <ele>532</ele>
        <time>2025-12-20T12:33:11.986000Z</time>
      </trkpt>
      <trkpt lat="48.314309" lon="11.07598">
        <ele>532.2</ele>
        <time>2025-12-20T12:33:29.859000Z</time>
      </trkpt>
      <trkpt lat="48.314364" lon="11.076235">
        <ele>532.4</ele>
        <time>2025-12-20T12:33:48.287000Z</time>
      </trkpt>
      <trkpt lat="48.314493" lon="11.077137">
        <ele>532.7</ele>
        <time>2025-12-20T12:34:50.880000Z</time>
      </trkpt>
      <trkpt lat="48.314547" lon="11.07734">
        <ele>532.8</ele>
        <time>2025-12-20T12:35:05.685000Z</time>
      </trkpt>
      <trkpt lat="48.314653" lon="11.077737">
        <ele>533</ele>
        <time>2025-12-20T12:35:34.688000Z</time>
      </trkpt>
      <trkpt lat="48.314854" lon="11.078209">
        <ele>533.3</ele>
        <time>2025-12-20T12:36:13.297000Z</time>
      </trkpt>
      <trkpt lat="48.315071" lon="11.078519">
        <ele>533.8</ele>
        <time>2025-12-20T12:36:44.895000Z</time>
      </trkpt>
      <trkpt lat="48.315335" lon="11.079463">
        <ele>535.3</ele>
        <time>2025-12-20T12:37:58.523000Z</time>
      </trkpt>
      <trkpt lat="48.315657" lon="11.081098">
        <ele>537.5</ele>
        <time>2025-12-20T12:39:59.717000Z</time>
      </trkpt>
      <trkpt lat="48.315949" lon="11.081725">
        <ele>537.7</ele>
        <time>2025-12-20T12:40:51.363000Z</time>
      </trkpt>
      <trkpt lat="48.316199" lon="11.082726">
        <ele>536.6</ele>
        <time>2025-12-20T12:42:04.766000Z</time>
      </trkpt>
      <trkpt lat="48.316347" lon="11.083179">
        <ele>535.6</ele>
        <time>2025-12-20T12:42:40.510000Z</time>
      </trkpt>
      <trkpt lat="48.315025" lon="11.083483">
        <ele>527.6</ele>
        <time>2025-12-20T12:45:10.377000Z</time>
      </trkpt>
      <trkpt lat="48.314" lon="11.083784">
        <ele>519.1</ele>
        <time>2025-12-20T12:47:12.030000Z</time>
      </trkpt>
      <trkpt lat="48.313834" lon="11.083844">
        <ele>517.7</ele>
        <time>2025-12-20T12:47:31.841000Z</time>
      </trkpt>
      <trkpt lat="48.313634" lon="11.083994">
        <ele>516</ele>
        <time>2025-12-20T12:47:57.590000Z</time>
      </trkpt>
      <trkpt lat="48.312586" lon="11.084631">
        <ele>511.4</ele>
        <time>2025-12-20T12:50:00.153000Z</time>
      </trkpt>
      <trkpt lat="48.312213" lon="11.08308">
        <ele>512</ele>
        <time>2025-12-20T12:51:52.179000Z</time>
      </trkpt>
      <trkpt lat="48.311479" lon="11.079737">
        <ele>516.4</ele>
        <time>2025-12-20T12:56:02.246000Z</time>
      </trkpt>
      <trkpt lat="48.311471" lon="11.079701">
        <ele>516.4</ele>
        <time>2025-12-20T12:56:04.944000Z</time>
      </trkpt>
      <trkpt lat="48.311115" lon="11.079399">
        <ele>514.3</ele>
        <time>2025-12-20T12:56:50.051000Z</time>
      </trkpt>
      <trkpt lat="48.310368" lon="11.078985">
        <ele>507.4</ele>
        <time>2025-12-20T12:58:23.422000Z</time>
      </trkpt>
      <trkpt lat="48.310357" lon="11.078978">
        <ele>507.3</ele>
        <time>2025-12-20T12:58:24.834000Z</time>
      </trkpt>
      <trkpt lat="48.309623" lon="11.078759">
        <ele>501.2</ele>
        <time>2025-12-20T12:59:51.891000Z</time>
      </trkpt>
      <trkpt lat="48.309851" lon="11.076579">
        <ele>498.1</ele>
        <time>2025-12-20T13:02:25.229000Z</time>
      </trkpt>
      <trkpt lat="48.309965" lon="11.074436">
        <ele>499</ele>
        <time>2025-12-20T13:04:51.487000Z</time>
      </trkpt>
      <trkpt lat="48.310027" lon="11.074063">
        <ele>498.9</ele>
        <time>2025-12-20T13:05:17.210000Z</time>
      </trkpt>
      <trkpt lat="48.310832" lon="11.071405">
        <ele>496.2</ele>
        <time>2025-12-20T13:08:37.277000Z</time>
      </trkpt>
      <trkpt lat="48.311084" lon="11.070695">
        <ele>495.5</ele>
        <time>2025-12-20T13:09:32.380000Z</time>
      </trkpt>
      <trkpt lat="48.311514" lon="11.069725">
        <ele>494.7</ele>
        <time>2025-12-20T13:10:51.452000Z</time>
      </trkpt>
      <trkpt lat="48.311899" lon="11.068729">
        <ele>494.2</ele>
        <time>2025-12-20T13:12:09.227000Z</time>
      </trkpt>
      <trkpt lat="48.312337" lon="11.06728">
        <ele>493.8</ele>
        <time>2025-12-20T13:13:56.140000Z</time>
      </trkpt>
      <trkpt lat="48.312564" lon="11.066628">
        <ele>493.7</ele>
        <time>2025-12-20T13:14:45.167000Z</time>
      </trkpt>
      <trkpt lat="48.312554" lon="11.066418">
        <ele>493.7</ele>
        <time>2025-12-20T13:14:59.229000Z</time>
      </trkpt>
      <trkpt lat="48.31273" lon="11.066605">
        <ele>493.8</ele>
        <time>2025-12-20T13:15:20.886000Z</time>
      </trkpt>
      <trkpt lat="48.31279" lon="11.066734">
        <ele>493.8</ele>
        <time>2025-12-20T13:15:31.487000Z</time>
      </trkpt>
      <trkpt lat="48.312976" lon="11.066821">
        <ele>493.9</ele>
        <time>2025-12-20T13:15:51.455000Z</time>
      </trkpt>
      <trkpt lat="48.313106" lon="11.066835">
        <ele>494.1</ele>
        <time>2025-12-20T13:16:05.192000Z</time>
      </trkpt>
      <trkpt lat="48.313266" lon="11.066457">
        <ele>494.7</ele>
        <time>2025-12-20T13:16:37.170000Z</time>
      </trkpt>
      <trkpt lat="48.313319" lon="11.066376">
        <ele>494.9</ele>
        <time>2025-12-20T13:16:45.476000Z</time>
      </trkpt>
      <trkpt lat="48.313383" lon="11.066278">
        <ele>495.2</ele>
        <time>2025-12-20T13:16:55.523000Z</time>
      </trkpt>
      <trkpt lat="48.313654" lon="11.066089">
        <ele>496.3</ele>
        <time>2025-12-20T13:17:29.161000Z</time>
      </trkpt>
      <trkpt lat="48.314324" lon="11.065934">
        <ele>499.5</ele>
        <time>2025-12-20T13:18:48.094000Z</time>
      </trkpt>
      <trkpt lat="48.315024" lon="11.065427">
        <ele>504.1</ele>
        <time>2025-12-20T13:20:21.676000Z</time>
      </trkpt>
      <trkpt lat="48.315609" lon="11.064401">
        <ele>508.8</ele>
        <time>2025-12-20T13:22:08.030000Z</time>
      </trkpt>
      <trkpt lat="48.315806" lon="11.064251">
        <ele>509.8</ele>
        <time>2025-12-20T13:22:33.677000Z</time>
      </trkpt>
      <trkpt lat="48.316867" lon="11.064029">
        <ele>511.9</ele>
        <time>2025-12-20T13:24:28.414000Z</time>
      </trkpt>
      <trkpt lat="48.318308" lon="11.064088">
        <ele>507</ele>
        <time>2025-12-20T13:27:02.723000Z</time>
      </trkpt>
      <trkpt lat="48.31876" lon="11.064223">
        <ele>504.3</ele>
        <time>2025-12-20T13:27:54.272000Z</time>
      </trkpt>
      <trkpt lat="48.319177" lon="11.064398">
        <ele>501.8</ele>
        <time>2025-12-20T13:28:42.753000Z</time>
      </trkpt>
      <trkpt lat="48.319372" lon="11.064434">
        <ele>500.7</ele>
        <time>2025-12-20T13:29:04.579000Z</time>
      </trkpt>
      <trkpt lat="48.31995" lon="11.064433">
        <ele>497.9</ele>
        <time>2025-12-20T13:30:08.159000Z</time>
      </trkpt>
      <trkpt lat="48.320222" lon="11.064529">
        <ele>496.8</ele>
        <time>2025-12-20T13:30:38.367000Z</time>
      </trkpt>
      <trkpt lat="48.320337" lon="11.064514">
        <ele>496.4</ele>
        <time>2025-12-20T13:30:50.783000Z</time>
      </trkpt>
      <trkpt lat="48.320961" lon="11.063769">
        <ele>494.5</ele>
        <time>2025-12-20T13:32:14.373000Z</time>
      </trkpt>
      <trkpt lat="48.321121" lon="11.063489">
        <ele>494.2</ele>
        <time>2025-12-20T13:32:39.641000Z</time>
      </trkpt>
      <trkpt lat="48.321208" lon="11.063277">
        <ele>494.1</ele>
        <time>2025-12-20T13:32:56.470000Z</time>
      </trkpt>
      <trkpt lat="48.321337" lon="11.062754">
        <ele>494</ele>
        <time>2025-12-20T13:33:33.694000Z</time>
      </trkpt>
      <trkpt lat="48.321389" lon="11.062647">
        <ele>494</ele>
        <time>2025-12-20T13:33:42.544000Z</time>
      </trkpt>
      <trkpt lat="48.321489" lon="11.062558">
        <ele>494</ele>
        <time>2025-12-20T13:33:54.209000Z</time>
      </trkpt>
      <trkpt lat="48.321648" lon="11.062475">
        <ele>494</ele>
        <time>2025-12-20T13:34:11.047000Z</time>
      </trkpt>
      <trkpt lat="48.321666" lon="11.062466">
        <ele>494</ele>
        <time>2025-12-20T13:34:12.953000Z</time>
      </trkpt>
      <trkpt lat="48.321722" lon="11.062478">
        <ele>494</ele>
        <time>2025-12-20T13:34:18.630000Z</time>
      </trkpt>
      <trkpt lat="48.321835" lon="11.062404">
        <ele>493.9</ele>
        <time>2025-12-20T13:34:31.076000Z</time>
      </trkpt>
      <trkpt lat="48.321975" lon="11.062406">
        <ele>493.8</ele>
        <time>2025-12-20T13:34:45.204000Z</time>
      </trkpt>
      <trkpt lat="48.322128" lon="11.062523">
        <ele>493.7</ele>
        <time>2025-12-20T13:35:02.705000Z</time>
      </trkpt>
      <trkpt lat="48.322229" lon="11.062664">
        <ele>493.6</ele>
        <time>2025-12-20T13:35:16.773000Z</time>
      </trkpt>
      <trkpt lat="48.32243" lon="11.063058">
        <ele>493.1</ele>
        <time>2025-12-20T13:35:50.845000Z</time>
      </trkpt>
      <trkpt lat="48.323577" lon="11.063206">
        <ele>490.2</ele>
        <time>2025-12-20T13:37:52.013000Z</time>
      </trkpt>
      <trkpt lat="48.323774" lon="11.06336">
        <ele>489.5</ele>
        <time>2025-12-20T13:38:15.544000Z</time>
      </trkpt>
      <trkpt lat="48.32409" lon="11.06241">
        <ele>487.7</ele>
        <time>2025-12-20T13:39:29.941000Z</time>
      </trkpt>
      <trkpt lat="48.324238" lon="11.062499">
        <ele>487.5</ele>
        <time>2025-12-20T13:39:46.490000Z</time>
      </trkpt>
      <trkpt lat="48.324684" lon="11.062958">
        <ele>486.5</ele>
        <time>2025-12-20T13:40:42.536000Z</time>
      </trkpt>
      <trkpt lat="48.324971" lon="11.063346">
        <ele>486.1</ele>
        <time>2025-12-20T13:41:22.085000Z</time>
      </trkpt>
      <trkpt lat="48.325258" lon="11.063734">
        <ele>485.8</ele>
        <time>2025-12-20T13:42:01.357000Z</time>
      </trkpt>
      <trkpt lat="48.325975" lon="11.065035">
        <ele>486.8</ele>
        <time>2025-12-20T13:43:57.580000Z</time>
      </trkpt>
      <trkpt lat="48.326064" lon="11.064951">
        <ele>487.1</ele>
        <time>2025-12-20T13:44:09.125000Z</time>
      </trkpt>
      <trkpt lat="48.327402" lon="11.061879">
        <ele>498.6</ele>
        <time>2025-12-20T13:48:53.329000Z</time>
      </trkpt>
      <trkpt lat="48.327483" lon="11.061652">
        <ele>499.3</ele>
        <time>2025-12-20T13:49:12.957000Z</time>
      </trkpt>
      <trkpt lat="48.327451" lon="11.061558">
        <ele>499.6</ele>
        <time>2025-12-20T13:49:20.997000Z</time>
      </trkpt>
      <trkpt lat="48.327329" lon="11.061452">
        <ele>500.1</ele>
        <time>2025-12-20T13:49:37.028000Z</time>
      </trkpt>
      <trkpt lat="48.32663" lon="11.060958">
        <ele>502.4</ele>
        <time>2025-12-20T13:51:02.123000Z</time>
      </trkpt>
      <trkpt lat="48.326649" lon="11.060893">
        <ele>502.5</ele>
        <time>2025-12-20T13:51:07.186000Z</time>
      </trkpt>
      <trkpt lat="48.326708" lon="11.060643">
        <ele>502.7</ele>
        <time>2025-12-20T13:51:25.892000Z</time>
      </trkpt>
    </trkseg>
  </trk>
</gpx>