<?xml version="1.0" encoding="UTF-8"?>
<gpx xmlns="http://www.topografix.com/GPX/1/1" xmlns:xsi="http://www.w3.org/2001/XMLSchema-instance" xsi:schemaLocation="http://www.topografix.com/GPX/1/1 http://www.topografix.com/GPX/1/1/gpx.xsd" version="1.1" creator="Robert Kampf">
  <metadata>
    <name>Bank am Waldteich – Waldteich mit Bäumen Runde von Hergertswiesen</name>
    <desc>Distance: 4.168km, Estimated duration: 1.13h, Elevation up: 58.61797931654735m, Elevation down: 58.617979316547576m, Grade: easy</desc>
    <author>
      <name>Robert Kampf</name>
      <link href="https://www.komoot.de/user/4125295338453">
        <text>View Robert Kampf's Profile on Komoot</text>
      </link>
    </author>
    <link href="https://www.komoot.de/tour/2727579689">
      <text>View tour on Komoot</text>
    </link>
  </metadata>
  <wpt lat="48.335368" lon="11.104935">
    <name>Parking</name>
    <cmt></cmt>
    <desc>Free</desc>
    <src>Komoot</src>
    <type>POI</type>
  </wpt>
  <wpt lat="48.330472" lon="11.100217">
    <ele>504</ele>
    <name>Bench by the Forest Pond</name>
    <cmt>https://d2exd72xrrp1s7.cloudfront.net/www/000/1k9/su/sux9lhheymfjuyth1kwupnqr5d5wobsz-uhi86280087/0</cmt>
    <desc></desc>
    <src>Komoot</src>
    <link href="https://www.komoot.de/highlight/7442825">
      <text>View POI on Komoot</text>
    </link>
    <type>Highlight</type>
  </wpt>
  <wpt lat="48.330843" lon="11.101841">
    <ele>509.1</ele>
    <name>Forest pond with trees</name>
    <cmt>https://d2exd72xrrp1s7.cloudfront.net/www/000/1k8/1f/1feofv6zlb8we1x439zgv6am6152pylumt-uhi76402041/0</cmt>
    <desc></desc>
    <src>Komoot</src>
    <link href="https://www.komoot.de/highlight/1125182">
      <text>View POI on Komoot</text>
    </link>
    <type>Highlight</type>
  </wpt>
  <trk>
    <name>Bank am Waldteich – Waldteich mit Bäumen Runde von Hergertswiesen</name>
    <desc>Distance: 4.168km, Estimated duration: 1.13h, Elevation up: 58.61797931654735m, Elevation down: 58.617979316547576m, Grade: easy</desc>
    <link href="https://www.komoot.de/tour/2727579689">
      <text>View tour on Komoot</text>
    </link>
    <trkseg>
      <trkpt lat="48.335405" lon="11.104894">
        <ele>537</ele>
        <time>2025-12-26T11:12:07.215000Z</time>
      </trkpt>
      <trkpt lat="48.335286" lon="11.104651">
        <ele>536.9</ele>
        <time>2025-12-26T11:12:27.525000Z</time>
      </trkpt>
      <trkpt lat="48.335174" lon="11.104485">
        <ele>536.7</ele>
        <time>2025-12-26T11:12:43.547000Z</time>
      </trkpt>
      <trkpt lat="48.335119" lon="11.104443">
        <ele>536.7</ele>
        <time>2025-12-26T11:12:49.871000Z</time>
      </trkpt>
      <trkpt lat="48.335043" lon="11.104878">
        <ele>536.1</ele>
        <time>2025-12-26T11:13:20.968000Z</time>
      </trkpt>
      <trkpt lat="48.334822" lon="11.104767">
        <ele>535.5</ele>
        <time>2025-12-26T11:13:45.438000Z</time>
      </trkpt>
      <trkpt lat="48.334644" lon="11.104718">
        <ele>535</ele>
        <time>2025-12-26T11:14:04.779000Z</time>
      </trkpt>
      <trkpt lat="48.334522" lon="11.104605">
        <ele>534.4</ele>
        <time>2025-12-26T11:14:20.223000Z</time>
      </trkpt>
      <trkpt lat="48.334373" lon="11.104408">
        <ele>533.6</ele>
        <time>2025-12-26T11:14:41.753000Z</time>
      </trkpt>
      <trkpt lat="48.333929" lon="11.103527">
        <ele>529.3</ele>
        <time>2025-12-26T11:16:03.918000Z</time>
      </trkpt>
      <trkpt lat="48.333772" lon="11.102485">
        <ele>524.3</ele>
        <time>2025-12-26T11:17:25.084000Z</time>
      </trkpt>
      <trkpt lat="48.333483" lon="11.101767">
        <ele>520.2</ele>
        <time>2025-12-26T11:18:29.159000Z</time>
      </trkpt>
      <trkpt lat="48.333181" lon="11.101196">
        <ele>516.6</ele>
        <time>2025-12-26T11:19:24.965000Z</time>
      </trkpt>
      <trkpt lat="48.332468" lon="11.100552">
        <ele>511</ele>
        <time>2025-12-26T11:20:59.369000Z</time>
      </trkpt>
      <trkpt lat="48.332182" lon="11.100483">
        <ele>509.6</ele>
        <time>2025-12-26T11:21:31.184000Z</time>
      </trkpt>
      <trkpt lat="48.331886" lon="11.100535">
        <ele>508.5</ele>
        <time>2025-12-26T11:22:03.383000Z</time>
      </trkpt>
      <trkpt lat="48.331583" lon="11.10081">
        <ele>507.3</ele>
        <time>2025-12-26T11:22:41.109000Z</time>
      </trkpt>
      <trkpt lat="48.331526" lon="11.101153">
        <ele>506.8</ele>
        <time>2025-12-26T11:23:05.829000Z</time>
      </trkpt>
      <trkpt lat="48.331412" lon="11.101479">
        <ele>506.5</ele>
        <time>2025-12-26T11:23:30.965000Z</time>
      </trkpt>
      <trkpt lat="48.331383" lon="11.101763">
        <ele>506.5</ele>
        <time>2025-12-26T11:23:50.118000Z</time>
      </trkpt>
      <trkpt lat="48.33131" lon="11.101891">
        <ele>506.5</ele>
        <time>2025-12-26T11:24:01.601000Z</time>
      </trkpt>
      <trkpt lat="48.330986" lon="11.10199">
        <ele>507</ele>
        <time>2025-12-26T11:24:36.343000Z</time>
      </trkpt>
      <trkpt lat="48.330773" lon="11.101973">
        <ele>507.4</ele>
        <time>2025-12-26T11:24:59.301000Z</time>
      </trkpt>
      <trkpt lat="48.330426" lon="11.102586">
        <ele>508.7</ele>
        <time>2025-12-26T11:25:57.294000Z</time>
      </trkpt>
      <trkpt lat="48.329978" lon="11.103496">
        <ele>511.1</ele>
        <time>2025-12-26T11:27:21.156000Z</time>
      </trkpt>
      <trkpt lat="48.32938" lon="11.104138">
        <ele>512.8</ele>
        <time>2025-12-26T11:28:40.559000Z</time>
      </trkpt>
      <trkpt lat="48.328998" lon="11.104632">
        <ele>513.4</ele>
        <time>2025-12-26T11:29:33.228000Z</time>
      </trkpt>
      <trkpt lat="48.328761" lon="11.105177">
        <ele>513.8</ele>
        <time>2025-12-26T11:30:17.989000Z</time>
      </trkpt>
      <trkpt lat="48.328589" lon="11.106045">
        <ele>514.2</ele>
        <time>2025-12-26T11:31:19.589000Z</time>
      </trkpt>
      <trkpt lat="48.328322" lon="11.106884">
        <ele>514.2</ele>
        <time>2025-12-26T11:32:21.526000Z</time>
      </trkpt>
      <trkpt lat="48.32798" lon="11.107478">
        <ele>514.1</ele>
        <time>2025-12-26T11:33:13.922000Z</time>
      </trkpt>
      <trkpt lat="48.327686" lon="11.107597">
        <ele>514.3</ele>
        <time>2025-12-26T11:33:44.803000Z</time>
      </trkpt>
      <trkpt lat="48.327314" lon="11.107823">
        <ele>514.6</ele>
        <time>2025-12-26T11:34:26.162000Z</time>
      </trkpt>
      <trkpt lat="48.326637" lon="11.10885">
        <ele>516.8</ele>
        <time>2025-12-26T11:36:10.154000Z</time>
      </trkpt>
      <trkpt lat="48.326599" lon="11.109339">
        <ele>517.8</ele>
        <time>2025-12-26T11:36:46.610000Z</time>
      </trkpt>
      <trkpt lat="48.326444" lon="11.110209">
        <ele>519.6</ele>
        <time>2025-12-26T11:37:52.601000Z</time>
      </trkpt>
      <trkpt lat="48.326357" lon="11.110551">
        <ele>520.2</ele>
        <time>2025-12-26T11:38:19.202000Z</time>
      </trkpt>
      <trkpt lat="48.326122" lon="11.110736">
        <ele>520.8</ele>
        <time>2025-12-26T11:38:47.965000Z</time>
      </trkpt>
      <trkpt lat="48.325944" lon="11.110769">
        <ele>521.3</ele>
        <time>2025-12-26T11:39:07.422000Z</time>
      </trkpt>
      <trkpt lat="48.325732" lon="11.110712">
        <ele>521.8</ele>
        <time>2025-12-26T11:39:30.894000Z</time>
      </trkpt>
      <trkpt lat="48.325696" lon="11.110655">
        <ele>521.9</ele>
        <time>2025-12-26T11:39:36.576000Z</time>
      </trkpt>
      <trkpt lat="48.325561" lon="11.110438">
        <ele>522.4</ele>
        <time>2025-12-26T11:39:58.122000Z</time>
      </trkpt>
      <trkpt lat="48.325313" lon="11.110131">
        <ele>523.3</ele>
        <time>2025-12-26T11:40:33.200000Z</time>
      </trkpt>
      <trkpt lat="48.324838" lon="11.109753">
        <ele>524.8</ele>
        <time>2025-12-26T11:41:32.223000Z</time>
      </trkpt>
      <trkpt lat="48.324455" lon="11.109331">
        <ele>526.1</ele>
        <time>2025-12-26T11:42:24.323000Z</time>
      </trkpt>
      <trkpt lat="48.324237" lon="11.108969">
        <ele>526.9</ele>
        <time>2025-12-26T11:42:59.758000Z</time>
      </trkpt>
      <trkpt lat="48.323582" lon="11.107546">
        <ele>529.6</ele>
        <time>2025-12-26T11:45:04.402000Z</time>
      </trkpt>
      <trkpt lat="48.323281" lon="11.106977">
        <ele>530</ele>
        <time>2025-12-26T11:45:54.229000Z</time>
      </trkpt>
      <trkpt lat="48.323193" lon="11.106878">
        <ele>530</ele>
        <time>2025-12-26T11:46:05.329000Z</time>
      </trkpt>
      <trkpt lat="48.323358" lon="11.104328">
        <ele>527.8</ele>
        <time>2025-12-26T11:49:00.409000Z</time>
      </trkpt>
      <trkpt lat="48.323353" lon="11.104035">
        <ele>527.6</ele>
        <time>2025-12-26T11:49:20.381000Z</time>
      </trkpt>
      <trkpt lat="48.323296" lon="11.103796">
        <ele>527.4</ele>
        <time>2025-12-26T11:49:37.632000Z</time>
      </trkpt>
      <trkpt lat="48.323929" lon="11.103347">
        <ele>527.5</ele>
        <time>2025-12-26T11:50:48.043000Z</time>
      </trkpt>
      <trkpt lat="48.324219" lon="11.103164">
        <ele>527.9</ele>
        <time>2025-12-26T11:51:21.029000Z</time>
      </trkpt>
      <trkpt lat="48.325153" lon="11.10255">
        <ele>530.1</ele>
        <time>2025-12-26T11:53:10.484000Z</time>
      </trkpt>
      <trkpt lat="48.326307" lon="11.101792">
        <ele>531.1</ele>
        <time>2025-12-26T11:55:20.066000Z</time>
      </trkpt>
      <trkpt lat="48.326903" lon="11.101388">
        <ele>529.2</ele>
        <time>2025-12-26T11:56:29.392000Z</time>
      </trkpt>
      <trkpt lat="48.330129" lon="11.099269">
        <ele>508.5</ele>
        <time>2025-12-26T12:03:03.401000Z</time>
      </trkpt>
      <trkpt lat="48.330504" lon="11.100187">
        <ele>506.3</ele>
        <time>2025-12-26T12:04:19.777000Z</time>
      </trkpt>
      <trkpt lat="48.330555" lon="11.100311">
        <ele>506.1</ele>
        <time>2025-12-26T12:04:29.921000Z</time>
      </trkpt>
      <trkpt lat="48.330683" lon="11.100691">
        <ele>505.6</ele>
        <time>2025-12-26T12:04:59.121000Z</time>
      </trkpt>
      <trkpt lat="48.330764" lon="11.101853">
        <ele>505.7</ele>
        <time>2025-12-26T12:06:17.065000Z</time>
      </trkpt>
      <trkpt lat="48.330773" lon="11.101973">
        <ele>505.7</ele>
        <time>2025-12-26T12:06:25.216000Z</time>
      </trkpt>
      <trkpt lat="48.330986" lon="11.10199">
        <ele>505.8</ele>
        <time>2025-12-26T12:06:46.979000Z</time>
      </trkpt>
      <trkpt lat="48.33131" lon="11.101891">
        <ele>506</ele>
        <time>2025-12-26T12:07:20.800000Z</time>
      </trkpt>
      <trkpt lat="48.331383" lon="11.101763">
        <ele>506.1</ele>
        <time>2025-12-26T12:07:32.413000Z</time>
      </trkpt>
      <trkpt lat="48.331412" lon="11.101479">
        <ele>506.4</ele>
        <time>2025-12-26T12:07:52.315000Z</time>
      </trkpt>
      <trkpt lat="48.331526" lon="11.101153">
        <ele>506.8</ele>
        <time>2025-12-26T12:08:18.317000Z</time>
      </trkpt>
      <trkpt lat="48.331583" lon="11.10081">
        <ele>507.3</ele>
        <time>2025-12-26T12:08:43.872000Z</time>
      </trkpt>
      <trkpt lat="48.331886" lon="11.100535">
        <ele>508.5</ele>
        <time>2025-12-26T12:09:23.282000Z</time>
      </trkpt>
      <trkpt lat="48.332182" lon="11.100483">
        <ele>509.6</ele>
        <time>2025-12-26T12:09:57.118000Z</time>
      </trkpt>
      <trkpt lat="48.332468" lon="11.100552">
        <ele>511</ele>
        <time>2025-12-26T12:10:30.978000Z</time>
      </trkpt>
      <trkpt lat="48.333181" lon="11.101196">
        <ele>516.6</ele>
        <time>2025-12-26T12:12:13.252000Z</time>
      </trkpt>
      <trkpt lat="48.333483" lon="11.101767">
        <ele>520.2</ele>
        <time>2025-12-26T12:13:14.145000Z</time>
      </trkpt>
      <trkpt lat="48.333772" lon="11.102485">
        <ele>524.3</ele>
        <time>2025-12-26T12:14:24.014000Z</time>
      </trkpt>
      <trkpt lat="48.333929" lon="11.103527">
        <ele>529.3</ele>
        <time>2025-12-26T12:15:52.278000Z</time>
      </trkpt>
      <trkpt lat="48.334373" lon="11.104408">
        <ele>533.6</ele>
        <time>2025-12-26T12:17:20.496000Z</time>
      </trkpt>
      <trkpt lat="48.334522" lon="11.104605">
        <ele>534.4</ele>
        <time>2025-12-26T12:17:43.267000Z</time>
      </trkpt>
      <trkpt lat="48.334644" lon="11.104718">
        <ele>535</ele>
        <time>2025-12-26T12:17:59.485000Z</time>
      </trkpt>
      <trkpt lat="48.334822" lon="11.104767">
        <ele>535.5</ele>
        <time>2025-12-26T12:18:19.663000Z</time>
      </trkpt>
      <trkpt lat="48.335043" lon="11.104878">
        <ele>536.1</ele>
        <time>2025-12-26T12:18:45.006000Z</time>
      </trkpt>
      <trkpt lat="48.335119" lon="11.104443">
        <ele>536.7</ele>
        <time>2025-12-26T12:19:16.893000Z</time>
      </trkpt>
      <trkpt lat="48.335174" lon="11.104485">
        <ele>536.7</ele>
        <time>2025-12-26T12:19:23.331000Z</time>
      </trkpt>
      <trkpt lat="48.335286" lon="11.104651">
        <ele>536.9</ele>
        <time>2025-12-26T12:19:39.578000Z</time>
      </trkpt>
      <trkpt lat="48.335405" lon="11.104894">
        <ele>537</ele>
        <time>2025-12-26T12:20:00.050000Z</time>
      </trkpt>
    </trkseg>
  </trk>
</gpx>