<?xml version="1.0" encoding="UTF-8"?>
<gpx xmlns="http://www.topografix.com/GPX/1/1" xmlns:xsi="http://www.w3.org/2001/XMLSchema-instance" xsi:schemaLocation="http://www.topografix.com/GPX/1/1 http://www.topografix.com/GPX/1/1/gpx.xsd" version="1.1" creator="Robert Kampf">
  <metadata>
    <name>Blick auf den Amperkanal – Gündinger Wehr an der Amper Runde von Ampertal</name>
    <desc>Distance: 8.992km, Estimated duration: 2.27h, Elevation up: 16.813153289973798m, Elevation down: 16.77797186404598m, Grade: moderate</desc>
    <author>
      <name>Robert Kampf</name>
      <link href="https://www.komoot.de/user/4125295338453">
        <text>View Robert Kampf's Profile on Komoot</text>
      </link>
    </author>
    <link href="https://www.komoot.de/tour/2829816522">
      <text>View tour on Komoot</text>
    </link>
  </metadata>
  <wpt lat="48.232301" lon="11.360377">
    <name>Graßlfing, Josef-Kistler-Weg</name>
    <cmt></cmt>
    <desc></desc>
    <src>Komoot</src>
    <type>POI</type>
  </wpt>
  <wpt lat="48.245871" lon="11.38642">
    <ele>500.4</ele>
    <name>Fish in the Amper River</name>
    <cmt>https://d2exd72xrrp1s7.cloudfront.net/www/000/1k9/hy/hy0jautgt3nk1nwv19cfks2ol5hkqerpu-uhi92312475/0</cmt>
    <desc>Knersi (📍Maisach): Die Fische gibt es oft zu beobachten.</desc>
    <src>Komoot</src>
    <link href="https://www.komoot.de/highlight/5051650">
      <text>View POI on Komoot</text>
    </link>
    <type>Highlight</type>
  </wpt>
  <wpt lat="48.246853" lon="11.394114">
    <ele>537.4</ele>
    <name>View of the Amper Canal</name>
    <cmt>https://d2exd72xrrp1s7.cloudfront.net/www/000/1k3/25/25n4jm9ody3rc2rs97kxawew32vt6w62-uhi7408750/0</cmt>
    <desc>Anne FFB: Sehr breite und gute Wege.
――――――――――
Peter: Ein sehr schöner Blick
――――――――――
Andrea: Man kann zu beiden Seiten des Amperkanals herrlich spazieren gehen. Im Frühjahr sieht man immer wieder Enten mit ihren Küken. Hinter dem Kraftwerk liegt das Naturfreundehaus sehr idyllisch mitten in der Amper. Sonntags ist dort meistens geöffnet und man kann dort eine kleine Erfrischung erstehen. Entlang der Amper gelangt man einerseits nach Dachau und entgegengesetzt Richtung Olching.
――――――――――
Knersi (📍Maisach): Schöner Weg entlang der Amper,  man sieht Fische und Enten.
――――――――――
Carsten (📍FFB): Man kann links oder rechts von der Amper fahren.
Am Wochenende gut besucht. Achtung auf Fußgänger.
――――――――――
Alex FFB: Für ein Foto allemal lohnenswert
――――――――――
Monal: Sehr schön hier der Kanal
――――――――――
Knersi (📍Maisach): Schöne Wege hier entlang.
――――――――――
Boris 🚴 🏃🐾🐕‍🦺: Ich würde sagen, dass man nicht von Oberföhring nicht zur Amper fahren sollte, dass ist alles zulang und auch nicht besonders schön. Aber wenn man von Puchheim, Eichenau, Gröbenzell und Olching, dann aber schon. Entlang der Amper macht das Fahrrad fahren wirklich schön.
――――――――――
RITTER MARTON 🐑 🐿: der weg ist im winter auch gut zu gehen
――――――――――
David Meyer: Schöne Brücke für eine kleine Pause.
――――――――――
Markus H.: Schöner Weg zum Spazieren</desc>
    <src>Komoot</src>
    <link href="https://www.komoot.de/highlight/935825">
      <text>View POI on Komoot</text>
    </link>
    <type>Highlight</type>
  </wpt>
  <wpt lat="48.245532" lon="11.392759">
    <ele>530.4</ele>
    <name>Fish pass at the Amper weir</name>
    <cmt>https://d2exd72xrrp1s7.cloudfront.net/www/000/1k7/1o/1oujymmm00leu1gfvz1wy3ukw84iiwbxg2-uhi58315017/0</cmt>
    <desc>Knersi (📍Maisach): Umgehungsbach um das Wehr angelegt, damit die Fische und andere Wasserorganismen in den Oberlauf der Amper gelangen.
――――――――――
Reinhold Maier:   Zu l zzss wh</desc>
    <src>Komoot</src>
    <link href="https://www.komoot.de/highlight/5565328">
      <text>View POI on Komoot</text>
    </link>
    <type>Highlight</type>
  </wpt>
  <wpt lat="48.245645" lon="11.392488">
    <ele>488</ele>
    <name>Gündinger Weir on the Amper River</name>
    <cmt>https://d2exd72xrrp1s7.cloudfront.net/www/000/1k6/wc/wchgzk2ptiew1nof6p3k2o1jq444hv1qr-uhi47897897/0</cmt>
    <desc>Carsten (📍FFB): Schöner Platz.
Bei Hochwasser rauscht es ordentlich.👍🏼😁
――――――――――
🗺 • Michael • 🧭: Faszinierender Anblick, vor allem bei Hochwasser. Einfach immer wieder beeindruckend welche Kraft Wasser doch aufbringt.
――――――――――
Anne FFB: Schön anzuschauen, kann man gut bei einem Päuschen 👍
――――――――――
Carsten (📍FFB): Schöne Stecken und tolle Eindrücke von der Natur erwarten einen.
――――――――――
Thomas: Perfekter Platz für eine kurze Pause!
――――――――――
Carsten (📍FFB): Schöner Platz.👍🏼
――――――――――
TomTom: Toller Ausblick; immer einen Ausflug wert
――――――――――
Alex FFB: Kann man mal anhalten 😊
――――――――――
🅰️H🍀: Hier wird der Amper Kanal für das Gündinger Wasserkraftwerk abgeleitet. 

FACEBOOK (Stadtwerke Dachau, 2023-09-03): 
https://www.facebook.com/stadtwerke.dachau/videos/das-gündinger-wasserkraftwerk-aus-der-vogelperspektive/367281391355849/ 
“Das Gündinger Wasserkraftwerk aus der Vogelperspektive”
――――――――――
Gipfelglück: Sehr schön und idyllisch. Lädt zum Planschen ein 🏊🏻‍♀️
――――――――――
Knersi (📍Maisach): Das Gündinger Wehr ist ein Anziehungspunkt für Technikinteressierte, Freizeit Liebhaber, Wanderer und eben Fotografen.
――――――――――
FatmodulAnt🖤: Schönes Wehr an der Amper
――――――――――
🗺 • Michael • 🧭: Bei Hochwasser immer wieder beeindruckend was für eine Kraft Wasser doch aufbringt. Ähnlich einem Lagerfeuer, dem man stundenlang zusehen kann. (So geht es zumindest mir :D )
――――――――――
Markus: Schöner Platz in toller Umgebung
――――――――――
🅰️H🍀: Hier wird der Amper Kanal für das Gündinger Wasserkraftwerk abgeleitet. 

FACEBOOK (Stadtwerke Dachau, 2023-09-03): 
https://www.facebook.com/stadtwerke.dachau/videos/das-gündinger-wasserkraftwerk-aus-der-vogelperspektive/367281391355849/ 
“Das Gündinger Wasserkraftwerk aus der Vogelperspektive”
――――――――――
Knersi (📍Maisach): https://www.facebook.com/stadtwerke.dachau/videos/das-gündinger-wasserkraftwerk-aus-der-vogelperspektive/367281391355849/ 
“Das Gündinger Wasserkraftwerk aus der Vogelperspektive”
――――――――――
Gitti: Zusammenfluss von Würm und Amper.</desc>
    <src>Komoot</src>
    <link href="https://www.komoot.de/highlight/566643">
      <text>View POI on Komoot</text>
    </link>
    <type>Highlight</type>
  </wpt>
  <wpt lat="48.245483" lon="11.391351">
    <ele>482.7</ele>
    <name>Fish Ladder at Gündinger Wehr</name>
    <cmt>https://d2exd72xrrp1s7.cloudfront.net/www/000/1k8/12/121ruapnbx0zjji53makk6uuh4zpieqbi-uhi72821258/0</cmt>
    <desc>Markus H.: Am Gündinger Wehr gelegen 
――――――――――
GutZuFuss: Blick über die Amper
――――――――――
GutZuFuss: Gündinger Wehr</desc>
    <src>Komoot</src>
    <link href="https://www.komoot.de/highlight/6652113">
      <text>View POI on Komoot</text>
    </link>
    <type>Highlight</type>
  </wpt>
  <wpt lat="48.244075" lon="11.385033">
    <ele>486.1</ele>
    <name>Bruno H. Schubert Meadow</name>
    <cmt>https://d2exd72xrrp1s7.cloudfront.net/www/000/1k4/1c/1cjpmsobfrxeeuqaujuuta7253awv5g57-uhi10895394/0</cmt>
    <desc>Knersi (📍Maisach): Schönes Fleckchen 🌱🪻🌿🌾☘️
――――――――――
RiChArD: Warum die Wiese so heißt und mehr über Josef Koller erfährt man hier:
https://www.sueddeutsche.de/muenchen/dachau/karlsfeld-ein-vorbild-1.4901613

Es gibt von Josef Koller auch ein Buch:
Die Bruno-H.-Schubert-Wiese: Beobachtungen und Pflegemassnahmen an einer Streuwiese an der Amper bei Dachau
――――――――――
FREDMANNI1101: Bring ausreichend Zeit mit, und entdecke die Natur pur 😊
――――――――――
RITTER MARTON 🐑 🐿: Bruno Schubert Wiese im Sommer sehr schön
――――――――――
Fredi M 1101: Dieses Stück heile Welt ist zu jeder Jahreszeit ganz besonders sehenswert, Tiere, Pflanzen, Bäume und Gräser mit 🌺
――――――――――
GutZuFuss: Baum mit Schwamm</desc>
    <src>Komoot</src>
    <link href="https://www.komoot.de/highlight/1134427">
      <text>View POI on Komoot</text>
    </link>
    <type>Highlight</type>
  </wpt>
  <wpt lat="48.240481" lon="11.377322">
    <ele>534.2</ele>
    <name>Bridge crossing over the Amper River</name>
    <cmt>https://d2exd72xrrp1s7.cloudfront.net/www/000/1k7/15/15k1sz2vhlo2cvirgc52a2ba94owsggr5-uhi64293736/0</cmt>
    <desc>Knersi (📍Maisach): Schöne Wege an der Amper 🌊  entlang.</desc>
    <src>Komoot</src>
    <link href="https://www.komoot.de/highlight/4815007">
      <text>View POI on Komoot</text>
    </link>
    <type>Highlight</type>
  </wpt>
  <wpt lat="48.239313" lon="11.373201">
    <ele>490.7</ele>
    <name>View of the Amper</name>
    <cmt>https://d2exd72xrrp1s7.cloudfront.net/www/000/1k5/lp/lpkd86wwju1x19pjmdpkrldj93znr6oel-uhi44715961/0</cmt>
    <desc>Anne FFB: Aussenrum wär für alle Bewegungslegastheniker gescheiter
――――――――――
Carsten (📍FFB): Ist nicht der offizielle Radweg hier. Wird gerne als Abkürzung benutzt. Und ja, wenn man nicht aufpasst geht es in die Amper.
――――――――――
Robert 🚵🏻🧗‍♂️⛷🥾🍻🚴🏻: Immer an der Amper entlang, da findet man immer einen schönen Blick auf die Amper
――――――――――
Knersi (📍Maisach): Ein Blick auf die Amper unter der Brücke. Schöne Wanderwege entlang des Flusses.
――――――――――
Knersi (📍Maisach): Andere Uferseite immer im Blick. 
Mit 🪑 😊
――――――――――
Knersi (📍Maisach): Unter der Brücke führt auch ein schmaler Pfad entlang.
Aber Vorsicht mit Radl, absteigen, Rutschgefahr in die Amper 😅🤦‍♀️🤭🤷‍♀️
――――――――――
Carsten (📍FFB): Blick unter Brücke auf die Amper.
――――――――――
Hakkko: Auch dieser Abschnitt der Amper ist sehr schön.
――――――――――
RITTER MARTON 🐑 🐿: sehr schöner weg
――――――――――
Alfstruppi (📍DAH): Lieber den sicheren Umweg über die Straße wählen, der Steig unter der Brücke ist sehr schmal und die Gefahr ein unfreiwilliges Bad in der Amper zu nehmen ist sehr groß.
――――――――――
Knersi (📍Maisach): Da hat Alfstruppi recht, den sicheren Weg nehmen.
――――――――――
Monal: Hier ist es besonders schön zu fahren
――――――――――
Monal: Schöne idyllische Platz an der Amper
――――――――――
Jochen: Schöner Blick auf die Amper.
――――――――――
Rick: Toller Blick von der Brücke auf dem Flusslauf
――――――――――
RITTER MARTON 🐑 🐿: schöner Blick über die Amper
――――――――――
Max: Die Amper, immer ein Blick wert!!!</desc>
    <src>Komoot</src>
    <link href="https://www.komoot.de/highlight/5054255">
      <text>View POI on Komoot</text>
    </link>
    <type>Highlight</type>
  </wpt>
  <trk>
    <name>Blick auf den Amperkanal – Gündinger Wehr an der Amper Runde von Ampertal</name>
    <desc>Distance: 8.992km, Estimated duration: 2.27h, Elevation up: 16.813153289973798m, Elevation down: 16.77797186404598m, Grade: moderate</desc>
    <link href="https://www.komoot.de/tour/2829816522">
      <text>View tour on Komoot</text>
    </link>
    <trkseg>
      <trkpt lat="48.232269" lon="11.360322">
        <ele>494.6</ele>
        <time>2026-03-16T08:59:53.821000Z</time>
      </trkpt>
      <trkpt lat="48.232385" lon="11.360169">
        <ele>494.5</ele>
        <time>2026-03-16T09:00:09.309000Z</time>
      </trkpt>
      <trkpt lat="48.232465" lon="11.36005">
        <ele>494.5</ele>
        <time>2026-03-16T09:00:20.725000Z</time>
      </trkpt>
      <trkpt lat="48.233862" lon="11.357971">
        <ele>493.4</ele>
        <time>2026-03-16T09:03:39.806000Z</time>
      </trkpt>
      <trkpt lat="48.23404" lon="11.357704">
        <ele>493.2</ele>
        <time>2026-03-16T09:04:05.432000Z</time>
      </trkpt>
      <trkpt lat="48.23405" lon="11.357641">
        <ele>493.2</ele>
        <time>2026-03-16T09:04:09.784000Z</time>
      </trkpt>
      <trkpt lat="48.234077" lon="11.357535">
        <ele>493.1</ele>
        <time>2026-03-16T09:04:17.487000Z</time>
      </trkpt>
      <trkpt lat="48.234339" lon="11.356112">
        <ele>492.7</ele>
        <time>2026-03-16T09:05:56.841000Z</time>
      </trkpt>
      <trkpt lat="48.234424" lon="11.355891">
        <ele>492.6</ele>
        <time>2026-03-16T09:06:13.970000Z</time>
      </trkpt>
      <trkpt lat="48.234527" lon="11.355771">
        <ele>492.5</ele>
        <time>2026-03-16T09:06:27.184000Z</time>
      </trkpt>
      <trkpt lat="48.234594" lon="11.355741">
        <ele>492.5</ele>
        <time>2026-03-16T09:06:34.241000Z</time>
      </trkpt>
      <trkpt lat="48.23505" lon="11.355751">
        <ele>492.3</ele>
        <time>2026-03-16T09:07:20.213000Z</time>
      </trkpt>
      <trkpt lat="48.23529" lon="11.355839">
        <ele>492.3</ele>
        <time>2026-03-16T09:07:45.081000Z</time>
      </trkpt>
      <trkpt lat="48.236061" lon="11.355871">
        <ele>492</ele>
        <time>2026-03-16T09:09:02.894000Z</time>
      </trkpt>
      <trkpt lat="48.236215" lon="11.355948">
        <ele>491.9</ele>
        <time>2026-03-16T09:09:19.269000Z</time>
      </trkpt>
      <trkpt lat="48.236487" lon="11.356223">
        <ele>491.8</ele>
        <time>2026-03-16T09:09:52.292000Z</time>
      </trkpt>
      <trkpt lat="48.236654" lon="11.356433">
        <ele>491.8</ele>
        <time>2026-03-16T09:10:14.096000Z</time>
      </trkpt>
      <trkpt lat="48.236752" lon="11.35663">
        <ele>491.8</ele>
        <time>2026-03-16T09:10:30.530000Z</time>
      </trkpt>
      <trkpt lat="48.236816" lon="11.356896">
        <ele>491.8</ele>
        <time>2026-03-16T09:10:49.383000Z</time>
      </trkpt>
      <trkpt lat="48.236868" lon="11.357424">
        <ele>491.9</ele>
        <time>2026-03-16T09:11:25.153000Z</time>
      </trkpt>
      <trkpt lat="48.23689" lon="11.358095">
        <ele>491.9</ele>
        <time>2026-03-16T09:12:10.125000Z</time>
      </trkpt>
      <trkpt lat="48.236912" lon="11.358765">
        <ele>491.9</ele>
        <time>2026-03-16T09:12:54.967000Z</time>
      </trkpt>
      <trkpt lat="48.236958" lon="11.359385">
        <ele>491.9</ele>
        <time>2026-03-16T09:13:36.522000Z</time>
      </trkpt>
      <trkpt lat="48.236964" lon="11.359507">
        <ele>491.9</ele>
        <time>2026-03-16T09:13:44.692000Z</time>
      </trkpt>
      <trkpt lat="48.236974" lon="11.359653">
        <ele>491.9</ele>
        <time>2026-03-16T09:13:54.506000Z</time>
      </trkpt>
      <trkpt lat="48.236984" lon="11.359969">
        <ele>491.9</ele>
        <time>2026-03-16T09:14:15.619000Z</time>
      </trkpt>
      <trkpt lat="48.236956" lon="11.360387">
        <ele>491.9</ele>
        <time>2026-03-16T09:14:43.706000Z</time>
      </trkpt>
      <trkpt lat="48.236916" lon="11.360565">
        <ele>491.9</ele>
        <time>2026-03-16T09:14:56.207000Z</time>
      </trkpt>
      <trkpt lat="48.236716" lon="11.361141">
        <ele>491.9</ele>
        <time>2026-03-16T09:15:39.592000Z</time>
      </trkpt>
      <trkpt lat="48.236701" lon="11.361248">
        <ele>491.9</ele>
        <time>2026-03-16T09:15:46.934000Z</time>
      </trkpt>
      <trkpt lat="48.236628" lon="11.361837">
        <ele>491.9</ele>
        <time>2026-03-16T09:16:26.988000Z</time>
      </trkpt>
      <trkpt lat="48.236445" lon="11.362552">
        <ele>492</ele>
        <time>2026-03-16T09:17:18.416000Z</time>
      </trkpt>
      <trkpt lat="48.236315" lon="11.362842">
        <ele>492.1</ele>
        <time>2026-03-16T09:17:42.032000Z</time>
      </trkpt>
      <trkpt lat="48.236221" lon="11.362941">
        <ele>492.2</ele>
        <time>2026-03-16T09:17:53.718000Z</time>
      </trkpt>
      <trkpt lat="48.235794" lon="11.363073">
        <ele>492.2</ele>
        <time>2026-03-16T09:18:37.482000Z</time>
      </trkpt>
      <trkpt lat="48.235271" lon="11.363655">
        <ele>492.2</ele>
        <time>2026-03-16T09:19:42.685000Z</time>
      </trkpt>
      <trkpt lat="48.23518" lon="11.363898">
        <ele>492.2</ele>
        <time>2026-03-16T09:20:01.272000Z</time>
      </trkpt>
      <trkpt lat="48.235155" lon="11.363967">
        <ele>492.2</ele>
        <time>2026-03-16T09:20:06.477000Z</time>
      </trkpt>
      <trkpt lat="48.235368" lon="11.364276">
        <ele>492.2</ele>
        <time>2026-03-16T09:20:36.067000Z</time>
      </trkpt>
      <trkpt lat="48.235487" lon="11.364567">
        <ele>492.2</ele>
        <time>2026-03-16T09:20:58.860000Z</time>
      </trkpt>
      <trkpt lat="48.235779" lon="11.365899">
        <ele>492</ele>
        <time>2026-03-16T09:22:32.880000Z</time>
      </trkpt>
      <trkpt lat="48.235964" lon="11.366561">
        <ele>491.8</ele>
        <time>2026-03-16T09:23:21.037000Z</time>
      </trkpt>
      <trkpt lat="48.236184" lon="11.366988">
        <ele>491.7</ele>
        <time>2026-03-16T09:23:57.220000Z</time>
      </trkpt>
      <trkpt lat="48.23672" lon="11.36782">
        <ele>491.4</ele>
        <time>2026-03-16T09:25:15.051000Z</time>
      </trkpt>
      <trkpt lat="48.236922" lon="11.368049">
        <ele>491.2</ele>
        <time>2026-03-16T09:25:40.790000Z</time>
      </trkpt>
      <trkpt lat="48.237071" lon="11.368132">
        <ele>491.1</ele>
        <time>2026-03-16T09:25:56.894000Z</time>
      </trkpt>
      <trkpt lat="48.237411" lon="11.368199">
        <ele>490.9</ele>
        <time>2026-03-16T09:26:31.637000Z</time>
      </trkpt>
      <trkpt lat="48.237769" lon="11.368227">
        <ele>490.7</ele>
        <time>2026-03-16T09:27:08.026000Z</time>
      </trkpt>
      <trkpt lat="48.23791" lon="11.368375">
        <ele>490.6</ele>
        <time>2026-03-16T09:27:25.453000Z</time>
      </trkpt>
      <trkpt lat="48.238222" lon="11.369632">
        <ele>490.2</ele>
        <time>2026-03-16T09:28:55.703000Z</time>
      </trkpt>
      <trkpt lat="48.238468" lon="11.370765">
        <ele>490.1</ele>
        <time>2026-03-16T09:30:15.137000Z</time>
      </trkpt>
      <trkpt lat="48.238714" lon="11.371576">
        <ele>490.2</ele>
        <time>2026-03-16T09:31:14.850000Z</time>
      </trkpt>
      <trkpt lat="48.238901" lon="11.372305">
        <ele>490.3</ele>
        <time>2026-03-16T09:32:07.328000Z</time>
      </trkpt>
      <trkpt lat="48.239063" lon="11.372801">
        <ele>490.4</ele>
        <time>2026-03-16T09:32:44.223000Z</time>
      </trkpt>
      <trkpt lat="48.239078" lon="11.372951">
        <ele>490.4</ele>
        <time>2026-03-16T09:32:54.379000Z</time>
      </trkpt>
      <trkpt lat="48.239057" lon="11.373027">
        <ele>490.4</ele>
        <time>2026-03-16T09:32:59.865000Z</time>
      </trkpt>
      <trkpt lat="48.238993" lon="11.373108">
        <ele>490.4</ele>
        <time>2026-03-16T09:33:08.272000Z</time>
      </trkpt>
      <trkpt lat="48.238624" lon="11.37331">
        <ele>490.4</ele>
        <time>2026-03-16T09:33:47.772000Z</time>
      </trkpt>
      <trkpt lat="48.23835" lon="11.37355">
        <ele>490.5</ele>
        <time>2026-03-16T09:34:19.758000Z</time>
      </trkpt>
      <trkpt lat="48.238137" lon="11.373695">
        <ele>490.6</ele>
        <time>2026-03-16T09:34:43.413000Z</time>
      </trkpt>
      <trkpt lat="48.238108" lon="11.373836">
        <ele>490.6</ele>
        <time>2026-03-16T09:34:53.260000Z</time>
      </trkpt>
      <trkpt lat="48.238155" lon="11.37394">
        <ele>490.6</ele>
        <time>2026-03-16T09:35:01.676000Z</time>
      </trkpt>
      <trkpt lat="48.23847" lon="11.373629">
        <ele>490.6</ele>
        <time>2026-03-16T09:35:39.589000Z</time>
      </trkpt>
      <trkpt lat="48.238872" lon="11.373364">
        <ele>490.7</ele>
        <time>2026-03-16T09:36:23.923000Z</time>
      </trkpt>
      <trkpt lat="48.239126" lon="11.373276">
        <ele>490.8</ele>
        <time>2026-03-16T09:36:50.310000Z</time>
      </trkpt>
      <trkpt lat="48.239719" lon="11.373058">
        <ele>490.9</ele>
        <time>2026-03-16T09:37:51.682000Z</time>
      </trkpt>
      <trkpt lat="48.239711" lon="11.372682">
        <ele>490.9</ele>
        <time>2026-03-16T09:38:16.811000Z</time>
      </trkpt>
      <trkpt lat="48.239757" lon="11.372227">
        <ele>490.8</ele>
        <time>2026-03-16T09:38:47.603000Z</time>
      </trkpt>
      <trkpt lat="48.239832" lon="11.371668">
        <ele>490.7</ele>
        <time>2026-03-16T09:39:25.830000Z</time>
      </trkpt>
      <trkpt lat="48.239866" lon="11.371206">
        <ele>490.6</ele>
        <time>2026-03-16T09:39:57.053000Z</time>
      </trkpt>
      <trkpt lat="48.239864" lon="11.370787">
        <ele>490.5</ele>
        <time>2026-03-16T09:40:25.097000Z</time>
      </trkpt>
      <trkpt lat="48.239796" lon="11.370779">
        <ele>490.5</ele>
        <time>2026-03-16T09:40:31.878000Z</time>
      </trkpt>
      <trkpt lat="48.239788" lon="11.371359">
        <ele>490.4</ele>
        <time>2026-03-16T09:41:10.667000Z</time>
      </trkpt>
      <trkpt lat="48.239602" lon="11.372218">
        <ele>490.4</ele>
        <time>2026-03-16T09:42:10.869000Z</time>
      </trkpt>
      <trkpt lat="48.239552" lon="11.372565">
        <ele>490.4</ele>
        <time>2026-03-16T09:42:34.550000Z</time>
      </trkpt>
      <trkpt lat="48.239578" lon="11.373434">
        <ele>490.4</ele>
        <time>2026-03-16T09:43:32.605000Z</time>
      </trkpt>
      <trkpt lat="48.239549" lon="11.374601">
        <ele>490.5</ele>
        <time>2026-03-16T09:44:50.563000Z</time>
      </trkpt>
      <trkpt lat="48.23958" lon="11.37498">
        <ele>490.5</ele>
        <time>2026-03-16T09:45:16.140000Z</time>
      </trkpt>
      <trkpt lat="48.239689" lon="11.375497">
        <ele>490.6</ele>
        <time>2026-03-16T09:45:52.677000Z</time>
      </trkpt>
      <trkpt lat="48.239821" lon="11.375851">
        <ele>490.7</ele>
        <time>2026-03-16T09:46:20Z</time>
      </trkpt>
      <trkpt lat="48.240051" lon="11.376084">
        <ele>490.8</ele>
        <time>2026-03-16T09:46:47.997000Z</time>
      </trkpt>
      <trkpt lat="48.240082" lon="11.376226">
        <ele>490.8</ele>
        <time>2026-03-16T09:46:58Z</time>
      </trkpt>
      <trkpt lat="48.240361" lon="11.376517">
        <ele>490.8</ele>
        <time>2026-03-16T09:47:32.166000Z</time>
      </trkpt>
      <trkpt lat="48.240637" lon="11.376816">
        <ele>490.8</ele>
        <time>2026-03-16T09:48:06.355000Z</time>
      </trkpt>
      <trkpt lat="48.241124" lon="11.377577">
        <ele>490.3</ele>
        <time>2026-03-16T09:49:17.639000Z</time>
      </trkpt>
      <trkpt lat="48.241236" lon="11.377994">
        <ele>490</ele>
        <time>2026-03-16T09:49:48.231000Z</time>
      </trkpt>
      <trkpt lat="48.241273" lon="11.378297">
        <ele>489.8</ele>
        <time>2026-03-16T09:50:09.193000Z</time>
      </trkpt>
      <trkpt lat="48.241248" lon="11.379001">
        <ele>489.4</ele>
        <time>2026-03-16T09:50:57.023000Z</time>
      </trkpt>
      <trkpt lat="48.241354" lon="11.37936">
        <ele>489.2</ele>
        <time>2026-03-16T09:51:23.567000Z</time>
      </trkpt>
      <trkpt lat="48.241357" lon="11.379479">
        <ele>489.2</ele>
        <time>2026-03-16T09:51:31.597000Z</time>
      </trkpt>
      <trkpt lat="48.241577" lon="11.379877">
        <ele>489</ele>
        <time>2026-03-16T09:52:06.392000Z</time>
      </trkpt>
      <trkpt lat="48.241813" lon="11.38023">
        <ele>488.9</ele>
        <time>2026-03-16T09:52:39.947000Z</time>
      </trkpt>
      <trkpt lat="48.241932" lon="11.380264">
        <ele>488.9</ele>
        <time>2026-03-16T09:52:52.194000Z</time>
      </trkpt>
      <trkpt lat="48.242159" lon="11.380394">
        <ele>488.8</ele>
        <time>2026-03-16T09:53:16.664000Z</time>
      </trkpt>
      <trkpt lat="48.242536" lon="11.380697">
        <ele>488.7</ele>
        <time>2026-03-16T09:53:59.682000Z</time>
      </trkpt>
      <trkpt lat="48.242671" lon="11.380785">
        <ele>488.6</ele>
        <time>2026-03-16T09:54:14.471000Z</time>
      </trkpt>
      <trkpt lat="48.242836" lon="11.380975">
        <ele>488.6</ele>
        <time>2026-03-16T09:54:35.445000Z</time>
      </trkpt>
      <trkpt lat="48.242938" lon="11.381281">
        <ele>488.5</ele>
        <time>2026-03-16T09:54:58.327000Z</time>
      </trkpt>
      <trkpt lat="48.242978" lon="11.381415">
        <ele>488.5</ele>
        <time>2026-03-16T09:55:08.257000Z</time>
      </trkpt>
      <trkpt lat="48.243077" lon="11.381797">
        <ele>488.3</ele>
        <time>2026-03-16T09:55:35.863000Z</time>
      </trkpt>
      <trkpt lat="48.243197" lon="11.382037">
        <ele>488.2</ele>
        <time>2026-03-16T09:55:56.181000Z</time>
      </trkpt>
      <trkpt lat="48.243288" lon="11.382123">
        <ele>488.1</ele>
        <time>2026-03-16T09:56:07.156000Z</time>
      </trkpt>
      <trkpt lat="48.243506" lon="11.382243">
        <ele>487.9</ele>
        <time>2026-03-16T09:56:30.756000Z</time>
      </trkpt>
      <trkpt lat="48.243591" lon="11.382255">
        <ele>487.8</ele>
        <time>2026-03-16T09:56:39.462000Z</time>
      </trkpt>
      <trkpt lat="48.243688" lon="11.382058">
        <ele>487.7</ele>
        <time>2026-03-16T09:56:56.078000Z</time>
      </trkpt>
      <trkpt lat="48.243705" lon="11.381889">
        <ele>487.6</ele>
        <time>2026-03-16T09:57:07.734000Z</time>
      </trkpt>
      <trkpt lat="48.243848" lon="11.381775">
        <ele>487.4</ele>
        <time>2026-03-16T09:57:24.170000Z</time>
      </trkpt>
      <trkpt lat="48.243932" lon="11.381785">
        <ele>487.4</ele>
        <time>2026-03-16T09:57:32.820000Z</time>
      </trkpt>
      <trkpt lat="48.243998" lon="11.381833">
        <ele>487.3</ele>
        <time>2026-03-16T09:57:40.274000Z</time>
      </trkpt>
      <trkpt lat="48.24406" lon="11.381958">
        <ele>487.2</ele>
        <time>2026-03-16T09:57:50.841000Z</time>
      </trkpt>
      <trkpt lat="48.244394" lon="11.382306">
        <ele>486.8</ele>
        <time>2026-03-16T09:58:32.332000Z</time>
      </trkpt>
      <trkpt lat="48.244571" lon="11.382493">
        <ele>486.6</ele>
        <time>2026-03-16T09:58:54.457000Z</time>
      </trkpt>
      <trkpt lat="48.244822" lon="11.382893">
        <ele>486.2</ele>
        <time>2026-03-16T09:59:31.820000Z</time>
      </trkpt>
      <trkpt lat="48.244869" lon="11.383002">
        <ele>486.2</ele>
        <time>2026-03-16T09:59:40.591000Z</time>
      </trkpt>
      <trkpt lat="48.244932" lon="11.383202">
        <ele>486.1</ele>
        <time>2026-03-16T09:59:55.552000Z</time>
      </trkpt>
      <trkpt lat="48.244992" lon="11.383513">
        <ele>486</ele>
        <time>2026-03-16T10:00:17.357000Z</time>
      </trkpt>
      <trkpt lat="48.245049" lon="11.383556">
        <ele>485.9</ele>
        <time>2026-03-16T10:00:23.795000Z</time>
      </trkpt>
      <trkpt lat="48.245003" lon="11.383719">
        <ele>485.9</ele>
        <time>2026-03-16T10:00:35.631000Z</time>
      </trkpt>
      <trkpt lat="48.244986" lon="11.384363">
        <ele>485.9</ele>
        <time>2026-03-16T10:01:18.597000Z</time>
      </trkpt>
      <trkpt lat="48.245066" lon="11.38456">
        <ele>485.9</ele>
        <time>2026-03-16T10:01:34.015000Z</time>
      </trkpt>
      <trkpt lat="48.245078" lon="11.384698">
        <ele>485.9</ele>
        <time>2026-03-16T10:01:43.240000Z</time>
      </trkpt>
      <trkpt lat="48.245461" lon="11.385178">
        <ele>486</ele>
        <time>2026-03-16T10:02:33.447000Z</time>
      </trkpt>
      <trkpt lat="48.245689" lon="11.385522">
        <ele>486</ele>
        <time>2026-03-16T10:03:06.019000Z</time>
      </trkpt>
      <trkpt lat="48.245781" lon="11.385805">
        <ele>486</ele>
        <time>2026-03-16T10:03:27.008000Z</time>
      </trkpt>
      <trkpt lat="48.245831" lon="11.386271">
        <ele>486</ele>
        <time>2026-03-16T10:03:58.642000Z</time>
      </trkpt>
      <trkpt lat="48.245867" lon="11.38647">
        <ele>485.9</ele>
        <time>2026-03-16T10:04:12.552000Z</time>
      </trkpt>
      <trkpt lat="48.245678" lon="11.386895">
        <ele>485.7</ele>
        <time>2026-03-16T10:04:47.066000Z</time>
      </trkpt>
      <trkpt lat="48.245632" lon="11.387487">
        <ele>485.3</ele>
        <time>2026-03-16T10:05:27.631000Z</time>
      </trkpt>
      <trkpt lat="48.245741" lon="11.387985">
        <ele>484.8</ele>
        <time>2026-03-16T10:06:03.428000Z</time>
      </trkpt>
      <trkpt lat="48.246029" lon="11.388509">
        <ele>484.2</ele>
        <time>2026-03-16T10:06:49.935000Z</time>
      </trkpt>
      <trkpt lat="48.246203" lon="11.388893">
        <ele>483.9</ele>
        <time>2026-03-16T10:07:21.601000Z</time>
      </trkpt>
      <trkpt lat="48.246276" lon="11.389289">
        <ele>483.8</ele>
        <time>2026-03-16T10:07:49.266000Z</time>
      </trkpt>
      <trkpt lat="48.24629" lon="11.389654">
        <ele>483.8</ele>
        <time>2026-03-16T10:08:13.688000Z</time>
      </trkpt>
      <trkpt lat="48.246276" lon="11.390047">
        <ele>483.8</ele>
        <time>2026-03-16T10:08:40.094000Z</time>
      </trkpt>
      <trkpt lat="48.245975" lon="11.39189">
        <ele>485</ele>
        <time>2026-03-16T10:10:50.709000Z</time>
      </trkpt>
      <trkpt lat="48.245969" lon="11.39201">
        <ele>485.1</ele>
        <time>2026-03-16T10:10:59.050000Z</time>
      </trkpt>
      <trkpt lat="48.24639" lon="11.392895">
        <ele>485.6</ele>
        <time>2026-03-16T10:12:13.426000Z</time>
      </trkpt>
      <trkpt lat="48.246792" lon="11.393665">
        <ele>485.4</ele>
        <time>2026-03-16T10:13:19.009000Z</time>
      </trkpt>
      <trkpt lat="48.246841" lon="11.393985">
        <ele>485.2</ele>
        <time>2026-03-16T10:13:41.282000Z</time>
      </trkpt>
      <trkpt lat="48.246884" lon="11.394083">
        <ele>485.1</ele>
        <time>2026-03-16T10:13:49.296000Z</time>
      </trkpt>
      <trkpt lat="48.246841" lon="11.393985">
        <ele>485</ele>
        <time>2026-03-16T10:13:57.281000Z</time>
      </trkpt>
      <trkpt lat="48.246817" lon="11.394008">
        <ele>485</ele>
        <time>2026-03-16T10:14:00.206000Z</time>
      </trkpt>
      <trkpt lat="48.246644" lon="11.394167">
        <ele>484.8</ele>
        <time>2026-03-16T10:14:20.945000Z</time>
      </trkpt>
      <trkpt lat="48.246616" lon="11.394188">
        <ele>484.8</ele>
        <time>2026-03-16T10:14:24.104000Z</time>
      </trkpt>
      <trkpt lat="48.246505" lon="11.394222">
        <ele>484.7</ele>
        <time>2026-03-16T10:14:35.706000Z</time>
      </trkpt>
      <trkpt lat="48.246392" lon="11.39427">
        <ele>484.6</ele>
        <time>2026-03-16T10:14:47.657000Z</time>
      </trkpt>
      <trkpt lat="48.246186" lon="11.394454">
        <ele>484.4</ele>
        <time>2026-03-16T10:15:11.991000Z</time>
      </trkpt>
      <trkpt lat="48.246143" lon="11.394466">
        <ele>484.4</ele>
        <time>2026-03-16T10:15:16.441000Z</time>
      </trkpt>
      <trkpt lat="48.245966" lon="11.394401">
        <ele>484.2</ele>
        <time>2026-03-16T10:15:34.985000Z</time>
      </trkpt>
      <trkpt lat="48.245668" lon="11.394441">
        <ele>484</ele>
        <time>2026-03-16T10:16:05.378000Z</time>
      </trkpt>
      <trkpt lat="48.245659" lon="11.394364">
        <ele>484</ele>
        <time>2026-03-16T10:16:10.608000Z</time>
      </trkpt>
      <trkpt lat="48.245655" lon="11.393967">
        <ele>483.9</ele>
        <time>2026-03-16T10:16:37.326000Z</time>
      </trkpt>
      <trkpt lat="48.245636" lon="11.393861">
        <ele>483.9</ele>
        <time>2026-03-16T10:16:44.666000Z</time>
      </trkpt>
      <trkpt lat="48.24548" lon="11.393903">
        <ele>483.8</ele>
        <time>2026-03-16T10:17:00.539000Z</time>
      </trkpt>
      <trkpt lat="48.245233" lon="11.393974">
        <ele>483.9</ele>
        <time>2026-03-16T10:17:25.875000Z</time>
      </trkpt>
      <trkpt lat="48.245171" lon="11.393491">
        <ele>484</ele>
        <time>2026-03-16T10:17:58.970000Z</time>
      </trkpt>
      <trkpt lat="48.245198" lon="11.393154">
        <ele>484</ele>
        <time>2026-03-16T10:18:21.610000Z</time>
      </trkpt>
      <trkpt lat="48.245504" lon="11.392793">
        <ele>483.7</ele>
        <time>2026-03-16T10:19:01.094000Z</time>
      </trkpt>
      <trkpt lat="48.24555" lon="11.392723">
        <ele>483.6</ele>
        <time>2026-03-16T10:19:07.860000Z</time>
      </trkpt>
      <trkpt lat="48.245643" lon="11.392583">
        <ele>483.5</ele>
        <time>2026-03-16T10:19:21.331000Z</time>
      </trkpt>
      <trkpt lat="48.245644" lon="11.392488">
        <ele>483.4</ele>
        <time>2026-03-16T10:19:27.809000Z</time>
      </trkpt>
      <trkpt lat="48.245646" lon="11.392077">
        <ele>483.1</ele>
        <time>2026-03-16T10:19:55.890000Z</time>
      </trkpt>
      <trkpt lat="48.245584" lon="11.391332">
        <ele>482.5</ele>
        <time>2026-03-16T10:20:47.128000Z</time>
      </trkpt>
      <trkpt lat="48.245578" lon="11.391267">
        <ele>482.5</ele>
        <time>2026-03-16T10:20:51.563000Z</time>
      </trkpt>
      <trkpt lat="48.245574" lon="11.391179">
        <ele>482.4</ele>
        <time>2026-03-16T10:20:57.583000Z</time>
      </trkpt>
      <trkpt lat="48.245579" lon="11.389889">
        <ele>482</ele>
        <time>2026-03-16T10:22:24.497000Z</time>
      </trkpt>
      <trkpt lat="48.24553" lon="11.388477">
        <ele>483.4</ele>
        <time>2026-03-16T10:24:03.657000Z</time>
      </trkpt>
      <trkpt lat="48.245437" lon="11.388221">
        <ele>483.8</ele>
        <time>2026-03-16T10:24:24.660000Z</time>
      </trkpt>
      <trkpt lat="48.24526" lon="11.387976">
        <ele>484.3</ele>
        <time>2026-03-16T10:24:50.529000Z</time>
      </trkpt>
      <trkpt lat="48.245173" lon="11.387703">
        <ele>484.7</ele>
        <time>2026-03-16T10:25:12.170000Z</time>
      </trkpt>
      <trkpt lat="48.245182" lon="11.387461">
        <ele>485</ele>
        <time>2026-03-16T10:25:29.306000Z</time>
      </trkpt>
      <trkpt lat="48.245233" lon="11.387179">
        <ele>485.3</ele>
        <time>2026-03-16T10:25:49.903000Z</time>
      </trkpt>
      <trkpt lat="48.245374" lon="11.386784">
        <ele>485.7</ele>
        <time>2026-03-16T10:26:21.288000Z</time>
      </trkpt>
      <trkpt lat="48.245455" lon="11.386234">
        <ele>486.1</ele>
        <time>2026-03-16T10:27:00.171000Z</time>
      </trkpt>
      <trkpt lat="48.24542" lon="11.385911">
        <ele>486.3</ele>
        <time>2026-03-16T10:27:22.487000Z</time>
      </trkpt>
      <trkpt lat="48.245316" lon="11.38562">
        <ele>486.4</ele>
        <time>2026-03-16T10:27:44.869000Z</time>
      </trkpt>
      <trkpt lat="48.244845" lon="11.38495">
        <ele>486.6</ele>
        <time>2026-03-16T10:28:50.795000Z</time>
      </trkpt>
      <trkpt lat="48.244733" lon="11.384711">
        <ele>486.7</ele>
        <time>2026-03-16T10:29:10.522000Z</time>
      </trkpt>
      <trkpt lat="48.244676" lon="11.384499">
        <ele>486.8</ele>
        <time>2026-03-16T10:29:25.956000Z</time>
      </trkpt>
      <trkpt lat="48.244551" lon="11.384537">
        <ele>486.8</ele>
        <time>2026-03-16T10:29:38.895000Z</time>
      </trkpt>
      <trkpt lat="48.244518" lon="11.384587">
        <ele>486.8</ele>
        <time>2026-03-16T10:29:43.665000Z</time>
      </trkpt>
      <trkpt lat="48.244557" lon="11.384765">
        <ele>486.8</ele>
        <time>2026-03-16T10:29:56.279000Z</time>
      </trkpt>
      <trkpt lat="48.244509" lon="11.384979">
        <ele>486.9</ele>
        <time>2026-03-16T10:30:11.416000Z</time>
      </trkpt>
      <trkpt lat="48.244462" lon="11.385071">
        <ele>486.9</ele>
        <time>2026-03-16T10:30:19.243000Z</time>
      </trkpt>
      <trkpt lat="48.244347" lon="11.385053">
        <ele>486.9</ele>
        <time>2026-03-16T10:30:30.827000Z</time>
      </trkpt>
      <trkpt lat="48.244123" lon="11.385022">
        <ele>486.9</ele>
        <time>2026-03-16T10:30:53.332000Z</time>
      </trkpt>
      <trkpt lat="48.24412" lon="11.385008">
        <ele>486.9</ele>
        <time>2026-03-16T10:30:54.295000Z</time>
      </trkpt>
      <trkpt lat="48.244123" lon="11.385022">
        <ele>486.9</ele>
        <time>2026-03-16T10:30:55.258000Z</time>
      </trkpt>
      <trkpt lat="48.244347" lon="11.385053">
        <ele>486.9</ele>
        <time>2026-03-16T10:31:17.802000Z</time>
      </trkpt>
      <trkpt lat="48.244462" lon="11.385071">
        <ele>486.9</ele>
        <time>2026-03-16T10:31:29.374000Z</time>
      </trkpt>
      <trkpt lat="48.244509" lon="11.384979">
        <ele>486.9</ele>
        <time>2026-03-16T10:31:37.167000Z</time>
      </trkpt>
      <trkpt lat="48.244557" lon="11.384765">
        <ele>486.9</ele>
        <time>2026-03-16T10:31:52.227000Z</time>
      </trkpt>
      <trkpt lat="48.244518" lon="11.384587">
        <ele>486.9</ele>
        <time>2026-03-16T10:32:04.762000Z</time>
      </trkpt>
      <trkpt lat="48.244551" lon="11.384537">
        <ele>486.9</ele>
        <time>2026-03-16T10:32:09.494000Z</time>
      </trkpt>
      <trkpt lat="48.244676" lon="11.384499">
        <ele>486.8</ele>
        <time>2026-03-16T10:32:22.320000Z</time>
      </trkpt>
      <trkpt lat="48.24464" lon="11.384216">
        <ele>486.8</ele>
        <time>2026-03-16T10:32:41.559000Z</time>
      </trkpt>
      <trkpt lat="48.244654" lon="11.383436">
        <ele>486.8</ele>
        <time>2026-03-16T10:33:33.632000Z</time>
      </trkpt>
      <trkpt lat="48.2445" lon="11.383015">
        <ele>486.9</ele>
        <time>2026-03-16T10:34:05.969000Z</time>
      </trkpt>
      <trkpt lat="48.2443" lon="11.382804">
        <ele>487.1</ele>
        <time>2026-03-16T10:34:30.942000Z</time>
      </trkpt>
      <trkpt lat="48.244122" lon="11.382687">
        <ele>487.2</ele>
        <time>2026-03-16T10:34:50.919000Z</time>
      </trkpt>
      <trkpt lat="48.243669" lon="11.382658">
        <ele>487.5</ele>
        <time>2026-03-16T10:35:37.207000Z</time>
      </trkpt>
      <trkpt lat="48.243326" lon="11.382577">
        <ele>487.7</ele>
        <time>2026-03-16T10:36:12.796000Z</time>
      </trkpt>
      <trkpt lat="48.243074" lon="11.382424">
        <ele>487.9</ele>
        <time>2026-03-16T10:36:40.593000Z</time>
      </trkpt>
      <trkpt lat="48.24291" lon="11.382264">
        <ele>488</ele>
        <time>2026-03-16T10:37:00.562000Z</time>
      </trkpt>
      <trkpt lat="48.242729" lon="11.382032">
        <ele>488.1</ele>
        <time>2026-03-16T10:37:24.773000Z</time>
      </trkpt>
      <trkpt lat="48.24256" lon="11.381598">
        <ele>488.2</ele>
        <time>2026-03-16T10:37:58.533000Z</time>
      </trkpt>
      <trkpt lat="48.242238" lon="11.381181">
        <ele>488.1</ele>
        <time>2026-03-16T10:38:41.164000Z</time>
      </trkpt>
      <trkpt lat="48.242003" lon="11.381007">
        <ele>488.1</ele>
        <time>2026-03-16T10:39:07.331000Z</time>
      </trkpt>
      <trkpt lat="48.241709" lon="11.380936">
        <ele>488.2</ele>
        <time>2026-03-16T10:39:37.257000Z</time>
      </trkpt>
      <trkpt lat="48.241467" lon="11.380927">
        <ele>488.2</ele>
        <time>2026-03-16T10:40:01.664000Z</time>
      </trkpt>
      <trkpt lat="48.241256" lon="11.380771">
        <ele>488.3</ele>
        <time>2026-03-16T10:40:25.412000Z</time>
      </trkpt>
      <trkpt lat="48.240965" lon="11.380479">
        <ele>488.4</ele>
        <time>2026-03-16T10:41:00.810000Z</time>
      </trkpt>
      <trkpt lat="48.240909" lon="11.380391">
        <ele>488.4</ele>
        <time>2026-03-16T10:41:09.117000Z</time>
      </trkpt>
      <trkpt lat="48.240868" lon="11.380382">
        <ele>488.4</ele>
        <time>2026-03-16T10:41:13.322000Z</time>
      </trkpt>
      <trkpt lat="48.240668" lon="11.380199">
        <ele>488.6</ele>
        <time>2026-03-16T10:41:37.290000Z</time>
      </trkpt>
      <trkpt lat="48.240638" lon="11.380057">
        <ele>488.6</ele>
        <time>2026-03-16T10:41:47.418000Z</time>
      </trkpt>
      <trkpt lat="48.240578" lon="11.379976">
        <ele>488.7</ele>
        <time>2026-03-16T10:41:55.761000Z</time>
      </trkpt>
      <trkpt lat="48.240566" lon="11.379874">
        <ele>488.8</ele>
        <time>2026-03-16T10:42:02.903000Z</time>
      </trkpt>
      <trkpt lat="48.240735" lon="11.379705">
        <ele>488.9</ele>
        <time>2026-03-16T10:42:23.895000Z</time>
      </trkpt>
      <trkpt lat="48.240805" lon="11.379034">
        <ele>489.3</ele>
        <time>2026-03-16T10:43:10.573000Z</time>
      </trkpt>
      <trkpt lat="48.240883" lon="11.378616">
        <ele>489.6</ele>
        <time>2026-03-16T10:43:40.347000Z</time>
      </trkpt>
      <trkpt lat="48.240878" lon="11.378354">
        <ele>489.7</ele>
        <time>2026-03-16T10:43:58.304000Z</time>
      </trkpt>
      <trkpt lat="48.240776" lon="11.378168">
        <ele>489.8</ele>
        <time>2026-03-16T10:44:14.659000Z</time>
      </trkpt>
      <trkpt lat="48.240769" lon="11.37801">
        <ele>489.8</ele>
        <time>2026-03-16T10:44:25.353000Z</time>
      </trkpt>
      <trkpt lat="48.240722" lon="11.37782">
        <ele>489.9</ele>
        <time>2026-03-16T10:44:39.027000Z</time>
      </trkpt>
      <trkpt lat="48.240452" lon="11.377361">
        <ele>490</ele>
        <time>2026-03-16T10:45:20.197000Z</time>
      </trkpt>
      <trkpt lat="48.24039" lon="11.377256">
        <ele>490</ele>
        <time>2026-03-16T10:45:29.617000Z</time>
      </trkpt>
      <trkpt lat="48.240353" lon="11.377129">
        <ele>490</ele>
        <time>2026-03-16T10:45:38.916000Z</time>
      </trkpt>
      <trkpt lat="48.240148" lon="11.376944">
        <ele>490</ele>
        <time>2026-03-16T10:46:02.878000Z</time>
      </trkpt>
      <trkpt lat="48.239932" lon="11.376843">
        <ele>490</ele>
        <time>2026-03-16T10:46:25.561000Z</time>
      </trkpt>
      <trkpt lat="48.239516" lon="11.376368">
        <ele>490</ele>
        <time>2026-03-16T10:47:17.983000Z</time>
      </trkpt>
      <trkpt lat="48.239336" lon="11.376087">
        <ele>489.9</ele>
        <time>2026-03-16T10:47:44.128000Z</time>
      </trkpt>
      <trkpt lat="48.239188" lon="11.375514">
        <ele>489.9</ele>
        <time>2026-03-16T10:48:25.101000Z</time>
      </trkpt>
      <trkpt lat="48.239108" lon="11.374835">
        <ele>490</ele>
        <time>2026-03-16T10:49:11.626000Z</time>
      </trkpt>
      <trkpt lat="48.239068" lon="11.373962">
        <ele>490.1</ele>
        <time>2026-03-16T10:50:10.330000Z</time>
      </trkpt>
      <trkpt lat="48.239036" lon="11.37376">
        <ele>490.1</ele>
        <time>2026-03-16T10:50:24.175000Z</time>
      </trkpt>
      <trkpt lat="48.239104" lon="11.373523">
        <ele>490.1</ele>
        <time>2026-03-16T10:50:41.418000Z</time>
      </trkpt>
      <trkpt lat="48.239148" lon="11.373371">
        <ele>490.2</ele>
        <time>2026-03-16T10:50:52.529000Z</time>
      </trkpt>
      <trkpt lat="48.239148" lon="11.373178">
        <ele>490.2</ele>
        <time>2026-03-16T10:51:05.500000Z</time>
      </trkpt>
      <trkpt lat="48.239078" lon="11.372951">
        <ele>490.2</ele>
        <time>2026-03-16T10:51:22.287000Z</time>
      </trkpt>
      <trkpt lat="48.239063" lon="11.372801">
        <ele>490.2</ele>
        <time>2026-03-16T10:51:32.461000Z</time>
      </trkpt>
      <trkpt lat="48.238901" lon="11.372305">
        <ele>490.3</ele>
        <time>2026-03-16T10:52:09.475000Z</time>
      </trkpt>
      <trkpt lat="48.238714" lon="11.371576">
        <ele>490.2</ele>
        <time>2026-03-16T10:53:01.713000Z</time>
      </trkpt>
      <trkpt lat="48.238468" lon="11.370765">
        <ele>490.1</ele>
        <time>2026-03-16T10:54:01.292000Z</time>
      </trkpt>
      <trkpt lat="48.238222" lon="11.369632">
        <ele>490.2</ele>
        <time>2026-03-16T10:55:20.752000Z</time>
      </trkpt>
      <trkpt lat="48.23791" lon="11.368375">
        <ele>490.6</ele>
        <time>2026-03-16T10:56:51.606000Z</time>
      </trkpt>
      <trkpt lat="48.237769" lon="11.368227">
        <ele>490.7</ele>
        <time>2026-03-16T10:57:09.182000Z</time>
      </trkpt>
      <trkpt lat="48.237411" lon="11.368199">
        <ele>490.9</ele>
        <time>2026-03-16T10:57:45.902000Z</time>
      </trkpt>
      <trkpt lat="48.237071" lon="11.368132">
        <ele>491.1</ele>
        <time>2026-03-16T10:58:20.982000Z</time>
      </trkpt>
      <trkpt lat="48.236922" lon="11.368049">
        <ele>491.2</ele>
        <time>2026-03-16T10:58:37.245000Z</time>
      </trkpt>
      <trkpt lat="48.23672" lon="11.36782">
        <ele>491.4</ele>
        <time>2026-03-16T10:59:03.226000Z</time>
      </trkpt>
      <trkpt lat="48.236184" lon="11.366988">
        <ele>491.7</ele>
        <time>2026-03-16T11:00:21.557000Z</time>
      </trkpt>
      <trkpt lat="48.235964" lon="11.366561">
        <ele>491.8</ele>
        <time>2026-03-16T11:00:57.880000Z</time>
      </trkpt>
      <trkpt lat="48.235779" lon="11.365899">
        <ele>492</ele>
        <time>2026-03-16T11:01:46.242000Z</time>
      </trkpt>
      <trkpt lat="48.235487" lon="11.364567">
        <ele>492.1</ele>
        <time>2026-03-16T11:03:20.336000Z</time>
      </trkpt>
      <trkpt lat="48.235368" lon="11.364276">
        <ele>492.1</ele>
        <time>2026-03-16T11:03:43.201000Z</time>
      </trkpt>
      <trkpt lat="48.235155" lon="11.363967">
        <ele>492.2</ele>
        <time>2026-03-16T11:04:13.029000Z</time>
      </trkpt>
      <trkpt lat="48.23504" lon="11.363879">
        <ele>492.2</ele>
        <time>2026-03-16T11:04:26.092000Z</time>
      </trkpt>
      <trkpt lat="48.234584" lon="11.363406">
        <ele>492.4</ele>
        <time>2026-03-16T11:05:22.044000Z</time>
      </trkpt>
      <trkpt lat="48.234468" lon="11.363271">
        <ele>492.4</ele>
        <time>2026-03-16T11:05:36.977000Z</time>
      </trkpt>
      <trkpt lat="48.233598" lon="11.36506">
        <ele>492.8</ele>
        <time>2026-03-16T11:08:05.934000Z</time>
      </trkpt>
      <trkpt lat="48.233476" lon="11.365135">
        <ele>492.8</ele>
        <time>2026-03-16T11:08:19.254000Z</time>
      </trkpt>
      <trkpt lat="48.23341" lon="11.365116">
        <ele>492.8</ele>
        <time>2026-03-16T11:08:26.033000Z</time>
      </trkpt>
      <trkpt lat="48.233289" lon="11.365025">
        <ele>492.9</ele>
        <time>2026-03-16T11:08:39.735000Z</time>
      </trkpt>
      <trkpt lat="48.231125" lon="11.361841">
        <ele>494.1</ele>
        <time>2026-03-16T11:13:47.316000Z</time>
      </trkpt>
      <trkpt lat="48.231163" lon="11.361789">
        <ele>494.1</ele>
        <time>2026-03-16T11:13:52.585000Z</time>
      </trkpt>
      <trkpt lat="48.231339" lon="11.361548">
        <ele>494.2</ele>
        <time>2026-03-16T11:14:16.701000Z</time>
      </trkpt>
      <trkpt lat="48.231421" lon="11.361434">
        <ele>494.3</ele>
        <time>2026-03-16T11:14:28.063000Z</time>
      </trkpt>
      <trkpt lat="48.231829" lon="11.360875">
        <ele>494.5</ele>
        <time>2026-03-16T11:15:24.192000Z</time>
      </trkpt>
      <trkpt lat="48.232088" lon="11.360562">
        <ele>494.6</ele>
        <time>2026-03-16T11:15:57.805000Z</time>
      </trkpt>
      <trkpt lat="48.232269" lon="11.360322">
        <ele>494.6</ele>
        <time>2026-03-16T11:16:22.092000Z</time>
      </trkpt>
    </trkseg>
  </trk>
</gpx>