<?xml version="1.0" encoding="UTF-8"?>
<gpx xmlns="http://www.topografix.com/GPX/1/1" xmlns:xsi="http://www.w3.org/2001/XMLSchema-instance" xsi:schemaLocation="http://www.topografix.com/GPX/1/1 http://www.topografix.com/GPX/1/1/gpx.xsd" version="1.1" creator="Robert Kampf">
  <metadata>
    <name>Blick auf die Seezunge (Rothsee) – Rothsee Runde von Allersberg</name>
    <desc>Distance: 5.239km, Estimated duration: 1.33h, Elevation up: 14.662224071846026m, Elevation down: 14.63598188571899m, Grade: easy</desc>
    <author>
      <name>Robert Kampf</name>
      <link href="https://www.komoot.de/user/4125295338453">
        <text>View Robert Kampf's Profile on Komoot</text>
      </link>
    </author>
    <link href="https://www.komoot.de/tour/3084848461">
      <text>View tour on Komoot</text>
    </link>
  </metadata>
  <wpt lat="49.24196" lon="11.212653">
    <name>Parking</name>
    <cmt></cmt>
    <desc>Free</desc>
    <src>Komoot</src>
    <type>POI</type>
  </wpt>
  <wpt lat="49.239118" lon="11.208715">
    <ele>380.7</ele>
    <name>View of Rothsee</name>
    <cmt>https://d2exd72xrrp1s7.cloudfront.net/www/000/1k4/1u/1up9eau5v69ixv6adublayhf53gm6kv9j-uhi18663324/0</cmt>
    <desc>IRI𝕊 with
🅱️🅴🅻🅻🅰️ 🚵‍♀️: einfach zum Genießen und die Seele baumeln lassen
――――――――――
🌼 verdreht 🌼: wunderbarer Blick ins Naturschutzgebiet mit Rohrkolben
――――――――――
Felix: Lädt für eine lange Pause oder als Zwischenziel ein
――――――――――
〽️Markus: Die idyllische Lage des Rothsees mitten in der Natur ist ideal zum Entspannen und zur Erholung vom Alltagsstress.
――――――――――
Stoapfalzb(h)iker: Von hier aus ist die Natur-Schutzzone im Norden zu sehen
――――――――――
Peter: Die rund um den See aufgestellten Bänke bieten einen wunderbaren Blick auf's Wasser.
――――――――――
Susanne und Armin: Idylle pur zum Durchatmen.
――――――――――
Bastl: Immer wieder laden Sitzbänke zum Verweilen ein.
――――――――――
Nordhesse: Man erreicht den Rothsee leicht vom Wanderparkplatz an der Staatsstraße und kann hier auf wunderschönen Weg den gesamten See umrunden. Besonders die große Vogelvielfalt in Ufernähe führt zu vielen Beobachtungen.
――――――――――
Rainer &amp; Petra: Bei schönem Wetter bietet die Wasseroberfläche herrliche Spiegelbilder vom gegenüberliegenden Wald
――――――――――
Th🅾️m🅰️s 👣 &amp; M🅰️j🅰️ 🐾: Dieser Ort ist wirklich zur jeden Jahreszeit einen Besuch wert!
――――――――――
🐕 Ⓜ️ℹ️CH🅰️EL🚲 ©️ZERNY🐕: https://www.fraenkisches-seenland.de/rothsee/
――――――――――
van_houten1982: Schöner Blick auf den See. Eine Bank lädt zum Verweilen ein</desc>
    <src>Komoot</src>
    <link href="https://www.komoot.de/highlight/418526">
      <text>View POI on Komoot</text>
    </link>
    <type>Highlight</type>
  </wpt>
  <wpt lat="49.236342" lon="11.206733">
    <ele>429.5</ele>
    <name>Bench With a View of the Lake</name>
    <cmt>https://d2exd72xrrp1s7.cloudfront.net/www/000/1k9/dg/dg3i5l6ugpnwe1e8wvt8rty25cyoz33v-uhi86015714/0</cmt>
    <desc></desc>
    <src>Komoot</src>
    <link href="https://www.komoot.de/highlight/7427712">
      <text>View POI on Komoot</text>
    </link>
    <type>Highlight</type>
  </wpt>
  <wpt lat="49.230585" lon="11.202292">
    <ele>424.9</ele>
    <name>View of the Seezunge (Rothsee)</name>
    <cmt>https://d2exd72xrrp1s7.cloudfront.net/www/000/1k3/rq/rqk9f9ju5ff91p5o7melf1xo231m610eq-uhi6828632/0</cmt>
    <desc>🚲CyklistCR🚲: Der Rothsee ist immer ein Ausflug wert. Gut umfahrbar, aber kein Asphalt
――――――――――
Nils: Blick über den oberen Rothsee, die Vorsperre.
――――――――――
Marc: Schöne kleine Holzbrücke mit Blick auf Rothsee.
――――――――――
Th🅾️m🅰️s 👣 &amp; M🅰️j🅰️ 🐾: Dieser Ort ist wirklich zur jeden Jahreszeit einen Besuch wert!
――――――――――
Alex: Der Rothsee... immer wieder schön!! Egal ob Wandern, mit dem Bike oder ne Runde Joggen, es lohnt sich !! Die große Runde ist 7,3 km und die kleine 5,4 km... viel Spaß 😊 
――――――――――
Rainer &amp; Petra: Ein herrlich naturbelassener Teil des Rothsees. Man etwas Glück sieht man hier Schwäne.
――――――――――
Manfred Dietrich: Kleine Pause am See oder an einem der Kioske für ein Getränk oder Eis :-)
――――――――――
☘️ Werner: Landschaft, Versorgung, Bademöglichkeit: alles passt.
――――――――――
🌼 verdreht 🌼: hier brütet im Frühjahr auch ein Schwan
――――――――――
Stoapfalzb(h)iker: Die Seezunge wird von einer Brücke überspannt
――――――――――
Thorsten | Laufend-Glücklich Blog: Baden, Radfahren, Laufen, Spazierengehen - einfach ein guter Ort um an der frischen Luft zu sein. Im Sommer gibt es durch das Strandhaus auch eine Infrastruktur mit Toiletten und Gastronomie. Bei schönem Wetter nur leider sehr gut besucht und die Parkplätze sind dann gebührenpflichtig.
――――――――――
🚲CyklistCR🚲: Der 210 Hektar große Rothsee groß ist durch einen Damm geteilt: Im Bereich der Vorsperre tummeln sich ausschließlich die Badegäste. Segler und Surfer haben mit der Hauptsperre ihr ideales Revier.
――――――――――
Rudi: tolle Tour
――――――――――
Susanne und Armin: Hinter jeder Biegung gibt es etwas Neues zu entdecken.
――――――――――
Th🅾️m🅰️s 👣 &amp; M🅰️j🅰️ 🐾: Klasse Gegend und super Beiträge
――――――――――
ML: Viele kleine Fische zu beobachten
――――――――――
Yasin07: Einfach tolle Blick
――――――――――
Markus: Schönster Kiosk am Rothsee. Terrasse direkt am See.
――――――――――
Stefarnio: Tolles Laufambiente. Der zweigeteilte See bietet beim Umlaufen viel Natur, tolle Blicke aufs Wasser, saubere Sanitäranlagen und Laufrunden von ca. 5, 10 und 15 km. Die Wege sind größtenteils gepflegt. 
――――――――――
Stefarnio: Sehr idyllisch.
――――――――――
Robin Sperandio: Ein wunderschöner Speichersee der zum baden einlädt. Es gibt etwas Gastronomie, einen Spielplatz und einen Sandstrand.
――――――――――
David Meyer: schöner See in der Nähe von Roth.</desc>
    <src>Komoot</src>
    <link href="https://www.komoot.de/highlight/2137801">
      <text>View POI on Komoot</text>
    </link>
    <type>Highlight</type>
  </wpt>
  <wpt lat="49.228781" lon="11.192966">
    <ele>376.9</ele>
    <name>Steel Heart at Rothsee</name>
    <cmt>https://d2exd72xrrp1s7.cloudfront.net/www/000/1k9/kb/kbqbhrv28jyhoikph5bupkv35m9oy9ec-uhi96927187/0</cmt>
    <desc>〽️Markus: Das Stahlherz ist der neue Foto-Hotspot am Rothsee. Ideengeberin, Initiatorin und Spenderin des gut 2,30 Meter hohen Kunstwerks ist Birgit Bast. Das Stahlherz am Kleinen Rothsee lädt Besucher zu Fotos und besonderen Momenten ein. Es wurde nun offiziell am 11. Dezember 2025 eingeweiht.
――――――――――
Rolf aus Stein 👣: Das neue Fotomotiv am Rothsee - das Stahlherz. Perfekt um schöne Bilder zu machen.
――――――――――
schdaude: Schöner Fotopunkt: Unser schöner Rothsee</desc>
    <src>Komoot</src>
    <link href="https://www.komoot.de/highlight/8164733">
      <text>View POI on Komoot</text>
    </link>
    <type>Highlight</type>
  </wpt>
  <wpt lat="49.228875" lon="11.192852">
    <ele>435</ele>
    <name>View from the platform overlooking Rothsee</name>
    <cmt>https://d2exd72xrrp1s7.cloudfront.net/www/000/1k9/cz/cz62jz1enpcvnk1oflqf9tlj5domquwc-uhi86999374/0</cmt>
    <desc>FelixX: Dieser erhöhte Punkt dient auch zur Sturmwarnung für den kleinen und östl. großen Rothsee.</desc>
    <src>Komoot</src>
    <link href="https://www.komoot.de/highlight/7427765">
      <text>View POI on Komoot</text>
    </link>
    <type>Highlight</type>
  </wpt>
  <wpt lat="49.23034" lon="11.195326">
    <ele>418</ele>
    <name>Birkach Beach House at Rothsee</name>
    <cmt>https://d2exd72xrrp1s7.cloudfront.net/www/000/1k2/16/16m2pbwkrympz1bkhiytula5fs2oflfpu4-uhi3476513/0</cmt>
    <desc>Alex: Schönes Strandcafe mit Kiosk. Lädt zum verweilen ein. Es gibt warme Speisen aber auch Kaffee und Kuchen. Und für die kleinen ein Spielplatz.Direkt dabei eine Ladestation für E Bikes.
――――――――――
"die Fotomaxen": schön und direkt am See
――――――――――
〽️Markus: Auf der großen Liegewiese kann man so herrlich entspannen.  Hier kann man sich wunderbar vom Schwimmen-Sonnen-Radeln - Spazierengehen oder einfach vom Nichtstun erholen. Das Strandhaus Birkach bietet in den Sommermonaten leckere Speisen und Getränke und natürlich immer mit Blick zum See.
――――――――――
Mpaege: Sehr gute selbstgemacht Kuchen und Torten. Nicht günstig da touristisch. Für Kinder etliche Spielmöglichkeiten.
――――――――――
Rombea: Das Strandhaus Birkach ist ein Cafe &amp; Bistro mit Kiosk. Es gibt über 100 Sitzplätze im Cafe  und beim Kiosk auf der Terrasse etwa 500 – also jede Menge Platz. Zudem kannst du dein E-Bike an der Ladestation aufladen. Mehr Infos findest du hier:
https://www.strandhaus-birkach.de/
――――――――――
S+S 👣👣: Die Kuchen sind eine Sünde wert..🤤😋
――――――――――
Alexandra: Eine sehr schöne Wanderung, bei der man sogar mal einen Abstecher in den See machen kann :)
――――――――――
BioMann: Preis und Leistung passt, Selbstbedienungskiosk
――――――――――
Angie S: Kaiserschmarrn bekommt man ja hier nicht überall - um so schöner war es, dass es den gab und dann auch noch sooo lecker! Aber auch andere viele verschiedene Speisen gab es - da ist sicher für jeden was dabei. Und auch die Preise sind moderat.
――――――――――
Stoapfalzb(h)iker: Badestrand mit Einkehrmöglichkeit am Westufer der Vorsperre
――――――――――
Peter: Am Erholungszentrum Birkach lädt das Cafè-Bistro mit seiner wunderschönen Terrasse zum Verweilen ein. Sanitäranlagen und Duschen am Badestrand stehen den Erholungssuchenden zur Verfügung. Für die Sportlichen gibt es ein Volleyballfeld und für die Kleinsten einen Spielplatz.
――――――――――
Rainer &amp; Petra: Schön gelegene Einkehrmöglichkeit mit einer großen Liegewiese und direktem Seezugang.
――――――――――
Bastl: Hier gibt es Spalter Bier.
――――――――――
Burg-Berg: Toller Platz, der auch gerne als Eventlocation genutzt wird.
――――――――――
Mario M.: Super Beschilderung der Rad- und Wanderwege, viele interessante Info-Tafeln zum See und Umgebung und gute befestigte Wege. 
――――――――――
Mario M.: Vorsperre Rothsee 
――――――――――
Th🅾️m🅰️s 👣 &amp; M🅰️j🅰️ 🐾: Dieser Ort ist wirklich zur jeden Jahreszeit einen Besuch wert!
――――――――――
Mone: Schönes kleines Café auf dem Weg rund um den See
――――――――――
Rolf: Öffnungszeiten des Strandhauses Birkach
Täglich ab 11 Uhr
Dienstag Ruhetag
Warme Küche ab 11:30 Uhr
https://www.strandhaus-birkach.de/
――――――――――
Darkman: Schöner Rundweg um den Rothsee, hier lässt es sich wunderbar sparzieren oder Radfahren.
Mit immer wieder Einkehr Möglichkeiten und Liegewiesen zum Baden oder rasten.
――――――――――
FelixX: Am See gibt es alle 50 m eine Bank. Sinnlos</desc>
    <src>Komoot</src>
    <link href="https://www.komoot.de/highlight/430676">
      <text>View POI on Komoot</text>
    </link>
    <type>Highlight</type>
  </wpt>
  <wpt lat="49.232681" lon="11.198602">
    <ele>379.4</ele>
    <name>Rothsee</name>
    <cmt>https://d2exd72xrrp1s7.cloudfront.net/www/000/1k0/wv/wv8q03zxb0i11tlwdm6hcdh7c1n0krewg-uhinull/0</cmt>
    <desc>Alex: Schöner See. Für Alle etwas geboten, ob mit dem Rad, zum Joggen, zum relaxen und baden oder für einen Spaziergang, es lohnt sich immer mal hierher zu kommen.
――――――――――
〽️Markus: Der Rothsee liegt rund 28 km südlich von Nürnberg an der Nordflanke der Fränkischen Alb, etwa zwei Kilometer unterhalb des Markts Allersberg im Tal der hier nach Südwesten fließenden Kleinen Roth, das er auf 3,7 km Länge ausfüllt. Seine größte Breite von 1,6 km erreicht er erst kurz vor dem Hauptdamm, auf den oberen zwei Dritteln der Länge bleibt die Breite unter 400 m.

Der Rothsee ist ein Stausee im Lauf der Kleinen Roth im bayerischen Landkreis Roth (Mittelfranken). Die Talsperre dient als Zwischenspeicher der Donau-Main-Überleitung. Die Hauptsperre wird durch den Main-Donau-Kanal mit Pumpwasser aus Altmühl und Donau beschickt und kann Wasser sowohl über die Kleine Roth in die Roth als auch über den Main-Donau-Kanal in die Schwarzach abgeben. Beide Gewässer münden in die der Regnitz zufließende Rednitz.
――――――――――
Mario: Um die beiden Seen geht ein schöner Wander bzw. Radweg herum.
――――――――――
Alexandra: Zum Wandern, entspannen, flanieren und schwimmen einfach perfekt!
――――――――――
"die Fotomaxen": wunderschön, nur manchmal etwas überlaufen
――――――――――
"die Fotomaxen": einfach herrlich, bei schönem Wetter etwas überlaufen
――――――――――
Rainer &amp; Petra: Der Rothsee ist ein künstliche angelegter See, gelegen zwischen Wäldern und Wiesen. Ein Damm unterteilt den Rothsee in die Vorsperre, die den Badegästen vorbehalten ist, und die Hauptsperre, die Bademöglichkeiten bietet und ein Revier für Surfer und Segler ist.
――――――――――
Naxxos: Schönes Naherholungsziel mit gepflegten Liegewiesen. Ein 12 Kilometer langer Uferweg führt rund um den See.
――――――――――
ML: Hier ist aus etwas künstlich Geschaffenen ein wunderschönes Stück Natur entstanden und bietet einen hohen Freizeitwert für die ganze Region.
――――――――――
Stoapfalzb(h)iker: Rund um den See gibt es immer wieder andere Ansichten
――――――――――
Bastl: Auf jeder Seite befindet sich ein Restaurant.
――――――――――
Th🅾️m🅰️s 👣 &amp; M🅰️j🅰️ 🐾: Dieser Ort ist wirklich zur jeden Jahreszeit einen Besuch wert!
――――――――――
Stefarnio: Kleine Bank mit Feldblick. Den See hat man im Rücken
――――――――――
Annett: Gerne wieder :)
――――――――――
Stoapfalzb(h)iker: Kleine Runde um den nördlichen Teil des Rothsees
――――――――――
Th🅾️m🅰️s 👣 &amp; M🅰️j🅰️ 🐾: Es lohnt sich stehts diese Gegend zu erkunden! Viel Freude dabei!
――――――――――
Th🅾️m🅰️s 👣 &amp; M🅰️j🅰️ 🐾: Es lohnt sich stehts diese Gegend zu erkunden! Viel Freude beim Rasten!
――――――――――
FelixX: Am See gibt es alle 50 m eine Bank. Sinnlos</desc>
    <src>Komoot</src>
    <link href="https://www.komoot.de/highlight/124708">
      <text>View POI on Komoot</text>
    </link>
    <type>Highlight</type>
  </wpt>
  <wpt lat="49.242234" lon="11.21218">
    <ele>426.9</ele>
    <name>Kleine Roth Biotope</name>
    <cmt>https://d2exd72xrrp1s7.cloudfront.net/www/000/1k4/qj/qjq9pjspfn36105xubx3lmpux3gmj3o4t-uhi18701898/0</cmt>
    <desc>ML: Zulauf der Rothsee- Vorsperre
――――――――――
Bastl: Direkt daneben ist ein kostenloser Parkplatz.
――――――――――
Nordhesse: In unmittelbarer Nähe eine Parkplatz befindet sich die kleine Roth, die den Rothsee durchfließt.
Schöne Wanderwege verlaufen um den Biotop und man kann viele Vogelarten hier beobachten.
――――――――――
Mario M.: Eine große Vogelvielfalt, mit Silberreihern, Brandgänsen, Knäkenten, Schwänen, u.v.m., wie ich es noch nicht gesehen habe. Sehr 
――――――――――
Rainer &amp; Petra: Schöne, malerische Stelle am Rothsee
――――――――――
Detta: Ein kleines Biotop am See.
――――――――――
RS7: Ein kostenloser Parkplatz und ein kleines Schloss in der Nähe.
――――――――――
Th🅾️m🅰️s 👣 &amp; M🅰️j🅰️ 🐾: Dieser Ort ist wirklich zur jeden Jahreszeit einen Besuch wert!
――――――――――
Karl Knusperfrosch: Die kleine Roth ist ein Bach, der sich durch das Gebiet schlängelt und urige Landschaften bildet.</desc>
    <src>Komoot</src>
    <link href="https://www.komoot.de/highlight/2146866">
      <text>View POI on Komoot</text>
    </link>
    <type>Highlight</type>
  </wpt>
  <trk>
    <name>Blick auf die Seezunge (Rothsee) – Rothsee Runde von Allersberg</name>
    <desc>Distance: 5.239km, Estimated duration: 1.33h, Elevation up: 14.662224071846026m, Elevation down: 14.63598188571899m, Grade: easy</desc>
    <link href="https://www.komoot.de/tour/3084848461">
      <text>View tour on Komoot</text>
    </link>
    <trkseg>
      <trkpt lat="49.241934" lon="11.212599">
        <ele>379.3</ele>
        <time>2026-07-04T20:12:35.085000Z</time>
      </trkpt>
      <trkpt lat="49.241856" lon="11.212689">
        <ele>379.3</ele>
        <time>2026-07-04T20:12:44.930000Z</time>
      </trkpt>
      <trkpt lat="49.241727" lon="11.2129">
        <ele>379.3</ele>
        <time>2026-07-04T20:13:03.834000Z</time>
      </trkpt>
      <trkpt lat="49.241394" lon="11.21349">
        <ele>379.1</ele>
        <time>2026-07-04T20:13:55.263000Z</time>
      </trkpt>
      <trkpt lat="49.2412" lon="11.213759">
        <ele>379</ele>
        <time>2026-07-04T20:14:21.702000Z</time>
      </trkpt>
      <trkpt lat="49.241033" lon="11.21392">
        <ele>378.9</ele>
        <time>2026-07-04T20:14:41.601000Z</time>
      </trkpt>
      <trkpt lat="49.240893" lon="11.21401">
        <ele>378.8</ele>
        <time>2026-07-04T20:14:56.959000Z</time>
      </trkpt>
      <trkpt lat="49.240658" lon="11.214032">
        <ele>378.7</ele>
        <time>2026-07-04T20:15:20.792000Z</time>
      </trkpt>
      <trkpt lat="49.240571" lon="11.214087">
        <ele>378.6</ele>
        <time>2026-07-04T20:15:30.343000Z</time>
      </trkpt>
      <trkpt lat="49.240408" lon="11.213947">
        <ele>378.5</ele>
        <time>2026-07-04T20:15:49.270000Z</time>
      </trkpt>
      <trkpt lat="49.2403" lon="11.213811">
        <ele>378.4</ele>
        <time>2026-07-04T20:16:03.395000Z</time>
      </trkpt>
      <trkpt lat="49.240287" lon="11.213635">
        <ele>378.4</ele>
        <time>2026-07-04T20:16:15.137000Z</time>
      </trkpt>
      <trkpt lat="49.240111" lon="11.213388">
        <ele>378.2</ele>
        <time>2026-07-04T20:16:39.303000Z</time>
      </trkpt>
      <trkpt lat="49.239996" lon="11.213133">
        <ele>378.1</ele>
        <time>2026-07-04T20:16:59.764000Z</time>
      </trkpt>
      <trkpt lat="49.239917" lon="11.213031">
        <ele>378.1</ele>
        <time>2026-07-04T20:17:10.123000Z</time>
      </trkpt>
      <trkpt lat="49.239884" lon="11.212952">
        <ele>378.1</ele>
        <time>2026-07-04T20:17:16.333000Z</time>
      </trkpt>
      <trkpt lat="49.239876" lon="11.212836">
        <ele>378</ele>
        <time>2026-07-04T20:17:24.035000Z</time>
      </trkpt>
      <trkpt lat="49.239892" lon="11.2127">
        <ele>378</ele>
        <time>2026-07-04T20:17:33.091000Z</time>
      </trkpt>
      <trkpt lat="49.240088" lon="11.211979">
        <ele>377.9</ele>
        <time>2026-07-04T20:18:24.313000Z</time>
      </trkpt>
      <trkpt lat="49.240018" lon="11.211416">
        <ele>378</ele>
        <time>2026-07-04T20:19:02.306000Z</time>
      </trkpt>
      <trkpt lat="49.240093" lon="11.210828">
        <ele>378.4</ele>
        <time>2026-07-04T20:19:42.684000Z</time>
      </trkpt>
      <trkpt lat="49.240047" lon="11.210652">
        <ele>378.5</ele>
        <time>2026-07-04T20:19:55.497000Z</time>
      </trkpt>
      <trkpt lat="49.239945" lon="11.210547">
        <ele>378.6</ele>
        <time>2026-07-04T20:20:08.139000Z</time>
      </trkpt>
      <trkpt lat="49.239836" lon="11.210532">
        <ele>378.7</ele>
        <time>2026-07-04T20:20:19.438000Z</time>
      </trkpt>
      <trkpt lat="49.239668" lon="11.210599">
        <ele>378.8</ele>
        <time>2026-07-04T20:20:37.213000Z</time>
      </trkpt>
      <trkpt lat="49.239522" lon="11.210585">
        <ele>378.9</ele>
        <time>2026-07-04T20:20:52.172000Z</time>
      </trkpt>
      <trkpt lat="49.239444" lon="11.210502">
        <ele>379</ele>
        <time>2026-07-04T20:21:01.942000Z</time>
      </trkpt>
      <trkpt lat="49.239346" lon="11.210318">
        <ele>379</ele>
        <time>2026-07-04T20:21:17.642000Z</time>
      </trkpt>
      <trkpt lat="49.23924" lon="11.20996">
        <ele>379.1</ele>
        <time>2026-07-04T20:21:43.475000Z</time>
      </trkpt>
      <trkpt lat="49.239155" lon="11.20957">
        <ele>379</ele>
        <time>2026-07-04T20:22:10.512000Z</time>
      </trkpt>
      <trkpt lat="49.239174" lon="11.209279">
        <ele>378.9</ele>
        <time>2026-07-04T20:22:29.812000Z</time>
      </trkpt>
      <trkpt lat="49.239238" lon="11.209018">
        <ele>378.7</ele>
        <time>2026-07-04T20:22:48.440000Z</time>
      </trkpt>
      <trkpt lat="49.239209" lon="11.208833">
        <ele>378.5</ele>
        <time>2026-07-04T20:23:01.236000Z</time>
      </trkpt>
      <trkpt lat="49.239157" lon="11.20875">
        <ele>378.4</ele>
        <time>2026-07-04T20:23:08.994000Z</time>
      </trkpt>
      <trkpt lat="49.239115" lon="11.208728">
        <ele>378.3</ele>
        <time>2026-07-04T20:23:13.624000Z</time>
      </trkpt>
      <trkpt lat="49.238991" lon="11.208665">
        <ele>378.1</ele>
        <time>2026-07-04T20:23:27.245000Z</time>
      </trkpt>
      <trkpt lat="49.23853" lon="11.208623">
        <ele>377.3</ele>
        <time>2026-07-04T20:24:15.066000Z</time>
      </trkpt>
      <trkpt lat="49.238402" lon="11.208565">
        <ele>377.1</ele>
        <time>2026-07-04T20:24:28.840000Z</time>
      </trkpt>
      <trkpt lat="49.238121" lon="11.208359">
        <ele>376.7</ele>
        <time>2026-07-04T20:25:00.673000Z</time>
      </trkpt>
      <trkpt lat="49.237949" lon="11.208309">
        <ele>376.6</ele>
        <time>2026-07-04T20:25:18.572000Z</time>
      </trkpt>
      <trkpt lat="49.237693" lon="11.208099">
        <ele>376.4</ele>
        <time>2026-07-04T20:25:48.043000Z</time>
      </trkpt>
      <trkpt lat="49.237452" lon="11.207834">
        <ele>376.2</ele>
        <time>2026-07-04T20:26:18.087000Z</time>
      </trkpt>
      <trkpt lat="49.237084" lon="11.207253">
        <ele>376</ele>
        <time>2026-07-04T20:27:11.350000Z</time>
      </trkpt>
      <trkpt lat="49.236935" lon="11.20706">
        <ele>376</ele>
        <time>2026-07-04T20:27:30.925000Z</time>
      </trkpt>
      <trkpt lat="49.23686" lon="11.206992">
        <ele>376</ele>
        <time>2026-07-04T20:27:39.783000Z</time>
      </trkpt>
      <trkpt lat="49.236515" lon="11.206831">
        <ele>375.8</ele>
        <time>2026-07-04T20:28:16.255000Z</time>
      </trkpt>
      <trkpt lat="49.236369" lon="11.20671">
        <ele>375.7</ele>
        <time>2026-07-04T20:28:33.113000Z</time>
      </trkpt>
      <trkpt lat="49.236361" lon="11.2067">
        <ele>375.7</ele>
        <time>2026-07-04T20:28:34.128000Z</time>
      </trkpt>
      <trkpt lat="49.236281" lon="11.20659">
        <ele>375.6</ele>
        <time>2026-07-04T20:28:44.998000Z</time>
      </trkpt>
      <trkpt lat="49.235983" lon="11.205921">
        <ele>375.5</ele>
        <time>2026-07-04T20:29:38.211000Z</time>
      </trkpt>
      <trkpt lat="49.235887" lon="11.205752">
        <ele>375.5</ele>
        <time>2026-07-04T20:29:52.882000Z</time>
      </trkpt>
      <trkpt lat="49.235815" lon="11.205677">
        <ele>375.5</ele>
        <time>2026-07-04T20:30:01.582000Z</time>
      </trkpt>
      <trkpt lat="49.23562" lon="11.205617">
        <ele>375.5</ele>
        <time>2026-07-04T20:30:21.568000Z</time>
      </trkpt>
      <trkpt lat="49.234969" lon="11.205696">
        <ele>375.6</ele>
        <time>2026-07-04T20:31:27.402000Z</time>
      </trkpt>
      <trkpt lat="49.23492" lon="11.205594">
        <ele>375.7</ele>
        <time>2026-07-04T20:31:35.762000Z</time>
      </trkpt>
      <trkpt lat="49.234666" lon="11.205174">
        <ele>375.8</ele>
        <time>2026-07-04T20:32:13.835000Z</time>
      </trkpt>
      <trkpt lat="49.234336" lon="11.204792">
        <ele>375.9</ele>
        <time>2026-07-04T20:32:55.544000Z</time>
      </trkpt>
      <trkpt lat="49.23383" lon="11.204356">
        <ele>375.9</ele>
        <time>2026-07-04T20:33:53.880000Z</time>
      </trkpt>
      <trkpt lat="49.232551" lon="11.203347">
        <ele>375.5</ele>
        <time>2026-07-04T20:36:18.678000Z</time>
      </trkpt>
      <trkpt lat="49.23214" lon="11.203053">
        <ele>375.4</ele>
        <time>2026-07-04T20:37:04.292000Z</time>
      </trkpt>
      <trkpt lat="49.231803" lon="11.202852">
        <ele>375.3</ele>
        <time>2026-07-04T20:37:40.631000Z</time>
      </trkpt>
      <trkpt lat="49.231513" lon="11.202723">
        <ele>375.3</ele>
        <time>2026-07-04T20:38:10.951000Z</time>
      </trkpt>
      <trkpt lat="49.23096" lon="11.202543">
        <ele>375.5</ele>
        <time>2026-07-04T20:39:07.923000Z</time>
      </trkpt>
      <trkpt lat="49.230723" lon="11.202405">
        <ele>375.6</ele>
        <time>2026-07-04T20:39:33.654000Z</time>
      </trkpt>
      <trkpt lat="49.230585" lon="11.202292">
        <ele>375.7</ele>
        <time>2026-07-04T20:39:49.904000Z</time>
      </trkpt>
      <trkpt lat="49.230481" lon="11.202207">
        <ele>375.9</ele>
        <time>2026-07-04T20:40:02.375000Z</time>
      </trkpt>
      <trkpt lat="49.230096" lon="11.201819">
        <ele>377</ele>
        <time>2026-07-04T20:40:52.265000Z</time>
      </trkpt>
      <trkpt lat="49.229817" lon="11.201481">
        <ele>377.8</ele>
        <time>2026-07-04T20:41:30.809000Z</time>
      </trkpt>
      <trkpt lat="49.229679" lon="11.201313">
        <ele>378.2</ele>
        <time>2026-07-04T20:41:49.808000Z</time>
      </trkpt>
      <trkpt lat="49.229521" lon="11.201118">
        <ele>378.6</ele>
        <time>2026-07-04T20:42:11.437000Z</time>
      </trkpt>
      <trkpt lat="49.229424" lon="11.201001">
        <ele>378.8</ele>
        <time>2026-07-04T20:42:24.532000Z</time>
      </trkpt>
      <trkpt lat="49.228991" lon="11.200332">
        <ele>379.4</ele>
        <time>2026-07-04T20:43:28.479000Z</time>
      </trkpt>
      <trkpt lat="49.228548" lon="11.199283">
        <ele>378.6</ele>
        <time>2026-07-04T20:44:51.913000Z</time>
      </trkpt>
      <trkpt lat="49.228139" lon="11.198518">
        <ele>377.5</ele>
        <time>2026-07-04T20:45:58.739000Z</time>
      </trkpt>
      <trkpt lat="49.227419" lon="11.197306">
        <ele>376.2</ele>
        <time>2026-07-04T20:47:48.540000Z</time>
      </trkpt>
      <trkpt lat="49.22701" lon="11.196767">
        <ele>375.3</ele>
        <time>2026-07-04T20:48:44.296000Z</time>
      </trkpt>
      <trkpt lat="49.226977" lon="11.196625">
        <ele>375.2</ele>
        <time>2026-07-04T20:48:54.545000Z</time>
      </trkpt>
      <trkpt lat="49.226909" lon="11.196544">
        <ele>375</ele>
        <time>2026-07-04T20:49:03.489000Z</time>
      </trkpt>
      <trkpt lat="49.226877" lon="11.196435">
        <ele>374.9</ele>
        <time>2026-07-04T20:49:11.629000Z</time>
      </trkpt>
      <trkpt lat="49.22683" lon="11.196372">
        <ele>374.8</ele>
        <time>2026-07-04T20:49:18.104000Z</time>
      </trkpt>
      <trkpt lat="49.226849" lon="11.19631">
        <ele>374.7</ele>
        <time>2026-07-04T20:49:22.776000Z</time>
      </trkpt>
      <trkpt lat="49.227139" lon="11.19593">
        <ele>374</ele>
        <time>2026-07-04T20:50:02.382000Z</time>
      </trkpt>
      <trkpt lat="49.227512" lon="11.195339">
        <ele>373.3</ele>
        <time>2026-07-04T20:50:57.540000Z</time>
      </trkpt>
      <trkpt lat="49.227871" lon="11.194639">
        <ele>373</ele>
        <time>2026-07-04T20:51:56.318000Z</time>
      </trkpt>
      <trkpt lat="49.227978" lon="11.194393">
        <ele>373.1</ele>
        <time>2026-07-04T20:52:15.804000Z</time>
      </trkpt>
      <trkpt lat="49.228006" lon="11.194221">
        <ele>373.2</ele>
        <time>2026-07-04T20:52:27.669000Z</time>
      </trkpt>
      <trkpt lat="49.228046" lon="11.194094">
        <ele>373.2</ele>
        <time>2026-07-04T20:52:37.206000Z</time>
      </trkpt>
      <trkpt lat="49.22811" lon="11.193931">
        <ele>373.4</ele>
        <time>2026-07-04T20:52:50.125000Z</time>
      </trkpt>
      <trkpt lat="49.228134" lon="11.193875">
        <ele>373.4</ele>
        <time>2026-07-04T20:52:54.695000Z</time>
      </trkpt>
      <trkpt lat="49.22824" lon="11.193738">
        <ele>373.6</ele>
        <time>2026-07-04T20:53:09.250000Z</time>
      </trkpt>
      <trkpt lat="49.228326" lon="11.19356">
        <ele>373.8</ele>
        <time>2026-07-04T20:53:24.475000Z</time>
      </trkpt>
      <trkpt lat="49.22845" lon="11.193214">
        <ele>374.2</ele>
        <time>2026-07-04T20:53:51.612000Z</time>
      </trkpt>
      <trkpt lat="49.228546" lon="11.193032">
        <ele>374.5</ele>
        <time>2026-07-04T20:54:07.800000Z</time>
      </trkpt>
      <trkpt lat="49.228739" lon="11.192989">
        <ele>374.8</ele>
        <time>2026-07-04T20:54:28.541000Z</time>
      </trkpt>
      <trkpt lat="49.228757" lon="11.192943">
        <ele>374.9</ele>
        <time>2026-07-04T20:54:32.266000Z</time>
      </trkpt>
      <trkpt lat="49.228815" lon="11.192796">
        <ele>375.1</ele>
        <time>2026-07-04T20:54:44.239000Z</time>
      </trkpt>
      <trkpt lat="49.228898" lon="11.192589">
        <ele>375.4</ele>
        <time>2026-07-04T20:55:01.104000Z</time>
      </trkpt>
      <trkpt lat="49.229051" lon="11.192542">
        <ele>375.6</ele>
        <time>2026-07-04T20:55:17.487000Z</time>
      </trkpt>
      <trkpt lat="49.229181" lon="11.192451">
        <ele>375.8</ele>
        <time>2026-07-04T20:55:32.519000Z</time>
      </trkpt>
      <trkpt lat="49.229245" lon="11.192343">
        <ele>375.9</ele>
        <time>2026-07-04T20:55:42.446000Z</time>
      </trkpt>
      <trkpt lat="49.229451" lon="11.19216">
        <ele>376.1</ele>
        <time>2026-07-04T20:56:07.135000Z</time>
      </trkpt>
      <trkpt lat="49.229665" lon="11.191829">
        <ele>376.3</ele>
        <time>2026-07-04T20:56:37.989000Z</time>
      </trkpt>
      <trkpt lat="49.229924" lon="11.191835">
        <ele>376.3</ele>
        <time>2026-07-04T20:57:03.981000Z</time>
      </trkpt>
      <trkpt lat="49.230153" lon="11.19209">
        <ele>376.2</ele>
        <time>2026-07-04T20:57:32.394000Z</time>
      </trkpt>
      <trkpt lat="49.230044" lon="11.19279">
        <ele>376</ele>
        <time>2026-07-04T20:58:19.872000Z</time>
      </trkpt>
      <trkpt lat="49.229996" lon="11.193145">
        <ele>375.9</ele>
        <time>2026-07-04T20:58:43.839000Z</time>
      </trkpt>
      <trkpt lat="49.230012" lon="11.193425">
        <ele>375.8</ele>
        <time>2026-07-04T20:59:02.466000Z</time>
      </trkpt>
      <trkpt lat="49.230173" lon="11.194171">
        <ele>375.5</ele>
        <time>2026-07-04T20:59:54.415000Z</time>
      </trkpt>
      <trkpt lat="49.230354" lon="11.194526">
        <ele>375.5</ele>
        <time>2026-07-04T21:00:23.948000Z</time>
      </trkpt>
      <trkpt lat="49.230276" lon="11.194775">
        <ele>375.6</ele>
        <time>2026-07-04T21:00:42.164000Z</time>
      </trkpt>
      <trkpt lat="49.230302" lon="11.194931">
        <ele>375.6</ele>
        <time>2026-07-04T21:00:52.752000Z</time>
      </trkpt>
      <trkpt lat="49.23029" lon="11.195204">
        <ele>375.6</ele>
        <time>2026-07-04T21:01:10.765000Z</time>
      </trkpt>
      <trkpt lat="49.230327" lon="11.195335">
        <ele>375.6</ele>
        <time>2026-07-04T21:01:20.103000Z</time>
      </trkpt>
      <trkpt lat="49.230387" lon="11.195549">
        <ele>375.7</ele>
        <time>2026-07-04T21:01:35.392000Z</time>
      </trkpt>
      <trkpt lat="49.230617" lon="11.195574">
        <ele>375.7</ele>
        <time>2026-07-04T21:01:58.708000Z</time>
      </trkpt>
      <trkpt lat="49.230724" lon="11.195554">
        <ele>375.7</ele>
        <time>2026-07-04T21:02:09.560000Z</time>
      </trkpt>
      <trkpt lat="49.230758" lon="11.195692">
        <ele>375.7</ele>
        <time>2026-07-04T21:02:19.192000Z</time>
      </trkpt>
      <trkpt lat="49.230793" lon="11.195797">
        <ele>375.8</ele>
        <time>2026-07-04T21:02:27.008000Z</time>
      </trkpt>
      <trkpt lat="49.231639" lon="11.197432">
        <ele>376.3</ele>
        <time>2026-07-04T21:04:45.119000Z</time>
      </trkpt>
      <trkpt lat="49.232374" lon="11.19809">
        <ele>376.5</ele>
        <time>2026-07-04T21:06:11.074000Z</time>
      </trkpt>
      <trkpt lat="49.232537" lon="11.198266">
        <ele>376.5</ele>
        <time>2026-07-04T21:06:31.149000Z</time>
      </trkpt>
      <trkpt lat="49.232729" lon="11.198515">
        <ele>376.4</ele>
        <time>2026-07-04T21:06:56.482000Z</time>
      </trkpt>
      <trkpt lat="49.232991" lon="11.198854">
        <ele>376.2</ele>
        <time>2026-07-04T21:07:31.088000Z</time>
      </trkpt>
      <trkpt lat="49.233217" lon="11.199086">
        <ele>376.1</ele>
        <time>2026-07-04T21:07:58.663000Z</time>
      </trkpt>
      <trkpt lat="49.234158" lon="11.19942">
        <ele>375.4</ele>
        <time>2026-07-04T21:09:36.850000Z</time>
      </trkpt>
      <trkpt lat="49.23455" lon="11.199659">
        <ele>375.1</ele>
        <time>2026-07-04T21:10:19.563000Z</time>
      </trkpt>
      <trkpt lat="49.234741" lon="11.199926">
        <ele>375</ele>
        <time>2026-07-04T21:10:45.577000Z</time>
      </trkpt>
      <trkpt lat="49.23496" lon="11.20047">
        <ele>375</ele>
        <time>2026-07-04T21:11:27.440000Z</time>
      </trkpt>
      <trkpt lat="49.235098" lon="11.200721">
        <ele>375</ele>
        <time>2026-07-04T21:11:48.957000Z</time>
      </trkpt>
      <trkpt lat="49.235346" lon="11.201111">
        <ele>375.1</ele>
        <time>2026-07-04T21:12:24.628000Z</time>
      </trkpt>
      <trkpt lat="49.235737" lon="11.201647">
        <ele>375.2</ele>
        <time>2026-07-04T21:13:17.494000Z</time>
      </trkpt>
      <trkpt lat="49.237375" lon="11.203417">
        <ele>375.7</ele>
        <time>2026-07-04T21:16:40.226000Z</time>
      </trkpt>
      <trkpt lat="49.237641" lon="11.203684">
        <ele>375.9</ele>
        <time>2026-07-04T21:17:12.668000Z</time>
      </trkpt>
      <trkpt lat="49.238048" lon="11.203992">
        <ele>376.1</ele>
        <time>2026-07-04T21:17:58.850000Z</time>
      </trkpt>
      <trkpt lat="49.238887" lon="11.204542">
        <ele>377</ele>
        <time>2026-07-04T21:19:33.401000Z</time>
      </trkpt>
      <trkpt lat="49.239004" lon="11.204609">
        <ele>377.2</ele>
        <time>2026-07-04T21:19:46.350000Z</time>
      </trkpt>
      <trkpt lat="49.239096" lon="11.204623">
        <ele>377.2</ele>
        <time>2026-07-04T21:19:56.001000Z</time>
      </trkpt>
      <trkpt lat="49.239229" lon="11.204768">
        <ele>377.4</ele>
        <time>2026-07-04T21:20:12.798000Z</time>
      </trkpt>
      <trkpt lat="49.239342" lon="11.204893">
        <ele>377.5</ele>
        <time>2026-07-04T21:20:27.170000Z</time>
      </trkpt>
      <trkpt lat="49.239518" lon="11.205058">
        <ele>377.6</ele>
        <time>2026-07-04T21:20:48.296000Z</time>
      </trkpt>
      <trkpt lat="49.239762" lon="11.205301">
        <ele>377.8</ele>
        <time>2026-07-04T21:21:17.895000Z</time>
      </trkpt>
      <trkpt lat="49.239827" lon="11.205369">
        <ele>377.8</ele>
        <time>2026-07-04T21:21:25.934000Z</time>
      </trkpt>
      <trkpt lat="49.24009" lon="11.205635">
        <ele>377.9</ele>
        <time>2026-07-04T21:21:57.930000Z</time>
      </trkpt>
      <trkpt lat="49.240208" lon="11.205887">
        <ele>378</ele>
        <time>2026-07-04T21:22:18.407000Z</time>
      </trkpt>
      <trkpt lat="49.240239" lon="11.205963">
        <ele>378</ele>
        <time>2026-07-04T21:22:24.392000Z</time>
      </trkpt>
      <trkpt lat="49.240222" lon="11.206049">
        <ele>378</ele>
        <time>2026-07-04T21:22:30.223000Z</time>
      </trkpt>
      <trkpt lat="49.240274" lon="11.206249">
        <ele>378</ele>
        <time>2026-07-04T21:22:44.303000Z</time>
      </trkpt>
      <trkpt lat="49.240496" lon="11.20695">
        <ele>377.9</ele>
        <time>2026-07-04T21:23:35.565000Z</time>
      </trkpt>
      <trkpt lat="49.240998" lon="11.20799">
        <ele>378</ele>
        <time>2026-07-04T21:25:00.371000Z</time>
      </trkpt>
      <trkpt lat="49.241232" lon="11.208385">
        <ele>378.2</ele>
        <time>2026-07-04T21:25:35.895000Z</time>
      </trkpt>
      <trkpt lat="49.241355" lon="11.208557">
        <ele>378.2</ele>
        <time>2026-07-04T21:25:52.855000Z</time>
      </trkpt>
      <trkpt lat="49.241581" lon="11.208745">
        <ele>378.3</ele>
        <time>2026-07-04T21:26:18.835000Z</time>
      </trkpt>
      <trkpt lat="49.242251" lon="11.209224">
        <ele>378.2</ele>
        <time>2026-07-04T21:27:33.010000Z</time>
      </trkpt>
      <trkpt lat="49.242413" lon="11.209525">
        <ele>378.2</ele>
        <time>2026-07-04T21:27:58.550000Z</time>
      </trkpt>
      <trkpt lat="49.242475" lon="11.209875">
        <ele>378.2</ele>
        <time>2026-07-04T21:28:22.278000Z</time>
      </trkpt>
      <trkpt lat="49.242514" lon="11.210513">
        <ele>378.2</ele>
        <time>2026-07-04T21:29:04.286000Z</time>
      </trkpt>
      <trkpt lat="49.242826" lon="11.21139">
        <ele>378.5</ele>
        <time>2026-07-04T21:30:10.649000Z</time>
      </trkpt>
      <trkpt lat="49.242904" lon="11.211815">
        <ele>378.7</ele>
        <time>2026-07-04T21:30:40.210000Z</time>
      </trkpt>
      <trkpt lat="49.242584" lon="11.212139">
        <ele>379</ele>
        <time>2026-07-04T21:31:19.596000Z</time>
      </trkpt>
      <trkpt lat="49.242349" lon="11.212259">
        <ele>379.2</ele>
        <time>2026-07-04T21:31:44.966000Z</time>
      </trkpt>
      <trkpt lat="49.24226" lon="11.212303">
        <ele>379.2</ele>
        <time>2026-07-04T21:31:54.457000Z</time>
      </trkpt>
      <trkpt lat="49.242136" lon="11.212364">
        <ele>379.3</ele>
        <time>2026-07-04T21:32:07.680000Z</time>
      </trkpt>
      <trkpt lat="49.241934" lon="11.212599">
        <ele>379.4</ele>
        <time>2026-07-04T21:32:33.425000Z</time>
      </trkpt>
    </trkseg>
  </trk>
</gpx>