<?xml version="1.0" encoding="UTF-8"?>
<gpx xmlns="http://www.topografix.com/GPX/1/1" xmlns:xsi="http://www.w3.org/2001/XMLSchema-instance" xsi:schemaLocation="http://www.topografix.com/GPX/1/1 http://www.topografix.com/GPX/1/1/gpx.xsd" version="1.1" creator="Robert Kampf">
  <metadata>
    <name>Blick auf Schloss Scherneck – Soccergolf Rehling Runde von Anwalting</name>
    <desc>Distance: 6.669km, Estimated duration: 1.79h, Elevation up: 78.35396045645024m, Elevation down: 78.35396045645012m, Grade: easy</desc>
    <author>
      <name>Robert Kampf</name>
      <link href="https://www.komoot.de/user/4125295338453">
        <text>View Robert Kampf's Profile on Komoot</text>
      </link>
    </author>
    <link href="https://www.komoot.de/tour/2790404076">
      <text>View tour on Komoot</text>
    </link>
  </metadata>
  <wpt lat="48.458182" lon="10.939448">
    <name>Anwalting Ort</name>
    <cmt></cmt>
    <desc></desc>
    <src>Komoot</src>
    <type>POI</type>
  </wpt>
  <wpt lat="48.464091" lon="10.940513">
    <ele>484.1</ele>
    <name>View of Anwalting</name>
    <cmt></cmt>
    <desc></desc>
    <src>Komoot</src>
    <link href="https://www.komoot.de/highlight/2993995">
      <text>View POI on Komoot</text>
    </link>
    <type>Highlight</type>
  </wpt>
  <wpt lat="48.46924" lon="10.943135">
    <ele>560.8</ele>
    <name>Wooden animal sculptures on the way to Schloss Scherneck</name>
    <cmt>https://d2exd72xrrp1s7.cloudfront.net/www/000/1k3/12/12b4fxpcmewt25sq4wlde6xxm32ynw3zg-uhi7448154/0</cmt>
    <desc>Elena: Auf dem Weg zum Schloss Scherneck begegnet man immer wieder solchen Holzskulpturen. Toll gemacht!</desc>
    <src>Komoot</src>
    <link href="https://www.komoot.de/highlight/939987">
      <text>View POI on Komoot</text>
    </link>
    <type>Highlight</type>
  </wpt>
  <wpt lat="48.479224" lon="10.930444">
    <ele>493.8</ele>
    <name>Scherneck Castle</name>
    <cmt>https://d2exd72xrrp1s7.cloudfront.net/www/000/1k4/1d/1dtcvccunkbvxbtt146pb1x4e3lxnetxp-uhi26880138/0</cmt>
    <desc>Ivan Irrweg: Toller Biergarten, super essen zu fairen Preisen. Der Anstieg hoch zum Schloss ist knackig, aber dafür gibts ja dann auch eine Belohnung. 😁
――――――――――
suny: Ein schönes interessantes Ausflugslokal mit gutem Bier und gutes Essen.
――――――――――
🇪🇺Raubach🇺🇦: Hier gibt es einen schönen Biergarten 😊
――――――――――
Armin: Einen Abstecher zum Schloss zu machen ist lohnenswert. Neben einer wohlverdienten Getränkeerfrischung nach dem Erklimmen des auf einen Hügel gelegenen Schlosses, kann man beim Klettergarten auf Liegen, Hängematten oder anderen netten Relaxmöglichkeiten die Seele baumeln lassen. Wer mehr Aktion und Adrenalinausschüttung möchte, kann sich an den insgesamt 12 Routen verschiedenster Höhen und Schwierigkeitsgraden im Klettergarten ausprobieren oder am Fuße des Hügels Fußballgolf spielen.
――――――――――
Elena: Aussichtsreicher Ort, im Winter sehr ruhig, im Sommer schöner Biergarten, in den Sommermonaten lockt auch der Kletterwald (Hochseilgarten).
――――――――――
Siggi: Schloß Scherneck ist jederzeit einen Besuch wert, entweder in den Biergarten oder zum Klettergarten, da ist für jeden was geboten.
――――――――――
Martin: Schöner Biergarten, daneben auch Klettergarten
――――――――――
Didier: Schloß Scherneck, toller Biergarten, nach Corona hoffentlich wieder Konzerte und Märkte. Klettergarten in der Nähe. Tolle Aussichten. Super Ambiente. Was will man mehr.
――――――――――
Sev: Nett gelegener Biergarten mit guten Bierpreisen.
――――――――――
Carsten 🏍🚲: So nah und doch so schön. Insbesondere ein wunderbarer Ausblick nach Augsburg
――――――――――
🇪🇺Raubach🇺🇦: Es wird Zeit das der Sommer kommt und wir wieder in den Biergarten 🍺 können 😊
――――――――――
Lisa im Ländle: Schönes Schloss mit Biergarten
――――――――――
🇪🇺Raubach🇺🇦: Toller Biergarten und in 100 Meter Entfernung ein super Klettergarten 👍😊
――――――――――
Walker: Das Schloss Scherneck liegt zwischen Rehling und dem Gemeindeteil Au (Landkreis Aichach-Friedberg in Schwaben) nordöstlich von Augsburg auf der Lechleite. In seiner heutigen Form stammt der Gebäudekomplex weitgehend aus dem 19. Jahrhundert und wird als land- und forstwirtschaftlicher Gutsbetrieb bewirtschaftet.
――――――――――
HeinzF: Biergarten ab April geöffnet...... Bögenhöfe auch zu empfehlen
――――――――――
Anton: Schön gelegener Biergarten mit netten Personal
――――――――――
Lisa im Ländle: Kurz vor dem Kletterpark und Schloß Scherneck. Guter Weg auch mit dem Fahrrad.
――――――――――
Heiko: Schloss Scherneck ist ein historisches Anwesen in Rehling, Bayern, das seit 1823 im Besitz der Freiherren von Schaezler ist. Es thront auf einem bewaldeten Hügel über den Lechauen und bietet einen weiten Blick bis nach Augsburg. ￼

Geschichte

Erstmals erwähnt wurde die Burg “Scherneck” im Jahr 926. Im Laufe der Jahrhunderte wechselte das Anwesen mehrfach den Besitzer, bis es 1823 von der Familie von Schaezler erworben wurde. Seit der Stiftung des Schaezlerpalais an die Stadt Augsburg dient Schloss Scherneck als Hauptwohnsitz der Familie. ￼

Aktivitäten und Angebote

Das Schlossgelände bietet vielfältige Freizeitmöglichkeiten:
	•	Gastronomie: Das Schlossbräustüberl mit Biergarten lädt zu bayerischen Spezialitäten und selbstgebrautem Bier ein. ￼
	•	Kletterwald: Ein Hochseilgarten mit 12 Parcours, darunter der “Fliegende Ritter”, bietet Abenteuer für Groß und Klein. ￼
	•	Soccerpark: Fußballgolf kombiniert Fußball und Golf zu einem unterhaltsamen Spiel für die ganze Familie. ￼

Veranstaltungen

Schloss Scherneck ist bekannt für sein vielfältiges Veranstaltungsprogramm, darunter historische Feste, Märkte und Konzerte. Ein Highlight im kommenden Jahr ist der Auftritt von Martina Schwarzmann am 17. Juli 2025. ￼

Anfahrt

Schloss Scherneck liegt etwa 12 Autominuten nördlich von Augsburg und ist sowohl mit dem Auto als auch mit öffentlichen Verkehrsmitteln gut erreichbar. ￼

Für weitere Informationen besuchen Sie die offizielle Website des Schlosses.
――――――――――
Heiko: Schloss Scherneck ist ein historisches Schloss in Rehling, Bayern, das seit 1823 im Besitz der Freiherren von Schaezler ist. Es thront auf einem bewaldeten Hügel über den Lechauen und bietet einen weiten Blick bis nach Augsburg. ￼

Geschichte

Erstmals erwähnt wurde die Burg “Scherneck” im Jahr 926. Im Laufe der Jahrhunderte wechselte das Anwesen mehrfach den Besitzer, bis es 1823 von der Familie von Schaezler erworben wurde. Seit der Stiftung des Schaezlerpalais an die Stadt Augsburg dient Schloss Scherneck als Hauptwohnsitz der Familie. ￼

Aktivitäten und Angebote

Das Schlossgelände bietet vielfältige Freizeitmöglichkeiten:
	•	Gastronomie: Das Schlossbräustüberl mit Biergarten lädt zu bayerischen Spezialitäten und selbstgebrautem Bier ein. ￼
	•	Kletterwald: Ein Hochseilgarten mit 12 Parcours, darunter der “Fliegende Ritter”, bietet Abenteuer für Groß und Klein. ￼
	•	Soccerpark: Fußballgolf kombiniert Fußball und Golf zu einem unterhaltsamen Spiel für die ganze Familie. ￼

Veranstaltungen

Schloss Scherneck ist bekannt für sein vielfältiges Veranstaltungsprogramm, darunter historische Feste, Märkte und Konzerte. Ein Highlight im kommenden Jahr ist der Auftritt von Martina Schwarzmann am 17. Juli 2025. ￼

Anfahrt

Schloss Scherneck liegt etwa 12 Autominuten nördlich von Augsburg und ist sowohl mit dem Auto als auch mit öffentlichen Verkehrsmitteln gut erreichbar. ￼

Für weitere Informationen besuchen Sie die offizielle Website des Schlosses.</desc>
    <src>Komoot</src>
    <link href="https://www.komoot.de/highlight/146711">
      <text>View POI on Komoot</text>
    </link>
    <type>Highlight</type>
  </wpt>
  <wpt lat="48.476733" lon="10.929691">
    <ele>484.3</ele>
    <name>Wooden Flower Sculpture</name>
    <cmt>https://d2exd72xrrp1s7.cloudfront.net/www/000/1k4/9a/9aes3nfwa7129c9kpouvow1n3kmefdat-uhi25765731/0</cmt>
    <desc>Lisa im Ländle: Schönes Blümchen aus Holz</desc>
    <src>Komoot</src>
    <link href="https://www.komoot.de/highlight/2816550">
      <text>View POI on Komoot</text>
    </link>
    <type>Highlight</type>
  </wpt>
  <wpt lat="48.47116" lon="10.930752">
    <ele>461.2</ele>
    <name>Soccergolf Rehling</name>
    <cmt>https://d2exd72xrrp1s7.cloudfront.net/www/000/1k8/19/19y0qpleluflk18x25zmta9j4n52eauah4-uhi75983420/0</cmt>
    <desc>Wittelsbacher Land: Noch nie was von Soccergolf gehört? Dann wird’s Zeit! Diese sportliche Abwandlung von Minigolf ersetzt Schläger und Golfball durch Fußball und Körpereinsatz. Gespielt wird auf langen Rasenbahnen, das Ziel bleibt: Mit möglichst wenigen Schüssen den Ball ins Loch befördern. Das ist gar nicht so leicht. Denn unterwegs warten Hindernisse, die es zu überwinden gilt.

Auf dem Gelände des Soccerparks Rehling erwarten dich 18 abwechslungsreiche Bahnen, die sich malerisch in die Landschaft einfügen – perfekt für einen aktiven Ausflug mit Freunden, Familie oder Kollegen. Und keine Sorge: Für Soccergolf musst du kein Fußballprofi sein. Ein bisschen Geschick, Spaß an Bewegung und eine Portion Glück – mehr brauchst du nicht!

Das Highlight: Vom Platz aus genießt du einen traumhaften Blick hinauf zum Schloss Scherneck, das stolz auf der Lechleite thront.</desc>
    <src>Komoot</src>
    <link href="https://www.komoot.de/highlight/6848785">
      <text>View POI on Komoot</text>
    </link>
    <type>Highlight</type>
  </wpt>
  <trk>
    <name>Blick auf Schloss Scherneck – Soccergolf Rehling Runde von Anwalting</name>
    <desc>Distance: 6.669km, Estimated duration: 1.79h, Elevation up: 78.35396045645024m, Elevation down: 78.35396045645012m, Grade: easy</desc>
    <link href="https://www.komoot.de/tour/2790404076">
      <text>View tour on Komoot</text>
    </link>
    <trkseg>
      <trkpt lat="48.458144" lon="10.939464">
        <ele>456.3</ele>
        <time>2026-02-19T14:15:09.411000Z</time>
      </trkpt>
      <trkpt lat="48.458236" lon="10.939644">
        <ele>456.5</ele>
        <time>2026-02-19T14:15:24.948000Z</time>
      </trkpt>
      <trkpt lat="48.458329" lon="10.939826">
        <ele>456.6</ele>
        <time>2026-02-19T14:15:40.734000Z</time>
      </trkpt>
      <trkpt lat="48.458437" lon="10.940039">
        <ele>456.8</ele>
        <time>2026-02-19T14:15:59.182000Z</time>
      </trkpt>
      <trkpt lat="48.458487" lon="10.940138">
        <ele>456.9</ele>
        <time>2026-02-19T14:16:07.736000Z</time>
      </trkpt>
      <trkpt lat="48.458695" lon="10.940481">
        <ele>457.3</ele>
        <time>2026-02-19T14:16:40.124000Z</time>
      </trkpt>
      <trkpt lat="48.459117" lon="10.941011">
        <ele>458.4</ele>
        <time>2026-02-19T14:17:38.954000Z</time>
      </trkpt>
      <trkpt lat="48.459158" lon="10.941086">
        <ele>458.6</ele>
        <time>2026-02-19T14:17:45.923000Z</time>
      </trkpt>
      <trkpt lat="48.459206" lon="10.941289">
        <ele>458.9</ele>
        <time>2026-02-19T14:18:01.446000Z</time>
      </trkpt>
      <trkpt lat="48.459335" lon="10.941322">
        <ele>459.2</ele>
        <time>2026-02-19T14:18:15.633000Z</time>
      </trkpt>
      <trkpt lat="48.45939" lon="10.941253">
        <ele>459.4</ele>
        <time>2026-02-19T14:18:23.409000Z</time>
      </trkpt>
      <trkpt lat="48.459634" lon="10.941364">
        <ele>460.1</ele>
        <time>2026-02-19T14:18:51.328000Z</time>
      </trkpt>
      <trkpt lat="48.459883" lon="10.941474">
        <ele>460.9</ele>
        <time>2026-02-19T14:19:20.306000Z</time>
      </trkpt>
      <trkpt lat="48.460104" lon="10.941567">
        <ele>461.8</ele>
        <time>2026-02-19T14:19:46.398000Z</time>
      </trkpt>
      <trkpt lat="48.460193" lon="10.941612">
        <ele>462.2</ele>
        <time>2026-02-19T14:19:57.144000Z</time>
      </trkpt>
      <trkpt lat="48.460308" lon="10.94164">
        <ele>462.7</ele>
        <time>2026-02-19T14:20:10.548000Z</time>
      </trkpt>
      <trkpt lat="48.460524" lon="10.941592">
        <ele>463.8</ele>
        <time>2026-02-19T14:20:36Z</time>
      </trkpt>
      <trkpt lat="48.464042" lon="10.940792">
        <ele>483.8</ele>
        <time>2026-02-19T14:27:41.280000Z</time>
      </trkpt>
      <trkpt lat="48.464068" lon="10.940797">
        <ele>483.9</ele>
        <time>2026-02-19T14:27:44.285000Z</time>
      </trkpt>
      <trkpt lat="48.464123" lon="10.940807">
        <ele>484.2</ele>
        <time>2026-02-19T14:27:50.657000Z</time>
      </trkpt>
      <trkpt lat="48.464206" lon="10.940951">
        <ele>484.7</ele>
        <time>2026-02-19T14:28:05.372000Z</time>
      </trkpt>
      <trkpt lat="48.464305" lon="10.941221">
        <ele>485.7</ele>
        <time>2026-02-19T14:28:29.054000Z</time>
      </trkpt>
      <trkpt lat="48.464393" lon="10.942167">
        <ele>488.1</ele>
        <time>2026-02-19T14:29:41.102000Z</time>
      </trkpt>
      <trkpt lat="48.464611" lon="10.942058">
        <ele>488.9</ele>
        <time>2026-02-19T14:30:06.752000Z</time>
      </trkpt>
      <trkpt lat="48.464848" lon="10.941955">
        <ele>489.5</ele>
        <time>2026-02-19T14:30:33.796000Z</time>
      </trkpt>
      <trkpt lat="48.465198" lon="10.941862">
        <ele>490.5</ele>
        <time>2026-02-19T14:31:12.854000Z</time>
      </trkpt>
      <trkpt lat="48.466728" lon="10.941665">
        <ele>493.7</ele>
        <time>2026-02-19T14:33:57.726000Z</time>
      </trkpt>
      <trkpt lat="48.466872" lon="10.941523">
        <ele>493.9</ele>
        <time>2026-02-19T14:34:15.627000Z</time>
      </trkpt>
      <trkpt lat="48.467159" lon="10.940896">
        <ele>494.5</ele>
        <time>2026-02-19T14:35:08.487000Z</time>
      </trkpt>
      <trkpt lat="48.46772" lon="10.940893">
        <ele>495.7</ele>
        <time>2026-02-19T14:36:08.920000Z</time>
      </trkpt>
      <trkpt lat="48.467898" lon="10.940823">
        <ele>496.1</ele>
        <time>2026-02-19T14:36:28.643000Z</time>
      </trkpt>
      <trkpt lat="48.468179" lon="10.94047">
        <ele>496.8</ele>
        <time>2026-02-19T14:37:07.587000Z</time>
      </trkpt>
      <trkpt lat="48.468272" lon="10.940378">
        <ele>497</ele>
        <time>2026-02-19T14:37:19.396000Z</time>
      </trkpt>
      <trkpt lat="48.468423" lon="10.940304">
        <ele>497.3</ele>
        <time>2026-02-19T14:37:36.315000Z</time>
      </trkpt>
      <trkpt lat="48.468537" lon="10.941256">
        <ele>498.4</ele>
        <time>2026-02-19T14:38:44.607000Z</time>
      </trkpt>
      <trkpt lat="48.469069" lon="10.943236">
        <ele>501</ele>
        <time>2026-02-19T14:41:15.634000Z</time>
      </trkpt>
      <trkpt lat="48.469226" lon="10.943099">
        <ele>501.8</ele>
        <time>2026-02-19T14:41:36.561000Z</time>
      </trkpt>
      <trkpt lat="48.469275" lon="10.943056">
        <ele>502.1</ele>
        <time>2026-02-19T14:41:43.091000Z</time>
      </trkpt>
      <trkpt lat="48.46981" lon="10.942474">
        <ele>505.1</ele>
        <time>2026-02-19T14:42:59.717000Z</time>
      </trkpt>
      <trkpt lat="48.47009" lon="10.942098">
        <ele>506.9</ele>
        <time>2026-02-19T14:43:43.623000Z</time>
      </trkpt>
      <trkpt lat="48.470577" lon="10.941491">
        <ele>509.2</ele>
        <time>2026-02-19T14:44:54.820000Z</time>
      </trkpt>
      <trkpt lat="48.471128" lon="10.941293">
        <ele>510.3</ele>
        <time>2026-02-19T14:45:55.144000Z</time>
      </trkpt>
      <trkpt lat="48.471879" lon="10.940466">
        <ele>509.9</ele>
        <time>2026-02-19T14:47:28.861000Z</time>
      </trkpt>
      <trkpt lat="48.47238" lon="10.939701">
        <ele>508.5</ele>
        <time>2026-02-19T14:48:43.264000Z</time>
      </trkpt>
      <trkpt lat="48.472369" lon="10.939263">
        <ele>507.6</ele>
        <time>2026-02-19T14:49:14.033000Z</time>
      </trkpt>
      <trkpt lat="48.47265" lon="10.938975">
        <ele>506.7</ele>
        <time>2026-02-19T14:49:50.047000Z</time>
      </trkpt>
      <trkpt lat="48.472836" lon="10.93904">
        <ele>506.2</ele>
        <time>2026-02-19T14:50:10.167000Z</time>
      </trkpt>
      <trkpt lat="48.473158" lon="10.939286">
        <ele>505.5</ele>
        <time>2026-02-19T14:50:47.650000Z</time>
      </trkpt>
      <trkpt lat="48.47327" lon="10.939315">
        <ele>505.4</ele>
        <time>2026-02-19T14:50:59.191000Z</time>
      </trkpt>
      <trkpt lat="48.473866" lon="10.939191">
        <ele>505.6</ele>
        <time>2026-02-19T14:51:59.988000Z</time>
      </trkpt>
      <trkpt lat="48.474719" lon="10.939154">
        <ele>506.6</ele>
        <time>2026-02-19T14:53:29.221000Z</time>
      </trkpt>
      <trkpt lat="48.474921" lon="10.939177">
        <ele>506.8</ele>
        <time>2026-02-19T14:53:50.274000Z</time>
      </trkpt>
      <trkpt lat="48.475068" lon="10.938974">
        <ele>507</ele>
        <time>2026-02-19T14:54:10.694000Z</time>
      </trkpt>
      <trkpt lat="48.475296" lon="10.938501">
        <ele>506.9</ele>
        <time>2026-02-19T14:54:49.641000Z</time>
      </trkpt>
      <trkpt lat="48.475336" lon="10.938285">
        <ele>506.8</ele>
        <time>2026-02-19T14:55:04.767000Z</time>
      </trkpt>
      <trkpt lat="48.475348" lon="10.93791">
        <ele>506.5</ele>
        <time>2026-02-19T14:55:30.324000Z</time>
      </trkpt>
      <trkpt lat="48.475749" lon="10.937945">
        <ele>505.8</ele>
        <time>2026-02-19T14:56:11.946000Z</time>
      </trkpt>
      <trkpt lat="48.476127" lon="10.937971">
        <ele>505.2</ele>
        <time>2026-02-19T14:56:51.133000Z</time>
      </trkpt>
      <trkpt lat="48.476275" lon="10.936694">
        <ele>503.5</ele>
        <time>2026-02-19T14:58:20.572000Z</time>
      </trkpt>
      <trkpt lat="48.47654" lon="10.935815">
        <ele>501.8</ele>
        <time>2026-02-19T14:59:28.142000Z</time>
      </trkpt>
      <trkpt lat="48.476542" lon="10.934394">
        <ele>498.2</ele>
        <time>2026-02-19T15:01:09.812000Z</time>
      </trkpt>
      <trkpt lat="48.476593" lon="10.933682">
        <ele>496.2</ele>
        <time>2026-02-19T15:02:01.373000Z</time>
      </trkpt>
      <trkpt lat="48.476869" lon="10.933036">
        <ele>494.3</ele>
        <time>2026-02-19T15:02:56.194000Z</time>
      </trkpt>
      <trkpt lat="48.47713" lon="10.932653">
        <ele>493.3</ele>
        <time>2026-02-19T15:03:34.657000Z</time>
      </trkpt>
      <trkpt lat="48.477231" lon="10.932431">
        <ele>493.1</ele>
        <time>2026-02-19T15:03:53.094000Z</time>
      </trkpt>
      <trkpt lat="48.477399" lon="10.931725">
        <ele>493.1</ele>
        <time>2026-02-19T15:04:42.909000Z</time>
      </trkpt>
      <trkpt lat="48.477458" lon="10.931598">
        <ele>493.3</ele>
        <time>2026-02-19T15:04:53.898000Z</time>
      </trkpt>
      <trkpt lat="48.477599" lon="10.931442">
        <ele>493.8</ele>
        <time>2026-02-19T15:05:13.155000Z</time>
      </trkpt>
      <trkpt lat="48.478205" lon="10.93106">
        <ele>496.1</ele>
        <time>2026-02-19T15:06:27.017000Z</time>
      </trkpt>
      <trkpt lat="48.478547" lon="10.930889">
        <ele>497.5</ele>
        <time>2026-02-19T15:07:07.976000Z</time>
      </trkpt>
      <trkpt lat="48.47858" lon="10.930852">
        <ele>497.6</ele>
        <time>2026-02-19T15:07:12.495000Z</time>
      </trkpt>
      <trkpt lat="48.478608" lon="10.930836">
        <ele>497.7</ele>
        <time>2026-02-19T15:07:15.831000Z</time>
      </trkpt>
      <trkpt lat="48.47895" lon="10.930688">
        <ele>498.4</ele>
        <time>2026-02-19T15:07:53.993000Z</time>
      </trkpt>
      <trkpt lat="48.479201" lon="10.930499">
        <ele>498.2</ele>
        <time>2026-02-19T15:08:22.468000Z</time>
      </trkpt>
      <trkpt lat="48.47905" lon="10.93049">
        <ele>497.8</ele>
        <time>2026-02-19T15:08:38.387000Z</time>
      </trkpt>
      <trkpt lat="48.478636" lon="10.930637">
        <ele>495.5</ele>
        <time>2026-02-19T15:09:25.625000Z</time>
      </trkpt>
      <trkpt lat="48.478485" lon="10.930618">
        <ele>494.5</ele>
        <time>2026-02-19T15:09:42.857000Z</time>
      </trkpt>
      <trkpt lat="48.477955" lon="10.930551">
        <ele>490.6</ele>
        <time>2026-02-19T15:10:43.830000Z</time>
      </trkpt>
      <trkpt lat="48.477707" lon="10.930649">
        <ele>488.9</ele>
        <time>2026-02-19T15:11:12.905000Z</time>
      </trkpt>
      <trkpt lat="48.47736" lon="10.931017">
        <ele>486.6</ele>
        <time>2026-02-19T15:12:00.021000Z</time>
      </trkpt>
      <trkpt lat="48.476631" lon="10.932042">
        <ele>486.3</ele>
        <time>2026-02-19T15:13:40.356000Z</time>
      </trkpt>
      <trkpt lat="48.476295" lon="10.932616">
        <ele>487.1</ele>
        <time>2026-02-19T15:14:33.910000Z</time>
      </trkpt>
      <trkpt lat="48.476138" lon="10.933027">
        <ele>486.9</ele>
        <time>2026-02-19T15:15:05.880000Z</time>
      </trkpt>
      <trkpt lat="48.47603" lon="10.933077">
        <ele>486.6</ele>
        <time>2026-02-19T15:15:17.588000Z</time>
      </trkpt>
      <trkpt lat="48.47592" lon="10.932982">
        <ele>486.3</ele>
        <time>2026-02-19T15:15:30.962000Z</time>
      </trkpt>
      <trkpt lat="48.475897" lon="10.932897">
        <ele>486.1</ele>
        <time>2026-02-19T15:15:37.400000Z</time>
      </trkpt>
      <trkpt lat="48.475905" lon="10.932802">
        <ele>485.9</ele>
        <time>2026-02-19T15:15:44.194000Z</time>
      </trkpt>
      <trkpt lat="48.476655" lon="10.929649">
        <ele>464.1</ele>
        <time>2026-02-19T15:20:09.573000Z</time>
      </trkpt>
      <trkpt lat="48.476672" lon="10.929578">
        <ele>463.5</ele>
        <time>2026-02-19T15:20:15.830000Z</time>
      </trkpt>
      <trkpt lat="48.476682" lon="10.929305">
        <ele>461.3</ele>
        <time>2026-02-19T15:20:38.330000Z</time>
      </trkpt>
      <trkpt lat="48.476616" lon="10.928924">
        <ele>458.4</ele>
        <time>2026-02-19T15:21:10.111000Z</time>
      </trkpt>
      <trkpt lat="48.476429" lon="10.928507">
        <ele>455.1</ele>
        <time>2026-02-19T15:21:49.984000Z</time>
      </trkpt>
      <trkpt lat="48.476106" lon="10.927982">
        <ele>451.4</ele>
        <time>2026-02-19T15:22:44.923000Z</time>
      </trkpt>
      <trkpt lat="48.475805" lon="10.928272">
        <ele>449.8</ele>
        <time>2026-02-19T15:23:23.857000Z</time>
      </trkpt>
      <trkpt lat="48.475651" lon="10.928361">
        <ele>449.3</ele>
        <time>2026-02-19T15:23:41.286000Z</time>
      </trkpt>
      <trkpt lat="48.475504" lon="10.928394">
        <ele>449.1</ele>
        <time>2026-02-19T15:23:56.687000Z</time>
      </trkpt>
      <trkpt lat="48.475008" lon="10.928372">
        <ele>449.1</ele>
        <time>2026-02-19T15:24:46.403000Z</time>
      </trkpt>
      <trkpt lat="48.474812" lon="10.928398">
        <ele>449.3</ele>
        <time>2026-02-19T15:25:06.792000Z</time>
      </trkpt>
      <trkpt lat="48.474398" lon="10.928544">
        <ele>449.7</ele>
        <time>2026-02-19T15:25:50.932000Z</time>
      </trkpt>
      <trkpt lat="48.473836" lon="10.928858">
        <ele>450.3</ele>
        <time>2026-02-19T15:26:52.897000Z</time>
      </trkpt>
      <trkpt lat="48.473238" lon="10.929022">
        <ele>451.3</ele>
        <time>2026-02-19T15:27:57.377000Z</time>
      </trkpt>
      <trkpt lat="48.47317" lon="10.929035">
        <ele>451.5</ele>
        <time>2026-02-19T15:28:04.733000Z</time>
      </trkpt>
      <trkpt lat="48.473125" lon="10.929045">
        <ele>451.5</ele>
        <time>2026-02-19T15:28:09.548000Z</time>
      </trkpt>
      <trkpt lat="48.47296" lon="10.929099">
        <ele>451.9</ele>
        <time>2026-02-19T15:28:27.788000Z</time>
      </trkpt>
      <trkpt lat="48.47279" lon="10.929527">
        <ele>452.7</ele>
        <time>2026-02-19T15:29:03.747000Z</time>
      </trkpt>
      <trkpt lat="48.47264" lon="10.929753">
        <ele>453.3</ele>
        <time>2026-02-19T15:29:26.993000Z</time>
      </trkpt>
      <trkpt lat="48.471692" lon="10.930965">
        <ele>457.9</ele>
        <time>2026-02-19T15:31:47.422000Z</time>
      </trkpt>
      <trkpt lat="48.471583" lon="10.931025">
        <ele>458.1</ele>
        <time>2026-02-19T15:31:59.767000Z</time>
      </trkpt>
      <trkpt lat="48.471452" lon="10.93103">
        <ele>458.3</ele>
        <time>2026-02-19T15:32:13.630000Z</time>
      </trkpt>
      <trkpt lat="48.471189" lon="10.930812">
        <ele>458.5</ele>
        <time>2026-02-19T15:32:44.335000Z</time>
      </trkpt>
      <trkpt lat="48.471167" lon="10.930758">
        <ele>458.5</ele>
        <time>2026-02-19T15:32:48.632000Z</time>
      </trkpt>
      <trkpt lat="48.47054" lon="10.930371">
        <ele>458</ele>
        <time>2026-02-19T15:33:57.209000Z</time>
      </trkpt>
      <trkpt lat="48.470287" lon="10.930291">
        <ele>457.6</ele>
        <time>2026-02-19T15:34:24.101000Z</time>
      </trkpt>
      <trkpt lat="48.470036" lon="10.930247">
        <ele>456.9</ele>
        <time>2026-02-19T15:34:50.744000Z</time>
      </trkpt>
      <trkpt lat="48.469889" lon="10.930262">
        <ele>456.5</ele>
        <time>2026-02-19T15:35:06.270000Z</time>
      </trkpt>
      <trkpt lat="48.469747" lon="10.930344">
        <ele>456.1</ele>
        <time>2026-02-19T15:35:22.438000Z</time>
      </trkpt>
      <trkpt lat="48.469497" lon="10.930371">
        <ele>455.4</ele>
        <time>2026-02-19T15:35:48.885000Z</time>
      </trkpt>
      <trkpt lat="48.469017" lon="10.929927">
        <ele>454.5</ele>
        <time>2026-02-19T15:36:47.102000Z</time>
      </trkpt>
      <trkpt lat="48.468781" lon="10.929766">
        <ele>454.2</ele>
        <time>2026-02-19T15:37:13.656000Z</time>
      </trkpt>
      <trkpt lat="48.468753" lon="10.929712">
        <ele>454.2</ele>
        <time>2026-02-19T15:37:18.338000Z</time>
      </trkpt>
      <trkpt lat="48.468641" lon="10.929692">
        <ele>454.1</ele>
        <time>2026-02-19T15:37:29.766000Z</time>
      </trkpt>
      <trkpt lat="48.46854" lon="10.929742">
        <ele>453.9</ele>
        <time>2026-02-19T15:37:40.639000Z</time>
      </trkpt>
      <trkpt lat="48.467997" lon="10.930075">
        <ele>453.4</ele>
        <time>2026-02-19T15:38:40.469000Z</time>
      </trkpt>
      <trkpt lat="48.467456" lon="10.930456">
        <ele>453.4</ele>
        <time>2026-02-19T15:39:40.265000Z</time>
      </trkpt>
      <trkpt lat="48.466697" lon="10.930679">
        <ele>453.7</ele>
        <time>2026-02-19T15:40:58.853000Z</time>
      </trkpt>
      <trkpt lat="48.466159" lon="10.930877">
        <ele>454</ele>
        <time>2026-02-19T15:41:55.290000Z</time>
      </trkpt>
      <trkpt lat="48.465464" lon="10.931488">
        <ele>454.2</ele>
        <time>2026-02-19T15:43:16.585000Z</time>
      </trkpt>
      <trkpt lat="48.465196" lon="10.931666">
        <ele>454.3</ele>
        <time>2026-02-19T15:43:46.440000Z</time>
      </trkpt>
      <trkpt lat="48.464719" lon="10.932004">
        <ele>454.6</ele>
        <time>2026-02-19T15:44:40.246000Z</time>
      </trkpt>
      <trkpt lat="48.464217" lon="10.932836">
        <ele>455.1</ele>
        <time>2026-02-19T15:45:56.464000Z</time>
      </trkpt>
      <trkpt lat="48.463628" lon="10.933461">
        <ele>456</ele>
        <time>2026-02-19T15:47:11.734000Z</time>
      </trkpt>
      <trkpt lat="48.463323" lon="10.934083">
        <ele>456.6</ele>
        <time>2026-02-19T15:48:05.176000Z</time>
      </trkpt>
      <trkpt lat="48.463253" lon="10.934234">
        <ele>456.7</ele>
        <time>2026-02-19T15:48:17.812000Z</time>
      </trkpt>
      <trkpt lat="48.463122" lon="10.934838">
        <ele>456.9</ele>
        <time>2026-02-19T15:49:00.918000Z</time>
      </trkpt>
      <trkpt lat="48.463086" lon="10.935653">
        <ele>456.9</ele>
        <time>2026-02-19T15:49:55.167000Z</time>
      </trkpt>
      <trkpt lat="48.463007" lon="10.936092">
        <ele>456.7</ele>
        <time>2026-02-19T15:50:25.763000Z</time>
      </trkpt>
      <trkpt lat="48.462828" lon="10.936623">
        <ele>456.1</ele>
        <time>2026-02-19T15:51:06.500000Z</time>
      </trkpt>
      <trkpt lat="48.462756" lon="10.936698">
        <ele>456</ele>
        <time>2026-02-19T15:51:15.481000Z</time>
      </trkpt>
      <trkpt lat="48.462617" lon="10.936761">
        <ele>455.7</ele>
        <time>2026-02-19T15:51:30.580000Z</time>
      </trkpt>
      <trkpt lat="48.462373" lon="10.936853">
        <ele>455.2</ele>
        <time>2026-02-19T15:51:56.765000Z</time>
      </trkpt>
      <trkpt lat="48.46202" lon="10.937096">
        <ele>454.6</ele>
        <time>2026-02-19T15:52:36.975000Z</time>
      </trkpt>
      <trkpt lat="48.461786" lon="10.937208">
        <ele>454.3</ele>
        <time>2026-02-19T15:53:02.208000Z</time>
      </trkpt>
      <trkpt lat="48.461236" lon="10.937323">
        <ele>453.8</ele>
        <time>2026-02-19T15:53:58.707000Z</time>
      </trkpt>
      <trkpt lat="48.460961" lon="10.93746">
        <ele>453.8</ele>
        <time>2026-02-19T15:54:27.710000Z</time>
      </trkpt>
      <trkpt lat="48.460553" lon="10.937763">
        <ele>454.1</ele>
        <time>2026-02-19T15:55:14.385000Z</time>
      </trkpt>
      <trkpt lat="48.460285" lon="10.938003">
        <ele>454.5</ele>
        <time>2026-02-19T15:55:47.037000Z</time>
      </trkpt>
      <trkpt lat="48.460031" lon="10.938279">
        <ele>455</ele>
        <time>2026-02-19T15:56:20.174000Z</time>
      </trkpt>
      <trkpt lat="48.459938" lon="10.938423">
        <ele>455.2</ele>
        <time>2026-02-19T15:56:34.269000Z</time>
      </trkpt>
      <trkpt lat="48.459735" lon="10.938796">
        <ele>455.8</ele>
        <time>2026-02-19T15:57:08.312000Z</time>
      </trkpt>
      <trkpt lat="48.459634" lon="10.939003">
        <ele>456.1</ele>
        <time>2026-02-19T15:57:26.451000Z</time>
      </trkpt>
      <trkpt lat="48.459599" lon="10.939077">
        <ele>456.2</ele>
        <time>2026-02-19T15:57:32.840000Z</time>
      </trkpt>
      <trkpt lat="48.459581" lon="10.93912">
        <ele>456.2</ele>
        <time>2026-02-19T15:57:36.437000Z</time>
      </trkpt>
      <trkpt lat="48.459452" lon="10.939448">
        <ele>456.7</ele>
        <time>2026-02-19T15:58:03.280000Z</time>
      </trkpt>
      <trkpt lat="48.459381" lon="10.939723">
        <ele>457</ele>
        <time>2026-02-19T15:58:23.893000Z</time>
      </trkpt>
      <trkpt lat="48.459343" lon="10.939984">
        <ele>457.2</ele>
        <time>2026-02-19T15:58:42.455000Z</time>
      </trkpt>
      <trkpt lat="48.459316" lon="10.940324">
        <ele>457.4</ele>
        <time>2026-02-19T15:59:05.922000Z</time>
      </trkpt>
      <trkpt lat="48.459264" lon="10.94064">
        <ele>457.5</ele>
        <time>2026-02-19T15:59:27.877000Z</time>
      </trkpt>
      <trkpt lat="48.459185" lon="10.940898">
        <ele>457.5</ele>
        <time>2026-02-19T15:59:46.842000Z</time>
      </trkpt>
      <trkpt lat="48.459117" lon="10.941011">
        <ele>457.5</ele>
        <time>2026-02-19T15:59:57.026000Z</time>
      </trkpt>
      <trkpt lat="48.458695" lon="10.940481">
        <ele>457.1</ele>
        <time>2026-02-19T16:00:52.874000Z</time>
      </trkpt>
      <trkpt lat="48.458487" lon="10.940138">
        <ele>456.9</ele>
        <time>2026-02-19T16:01:24.259000Z</time>
      </trkpt>
      <trkpt lat="48.458437" lon="10.940039">
        <ele>456.8</ele>
        <time>2026-02-19T16:01:32.642000Z</time>
      </trkpt>
      <trkpt lat="48.458329" lon="10.939826">
        <ele>456.6</ele>
        <time>2026-02-19T16:01:50.797000Z</time>
      </trkpt>
      <trkpt lat="48.458236" lon="10.939644">
        <ele>456.5</ele>
        <time>2026-02-19T16:02:06.370000Z</time>
      </trkpt>
      <trkpt lat="48.458144" lon="10.939464">
        <ele>456.3</ele>
        <time>2026-02-19T16:02:21.710000Z</time>
      </trkpt>
    </trkseg>
  </trk>
</gpx>