<?xml version="1.0" encoding="UTF-8"?>
<gpx xmlns="http://www.topografix.com/GPX/1/1" xmlns:xsi="http://www.w3.org/2001/XMLSchema-instance" xsi:schemaLocation="http://www.topografix.com/GPX/1/1 http://www.topografix.com/GPX/1/1/gpx.xsd" version="1.1" creator="Robert Kampf">
  <metadata>
    <name>Blick auf den Heiterwanger See – Blick auf den Heiterwanger See Runde von Heiterwang</name>
    <desc>Distance: 3.171km, Estimated duration: 0.81h, Elevation up: 10.4988962322941m, Elevation down: 10.908067110639763m, Grade: easy</desc>
    <author>
      <name>Robert Kampf</name>
      <link href="https://www.komoot.de/user/4125295338453">
        <text>View Robert Kampf's Profile on Komoot</text>
      </link>
    </author>
    <link href="https://www.komoot.de/tour/3312235329">
      <text>View tour on Komoot</text>
    </link>
  </metadata>
  <wpt lat="47.455601" lon="10.759632">
    <name>Fischer am See</name>
    <cmt></cmt>
    <desc></desc>
    <src>Komoot</src>
    <type>POI</type>
  </wpt>
  <wpt lat="47.455644" lon="10.759342">
    <ele>977.2</ele>
    <name>View of Lake Heiterwang</name>
    <cmt>https://d2exd72xrrp1s7.cloudfront.net/www/000/1k6/1o/1ojh95wolc0if1jj5h4wmusni946qdp72b-uhi50124289/0</cmt>
    <desc>JR on Tour: Schöner Blick über den gesamten Heiterwanger See und die umliegenden Gipfel
――――――――――
Eric S. aus E.: Toller Blick auf die Felswand🏔👍🏼
――――――――――
Aki: Toller Ausblick auf verschiedene Gipfel
――――――――――
Veloholic: wunderschön am Heiterwangersee entlang
――――――――――
Frank: 👍</desc>
    <src>Komoot</src>
    <link href="https://www.komoot.de/highlight/6606565">
      <text>View POI on Komoot</text>
    </link>
    <type>Highlight</type>
  </wpt>
  <wpt lat="47.45577" lon="10.76059">
    <ele>1024.5</ele>
    <name>Heiterwanger See boat dock</name>
    <cmt>https://d2exd72xrrp1s7.cloudfront.net/www/000/1k5/1c/1cxi05lbgxoe2mmrh214ioayi3ufh680q-uhi37482962/0</cmt>
    <desc>Cathrin: Um an die Bootsanlegestelle zu kommen geht man durch den Campingplatz bis zum See. Die Schiffe fahren pünktlich und die Fahrt ist wirklich schön.
An der Anlegestelle hängen die Fahrpläne aus und auch die Fahrpreise. Um die Wartezeit zu verkürzen gibt es für die Kinder einen schönen großen Spielplatz und für die Erwachsene etwas oberhalb ein Café/Gasthaus. Ausserdem hat man einen ganz tollen Ausblick über den Heiterwanger See
――――――――――
JR on Tour: Von hier kann man zu einer Bootstour auf dem Heiterwanger See aufbrechen
――――――――――
𝐃𝐞𝐫 𝐅𝐢𝐭𝐭𝐲: Hier gibt es eine kleine Bar mit Kiosk. Sehr schön zu Rasten. Das Wasser ist so dermaßen kalt, ein Versuch wäre es wert😜
――――――――――
Eric S. aus E.: Auch ein schöner Platz für Fotos🥳⛵️👍🏼</desc>
    <src>Komoot</src>
    <link href="https://www.komoot.de/highlight/370798">
      <text>View POI on Komoot</text>
    </link>
    <type>Highlight</type>
  </wpt>
  <wpt lat="47.455725" lon="10.760341">
    <ele>976.7</ele>
    <name>Playground at Lake Heiterwang</name>
    <cmt>https://d2exd72xrrp1s7.cloudfront.net/www/000/1k7/1u/1uktxkzwuejgpgw6p8una17mo4tuak8wr-uhi67928354/0</cmt>
    <desc>JR on Tour: Hier können sich die Kleinen austoben
――――――――――
Eric S. aus E.: Hier haben die Kinder definitiv ihren Spaß🎡🎠
――――――――――
Aki: Ein relativ neuer und toller Spielplatz</desc>
    <src>Komoot</src>
    <link href="https://www.komoot.de/highlight/4317408">
      <text>View POI on Komoot</text>
    </link>
    <type>Highlight</type>
  </wpt>
  <wpt lat="47.455624" lon="10.759783">
    <ele>1027</ele>
    <name>View of Lake Heiterwang</name>
    <cmt>https://d2exd72xrrp1s7.cloudfront.net/www/000/1k5/d2/d25aw55e40h93wcr3o1z6drq3wdeqilp-uhi40711265/0</cmt>
    <desc>DakenH: Der Heiterwanger See bietet einen beeindruckenden Blick auf das türkisfarbene Wasser, eingebettet in die Tiroler Alpen. Für Radfahrer ist die Umgebung ideal: Direkt am See verlaufen gut ausgebaute Rad- und Wanderwege, die atemberaubende Panoramen auf die Berge und das glitzernde Wasser eröffnen. Eine kurze Pause hier lohnt sich, um die Natur zu genießen und die ruhige, alpine Kulisse auf sich wirken zu lassen.
――――――――――
eBike🚴‍♂️Rainer: Heiterwang samt See ist nicht so bekannt, aber sehr schön gelegen. Mit der Bahn oder dem Auto gut zu erreichen. Wir haben hier unsere Radtour gestartet. Anreise von Garmisch mit dem Zug nach Pfronten.
――――――――――
Siggi: Campingplatz
――――――――――
Marco: wunderschöner Ausblick auf den See, mit Abfahrt der Fähre
――――――――――
Johan Frederix: Zeer mooie en propere camping</desc>
    <src>Komoot</src>
    <link href="https://www.komoot.de/highlight/7418188">
      <text>View POI on Komoot</text>
    </link>
    <type>Highlight</type>
  </wpt>
  <wpt lat="47.456525" lon="10.759388">
    <ele>977.4</ele>
    <name>Lake Heiterwang Campsite</name>
    <cmt>https://d2exd72xrrp1s7.cloudfront.net/www/000/1k6/1a/1avcsjp9mczmp1sn0ujkqyaobn4a6wlogr-uhi53474435/0</cmt>
    <desc>Chalien: Mooie helder blauw water, super plekje op bij het eet kraampje wat te drinken aan het water. Vlak voor het hotel heb je een groote parkeerplaats, waar je voor een redelijke prijs de hele dag kan parkeren. Hier zijn heel veel uitgang punten voor wandelingen.
――――――――――
DerMöbi: Ein toll gelegener Campingplatz direkt am See
――――――――――
Dennis: Der Startpunkt für den Rundweg.
――――――――――
JR on Tour: Hier kann man sowohl im Sommer als auch im Winter campen
――――――――――
Fr.Kornschuh- Lenny 🐕: Wirklich  sehr schön gelegener Campingplatz , toller Blick 
――――――――――
Mike Fox: Schön gelegener Campingplatz fast direkt am See. Fantastischer Blick auf den See und die Berge.
――――――――――
Sirko: 2023 : Parken 6€ am Tag</desc>
    <src>Komoot</src>
    <link href="https://www.komoot.de/highlight/3848748">
      <text>View POI on Komoot</text>
    </link>
    <type>Highlight</type>
  </wpt>
  <wpt lat="47.456834" lon="10.760369">
    <ele>1025.2</ele>
    <name>Lake Heiterwang</name>
    <cmt>https://d2exd72xrrp1s7.cloudfront.net/www/000/1k6/65/653p7ckva3qh14hcdp061w7xz43a5qx6s-uhi47132725/0</cmt>
    <desc>Huanchen Liu: Die Schnelle Trail runde um den heiterwanger See lohnt sich sehr. Wer jedoch was mehr braucht kann beide Seen umrunden. </desc>
    <src>Komoot</src>
    <link href="https://www.komoot.de/highlight/6401376">
      <text>View POI on Komoot</text>
    </link>
    <type>Highlight</type>
  </wpt>
  <wpt lat="47.456125" lon="10.754176">
    <ele>1025</ele>
    <name>Alpine Meadow Near Lake Heiterwang</name>
    <cmt>https://d2exd72xrrp1s7.cloudfront.net/www/000/1k9/1x/1xt88uov1gd6f1kppxtcb71as55f9oipuj-uhi89108266/0</cmt>
    <desc>Stefan Weber aus Littfeld: Der Heiterwanger See ist ein wunderschöner Gebirgssee in den Ammergauer Alpen, der gemeinsam mit dem Plansee die zweitgrößte Wasserfläche Tirols bildet. Die Umrundung des Heiterwanger Sees mit seiner fjordähnlichen Landschaft und dem kristallklaren Wasser ist wirklich ein "Highlight".
――――――――――
Tao: Ausblick heiterwanger See</desc>
    <src>Komoot</src>
    <link href="https://www.komoot.de/highlight/7602887">
      <text>View POI on Komoot</text>
    </link>
    <type>Highlight</type>
  </wpt>
  <wpt lat="47.454475" lon="10.748013">
    <ele>979</ele>
    <name>Beautifully Designed Alpine Farmstead</name>
    <cmt>https://d2exd72xrrp1s7.cloudfront.net/www/000/1k5/1v/1vdlb31g47ssq1mn9fr60seinb3xohtz4t-uhi42660843/0</cmt>
    <desc>Chalien: Erg mooi ontworpen, een plaatje.
――――――――――
DerMöbi: Eine Liebevoll angelegte Anlage</desc>
    <src>Komoot</src>
    <link href="https://www.komoot.de/highlight/3848697">
      <text>View POI on Komoot</text>
    </link>
    <type>Highlight</type>
  </wpt>
  <trk>
    <name>Blick auf den Heiterwanger See – Blick auf den Heiterwanger See Runde von Heiterwang</name>
    <desc>Distance: 3.171km, Estimated duration: 0.81h, Elevation up: 10.4988962322941m, Elevation down: 10.908067110639763m, Grade: easy</desc>
    <link href="https://www.komoot.de/tour/3312235329">
      <text>View tour on Komoot</text>
    </link>
    <trkseg>
      <trkpt lat="47.455614" lon="10.759567">
        <ele>977.3</ele>
        <time>2026-09-27T10:17:45.938000Z</time>
      </trkpt>
      <trkpt lat="47.455571" lon="10.75955">
        <ele>977.3</ele>
        <time>2026-09-27T10:17:50.391000Z</time>
      </trkpt>
      <trkpt lat="47.455365" lon="10.759353">
        <ele>977.3</ele>
        <time>2026-09-27T10:18:15.008000Z</time>
      </trkpt>
      <trkpt lat="47.455569" lon="10.759428">
        <ele>977.2</ele>
        <time>2026-09-27T10:18:36.096000Z</time>
      </trkpt>
      <trkpt lat="47.455631" lon="10.759324">
        <ele>977.2</ele>
        <time>2026-09-27T10:18:45.558000Z</time>
      </trkpt>
      <trkpt lat="47.455569" lon="10.759428">
        <ele>977.2</ele>
        <time>2026-09-27T10:18:54.995000Z</time>
      </trkpt>
      <trkpt lat="47.455365" lon="10.759353">
        <ele>977.2</ele>
        <time>2026-09-27T10:19:16.113000Z</time>
      </trkpt>
      <trkpt lat="47.455571" lon="10.75955">
        <ele>977.2</ele>
        <time>2026-09-27T10:19:40.754000Z</time>
      </trkpt>
      <trkpt lat="47.455535" lon="10.759669">
        <ele>977.2</ele>
        <time>2026-09-27T10:19:49.660000Z</time>
      </trkpt>
      <trkpt lat="47.455541" lon="10.759792">
        <ele>977.1</ele>
        <time>2026-09-27T10:19:58.043000Z</time>
      </trkpt>
      <trkpt lat="47.455537" lon="10.760048">
        <ele>977.1</ele>
        <time>2026-09-27T10:20:15.351000Z</time>
      </trkpt>
      <trkpt lat="47.455544" lon="10.760133">
        <ele>977.1</ele>
        <time>2026-09-27T10:20:21.208000Z</time>
      </trkpt>
      <trkpt lat="47.455656" lon="10.760403">
        <ele>977.1</ele>
        <time>2026-09-27T10:20:42.676000Z</time>
      </trkpt>
      <trkpt lat="47.455707" lon="10.760526">
        <ele>977.1</ele>
        <time>2026-09-27T10:20:52.424000Z</time>
      </trkpt>
      <trkpt lat="47.455765" lon="10.760541">
        <ele>977.1</ele>
        <time>2026-09-27T10:20:58.341000Z</time>
      </trkpt>
      <trkpt lat="47.455707" lon="10.760526">
        <ele>977.1</ele>
        <time>2026-09-27T10:21:04.226000Z</time>
      </trkpt>
      <trkpt lat="47.455656" lon="10.760403">
        <ele>977</ele>
        <time>2026-09-27T10:21:14.044000Z</time>
      </trkpt>
      <trkpt lat="47.455544" lon="10.760133">
        <ele>976.9</ele>
        <time>2026-09-27T10:21:35.668000Z</time>
      </trkpt>
      <trkpt lat="47.455537" lon="10.760048">
        <ele>976.9</ele>
        <time>2026-09-27T10:21:41.589000Z</time>
      </trkpt>
      <trkpt lat="47.455541" lon="10.759792">
        <ele>976.8</ele>
        <time>2026-09-27T10:21:59.070000Z</time>
      </trkpt>
      <trkpt lat="47.455608" lon="10.759797">
        <ele>976.8</ele>
        <time>2026-09-27T10:22:05.748000Z</time>
      </trkpt>
      <trkpt lat="47.455619" lon="10.759777">
        <ele>976.8</ele>
        <time>2026-09-27T10:22:07.502000Z</time>
      </trkpt>
      <trkpt lat="47.455659" lon="10.759711">
        <ele>976.8</ele>
        <time>2026-09-27T10:22:13.539000Z</time>
      </trkpt>
      <trkpt lat="47.45567" lon="10.759591">
        <ele>976.8</ele>
        <time>2026-09-27T10:22:21.773000Z</time>
      </trkpt>
      <trkpt lat="47.455829" lon="10.759608">
        <ele>976.8</ele>
        <time>2026-09-27T10:22:37.731000Z</time>
      </trkpt>
      <trkpt lat="47.455994" lon="10.759582">
        <ele>976.8</ele>
        <time>2026-09-27T10:22:54.461000Z</time>
      </trkpt>
      <trkpt lat="47.45616" lon="10.759491">
        <ele>976.9</ele>
        <time>2026-09-27T10:23:12.331000Z</time>
      </trkpt>
      <trkpt lat="47.456291" lon="10.759446">
        <ele>976.9</ele>
        <time>2026-09-27T10:23:25.983000Z</time>
      </trkpt>
      <trkpt lat="47.456406" lon="10.759426">
        <ele>976.9</ele>
        <time>2026-09-27T10:23:37.593000Z</time>
      </trkpt>
      <trkpt lat="47.456467" lon="10.759416">
        <ele>976.9</ele>
        <time>2026-09-27T10:23:43.850000Z</time>
      </trkpt>
      <trkpt lat="47.456526" lon="10.759405">
        <ele>976.9</ele>
        <time>2026-09-27T10:23:49.820000Z</time>
      </trkpt>
      <trkpt lat="47.456569" lon="10.759397">
        <ele>976.9</ele>
        <time>2026-09-27T10:23:54.128000Z</time>
      </trkpt>
      <trkpt lat="47.45701" lon="10.75932">
        <ele>977</ele>
        <time>2026-09-27T10:24:38.855000Z</time>
      </trkpt>
      <trkpt lat="47.457007" lon="10.759596">
        <ele>977.1</ele>
        <time>2026-09-27T10:24:57.747000Z</time>
      </trkpt>
      <trkpt lat="47.456952" lon="10.759888">
        <ele>977.2</ele>
        <time>2026-09-27T10:25:18.689000Z</time>
      </trkpt>
      <trkpt lat="47.456902" lon="10.760186">
        <ele>977.4</ele>
        <time>2026-09-27T10:25:40.240000Z</time>
      </trkpt>
      <trkpt lat="47.456901" lon="10.76037">
        <ele>977.5</ele>
        <time>2026-09-27T10:25:53.176000Z</time>
      </trkpt>
      <trkpt lat="47.456902" lon="10.760186">
        <ele>977.7</ele>
        <time>2026-09-27T10:26:06.117000Z</time>
      </trkpt>
      <trkpt lat="47.456952" lon="10.759888">
        <ele>977.9</ele>
        <time>2026-09-27T10:26:27.727000Z</time>
      </trkpt>
      <trkpt lat="47.457007" lon="10.759596">
        <ele>978.1</ele>
        <time>2026-09-27T10:26:48.887000Z</time>
      </trkpt>
      <trkpt lat="47.45701" lon="10.75932">
        <ele>978.3</ele>
        <time>2026-09-27T10:27:08.222000Z</time>
      </trkpt>
      <trkpt lat="47.456975" lon="10.758669">
        <ele>978.7</ele>
        <time>2026-09-27T10:27:54.102000Z</time>
      </trkpt>
      <trkpt lat="47.456981" lon="10.75864">
        <ele>978.8</ele>
        <time>2026-09-27T10:27:56.238000Z</time>
      </trkpt>
      <trkpt lat="47.457026" lon="10.758413">
        <ele>979</ele>
        <time>2026-09-27T10:28:12.959000Z</time>
      </trkpt>
      <trkpt lat="47.457033" lon="10.758226">
        <ele>979.2</ele>
        <time>2026-09-27T10:28:26.295000Z</time>
      </trkpt>
      <trkpt lat="47.456966" lon="10.758014">
        <ele>979.4</ele>
        <time>2026-09-27T10:28:42.957000Z</time>
      </trkpt>
      <trkpt lat="47.45681" lon="10.757683">
        <ele>979.9</ele>
        <time>2026-09-27T10:29:12.015000Z</time>
      </trkpt>
      <trkpt lat="47.456582" lon="10.757336">
        <ele>980.5</ele>
        <time>2026-09-27T10:29:46.828000Z</time>
      </trkpt>
      <trkpt lat="47.456499" lon="10.757086">
        <ele>980.8</ele>
        <time>2026-09-27T10:30:06.934000Z</time>
      </trkpt>
      <trkpt lat="47.456353" lon="10.755345">
        <ele>982.1</ele>
        <time>2026-09-27T10:32:10.046000Z</time>
      </trkpt>
      <trkpt lat="47.45623" lon="10.754688">
        <ele>982.1</ele>
        <time>2026-09-27T10:32:56.161000Z</time>
      </trkpt>
      <trkpt lat="47.456113" lon="10.754323">
        <ele>981.9</ele>
        <time>2026-09-27T10:33:23.779000Z</time>
      </trkpt>
      <trkpt lat="47.456063" lon="10.753901">
        <ele>981.8</ele>
        <time>2026-09-27T10:33:53.091000Z</time>
      </trkpt>
      <trkpt lat="47.456007" lon="10.752884">
        <ele>981.8</ele>
        <time>2026-09-27T10:35:02.278000Z</time>
      </trkpt>
      <trkpt lat="47.456007" lon="10.752488">
        <ele>982.2</ele>
        <time>2026-09-27T10:35:30.442000Z</time>
      </trkpt>
      <trkpt lat="47.456043" lon="10.751937">
        <ele>982.9</ele>
        <time>2026-09-27T10:36:10.523000Z</time>
      </trkpt>
      <trkpt lat="47.456025" lon="10.75178">
        <ele>983.1</ele>
        <time>2026-09-27T10:36:22.058000Z</time>
      </trkpt>
      <trkpt lat="47.455847" lon="10.751246">
        <ele>983.8</ele>
        <time>2026-09-27T10:37:04.878000Z</time>
      </trkpt>
      <trkpt lat="47.45566" lon="10.750831">
        <ele>984.1</ele>
        <time>2026-09-27T10:37:39.617000Z</time>
      </trkpt>
      <trkpt lat="47.455427" lon="10.749815">
        <ele>983.3</ele>
        <time>2026-09-27T10:38:53.956000Z</time>
      </trkpt>
      <trkpt lat="47.455386" lon="10.749735">
        <ele>983.1</ele>
        <time>2026-09-27T10:39:01.091000Z</time>
      </trkpt>
      <trkpt lat="47.455291" lon="10.749624">
        <ele>982.8</ele>
        <time>2026-09-27T10:39:13.891000Z</time>
      </trkpt>
      <trkpt lat="47.455144" lon="10.749454">
        <ele>982.2</ele>
        <time>2026-09-27T10:39:33.747000Z</time>
      </trkpt>
      <trkpt lat="47.454797" lon="10.748719">
        <ele>980</ele>
        <time>2026-09-27T10:40:38.797000Z</time>
      </trkpt>
      <trkpt lat="47.454586" lon="10.74822">
        <ele>978.9</ele>
        <time>2026-09-27T10:41:21.003000Z</time>
      </trkpt>
      <trkpt lat="47.454493" lon="10.748115">
        <ele>978.7</ele>
        <time>2026-09-27T10:41:33.108000Z</time>
      </trkpt>
      <trkpt lat="47.454449" lon="10.74807">
        <ele>978.6</ele>
        <time>2026-09-27T10:41:38.708000Z</time>
      </trkpt>
      <trkpt lat="47.454288" lon="10.747908">
        <ele>978.3</ele>
        <time>2026-09-27T10:41:58.688000Z</time>
      </trkpt>
      <trkpt lat="47.453958" lon="10.747609">
        <ele>978.3</ele>
        <time>2026-09-27T10:42:37.485000Z</time>
      </trkpt>
      <trkpt lat="47.453624" lon="10.747318">
        <ele>978.5</ele>
        <time>2026-09-27T10:43:17.214000Z</time>
      </trkpt>
      <trkpt lat="47.453274" lon="10.74713">
        <ele>979.1</ele>
        <time>2026-09-27T10:43:56.434000Z</time>
      </trkpt>
      <trkpt lat="47.452823" lon="10.74705">
        <ele>980.1</ele>
        <time>2026-09-27T10:44:45.289000Z</time>
      </trkpt>
      <trkpt lat="47.452216" lon="10.747141">
        <ele>980.5</ele>
        <time>2026-09-27T10:45:47.859000Z</time>
      </trkpt>
      <trkpt lat="47.45207" lon="10.747096">
        <ele>980.5</ele>
        <time>2026-09-27T10:46:02.866000Z</time>
      </trkpt>
      <trkpt lat="47.451962" lon="10.747104">
        <ele>980.4</ele>
        <time>2026-09-27T10:46:13.760000Z</time>
      </trkpt>
      <trkpt lat="47.451954" lon="10.747245">
        <ele>980.4</ele>
        <time>2026-09-27T10:46:23.382000Z</time>
      </trkpt>
      <trkpt lat="47.451919" lon="10.74783">
        <ele>980.1</ele>
        <time>2026-09-27T10:47:03.807000Z</time>
      </trkpt>
      <trkpt lat="47.451916" lon="10.747887">
        <ele>980.1</ele>
        <time>2026-09-27T10:47:07.758000Z</time>
      </trkpt>
      <trkpt lat="47.452734" lon="10.747641">
        <ele>978.6</ele>
        <time>2026-09-27T10:48:34.330000Z</time>
      </trkpt>
      <trkpt lat="47.453109" lon="10.747663">
        <ele>978.3</ele>
        <time>2026-09-27T10:49:12.516000Z</time>
      </trkpt>
      <trkpt lat="47.45347" lon="10.747821">
        <ele>978.3</ele>
        <time>2026-09-27T10:49:50.303000Z</time>
      </trkpt>
      <trkpt lat="47.453828" lon="10.748126">
        <ele>978.3</ele>
        <time>2026-09-27T10:50:31.694000Z</time>
      </trkpt>
      <trkpt lat="47.45435" lon="10.748727">
        <ele>978.3</ele>
        <time>2026-09-27T10:51:38.080000Z</time>
      </trkpt>
      <trkpt lat="47.454463" lon="10.749036">
        <ele>978.3</ele>
        <time>2026-09-27T10:52:01.880000Z</time>
      </trkpt>
      <trkpt lat="47.454462" lon="10.749396">
        <ele>978.2</ele>
        <time>2026-09-27T10:52:26.287000Z</time>
      </trkpt>
      <trkpt lat="47.454409" lon="10.749595">
        <ele>978.2</ele>
        <time>2026-09-27T10:52:40.878000Z</time>
      </trkpt>
      <trkpt lat="47.454194" lon="10.750112">
        <ele>977.9</ele>
        <time>2026-09-27T10:53:22.501000Z</time>
      </trkpt>
      <trkpt lat="47.454032" lon="10.750582">
        <ele>977.6</ele>
        <time>2026-09-27T10:53:58.851000Z</time>
      </trkpt>
      <trkpt lat="47.45396" lon="10.750877">
        <ele>977.5</ele>
        <time>2026-09-27T10:54:20.395000Z</time>
      </trkpt>
      <trkpt lat="47.453961" lon="10.751344">
        <ele>977.3</ele>
        <time>2026-09-27T10:54:52.388000Z</time>
      </trkpt>
      <trkpt lat="47.454004" lon="10.751688">
        <ele>977.2</ele>
        <time>2026-09-27T10:55:16.353000Z</time>
      </trkpt>
      <trkpt lat="47.454079" lon="10.75194">
        <ele>977.1</ele>
        <time>2026-09-27T10:55:35.158000Z</time>
      </trkpt>
      <trkpt lat="47.455234" lon="10.755048">
        <ele>976.4</ele>
        <time>2026-09-27T10:59:36.461000Z</time>
      </trkpt>
      <trkpt lat="47.455268" lon="10.755289">
        <ele>976.4</ele>
        <time>2026-09-27T10:59:53.148000Z</time>
      </trkpt>
      <trkpt lat="47.455163" lon="10.756229">
        <ele>976.4</ele>
        <time>2026-09-27T11:00:57.741000Z</time>
      </trkpt>
      <trkpt lat="47.455195" lon="10.756624">
        <ele>976.5</ele>
        <time>2026-09-27T11:01:24.705000Z</time>
      </trkpt>
      <trkpt lat="47.455297" lon="10.756969">
        <ele>976.5</ele>
        <time>2026-09-27T11:01:50.162000Z</time>
      </trkpt>
      <trkpt lat="47.455814" lon="10.757989">
        <ele>976.3</ele>
        <time>2026-09-27T11:03:16.724000Z</time>
      </trkpt>
      <trkpt lat="47.455878" lon="10.758154">
        <ele>976.3</ele>
        <time>2026-09-27T11:03:29.669000Z</time>
      </trkpt>
      <trkpt lat="47.455968" lon="10.758386">
        <ele>976.3</ele>
        <time>2026-09-27T11:03:47.767000Z</time>
      </trkpt>
      <trkpt lat="47.456238" lon="10.758908">
        <ele>976.4</ele>
        <time>2026-09-27T11:04:32.543000Z</time>
      </trkpt>
      <trkpt lat="47.456291" lon="10.759446">
        <ele>976.5</ele>
        <time>2026-09-27T11:05:09.732000Z</time>
      </trkpt>
      <trkpt lat="47.45616" lon="10.759491">
        <ele>976.6</ele>
        <time>2026-09-27T11:05:23.445000Z</time>
      </trkpt>
      <trkpt lat="47.455994" lon="10.759582">
        <ele>976.7</ele>
        <time>2026-09-27T11:05:41.447000Z</time>
      </trkpt>
      <trkpt lat="47.455829" lon="10.759608">
        <ele>976.7</ele>
        <time>2026-09-27T11:05:58.320000Z</time>
      </trkpt>
      <trkpt lat="47.45567" lon="10.759591">
        <ele>976.8</ele>
        <time>2026-09-27T11:06:14.547000Z</time>
      </trkpt>
      <trkpt lat="47.455614" lon="10.759567">
        <ele>976.9</ele>
        <time>2026-09-27T11:06:20.532000Z</time>
      </trkpt>
    </trkseg>
  </trk>
</gpx>