<?xml version="1.0" encoding="UTF-8"?>
<gpx xmlns="http://www.topografix.com/GPX/1/1" xmlns:xsi="http://www.w3.org/2001/XMLSchema-instance" xsi:schemaLocation="http://www.topografix.com/GPX/1/1 http://www.topografix.com/GPX/1/1/gpx.xsd" version="1.1" creator="Robert Kampf">
  <metadata>
    <name>Blick über das Schmuttertal – Schloss Hammel Runde von Täfertingen</name>
    <desc>Distance: 5.825km, Estimated duration: 1.59h, Elevation up: 90.38023284593152m, Elevation down: 90.63165141659391m, Grade: easy</desc>
    <author>
      <name>Robert Kampf</name>
      <link href="https://www.komoot.de/user/4125295338453">
        <text>View Robert Kampf's Profile on Komoot</text>
      </link>
    </author>
    <link href="https://www.komoot.de/tour/2956071741">
      <text>View tour on Komoot</text>
    </link>
  </metadata>
  <wpt lat="48.412994" lon="10.825448">
    <name>Täfertingen Nord</name>
    <cmt></cmt>
    <desc></desc>
    <src>Komoot</src>
    <type>POI</type>
  </wpt>
  <wpt lat="48.417812" lon="10.820997">
    <ele>504.7</ele>
    <name>Gailenbacher Mill</name>
    <cmt>https://d2exd72xrrp1s7.cloudfront.net/www/000/1k4/rt/rtwlfnhinzr8f2yh8coi5i9380hqvba-uhi9783646/0</cmt>
    <desc>Margret: hier an den Brücken vom Schmutter- Altwasser und der Schmutter ist es romantisch. und die Alte Mühle, die hier noch genauso dasteht wie vor zumindest 60 Jahren tut ihr übriges. Übrigens war es immer die Mühle von und für Täfertingen, obwohl die Mühle politisch zu Edenbergen und damit zu Gersthofen gehört. Genießen Sie den Blick auf die feuchten Schmutterwiesen.
――――――――――
breddy: Schon um 1296 wird von der direkt an der Schmutter gelegenen Gailenbacher Mühle berichtet Der Adelige Chunrat von Gamlunbach hat einen Mahlknecht auf seine Mühle gesetzt. Später war die Mühle dann im Besitz von Augsburger Patriziern und Bürgern, u.a. Peter von Argon. Peter von Argon setzte 1442 den Müller Joseph Assum auf die Mühle, leider litt an chronischer Geldknappheit und raubte Fremde aus, die in seiner Mühle übernachteten. Bis er ein es Tages an einen altgedienten Landsknecht geriet, der wurde auch bestohlen, aber als dieser den Diebstahl bemerkte, ging er zur Mühle zurück und zahlte es dem Müller mit einer ordentlich gehörigen Tracht Prügel heim. 
Die Gebäude stammen aus dem Jahre 1898. Im März 1933 brach in den Wirtschaftsgebäuden der Mühle ein Feuer aus, es konnten Teile des Anwesens gerettet werden, aber die Remise und die Scheune wurden vollständig, der Stall teilweise zerstört.
In den letzten Jahrzehnten war die Mühle immer wieder Schauplatz von schweren Überschwemmungen, aber durch verschiedene Baumaßnahmen wurde der Hochwasserschutz in den letzten Jahren wesentlich verbessert. Die Mühle ist jetzt nicht mehr in Betrieb und die Gebäude wurden an mehrere Gewerbetreibende vermietet.
――――――――――
Heiko: Wenn die Schmutter klares Wasser führt und der Wasser-
spiegel niedrig ist, kann man vielleicht ein feines Leuchten auf dem Grund wahrnehmen. Die Sage berichtet nämlich, dass ein "weißer Mann" lange Zeit, Nacht für Nacht, hinauf zur Mahlstube der Gailenbacher Mühle hastete, weil seine Seele keine Ruhe fand.
Nach unbestätigten Berichten hat bereits um 1296 ein Chunrat von Gamlunbach (Gailenbach) einen Mahlknecht auf seine Mühle gesetzt. Später war die Mühle dann im Besitz von Augsburger Patriziern und Bürgern, u.a. Peter von Argon. Er setzte 1442 den Müller Joseph Assum auf seinen Besitz. Dieser litt an chronischer Geldknappheit und raubte Fremde aus, die in seiner Mühle um eine nächtliche Bleibe baten. Bis er an einen altgedienten Landsknecht geriet - der wurde zwar auch ausgeraubt - kam aber bald zurück und für den Müller setzte es eine gehörige Tracht Prügel.
Heute ist die Gailenbacher Mühle von Mythen und Legenden weit entfernt. Frisch renoviert und restauriert präsentiert sie sich als Kleinod der ganz besonderen Art mitten im Schmuttertal bei Täfertingen. Behutsam modernisiert, mit viel Liebe saniert, ausgerichtet auf eine zeitgemäße Nutzung, bleibt auch der ökologische Aspekt nicht auf der Strecke. Die neuen Eigentümer wollen das alte Gebäude aus seinem Dornröschenschlaf erwecken.
Und mit Rosen im weitesten Sinne hat diese Erweckung dann auch zutun. Alles zum Thema Garten, um den Garten und um den Garten herum wird bei GrandeVia, dem Fachgeschäft im geschichtlichen Ambiente der Gailenbacher Mühle bei Täfertingen, geboten. Tolle Dekorations-Ideen für jeden Geschmack, jeden Anlass und jeden Geldbeutel gibt es zu entdecken. Schöne Vielfalt in ansprechender Atmosphäre also.
――――――――――
Dietmar: Nette Umgebung einer alten Institution
――――――――――
Heiko: Die Gailenbacher Mühle ist eine historische Mühle im bayerischen Schwaben, gelegen zwischen den Ortsteilen Täfertingen und Hirblingen der Stadt Gersthofen. Ursprünglich diente sie als Getreidemühle und ist heute ein bedeutendes Kulturdenkmal der Region.

Geschichte:
Die Mühle wurde erstmals im Jahr 1296 urkundlich erwähnt. Im Laufe der Jahrhunderte wechselte sie mehrfach den Besitzer und wurde kontinuierlich modernisiert. Im März 1933 brach in den Wirtschaftsgebäuden der Mühle ein Feuer aus; Teile des Anwesens konnten gerettet werden, aber die Remise und die Scheune wurden vollständig, der Stall teilweise zerstört. In den letzten Jahrzehnten war die Mühle immer wieder Schauplatz von schweren Überschwemmungen, aber durch verschiedene Baumaßnahmen wurde der Hochwasserschutz in den letzten Jahren wesentlich verbessert. Die Mühle ist jetzt nicht mehr in Betrieb und die Gebäude wurden an mehrere Gewerbetreibende vermietet. 

Heutige Nutzung:
Heute beherbergt die Gailenbacher Mühle das Geschäft GrandeVia, das auf einer über 1.000 Quadratmeter großen Ausstellungs- und Verkaufsfläche Dekorationsartikel für Wohnen und Garten anbietet. Das historische Ambiente der Mühle verleiht dem Einkaufserlebnis einen besonderen Charme. 

Ein Besuch der Gailenbacher Mühle bietet eine gelungene Kombination aus historischem Flair, Einkaufserlebnis und Naturgenuss.</desc>
    <src>Komoot</src>
    <link href="https://www.komoot.de/highlight/1072156">
      <text>View POI on Komoot</text>
    </link>
    <type>Highlight</type>
  </wpt>
  <wpt lat="48.417175" lon="10.819815">
    <ele>498.6</ele>
    <name>Bench by the River</name>
    <cmt>https://d2exd72xrrp1s7.cloudfront.net/www/000/1k8/19/19beggdkld57wahfrtmnhlnbj4yocbus6-uhi71465900/0</cmt>
    <desc>uri (München): Hier auch eine Brücke über das Wasser</desc>
    <src>Komoot</src>
    <link href="https://www.komoot.de/highlight/6571341">
      <text>View POI on Komoot</text>
    </link>
    <type>Highlight</type>
  </wpt>
  <wpt lat="48.417235" lon="10.819917">
    <ele>496.9</ele>
    <name>Canal and Historic Mill in Landkreis Augsburg</name>
    <cmt>https://d2exd72xrrp1s7.cloudfront.net/www/000/1k8/1n/1n23rrt6qhfvt13jtmkpged0kb4yoh8img-uhi71483474/0</cmt>
    <desc></desc>
    <src>Komoot</src>
    <link href="https://www.komoot.de/highlight/6572317">
      <text>View POI on Komoot</text>
    </link>
    <type>Highlight</type>
  </wpt>
  <wpt lat="48.415555" lon="10.815031">
    <ele>484.9</ele>
    <name>View over the Schmutter Valley</name>
    <cmt>https://d2exd72xrrp1s7.cloudfront.net/www/000/1k7/1f/1f28wjvgcqt4v7k2p3zrvwn634hx3w8r6-uhi58018464/0</cmt>
    <desc>Jens: Am besten zu einer Zeit, wo die a8 nicht a8 nicht so stark befahren ist
――――――――――
Martin: Schöner Ausblick Richtung Täfertingen und Augsburg.
――――――――――
Heiko: Das Schmuttertal erstreckt sich entlang des Flusses Schmutter im bayerischen Regierungsbezirk Schwaben. Die Schmutter ist ein 96 Kilometer langer Fluss, der nach durchweg etwa nördlichem Lauf gegenüber von Donauwörth von rechts in die Donau mündet. In Täfertingen, einem Stadtteil von Neusäß, prägt das Schmuttertal die Landschaft und bietet vielfältige Möglichkeiten für Natur- und Freizeitaktivitäten.

Landschaft und Natur:
Das Schmuttertal bei Täfertingen zeichnet sich durch seine naturnahe Flusslandschaft mit Auwäldern, Feuchtwiesen und einer reichen Flora und Fauna aus. Die regelmäßigen Überschwemmungen der Schmutter fördern die Biodiversität und schaffen Lebensräume für zahlreiche Tier- und Pflanzenarten. Dieses Gebiet ist Teil des Biodiversitätsprojekts Schmuttertal, das die Artenvielfalt fördert und den natürlichen Lebensraum schützt. 

Freizeitmöglichkeiten:
Entlang der Schmutter verlaufen gut ausgebaute Rad- und Wanderwege, die zu ausgedehnten Touren einladen. Besonders der Abschnitt zwischen Ottmarshausen und Neusäß bietet idyllische Pfade für Spaziergänge und Radtouren. Angler schätzen die Schmutter für ihren Fischreichtum, wobei entsprechende Genehmigungen erforderlich sind.

Sehenswürdigkeiten:
In Täfertingen befindet sich die Kirche Mariä Himmelfahrt, die früher ein beliebtes Ziel der Wallfahrer war. Darauf weist heute noch ein altes Gnadenbild aus der Gotik hin. Ebenfalls gotisch ist eine Schnitzgruppe des Altars, der sogenannte “Täfertinger Mariä Tod”. Dieser wird zu der Schule Veit Stoß’ gezählt. 

Kneippanlage am alten Wasserhaus:
Am Waldrand von Täfertingen, beim alten Wasserhaus des Zweckverbands zur Wasserversorgung der Loderberggruppe, wurde 2011 zum 100-jährigen Bestehen der Loderberggruppe ein Kneippbecken zum Wassertreten eröffnet. Zwei Jahre später folgte ein Armbadebecken. Hier legen nicht nur Radfahrer, deren Weg sie dort entlang führt, eine Rast ein. 

Das Schmuttertal bei Täfertingen bietet somit eine harmonische Verbindung von Naturerlebnis, Freizeitgestaltung und kulturellen Sehenswürdigkeiten.
――――――――――
breddy: Das Schuttertal bei Täfertingen ist für alle Ausflügler ein perfekter Platz zum Erholen
――――――――――
Norman Grüner: Augsburg mal aus einer besonderen Perspektive
――――――――――
Igor: Sehr schöne Stelle. Leider die "Sitzbank" schon ein bissl zugewachsen, aber geht noch :)</desc>
    <src>Komoot</src>
    <link href="https://www.komoot.de/highlight/1510309">
      <text>View POI on Komoot</text>
    </link>
    <type>Highlight</type>
  </wpt>
  <wpt lat="48.40725" lon="10.809486">
    <ele>504.2</ele>
    <name>Hammel Castle</name>
    <cmt>https://d2exd72xrrp1s7.cloudfront.net/www/000/1k6/1w/1w5q0knrcpjah1d52f6vdxq5wl45uhpopj-uhi49386708/0</cmt>
    <desc>Margret: Schloss Hammel sieht von beiden Seiten romantisch aus, mit den Pferden auf der Koppel im Norden und Osten, von Süden das imposante Portal und der liebliche Eckturm im Garten und die herrliche Allee.
――――――――――
Didier: Immer wieder interessant das Schloß in Hammel mit schöner Umgebung, viel Natur,
――――――――――
Heiko: Schloss Hammel befindet sich im Ortsteil Hammel der Stadt Neusäß im Landkreis Augsburg, Bayern. Das Schloss ist im Besitz der Familie von Stetten. 

Geschichte:

	•	1550: Wolfgang von Paler der Ältere wird mit Hammel belehnt und initiiert um 1550/60 den Neubau des Schlosses.
	•	1648: Vermutlich wird das Gebäude während des Dreißigjährigen Krieges von schwedischen Truppen zerstört.
	•	Nach 1648: Der neue Besitzer, Raimund Egger, lässt das Schloss wieder aufbauen.
	•	1700: Durch Heirat gelangt das Schloss zu zwei Dritteln in den Besitz der Augsburger Patrizierfamilie von Stetten; später erwirbt die Familie auch den restlichen Anteil.
	•	Mitte des 19. Jahrhunderts: Umfangreiche Renovierungsarbeiten werden durchgeführt.
	•	1891: Unter der Planung des Augsburger Architekten Jean Keller erfolgt eine Verlängerung des ost-west gerichteten Flügels sowie eine Erneuerung der Fassadengliederung und Verzierung des Südgiebels mit neugotischen Zinnen. 

Architektur:
Das Schloss besteht aus zwei dreigeschossigen Flügeln. Der kürzere “Altbau” verfügt über ein Satteldach und weist eine Fassadengliederung mit neugotischen Zinnen auf. Die Umfassungsmauer ist mit vier Wehrtürmen versehen, darunter der sogenannte Malakowturm an der Südost-Ecke, der 1856 mit einer Balustrade und einem laubenartigen Aufbau aus Holz versehen wurde. 

Heutige Nutzung:
Schloss Hammel befindet sich weiterhin im Besitz der Familie von Stetten und ist nicht öffentlich zugänglich. Die historische Anlage ist jedoch ein bedeutendes Kulturdenkmal der Region und ein Beispiel für die Architektur und Geschichte der Augsburger Patrizierfamilien.
――――――――――
Rinaldini: Wolfgang von Paler der Ältere wurde 1550 mit Hammel belehnt. Er veranlasste um 1550/60 einen Schlossneubau. Vermutlich wurde das Gebäude 1648 von den Schweden zerstört. Der neue Besitzer, Raimund Egger, ließ das Schloss wieder aufbauen.
――――――――――
Damir: Die Welt steht offen! Hier kann noch schnell entschieden werden in welche Richtung man fährt!

https://www.alleburgen.de/bd.php?id=1163
――――――――――
M🅰️X  B.: Schöner schotterweg oberhalb mit Blick aufs Schloss
――――――――――
Heiko: Der Hauptbau stammt im Kern aus dem 16. Jahrhundert und wurde um 1890 erneuert. Aus der frühen Zeit sind noch spätgotische Stilelemente der Fassade sowie eine Kapelle erhalten. Die Umfassungsmauer mit vier Wehrtürmen wurde 1560 erbaut. Weiter auffallend sind der sogenannte Malakowturm mit dem späteren Holzaufbau sowie die schönen barocken Gartenportale. Seit circa 1700 ist das Schloss im Besitz der Familie von Stetten.
――――――――――
breddy: Schloss Hammel liegt im Ortsteil Hammel und ist im Besitz der Familie von Stetten.
――――――――――
Ronny F 3333 🚵‍♀️🧗‍♂️: Im 19. Jahrhundert erfolgte eine umfassende Neugestaltung durch den Architekten Jean Keller, der auch den prunkvollen großen Saal entwarf.
――――――――――
Michael: 1550 erbaut, 1700 durch Heirat gelangt das Schloss in den Besitz der Augsburger Patrizierfamilie von Stetten
――――――――――
Juri Wamser: Schloss
――――――――――
Damir: Imposant steht das Schloß Hammel da, mit Pferde auf der Koppel
――――――――――
Carsten 🏍🚲: Tolles Schloß abseits der Ortschaft!</desc>
    <src>Komoot</src>
    <link href="https://www.komoot.de/highlight/1257252">
      <text>View POI on Komoot</text>
    </link>
    <type>Highlight</type>
  </wpt>
  <wpt lat="48.413201" lon="10.824465">
    <ele>462.2</ele>
    <name>Highland Cows in Landkreis Augsburg</name>
    <cmt>https://d2exd72xrrp1s7.cloudfront.net/www/000/1k5/1k/1khnsk11hctfq21nawxuwm3u13po1e4j5-uhi30339055/0</cmt>
    <desc></desc>
    <src>Komoot</src>
    <link href="https://www.komoot.de/highlight/140851">
      <text>View POI on Komoot</text>
    </link>
    <type>Highlight</type>
  </wpt>
  <trk>
    <name>Blick über das Schmuttertal – Schloss Hammel Runde von Täfertingen</name>
    <desc>Distance: 5.825km, Estimated duration: 1.59h, Elevation up: 90.38023284593152m, Elevation down: 90.63165141659391m, Grade: easy</desc>
    <link href="https://www.komoot.de/tour/2956071741">
      <text>View tour on Komoot</text>
    </link>
    <trkseg>
      <trkpt lat="48.412924" lon="10.825389">
        <ele>458.7</ele>
        <time>2026-05-15T12:35:57.583000Z</time>
      </trkpt>
      <trkpt lat="48.412933" lon="10.825364">
        <ele>458.7</ele>
        <time>2026-05-15T12:35:59.461000Z</time>
      </trkpt>
      <trkpt lat="48.413129" lon="10.824961">
        <ele>458.3</ele>
        <time>2026-05-15T12:36:33.370000Z</time>
      </trkpt>
      <trkpt lat="48.413215" lon="10.824848">
        <ele>458.2</ele>
        <time>2026-05-15T12:36:45.048000Z</time>
      </trkpt>
      <trkpt lat="48.413312" lon="10.824766">
        <ele>458.1</ele>
        <time>2026-05-15T12:36:56.469000Z</time>
      </trkpt>
      <trkpt lat="48.413567" lon="10.824569">
        <ele>457.7</ele>
        <time>2026-05-15T12:37:25.775000Z</time>
      </trkpt>
      <trkpt lat="48.413976" lon="10.824325">
        <ele>457.1</ele>
        <time>2026-05-15T12:38:11.168000Z</time>
      </trkpt>
      <trkpt lat="48.414234" lon="10.824219">
        <ele>456.8</ele>
        <time>2026-05-15T12:38:38.698000Z</time>
      </trkpt>
      <trkpt lat="48.414448" lon="10.824188">
        <ele>456.5</ele>
        <time>2026-05-15T12:39:00.730000Z</time>
      </trkpt>
      <trkpt lat="48.414879" lon="10.824224">
        <ele>455.9</ele>
        <time>2026-05-15T12:39:45.166000Z</time>
      </trkpt>
      <trkpt lat="48.414907" lon="10.824127">
        <ele>455.8</ele>
        <time>2026-05-15T12:39:52.446000Z</time>
      </trkpt>
      <trkpt lat="48.415091" lon="10.824139">
        <ele>455.4</ele>
        <time>2026-05-15T12:40:11.627000Z</time>
      </trkpt>
      <trkpt lat="48.415627" lon="10.824274">
        <ele>454.2</ele>
        <time>2026-05-15T12:41:08.428000Z</time>
      </trkpt>
      <trkpt lat="48.415761" lon="10.823869">
        <ele>453.5</ele>
        <time>2026-05-15T12:41:39.878000Z</time>
      </trkpt>
      <trkpt lat="48.41596" lon="10.823576">
        <ele>452.9</ele>
        <time>2026-05-15T12:42:08.884000Z</time>
      </trkpt>
      <trkpt lat="48.416331" lon="10.823325">
        <ele>452.2</ele>
        <time>2026-05-15T12:42:51.165000Z</time>
      </trkpt>
      <trkpt lat="48.416924" lon="10.822857">
        <ele>451.4</ele>
        <time>2026-05-15T12:43:59.785000Z</time>
      </trkpt>
      <trkpt lat="48.416976" lon="10.822817">
        <ele>451.4</ele>
        <time>2026-05-15T12:44:05.672000Z</time>
      </trkpt>
      <trkpt lat="48.417175" lon="10.822473">
        <ele>451.3</ele>
        <time>2026-05-15T12:44:36.153000Z</time>
      </trkpt>
      <trkpt lat="48.417487" lon="10.821746">
        <ele>451.3</ele>
        <time>2026-05-15T12:45:33.786000Z</time>
      </trkpt>
      <trkpt lat="48.417304" lon="10.821426">
        <ele>451.3</ele>
        <time>2026-05-15T12:46:01.948000Z</time>
      </trkpt>
      <trkpt lat="48.41727" lon="10.821318">
        <ele>451.3</ele>
        <time>2026-05-15T12:46:09.905000Z</time>
      </trkpt>
      <trkpt lat="48.417332" lon="10.821076">
        <ele>451.3</ele>
        <time>2026-05-15T12:46:27.187000Z</time>
      </trkpt>
      <trkpt lat="48.417384" lon="10.82098">
        <ele>451.3</ele>
        <time>2026-05-15T12:46:35.508000Z</time>
      </trkpt>
      <trkpt lat="48.417471" lon="10.820848">
        <ele>451.3</ele>
        <time>2026-05-15T12:46:47.830000Z</time>
      </trkpt>
      <trkpt lat="48.417527" lon="10.820779">
        <ele>451.3</ele>
        <time>2026-05-15T12:46:55.058000Z</time>
      </trkpt>
      <trkpt lat="48.417612" lon="10.820954">
        <ele>451.3</ele>
        <time>2026-05-15T12:47:09.510000Z</time>
      </trkpt>
      <trkpt lat="48.417696" lon="10.821012">
        <ele>451.3</ele>
        <time>2026-05-15T12:47:18.853000Z</time>
      </trkpt>
      <trkpt lat="48.417792" lon="10.820939">
        <ele>451.3</ele>
        <time>2026-05-15T12:47:29.644000Z</time>
      </trkpt>
      <trkpt lat="48.417696" lon="10.821012">
        <ele>451.2</ele>
        <time>2026-05-15T12:47:40.444000Z</time>
      </trkpt>
      <trkpt lat="48.417612" lon="10.820954">
        <ele>451.2</ele>
        <time>2026-05-15T12:47:49.807000Z</time>
      </trkpt>
      <trkpt lat="48.417527" lon="10.820779">
        <ele>451.1</ele>
        <time>2026-05-15T12:48:04.310000Z</time>
      </trkpt>
      <trkpt lat="48.417619" lon="10.820671">
        <ele>451.1</ele>
        <time>2026-05-15T12:48:16.104000Z</time>
      </trkpt>
      <trkpt lat="48.417623" lon="10.820666">
        <ele>451.1</ele>
        <time>2026-05-15T12:48:16.627000Z</time>
      </trkpt>
      <trkpt lat="48.417933" lon="10.820301">
        <ele>451</ele>
        <time>2026-05-15T12:48:56.283000Z</time>
      </trkpt>
      <trkpt lat="48.418106" lon="10.820095">
        <ele>450.9</ele>
        <time>2026-05-15T12:49:18.367000Z</time>
      </trkpt>
      <trkpt lat="48.418192" lon="10.819935">
        <ele>450.9</ele>
        <time>2026-05-15T12:49:32.122000Z</time>
      </trkpt>
      <trkpt lat="48.418281" lon="10.819415">
        <ele>450.9</ele>
        <time>2026-05-15T12:50:07.882000Z</time>
      </trkpt>
      <trkpt lat="48.418443" lon="10.817398">
        <ele>452</ele>
        <time>2026-05-15T12:52:26.730000Z</time>
      </trkpt>
      <trkpt lat="48.418598" lon="10.815604">
        <ele>454.8</ele>
        <time>2026-05-15T12:54:36.677000Z</time>
      </trkpt>
      <trkpt lat="48.418668" lon="10.815483">
        <ele>455</ele>
        <time>2026-05-15T12:54:48.256000Z</time>
      </trkpt>
      <trkpt lat="48.418436" lon="10.815014">
        <ele>456.1</ele>
        <time>2026-05-15T12:55:30.820000Z</time>
      </trkpt>
      <trkpt lat="48.418374" lon="10.814822">
        <ele>456.9</ele>
        <time>2026-05-15T12:55:47.695000Z</time>
      </trkpt>
      <trkpt lat="48.417562" lon="10.815106">
        <ele>463.1</ele>
        <time>2026-05-15T12:57:32.453000Z</time>
      </trkpt>
      <trkpt lat="48.417479" lon="10.81503">
        <ele>463.9</ele>
        <time>2026-05-15T12:57:44.928000Z</time>
      </trkpt>
      <trkpt lat="48.417431" lon="10.814819">
        <ele>465.2</ele>
        <time>2026-05-15T12:58:03.906000Z</time>
      </trkpt>
      <trkpt lat="48.417436" lon="10.814336">
        <ele>467.9</ele>
        <time>2026-05-15T12:58:45.111000Z</time>
      </trkpt>
      <trkpt lat="48.417344" lon="10.813353">
        <ele>474.4</ele>
        <time>2026-05-15T13:00:12.959000Z</time>
      </trkpt>
      <trkpt lat="48.417316" lon="10.813063">
        <ele>476.2</ele>
        <time>2026-05-15T13:00:38.411000Z</time>
      </trkpt>
      <trkpt lat="48.417296" lon="10.812862">
        <ele>477.2</ele>
        <time>2026-05-15T13:00:55.539000Z</time>
      </trkpt>
      <trkpt lat="48.417184" lon="10.812306">
        <ele>480</ele>
        <time>2026-05-15T13:01:43.810000Z</time>
      </trkpt>
      <trkpt lat="48.417002" lon="10.81177">
        <ele>483.1</ele>
        <time>2026-05-15T13:02:34.191000Z</time>
      </trkpt>
      <trkpt lat="48.416689" lon="10.811186">
        <ele>486.8</ele>
        <time>2026-05-15T13:03:36.781000Z</time>
      </trkpt>
      <trkpt lat="48.416514" lon="10.810739">
        <ele>489</ele>
        <time>2026-05-15T13:04:18.714000Z</time>
      </trkpt>
      <trkpt lat="48.416389" lon="10.810334">
        <ele>490.5</ele>
        <time>2026-05-15T13:04:53.544000Z</time>
      </trkpt>
      <trkpt lat="48.416338" lon="10.810028">
        <ele>491.4</ele>
        <time>2026-05-15T13:05:17.762000Z</time>
      </trkpt>
      <trkpt lat="48.416279" lon="10.8103">
        <ele>492.1</ele>
        <time>2026-05-15T13:05:39.287000Z</time>
      </trkpt>
      <trkpt lat="48.416206" lon="10.810636">
        <ele>492.9</ele>
        <time>2026-05-15T13:06:05.477000Z</time>
      </trkpt>
      <trkpt lat="48.416241" lon="10.81128">
        <ele>494</ele>
        <time>2026-05-15T13:06:52.318000Z</time>
      </trkpt>
      <trkpt lat="48.416352" lon="10.812138">
        <ele>494.4</ele>
        <time>2026-05-15T13:07:51.903000Z</time>
      </trkpt>
      <trkpt lat="48.416409" lon="10.812573">
        <ele>494.1</ele>
        <time>2026-05-15T13:08:22.043000Z</time>
      </trkpt>
      <trkpt lat="48.416384" lon="10.812998">
        <ele>493.3</ele>
        <time>2026-05-15T13:08:52.105000Z</time>
      </trkpt>
      <trkpt lat="48.416406" lon="10.813168">
        <ele>492.8</ele>
        <time>2026-05-15T13:09:04.561000Z</time>
      </trkpt>
      <trkpt lat="48.416534" lon="10.813558">
        <ele>491.2</ele>
        <time>2026-05-15T13:09:36.777000Z</time>
      </trkpt>
      <trkpt lat="48.416557" lon="10.813704">
        <ele>490.5</ele>
        <time>2026-05-15T13:09:48.084000Z</time>
      </trkpt>
      <trkpt lat="48.416578" lon="10.814119">
        <ele>488.3</ele>
        <time>2026-05-15T13:10:20.079000Z</time>
      </trkpt>
      <trkpt lat="48.416554" lon="10.814276">
        <ele>487.4</ele>
        <time>2026-05-15T13:10:32.664000Z</time>
      </trkpt>
      <trkpt lat="48.416429" lon="10.814471">
        <ele>485.8</ele>
        <time>2026-05-15T13:10:53.847000Z</time>
      </trkpt>
      <trkpt lat="48.416224" lon="10.814594">
        <ele>483.8</ele>
        <time>2026-05-15T13:11:19.882000Z</time>
      </trkpt>
      <trkpt lat="48.415848" lon="10.815017">
        <ele>480.6</ele>
        <time>2026-05-15T13:12:13.356000Z</time>
      </trkpt>
      <trkpt lat="48.415763" lon="10.815071">
        <ele>480.1</ele>
        <time>2026-05-15T13:12:23.496000Z</time>
      </trkpt>
      <trkpt lat="48.415637" lon="10.815088">
        <ele>479.6</ele>
        <time>2026-05-15T13:12:37.259000Z</time>
      </trkpt>
      <trkpt lat="48.415551" lon="10.815065">
        <ele>479.3</ele>
        <time>2026-05-15T13:12:46.607000Z</time>
      </trkpt>
      <trkpt lat="48.415533" lon="10.815061">
        <ele>479.2</ele>
        <time>2026-05-15T13:12:48.485000Z</time>
      </trkpt>
      <trkpt lat="48.415426" lon="10.814946">
        <ele>479</ele>
        <time>2026-05-15T13:13:02.263000Z</time>
      </trkpt>
      <trkpt lat="48.415251" lon="10.814546">
        <ele>478.8</ele>
        <time>2026-05-15T13:13:34.310000Z</time>
      </trkpt>
      <trkpt lat="48.415083" lon="10.813793">
        <ele>480.1</ele>
        <time>2026-05-15T13:14:31.521000Z</time>
      </trkpt>
      <trkpt lat="48.414959" lon="10.813499">
        <ele>481</ele>
        <time>2026-05-15T13:14:57.969000Z</time>
      </trkpt>
      <trkpt lat="48.414757" lon="10.813287">
        <ele>482.2</ele>
        <time>2026-05-15T13:15:26.690000Z</time>
      </trkpt>
      <trkpt lat="48.413918" lon="10.813005">
        <ele>486.6</ele>
        <time>2026-05-15T13:17:07.881000Z</time>
      </trkpt>
      <trkpt lat="48.41382" lon="10.812904">
        <ele>487.2</ele>
        <time>2026-05-15T13:17:22.017000Z</time>
      </trkpt>
      <trkpt lat="48.413724" lon="10.812676">
        <ele>488.2</ele>
        <time>2026-05-15T13:17:43.415000Z</time>
      </trkpt>
      <trkpt lat="48.413668" lon="10.812445">
        <ele>489.2</ele>
        <time>2026-05-15T13:18:02.964000Z</time>
      </trkpt>
      <trkpt lat="48.41366" lon="10.81204">
        <ele>490.8</ele>
        <time>2026-05-15T13:18:35.556000Z</time>
      </trkpt>
      <trkpt lat="48.413749" lon="10.811101">
        <ele>495</ele>
        <time>2026-05-15T13:19:53.084000Z</time>
      </trkpt>
      <trkpt lat="48.413722" lon="10.810767">
        <ele>496.7</ele>
        <time>2026-05-15T13:20:21.244000Z</time>
      </trkpt>
      <trkpt lat="48.413456" lon="10.810002">
        <ele>501.4</ele>
        <time>2026-05-15T13:21:34.608000Z</time>
      </trkpt>
      <trkpt lat="48.413401" lon="10.809723">
        <ele>503.1</ele>
        <time>2026-05-15T13:21:59.402000Z</time>
      </trkpt>
      <trkpt lat="48.413426" lon="10.808963">
        <ele>507.4</ele>
        <time>2026-05-15T13:23:04.827000Z</time>
      </trkpt>
      <trkpt lat="48.413855" lon="10.807851">
        <ele>514.3</ele>
        <time>2026-05-15T13:24:53.617000Z</time>
      </trkpt>
      <trkpt lat="48.413977" lon="10.80738">
        <ele>516.4</ele>
        <time>2026-05-15T13:25:34.451000Z</time>
      </trkpt>
      <trkpt lat="48.414055" lon="10.806669">
        <ele>518.1</ele>
        <time>2026-05-15T13:26:28.314000Z</time>
      </trkpt>
      <trkpt lat="48.414075" lon="10.805831">
        <ele>518.2</ele>
        <time>2026-05-15T13:27:24.325000Z</time>
      </trkpt>
      <trkpt lat="48.414045" lon="10.805034">
        <ele>516.7</ele>
        <time>2026-05-15T13:28:20.502000Z</time>
      </trkpt>
      <trkpt lat="48.41403" lon="10.804459">
        <ele>514.8</ele>
        <time>2026-05-15T13:29:02.689000Z</time>
      </trkpt>
      <trkpt lat="48.413988" lon="10.804199">
        <ele>513.6</ele>
        <time>2026-05-15T13:29:22.839000Z</time>
      </trkpt>
      <trkpt lat="48.413389" lon="10.804514">
        <ele>508.8</ele>
        <time>2026-05-15T13:30:35.878000Z</time>
      </trkpt>
      <trkpt lat="48.413184" lon="10.804693">
        <ele>506.9</ele>
        <time>2026-05-15T13:31:03.394000Z</time>
      </trkpt>
      <trkpt lat="48.413139" lon="10.804733">
        <ele>506.5</ele>
        <time>2026-05-15T13:31:09.447000Z</time>
      </trkpt>
      <trkpt lat="48.412971" lon="10.80501">
        <ele>504.5</ele>
        <time>2026-05-15T13:31:38.530000Z</time>
      </trkpt>
      <trkpt lat="48.412761" lon="10.805232">
        <ele>502.3</ele>
        <time>2026-05-15T13:32:08.388000Z</time>
      </trkpt>
      <trkpt lat="48.412548" lon="10.805281">
        <ele>500.6</ele>
        <time>2026-05-15T13:32:33.490000Z</time>
      </trkpt>
      <trkpt lat="48.412181" lon="10.805242">
        <ele>497.8</ele>
        <time>2026-05-15T13:33:15.934000Z</time>
      </trkpt>
      <trkpt lat="48.411986" lon="10.805371">
        <ele>496.2</ele>
        <time>2026-05-15T13:33:40.337000Z</time>
      </trkpt>
      <trkpt lat="48.411681" lon="10.805901">
        <ele>493.2</ele>
        <time>2026-05-15T13:34:32.991000Z</time>
      </trkpt>
      <trkpt lat="48.411272" lon="10.80638">
        <ele>490.2</ele>
        <time>2026-05-15T13:35:30.931000Z</time>
      </trkpt>
      <trkpt lat="48.410758" lon="10.806846">
        <ele>487.5</ele>
        <time>2026-05-15T13:36:36.534000Z</time>
      </trkpt>
      <trkpt lat="48.410486" lon="10.807782">
        <ele>485.6</ele>
        <time>2026-05-15T13:37:48.121000Z</time>
      </trkpt>
      <trkpt lat="48.409801" lon="10.807918">
        <ele>483.7</ele>
        <time>2026-05-15T13:39:01.303000Z</time>
      </trkpt>
      <trkpt lat="48.408915" lon="10.807985">
        <ele>479</ele>
        <time>2026-05-15T13:40:39.710000Z</time>
      </trkpt>
      <trkpt lat="48.408628" lon="10.808062">
        <ele>476.7</ele>
        <time>2026-05-15T13:41:13.470000Z</time>
      </trkpt>
      <trkpt lat="48.408419" lon="10.808047">
        <ele>475</ele>
        <time>2026-05-15T13:41:37.720000Z</time>
      </trkpt>
      <trkpt lat="48.408263" lon="10.808072">
        <ele>473.8</ele>
        <time>2026-05-15T13:41:55.815000Z</time>
      </trkpt>
      <trkpt lat="48.407935" lon="10.80834">
        <ele>471.1</ele>
        <time>2026-05-15T13:42:38.532000Z</time>
      </trkpt>
      <trkpt lat="48.407006" lon="10.80902">
        <ele>468</ele>
        <time>2026-05-15T13:44:28.317000Z</time>
      </trkpt>
      <trkpt lat="48.407246" lon="10.809491">
        <ele>468.1</ele>
        <time>2026-05-15T13:45:08.350000Z</time>
      </trkpt>
      <trkpt lat="48.407337" lon="10.80967">
        <ele>468.2</ele>
        <time>2026-05-15T13:45:23.533000Z</time>
      </trkpt>
      <trkpt lat="48.407494" lon="10.810061">
        <ele>468.3</ele>
        <time>2026-05-15T13:45:54.368000Z</time>
      </trkpt>
      <trkpt lat="48.407558" lon="10.810217">
        <ele>468.4</ele>
        <time>2026-05-15T13:46:06.662000Z</time>
      </trkpt>
      <trkpt lat="48.407712" lon="10.810484">
        <ele>468.5</ele>
        <time>2026-05-15T13:46:30.525000Z</time>
      </trkpt>
      <trkpt lat="48.408487" lon="10.811516">
        <ele>467.6</ele>
        <time>2026-05-15T13:48:15.828000Z</time>
      </trkpt>
      <trkpt lat="48.408659" lon="10.811649">
        <ele>467.4</ele>
        <time>2026-05-15T13:48:35.590000Z</time>
      </trkpt>
      <trkpt lat="48.409667" lon="10.81214">
        <ele>466.8</ele>
        <time>2026-05-15T13:50:22.953000Z</time>
      </trkpt>
      <trkpt lat="48.409979" lon="10.812241">
        <ele>467</ele>
        <time>2026-05-15T13:50:55.785000Z</time>
      </trkpt>
      <trkpt lat="48.410559" lon="10.812342">
        <ele>467.5</ele>
        <time>2026-05-15T13:51:56.070000Z</time>
      </trkpt>
      <trkpt lat="48.410896" lon="10.812292">
        <ele>467.1</ele>
        <time>2026-05-15T13:52:30.712000Z</time>
      </trkpt>
      <trkpt lat="48.411111" lon="10.812256">
        <ele>466.7</ele>
        <time>2026-05-15T13:52:53.174000Z</time>
      </trkpt>
      <trkpt lat="48.411189" lon="10.812285">
        <ele>466.5</ele>
        <time>2026-05-15T13:53:01.640000Z</time>
      </trkpt>
      <trkpt lat="48.411882" lon="10.813">
        <ele>463.9</ele>
        <time>2026-05-15T13:54:31.106000Z</time>
      </trkpt>
      <trkpt lat="48.412331" lon="10.813348">
        <ele>460.7</ele>
        <time>2026-05-15T13:55:27.995000Z</time>
      </trkpt>
      <trkpt lat="48.412382" lon="10.813492">
        <ele>460.1</ele>
        <time>2026-05-15T13:55:40.192000Z</time>
      </trkpt>
      <trkpt lat="48.412625" lon="10.813844">
        <ele>458.3</ele>
        <time>2026-05-15T13:56:17.579000Z</time>
      </trkpt>
      <trkpt lat="48.413014" lon="10.814224">
        <ele>456.4</ele>
        <time>2026-05-15T13:57:07.714000Z</time>
      </trkpt>
      <trkpt lat="48.413629" lon="10.814929">
        <ele>454.3</ele>
        <time>2026-05-15T13:58:29.370000Z</time>
      </trkpt>
      <trkpt lat="48.413711" lon="10.815073">
        <ele>454.1</ele>
        <time>2026-05-15T13:58:42.466000Z</time>
      </trkpt>
      <trkpt lat="48.41385" lon="10.815526">
        <ele>453.7</ele>
        <time>2026-05-15T13:59:16.494000Z</time>
      </trkpt>
      <trkpt lat="48.413829" lon="10.815549">
        <ele>453.7</ele>
        <time>2026-05-15T13:59:19.208000Z</time>
      </trkpt>
      <trkpt lat="48.413705" lon="10.815654">
        <ele>453.6</ele>
        <time>2026-05-15T13:59:33.721000Z</time>
      </trkpt>
      <trkpt lat="48.413533" lon="10.815877">
        <ele>453.4</ele>
        <time>2026-05-15T13:59:56.742000Z</time>
      </trkpt>
      <trkpt lat="48.413519" lon="10.815906">
        <ele>453.3</ele>
        <time>2026-05-15T13:59:59.197000Z</time>
      </trkpt>
      <trkpt lat="48.413485" lon="10.815976">
        <ele>453.3</ele>
        <time>2026-05-15T14:00:05.105000Z</time>
      </trkpt>
      <trkpt lat="48.413462" lon="10.816096">
        <ele>453.2</ele>
        <time>2026-05-15T14:00:13.510000Z</time>
      </trkpt>
      <trkpt lat="48.413481" lon="10.816321">
        <ele>453.1</ele>
        <time>2026-05-15T14:00:28.767000Z</time>
      </trkpt>
      <trkpt lat="48.413525" lon="10.816434">
        <ele>453.1</ele>
        <time>2026-05-15T14:00:37.589000Z</time>
      </trkpt>
      <trkpt lat="48.41375" lon="10.816739">
        <ele>452.8</ele>
        <time>2026-05-15T14:01:08.377000Z</time>
      </trkpt>
      <trkpt lat="48.413817" lon="10.816873">
        <ele>452.8</ele>
        <time>2026-05-15T14:01:19.654000Z</time>
      </trkpt>
      <trkpt lat="48.41397" lon="10.817594">
        <ele>452.5</ele>
        <time>2026-05-15T14:02:10.496000Z</time>
      </trkpt>
      <trkpt lat="48.414007" lon="10.81799">
        <ele>452.4</ele>
        <time>2026-05-15T14:02:37.254000Z</time>
      </trkpt>
      <trkpt lat="48.413958" lon="10.818414">
        <ele>452.3</ele>
        <time>2026-05-15T14:03:05.978000Z</time>
      </trkpt>
      <trkpt lat="48.413839" lon="10.818859">
        <ele>452.3</ele>
        <time>2026-05-15T14:03:37.976000Z</time>
      </trkpt>
      <trkpt lat="48.413802" lon="10.819085">
        <ele>452.3</ele>
        <time>2026-05-15T14:03:53.424000Z</time>
      </trkpt>
      <trkpt lat="48.413779" lon="10.819495">
        <ele>452.3</ele>
        <time>2026-05-15T14:04:20.887000Z</time>
      </trkpt>
      <trkpt lat="48.413748" lon="10.819632">
        <ele>452.3</ele>
        <time>2026-05-15T14:04:30.523000Z</time>
      </trkpt>
      <trkpt lat="48.413672" lon="10.819894">
        <ele>452.4</ele>
        <time>2026-05-15T14:04:49.726000Z</time>
      </trkpt>
      <trkpt lat="48.413429" lon="10.821481">
        <ele>453</ele>
        <time>2026-05-15T14:06:40.188000Z</time>
      </trkpt>
      <trkpt lat="48.413395" lon="10.821838">
        <ele>453.3</ele>
        <time>2026-05-15T14:07:05.245000Z</time>
      </trkpt>
      <trkpt lat="48.413253" lon="10.824058">
        <ele>456.3</ele>
        <time>2026-05-15T14:09:43.998000Z</time>
      </trkpt>
      <trkpt lat="48.413233" lon="10.824468">
        <ele>457</ele>
        <time>2026-05-15T14:10:13.610000Z</time>
      </trkpt>
      <trkpt lat="48.413215" lon="10.824848">
        <ele>457.5</ele>
        <time>2026-05-15T14:10:40.934000Z</time>
      </trkpt>
      <trkpt lat="48.413129" lon="10.824961">
        <ele>457.8</ele>
        <time>2026-05-15T14:10:53.177000Z</time>
      </trkpt>
      <trkpt lat="48.412933" lon="10.825364">
        <ele>458.4</ele>
        <time>2026-05-15T14:11:28.574000Z</time>
      </trkpt>
      <trkpt lat="48.412924" lon="10.825389">
        <ele>458.4</ele>
        <time>2026-05-15T14:11:30.529000Z</time>
      </trkpt>
    </trkseg>
  </trk>
</gpx>