<?xml version="1.0" encoding="UTF-8"?>
<gpx xmlns="http://www.topografix.com/GPX/1/1" xmlns:xsi="http://www.w3.org/2001/XMLSchema-instance" xsi:schemaLocation="http://www.topografix.com/GPX/1/1 http://www.topografix.com/GPX/1/1/gpx.xsd" version="1.1" creator="Robert Kampf">
  <metadata>
    <name>Blick durch das Ofenrohr – Bank am Feldrand Runde von Haspelmoor</name>
    <desc>Distance: 4.636km, Estimated duration: 1.2h, Elevation up: 26.99171651659799m, Elevation down: 26.95259101275974m, Grade: easy</desc>
    <author>
      <name>Robert Kampf</name>
      <link href="https://www.komoot.de/user/4125295338453">
        <text>View Robert Kampf's Profile on Komoot</text>
      </link>
    </author>
    <link href="https://www.komoot.de/tour/2716066968">
      <text>View tour on Komoot</text>
    </link>
  </metadata>
  <wpt lat="48.223269" lon="11.098292">
    <name>Haspelmoor</name>
    <cmt></cmt>
    <desc></desc>
    <src>Komoot</src>
    <type>POI</type>
  </wpt>
  <wpt lat="48.223366" lon="11.098763">
    <ele>582.3</ele>
    <name>Children's Mural in the Underpass</name>
    <cmt>https://d2exd72xrrp1s7.cloudfront.net/www/000/1k7/uv/uvzzzdsdu8z537lg8szm0oq4h1i6n3e-uhi57607016/0</cmt>
    <desc>RITTER MARTON 🐑 🐿: Super schön gemacht Kompliment
――――――――――
RITTER MARTON 🐑 🐿: Super gemacht Kompliment</desc>
    <src>Komoot</src>
    <link href="https://www.komoot.de/highlight/5284113">
      <text>View POI on Komoot</text>
    </link>
    <type>Highlight</type>
  </wpt>
  <wpt lat="48.223668" lon="11.099919">
    <ele>589.7</ele>
    <name>Haspelmoor Playground</name>
    <cmt>https://d2exd72xrrp1s7.cloudfront.net/www/000/1k8/1i/1ip04zt6qnefi1szs2udwkogcu563n1npq-uhi80515269/0</cmt>
    <desc>Jutta: Großzügiger Spielplatz in Haspelmoor mit langer Rutsche, Klettergerüst und vielem mehr
――――――――――
Michael: Großer Spielplatz im Schatten</desc>
    <src>Komoot</src>
    <link href="https://www.komoot.de/highlight/7122154">
      <text>View POI on Komoot</text>
    </link>
    <type>Highlight</type>
  </wpt>
  <wpt lat="48.233843" lon="11.107666">
    <ele>557</ele>
    <name>View Through the Ofenrohr</name>
    <cmt>https://d2exd72xrrp1s7.cloudfront.net/www/000/1k5/i3/i3s9zt0zfgble9cmzbidlpbi3rcze4j9-uhi32751201/0</cmt>
    <desc>Daniel: Bei schönem Wetter hat man von hieraus einen tollen Blick auf die Berge. Hast’ nichts gesehen, dann hast‘ wohl mit‘m Ofenrohr ins Gebirg‘ g’schaut.
――――――――――
Sabine Joos: Schöner Blick ins Land mit einer Panoramatafel die die markantesten Punkte markiert/beschreibt.</desc>
    <src>Komoot</src>
    <link href="https://www.komoot.de/highlight/7174658">
      <text>View POI on Komoot</text>
    </link>
    <type>Highlight</type>
  </wpt>
  <wpt lat="48.226914" lon="11.107451">
    <ele>598.1</ele>
    <name>Bench by the Field Edge</name>
    <cmt>https://d2exd72xrrp1s7.cloudfront.net/www/000/1k4/k7/k76kklilf34ud22fwxrdvpni3jjsb8g7-uhi24306206/0</cmt>
    <desc></desc>
    <src>Komoot</src>
    <link href="https://www.komoot.de/highlight/2727981">
      <text>View POI on Komoot</text>
    </link>
    <type>Highlight</type>
  </wpt>
  <trk>
    <name>Blick durch das Ofenrohr – Bank am Feldrand Runde von Haspelmoor</name>
    <desc>Distance: 4.636km, Estimated duration: 1.2h, Elevation up: 26.99171651659799m, Elevation down: 26.95259101275974m, Grade: easy</desc>
    <link href="https://www.komoot.de/tour/2716066968">
      <text>View tour on Komoot</text>
    </link>
    <trkseg>
      <trkpt lat="48.223223" lon="11.098324">
        <ele>542.2</ele>
        <time>2025-12-14T13:18:12.862000Z</time>
      </trkpt>
      <trkpt lat="48.223252" lon="11.098349">
        <ele>542.2</ele>
        <time>2025-12-14T13:18:16.187000Z</time>
      </trkpt>
      <trkpt lat="48.223232" lon="11.098403">
        <ele>542.2</ele>
        <time>2025-12-14T13:18:20.290000Z</time>
      </trkpt>
      <trkpt lat="48.223192" lon="11.098514">
        <ele>542.2</ele>
        <time>2025-12-14T13:18:28.759000Z</time>
      </trkpt>
      <trkpt lat="48.223173" lon="11.098567">
        <ele>542.2</ele>
        <time>2025-12-14T13:18:32.785000Z</time>
      </trkpt>
      <trkpt lat="48.223364" lon="11.098724">
        <ele>542.1</ele>
        <time>2025-12-14T13:18:54.654000Z</time>
      </trkpt>
      <trkpt lat="48.223353" lon="11.098755">
        <ele>542.1</ele>
        <time>2025-12-14T13:18:57.005000Z</time>
      </trkpt>
      <trkpt lat="48.223307" lon="11.098882">
        <ele>542.2</ele>
        <time>2025-12-14T13:19:06.647000Z</time>
      </trkpt>
      <trkpt lat="48.223278" lon="11.098957">
        <ele>542.2</ele>
        <time>2025-12-14T13:19:12.415000Z</time>
      </trkpt>
      <trkpt lat="48.223299" lon="11.098974">
        <ele>542.2</ele>
        <time>2025-12-14T13:19:14.778000Z</time>
      </trkpt>
      <trkpt lat="48.223373" lon="11.098769">
        <ele>542.2</ele>
        <time>2025-12-14T13:19:30.449000Z</time>
      </trkpt>
      <trkpt lat="48.223299" lon="11.098974">
        <ele>542.2</ele>
        <time>2025-12-14T13:19:46.077000Z</time>
      </trkpt>
      <trkpt lat="48.223238" lon="11.099144">
        <ele>542.2</ele>
        <time>2025-12-14T13:19:58.996000Z</time>
      </trkpt>
      <trkpt lat="48.223308" lon="11.099204">
        <ele>542.3</ele>
        <time>2025-12-14T13:20:07.195000Z</time>
      </trkpt>
      <trkpt lat="48.223329" lon="11.099172">
        <ele>542.3</ele>
        <time>2025-12-14T13:20:10.254000Z</time>
      </trkpt>
      <trkpt lat="48.223669" lon="11.099435">
        <ele>542.6</ele>
        <time>2025-12-14T13:20:49.616000Z</time>
      </trkpt>
      <trkpt lat="48.22368" lon="11.099601">
        <ele>542.7</ele>
        <time>2025-12-14T13:21:01.196000Z</time>
      </trkpt>
      <trkpt lat="48.223593" lon="11.099862">
        <ele>543</ele>
        <time>2025-12-14T13:21:21.593000Z</time>
      </trkpt>
      <trkpt lat="48.22368" lon="11.099601">
        <ele>543.2</ele>
        <time>2025-12-14T13:21:41.994000Z</time>
      </trkpt>
      <trkpt lat="48.223707" lon="11.099624">
        <ele>543.3</ele>
        <time>2025-12-14T13:21:45.254000Z</time>
      </trkpt>
      <trkpt lat="48.224243" lon="11.100082">
        <ele>544.1</ele>
        <time>2025-12-14T13:22:50.028000Z</time>
      </trkpt>
      <trkpt lat="48.224423" lon="11.100756">
        <ele>544.8</ele>
        <time>2025-12-14T13:23:40.806000Z</time>
      </trkpt>
      <trkpt lat="48.22446" lon="11.100787">
        <ele>544.8</ele>
        <time>2025-12-14T13:23:45.215000Z</time>
      </trkpt>
      <trkpt lat="48.224494" lon="11.100825">
        <ele>544.9</ele>
        <time>2025-12-14T13:23:49.576000Z</time>
      </trkpt>
      <trkpt lat="48.224506" lon="11.100844">
        <ele>544.9</ele>
        <time>2025-12-14T13:23:51.432000Z</time>
      </trkpt>
      <trkpt lat="48.224808" lon="11.100731">
        <ele>545.2</ele>
        <time>2025-12-14T13:24:23.508000Z</time>
      </trkpt>
      <trkpt lat="48.224962" lon="11.10064">
        <ele>545.2</ele>
        <time>2025-12-14T13:24:40.229000Z</time>
      </trkpt>
      <trkpt lat="48.225259" lon="11.100876">
        <ele>545.1</ele>
        <time>2025-12-14T13:25:13.956000Z</time>
      </trkpt>
      <trkpt lat="48.225573" lon="11.101112">
        <ele>544.8</ele>
        <time>2025-12-14T13:25:49.747000Z</time>
      </trkpt>
      <trkpt lat="48.225773" lon="11.100937">
        <ele>544.5</ele>
        <time>2025-12-14T13:26:13.688000Z</time>
      </trkpt>
      <trkpt lat="48.225997" lon="11.101104">
        <ele>544</ele>
        <time>2025-12-14T13:26:39.752000Z</time>
      </trkpt>
      <trkpt lat="48.226353" lon="11.101208">
        <ele>543.1</ele>
        <time>2025-12-14T13:27:17.790000Z</time>
      </trkpt>
      <trkpt lat="48.226911" lon="11.101266">
        <ele>541.7</ele>
        <time>2025-12-14T13:28:16.678000Z</time>
      </trkpt>
      <trkpt lat="48.227153" lon="11.101353">
        <ele>541.2</ele>
        <time>2025-12-14T13:28:42.688000Z</time>
      </trkpt>
      <trkpt lat="48.227312" lon="11.10132">
        <ele>540.8</ele>
        <time>2025-12-14T13:28:59.477000Z</time>
      </trkpt>
      <trkpt lat="48.227599" lon="11.101123">
        <ele>540.2</ele>
        <time>2025-12-14T13:29:32.373000Z</time>
      </trkpt>
      <trkpt lat="48.228259" lon="11.099689">
        <ele>539.1</ele>
        <time>2025-12-14T13:31:30.827000Z</time>
      </trkpt>
      <trkpt lat="48.228323" lon="11.099704">
        <ele>539.1</ele>
        <time>2025-12-14T13:31:37.407000Z</time>
      </trkpt>
      <trkpt lat="48.22945" lon="11.100814">
        <ele>538.8</ele>
        <time>2025-12-14T13:33:52.903000Z</time>
      </trkpt>
      <trkpt lat="48.22992" lon="11.100015">
        <ele>539.3</ele>
        <time>2025-12-14T13:35:05.494000Z</time>
      </trkpt>
      <trkpt lat="48.230023" lon="11.099892">
        <ele>539.4</ele>
        <time>2025-12-14T13:35:19.025000Z</time>
      </trkpt>
      <trkpt lat="48.230551" lon="11.099455">
        <ele>539.8</ele>
        <time>2025-12-14T13:36:21.005000Z</time>
      </trkpt>
      <trkpt lat="48.230914" lon="11.098971">
        <ele>540.1</ele>
        <time>2025-12-14T13:37:10.596000Z</time>
      </trkpt>
      <trkpt lat="48.231155" lon="11.09874">
        <ele>540.3</ele>
        <time>2025-12-14T13:37:40.112000Z</time>
      </trkpt>
      <trkpt lat="48.231386" lon="11.098665">
        <ele>540.6</ele>
        <time>2025-12-14T13:38:04.724000Z</time>
      </trkpt>
      <trkpt lat="48.231498" lon="11.099287">
        <ele>541.2</ele>
        <time>2025-12-14T13:38:49.876000Z</time>
      </trkpt>
      <trkpt lat="48.232694" lon="11.101599">
        <ele>546.5</ele>
        <time>2025-12-14T13:42:23.666000Z</time>
      </trkpt>
      <trkpt lat="48.23489" lon="11.105486">
        <ele>550.7</ele>
        <time>2025-12-14T13:48:18.282000Z</time>
      </trkpt>
      <trkpt lat="48.234935" lon="11.105629">
        <ele>551</ele>
        <time>2025-12-14T13:48:29.931000Z</time>
      </trkpt>
      <trkpt lat="48.23492" lon="11.105864">
        <ele>551.5</ele>
        <time>2025-12-14T13:48:47.463000Z</time>
      </trkpt>
      <trkpt lat="48.234831" lon="11.106098">
        <ele>552.1</ele>
        <time>2025-12-14T13:49:07.501000Z</time>
      </trkpt>
      <trkpt lat="48.234693" lon="11.106355">
        <ele>552.8</ele>
        <time>2025-12-14T13:49:31.889000Z</time>
      </trkpt>
      <trkpt lat="48.234512" lon="11.10665">
        <ele>553.6</ele>
        <time>2025-12-14T13:50:01.481000Z</time>
      </trkpt>
      <trkpt lat="48.2342" lon="11.107276">
        <ele>555</ele>
        <time>2025-12-14T13:50:58.454000Z</time>
      </trkpt>
      <trkpt lat="48.233877" lon="11.107717">
        <ele>555.4</ele>
        <time>2025-12-14T13:51:43.778000Z</time>
      </trkpt>
      <trkpt lat="48.233846" lon="11.107662">
        <ele>555.4</ele>
        <time>2025-12-14T13:51:48.610000Z</time>
      </trkpt>
      <trkpt lat="48.233877" lon="11.107717">
        <ele>555.4</ele>
        <time>2025-12-14T13:51:53.411000Z</time>
      </trkpt>
      <trkpt lat="48.233672" lon="11.10814">
        <ele>554.9</ele>
        <time>2025-12-14T13:52:29.356000Z</time>
      </trkpt>
      <trkpt lat="48.233616" lon="11.108391">
        <ele>554.5</ele>
        <time>2025-12-14T13:52:47.776000Z</time>
      </trkpt>
      <trkpt lat="48.23262" lon="11.108092">
        <ele>551.5</ele>
        <time>2025-12-14T13:54:35.564000Z</time>
      </trkpt>
      <trkpt lat="48.230396" lon="11.108475">
        <ele>546.2</ele>
        <time>2025-12-14T13:58:30.622000Z</time>
      </trkpt>
      <trkpt lat="48.229135" lon="11.10869">
        <ele>547.1</ele>
        <time>2025-12-14T14:00:40.871000Z</time>
      </trkpt>
      <trkpt lat="48.226845" lon="11.108987">
        <ele>546.5</ele>
        <time>2025-12-14T14:04:32.131000Z</time>
      </trkpt>
      <trkpt lat="48.226921" lon="11.108351">
        <ele>546</ele>
        <time>2025-12-14T14:05:16.265000Z</time>
      </trkpt>
      <trkpt lat="48.227084" lon="11.107371">
        <ele>545.1</ele>
        <time>2025-12-14T14:06:25.395000Z</time>
      </trkpt>
      <trkpt lat="48.22691" lon="11.107431">
        <ele>544.9</ele>
        <time>2025-12-14T14:06:43.812000Z</time>
      </trkpt>
      <trkpt lat="48.227084" lon="11.107371">
        <ele>544.6</ele>
        <time>2025-12-14T14:07:02.213000Z</time>
      </trkpt>
      <trkpt lat="48.227185" lon="11.106157">
        <ele>543.6</ele>
        <time>2025-12-14T14:08:25.925000Z</time>
      </trkpt>
      <trkpt lat="48.227246" lon="11.105904">
        <ele>543.4</ele>
        <time>2025-12-14T14:08:44.356000Z</time>
      </trkpt>
      <trkpt lat="48.227625" lon="11.105346">
        <ele>542.6</ele>
        <time>2025-12-14T14:09:39.008000Z</time>
      </trkpt>
      <trkpt lat="48.227818" lon="11.104966">
        <ele>542.1</ele>
        <time>2025-12-14T14:10:11.857000Z</time>
      </trkpt>
      <trkpt lat="48.228212" lon="11.103957">
        <ele>541</ele>
        <time>2025-12-14T14:11:32.227000Z</time>
      </trkpt>
      <trkpt lat="48.228592" lon="11.103072">
        <ele>540.1</ele>
        <time>2025-12-14T14:12:44.266000Z</time>
      </trkpt>
      <trkpt lat="48.228862" lon="11.102005">
        <ele>539.3</ele>
        <time>2025-12-14T14:14:02.072000Z</time>
      </trkpt>
      <trkpt lat="48.228993" lon="11.101643">
        <ele>539.1</ele>
        <time>2025-12-14T14:14:29.947000Z</time>
      </trkpt>
      <trkpt lat="48.22945" lon="11.100814">
        <ele>538.8</ele>
        <time>2025-12-14T14:15:42.344000Z</time>
      </trkpt>
      <trkpt lat="48.228323" lon="11.099704">
        <ele>539.1</ele>
        <time>2025-12-14T14:17:58.365000Z</time>
      </trkpt>
      <trkpt lat="48.228259" lon="11.099689">
        <ele>539.1</ele>
        <time>2025-12-14T14:18:04.992000Z</time>
      </trkpt>
      <trkpt lat="48.227599" lon="11.101123">
        <ele>540.2</ele>
        <time>2025-12-14T14:20:05.066000Z</time>
      </trkpt>
      <trkpt lat="48.227312" lon="11.10132">
        <ele>540.8</ele>
        <time>2025-12-14T14:20:38.869000Z</time>
      </trkpt>
      <trkpt lat="48.227153" lon="11.101353">
        <ele>541.2</ele>
        <time>2025-12-14T14:20:56.155000Z</time>
      </trkpt>
      <trkpt lat="48.227032" lon="11.10131">
        <ele>541.4</ele>
        <time>2025-12-14T14:21:09.505000Z</time>
      </trkpt>
      <trkpt lat="48.226911" lon="11.101266">
        <ele>541.7</ele>
        <time>2025-12-14T14:21:22.980000Z</time>
      </trkpt>
      <trkpt lat="48.226353" lon="11.101208">
        <ele>543.1</ele>
        <time>2025-12-14T14:22:23.938000Z</time>
      </trkpt>
      <trkpt lat="48.225997" lon="11.101104">
        <ele>544</ele>
        <time>2025-12-14T14:23:03.235000Z</time>
      </trkpt>
      <trkpt lat="48.225773" lon="11.100937">
        <ele>544.5</ele>
        <time>2025-12-14T14:23:30.033000Z</time>
      </trkpt>
      <trkpt lat="48.225573" lon="11.101112">
        <ele>544.8</ele>
        <time>2025-12-14T14:23:54.471000Z</time>
      </trkpt>
      <trkpt lat="48.225259" lon="11.100876">
        <ele>545.1</ele>
        <time>2025-12-14T14:24:30.711000Z</time>
      </trkpt>
      <trkpt lat="48.224962" lon="11.10064">
        <ele>545.2</ele>
        <time>2025-12-14T14:25:04.570000Z</time>
      </trkpt>
      <trkpt lat="48.224808" lon="11.100731">
        <ele>545.2</ele>
        <time>2025-12-14T14:25:21.231000Z</time>
      </trkpt>
      <trkpt lat="48.224506" lon="11.100844">
        <ele>544.9</ele>
        <time>2025-12-14T14:25:52.932000Z</time>
      </trkpt>
      <trkpt lat="48.224494" lon="11.100825">
        <ele>544.9</ele>
        <time>2025-12-14T14:25:54.756000Z</time>
      </trkpt>
      <trkpt lat="48.22446" lon="11.100787">
        <ele>544.8</ele>
        <time>2025-12-14T14:25:59.044000Z</time>
      </trkpt>
      <trkpt lat="48.224423" lon="11.100756">
        <ele>544.8</ele>
        <time>2025-12-14T14:26:03.380000Z</time>
      </trkpt>
      <trkpt lat="48.224243" lon="11.100082">
        <ele>544.1</ele>
        <time>2025-12-14T14:26:53.355000Z</time>
      </trkpt>
      <trkpt lat="48.223707" lon="11.099624">
        <ele>543.2</ele>
        <time>2025-12-14T14:27:56.940000Z</time>
      </trkpt>
      <trkpt lat="48.22368" lon="11.099601">
        <ele>543.1</ele>
        <time>2025-12-14T14:28:00.116000Z</time>
      </trkpt>
      <trkpt lat="48.223669" lon="11.099435">
        <ele>543</ele>
        <time>2025-12-14T14:28:11.532000Z</time>
      </trkpt>
      <trkpt lat="48.223329" lon="11.099172">
        <ele>542.6</ele>
        <time>2025-12-14T14:28:50.661000Z</time>
      </trkpt>
      <trkpt lat="48.223308" lon="11.099204">
        <ele>542.5</ele>
        <time>2025-12-14T14:28:53.728000Z</time>
      </trkpt>
      <trkpt lat="48.223238" lon="11.099144">
        <ele>542.5</ele>
        <time>2025-12-14T14:29:01.996000Z</time>
      </trkpt>
      <trkpt lat="48.223299" lon="11.098974">
        <ele>542.4</ele>
        <time>2025-12-14T14:29:15.025000Z</time>
      </trkpt>
      <trkpt lat="48.223278" lon="11.098957">
        <ele>542.3</ele>
        <time>2025-12-14T14:29:17.405000Z</time>
      </trkpt>
      <trkpt lat="48.223307" lon="11.098882">
        <ele>542.3</ele>
        <time>2025-12-14T14:29:23.217000Z</time>
      </trkpt>
      <trkpt lat="48.223353" lon="11.098755">
        <ele>542.3</ele>
        <time>2025-12-14T14:29:32.932000Z</time>
      </trkpt>
      <trkpt lat="48.223364" lon="11.098724">
        <ele>542.3</ele>
        <time>2025-12-14T14:29:35.298000Z</time>
      </trkpt>
      <trkpt lat="48.223173" lon="11.098567">
        <ele>542.2</ele>
        <time>2025-12-14T14:29:57.239000Z</time>
      </trkpt>
      <trkpt lat="48.223192" lon="11.098514">
        <ele>542.2</ele>
        <time>2025-12-14T14:30:01.275000Z</time>
      </trkpt>
      <trkpt lat="48.223232" lon="11.098403">
        <ele>542.2</ele>
        <time>2025-12-14T14:30:09.730000Z</time>
      </trkpt>
      <trkpt lat="48.223252" lon="11.098349">
        <ele>542.2</ele>
        <time>2025-12-14T14:30:13.825000Z</time>
      </trkpt>
      <trkpt lat="48.223223" lon="11.098324">
        <ele>542.2</ele>
        <time>2025-12-14T14:30:17.144000Z</time>
      </trkpt>
    </trkseg>
  </trk>
</gpx>