<?xml version="1.0" encoding="UTF-8"?>
<gpx xmlns="http://www.topografix.com/GPX/1/1" xmlns:xsi="http://www.w3.org/2001/XMLSchema-instance" xsi:schemaLocation="http://www.topografix.com/GPX/1/1 http://www.topografix.com/GPX/1/1/gpx.xsd" version="1.1" creator="Robert Kampf">
  <metadata>
    <name>Café Lennestübchen – Hotel Haus Hilmeke Runde von Saalhausen</name>
    <desc>Distance: 5.638km, Estimated duration: 1.52h, Elevation up: 72.81440507515526m, Elevation down: 72.81120386411959m, Grade: easy</desc>
    <author>
      <name>Robert Kampf</name>
      <link href="https://www.komoot.de/user/4125295338453">
        <text>View Robert Kampf's Profile on Komoot</text>
      </link>
    </author>
    <link href="https://www.komoot.de/tour/2767832169">
      <text>View tour on Komoot</text>
    </link>
  </metadata>
  <wpt lat="51.117822" lon="8.16666">
    <name>Saalhausen Kirche</name>
    <cmt></cmt>
    <desc>Limited access</desc>
    <src>Komoot</src>
    <type>POI</type>
  </wpt>
  <wpt lat="51.117179" lon="8.165683">
    <ele>358.3</ele>
    <name>Fish Ladder in Naturpark Sauerland-Rothaargebirge</name>
    <cmt>https://d2exd72xrrp1s7.cloudfront.net/www/000/1k7/14/14qp9aht2vuqb26awko605n3x4qc9cxdh-uhi65824516/0</cmt>
    <desc>Ute Böker: Eine gute Lösung für die Fische.</desc>
    <src>Komoot</src>
    <link href="https://www.komoot.de/highlight/6177646">
      <text>View POI on Komoot</text>
    </link>
    <type>Highlight</type>
  </wpt>
  <wpt lat="51.116818" lon="8.165792">
    <ele>312.1</ele>
    <name>Café Heimes</name>
    <cmt>https://d2exd72xrrp1s7.cloudfront.net/www/000/1k4/10/10wa5eo928qe2xgotuydi8deq3fzh9ipv-uhi17415812/0</cmt>
    <desc>KSchlues: Sehr leckere, selbst gemachte Kuchen und guter Kaffee und Cappucino, dazu ein schöner Biergarten - hier machen wir gerne Pause
――――――――――
Udo🌈🚲🌻: Dieses ist noch 🌻ein Haus vom "alten Schlag". Lecker Kuchen in allen Varianten gibt es hier.
Und diese sind🤗 selbstgebacken. Bei gutem Wetter 😎bestimmt gut besucht.
――――――――――
Gudiba🎈🥾: Hier gibt's leckere Torte, Eis und Pralinen
――――――――――
Torsten M. 😃👍🏻: Leckerer Kuchen, unbedingt probieren!
――――――――――
Tom13: Kaffee und Kuchen in Biergarten an malerischer Lennebrücke
――――――――――
Max: Sehr schön für einen Zwischenstop!
――――――――――
Manuela: Leckerer Kuchen und ein gemütliches Ambiente.</desc>
    <src>Komoot</src>
    <link href="https://www.komoot.de/highlight/5813362">
      <text>View POI on Komoot</text>
    </link>
    <type>Highlight</type>
  </wpt>
  <wpt lat="51.11688" lon="8.166329">
    <ele>364</ele>
    <name>View of the Lenne near Saalhausen</name>
    <cmt>https://d2exd72xrrp1s7.cloudfront.net/www/000/1k4/mb/mbncoklv6qjmpu7i9le29esl3dllrdu2-uhi13313294/0</cmt>
    <desc>Olibe: Schöner Blick über die schmale Lenne zum Kirchturm und ins Dorf. Zahlreiche Gänse und Enten halten sich in diesem Bereich auf, was für Kinder sehr reizvoll ist.
――――――――――
Juppi: Ein sehr schöner , kleiner Park mit Spielmöglichkeiten für Kinder
――――――――――
iganzer: Gleich in der Nähe Tassos Dorfschenke, gemütlich und lecker
――――――――――
Frank Rmr: Die Brücke führt hier über die Lenne. Die Lenne ist der wasserreichste Nebenfluss der Ruhr. Die Lennequelle befindet sich unterhalb des Gipfels des Kahlen Astens. Der Fluss mündet nach fast 130km in Hagen in die Ruhr.
――――――――――
Frank 🌳 &amp; Dackel Gustav: Sehr schöne Wandergegend hier.
――――――――――
Ute Böker: Ein schön klarer Bach.</desc>
    <src>Komoot</src>
    <link href="https://www.komoot.de/highlight/429799">
      <text>View POI on Komoot</text>
    </link>
    <type>Highlight</type>
  </wpt>
  <wpt lat="51.117468" lon="8.170928">
    <ele>360.5</ele>
    <name>Saalhausen Spa and Community Center</name>
    <cmt>https://d2exd72xrrp1s7.cloudfront.net/www/000/1k8/1f/1fuch450t2enc1ipseas8gn05156mh867d-uhi80987539/0</cmt>
    <desc>Frank Rmr: Am östlichen Ortsrand von Saalhausen befindet sich das Kur- und Bürgerhaus. Es ist die größte Veranstaltungsstätte Saalhausens mit 2 Sälen und weiteren Konferenz- und Veranstaltungsräumen.
――――――――――
Frank 🌳 &amp; Dackel Gustav: Alle Details und Kontakt hier:
https://www.halle-saalhausen.de/kontakt</desc>
    <src>Komoot</src>
    <link href="https://www.komoot.de/highlight/7146939">
      <text>View POI on Komoot</text>
    </link>
    <type>Highlight</type>
  </wpt>
  <wpt lat="51.119798" lon="8.171054">
    <ele>371</ele>
    <name>Playground and Recreation Area Saalhausen</name>
    <cmt>https://d2exd72xrrp1s7.cloudfront.net/www/000/1k2/7y/7yv63gaym7ubn3hzjbfd8yzo2kkygdga-uhi2560253/0</cmt>
    <desc>Frank 🌳 &amp; Dackel Gustav: Schöner Spielplatz. Großzügige Anlage mit vielfältigen Spielmöglichkeiten. 
――――――――――
Frank 🌳 &amp; Dackel Gustav: Sehr schöne und touristisch gut erschlossene Wandergegend rund um Saalhausen.
――――――――――
Frank 🌳 &amp; Dackel Gustav: Schöne Wandergegend rund um Saalhausen.</desc>
    <src>Komoot</src>
    <link href="https://www.komoot.de/highlight/1442036">
      <text>View POI on Komoot</text>
    </link>
    <type>Highlight</type>
  </wpt>
  <wpt lat="51.125975" lon="8.188465">
    <ele>427</ele>
    <name>Hotel Haus Hilmeke</name>
    <cmt>https://d2exd72xrrp1s7.cloudfront.net/www/000/1k4/13/13fp9a3y4oa3vhyhx7p51lf453i7hq5mo-uhi22057566/0</cmt>
    <desc>Peter: Hotel Haus Hilmeke  - Lecker hausgemachter Kuchen und guter Kaffee.
――――――――――
Frank 🌳 &amp; Dackel Gustav: Sehr gutes Hotel. Liegt auch sehr schön. Und typisch Sauerland, auch alles top gepflegt. 
――――――――――
Jürgen: Härdlerblick,. schöner Ausblick über das Tal
――――――――――
Kaktus&amp;Edelweiß🌵🏔: Die roten Bänke im Wald über dem Hotel auf den liebevoll angelegten Wanderwegen sind einen Besuch wert.
Diese finden sich weitläufig um das Hotel herum
――――――――――
Peter: Hotel Haus Hilmeke - Hotel Restaurant Café
Hier gibt's lecker hausgemachte Kuchen und guten Kaffee</desc>
    <src>Komoot</src>
    <link href="https://www.komoot.de/highlight/2637186">
      <text>View POI on Komoot</text>
    </link>
    <type>Highlight</type>
  </wpt>
  <wpt lat="51.127319" lon="8.188954">
    <ele>427</ele>
    <name>Höhenblick Viewpoint (756 m)</name>
    <cmt>https://d2exd72xrrp1s7.cloudfront.net/www/000/1k4/1b/1b5eure48miksp60xtbzb0jmq3dvo9k78-uhi13789899/0</cmt>
    <desc>Peter: Hotel Haus Hilmeke
Hotel Restaurant Café
Hier gibt's lecker hausgemachte Kuchen... :-)</desc>
    <src>Komoot</src>
    <link href="https://www.komoot.de/highlight/1442039">
      <text>View POI on Komoot</text>
    </link>
    <type>Highlight</type>
  </wpt>
  <wpt lat="51.11715" lon="8.166622">
    <ele>314.6</ele>
    <name>St. Jodokus Church Saalhausen</name>
    <cmt>https://d2exd72xrrp1s7.cloudfront.net/www/000/1k4/1n/1nfuq6lop0lz175oebwl14qej3dldycl7-uhi13283319/0</cmt>
    <desc>⛰🥾 Dominik 🥾⛰: Beschauliches Dorf mit schöner Kirche!
――――――――――
Antje: Wunderschöne Fresken und im Oktober ein liebevoller Erntedankaltar mit Gewürzteppich
――――――――――
Frank 🌳 &amp; Dackel Gustav: Eine sehr schöne Kirche in diesem sehr gepflegten Ort. 
――――――――――
Frank Rmr: Der katholische Sakralbau stammt aus dem Jahr 1910, nachdem der Vorgängerbau durch das Lennehochwasser im Jahr 1909 stark beschädigt wurde. Einige Bauteile des Vorgängerbaus blieben erhalten und wurden mit einbezogen (z. B. der Chor, der heute als Taufkapelle dient).
――――――――――
Stephan: Im alten Chor von St. Jodokus sind spätgotische Wandmalereien aus dem 15. Jahrhundert erhalten. Die restliche Kirche wurde 1909 bei einem Lennehochwasser stark beschädigt und musste abgerissen werden. Der Neubau wurde 1910 eingeweiht.

Mehr Info: https://de.wikipedia.org/wiki/St._Jodokus_(Saalhausen)#Geschichte_und_Architektur</desc>
    <src>Komoot</src>
    <link href="https://www.komoot.de/highlight/1393848">
      <text>View POI on Komoot</text>
    </link>
    <type>Highlight</type>
  </wpt>
  <trk>
    <name>Café Lennestübchen – Hotel Haus Hilmeke Runde von Saalhausen</name>
    <desc>Distance: 5.638km, Estimated duration: 1.52h, Elevation up: 72.81440507515526m, Elevation down: 72.81120386411959m, Grade: easy</desc>
    <link href="https://www.komoot.de/tour/2767832169">
      <text>View tour on Komoot</text>
    </link>
    <trkseg>
      <trkpt lat="51.117827" lon="8.166742">
        <ele>313.3</ele>
        <time>2026-01-30T16:06:09.226000Z</time>
      </trkpt>
      <trkpt lat="51.11777" lon="8.16675">
        <ele>313.2</ele>
        <time>2026-01-30T16:06:15.019000Z</time>
      </trkpt>
      <trkpt lat="51.117787" lon="8.166929">
        <ele>313.1</ele>
        <time>2026-01-30T16:06:26.545000Z</time>
      </trkpt>
      <trkpt lat="51.117734" lon="8.166946">
        <ele>313.1</ele>
        <time>2026-01-30T16:06:31.966000Z</time>
      </trkpt>
      <trkpt lat="51.117605" lon="8.166987">
        <ele>313</ele>
        <time>2026-01-30T16:06:45.321000Z</time>
      </trkpt>
      <trkpt lat="51.117547" lon="8.166962">
        <ele>313</ele>
        <time>2026-01-30T16:06:51.514000Z</time>
      </trkpt>
      <trkpt lat="51.117424" lon="8.16683">
        <ele>312.9</ele>
        <time>2026-01-30T16:07:06.578000Z</time>
      </trkpt>
      <trkpt lat="51.117332" lon="8.1666">
        <ele>312.7</ele>
        <time>2026-01-30T16:07:23.905000Z</time>
      </trkpt>
      <trkpt lat="51.11729" lon="8.166405">
        <ele>312.7</ele>
        <time>2026-01-30T16:07:37.038000Z</time>
      </trkpt>
      <trkpt lat="51.117275" lon="8.166326">
        <ele>312.6</ele>
        <time>2026-01-30T16:07:42.324000Z</time>
      </trkpt>
      <trkpt lat="51.117171" lon="8.166336">
        <ele>312.5</ele>
        <time>2026-01-30T16:07:52.977000Z</time>
      </trkpt>
      <trkpt lat="51.117144" lon="8.165962">
        <ele>312.4</ele>
        <time>2026-01-30T16:08:16.986000Z</time>
      </trkpt>
      <trkpt lat="51.117164" lon="8.165734">
        <ele>312.3</ele>
        <time>2026-01-30T16:08:31.698000Z</time>
      </trkpt>
      <trkpt lat="51.117144" lon="8.165962">
        <ele>312.2</ele>
        <time>2026-01-30T16:08:46.377000Z</time>
      </trkpt>
      <trkpt lat="51.117171" lon="8.166336">
        <ele>312.1</ele>
        <time>2026-01-30T16:09:10.179000Z</time>
      </trkpt>
      <trkpt lat="51.117123" lon="8.166324">
        <ele>312.1</ele>
        <time>2026-01-30T16:09:15.066000Z</time>
      </trkpt>
      <trkpt lat="51.116935" lon="8.166277">
        <ele>312.1</ele>
        <time>2026-01-30T16:09:34.050000Z</time>
      </trkpt>
      <trkpt lat="51.116883" lon="8.166249">
        <ele>312.1</ele>
        <time>2026-01-30T16:09:39.633000Z</time>
      </trkpt>
      <trkpt lat="51.116819" lon="8.16617">
        <ele>312.1</ele>
        <time>2026-01-30T16:09:47.693000Z</time>
      </trkpt>
      <trkpt lat="51.116774" lon="8.165894">
        <ele>312.1</ele>
        <time>2026-01-30T16:10:05.678000Z</time>
      </trkpt>
      <trkpt lat="51.116819" lon="8.16617">
        <ele>312.1</ele>
        <time>2026-01-30T16:10:23.747000Z</time>
      </trkpt>
      <trkpt lat="51.116883" lon="8.166249">
        <ele>312.2</ele>
        <time>2026-01-30T16:10:31.896000Z</time>
      </trkpt>
      <trkpt lat="51.11689" lon="8.166327">
        <ele>312.2</ele>
        <time>2026-01-30T16:10:36.923000Z</time>
      </trkpt>
      <trkpt lat="51.116931" lon="8.16678">
        <ele>312.2</ele>
        <time>2026-01-30T16:11:05.917000Z</time>
      </trkpt>
      <trkpt lat="51.116839" lon="8.167183">
        <ele>312.3</ele>
        <time>2026-01-30T16:11:33.104000Z</time>
      </trkpt>
      <trkpt lat="51.116808" lon="8.167232">
        <ele>312.3</ele>
        <time>2026-01-30T16:11:37.513000Z</time>
      </trkpt>
      <trkpt lat="51.116817" lon="8.167811">
        <ele>312.4</ele>
        <time>2026-01-30T16:12:14.383000Z</time>
      </trkpt>
      <trkpt lat="51.116939" lon="8.168173">
        <ele>312.6</ele>
        <time>2026-01-30T16:12:40.596000Z</time>
      </trkpt>
      <trkpt lat="51.116984" lon="8.168582">
        <ele>312.8</ele>
        <time>2026-01-30T16:13:07.409000Z</time>
      </trkpt>
      <trkpt lat="51.117058" lon="8.168908">
        <ele>313</ele>
        <time>2026-01-30T16:13:30.013000Z</time>
      </trkpt>
      <trkpt lat="51.117186" lon="8.169243">
        <ele>313.3</ele>
        <time>2026-01-30T16:13:55.914000Z</time>
      </trkpt>
      <trkpt lat="51.117031" lon="8.169521">
        <ele>313.8</ele>
        <time>2026-01-30T16:14:20.700000Z</time>
      </trkpt>
      <trkpt lat="51.116986" lon="8.169703">
        <ele>314</ele>
        <time>2026-01-30T16:14:33.790000Z</time>
      </trkpt>
      <trkpt lat="51.116953" lon="8.170076">
        <ele>314.4</ele>
        <time>2026-01-30T16:14:58.882000Z</time>
      </trkpt>
      <trkpt lat="51.116967" lon="8.170242">
        <ele>314.6</ele>
        <time>2026-01-30T16:15:10.013000Z</time>
      </trkpt>
      <trkpt lat="51.117006" lon="8.170367">
        <ele>314.7</ele>
        <time>2026-01-30T16:15:19.415000Z</time>
      </trkpt>
      <trkpt lat="51.117143" lon="8.170677">
        <ele>315.1</ele>
        <time>2026-01-30T16:15:44.623000Z</time>
      </trkpt>
      <trkpt lat="51.117191" lon="8.170727">
        <ele>315.2</ele>
        <time>2026-01-30T16:15:50.687000Z</time>
      </trkpt>
      <trkpt lat="51.117307" lon="8.170969">
        <ele>315.5</ele>
        <time>2026-01-30T16:16:10.799000Z</time>
      </trkpt>
      <trkpt lat="51.117372" lon="8.17091">
        <ele>315.6</ele>
        <time>2026-01-30T16:16:18.619000Z</time>
      </trkpt>
      <trkpt lat="51.117456" lon="8.170922">
        <ele>315.7</ele>
        <time>2026-01-30T16:16:27.419000Z</time>
      </trkpt>
      <trkpt lat="51.117467" lon="8.17093">
        <ele>315.7</ele>
        <time>2026-01-30T16:16:28.692000Z</time>
      </trkpt>
      <trkpt lat="51.117729" lon="8.171111">
        <ele>315.9</ele>
        <time>2026-01-30T16:16:58.126000Z</time>
      </trkpt>
      <trkpt lat="51.117862" lon="8.171113">
        <ele>316</ele>
        <time>2026-01-30T16:17:11.574000Z</time>
      </trkpt>
      <trkpt lat="51.117982" lon="8.170742">
        <ele>316</ele>
        <time>2026-01-30T16:17:37.860000Z</time>
      </trkpt>
      <trkpt lat="51.118453" lon="8.170787">
        <ele>315.6</ele>
        <time>2026-01-30T16:18:25.882000Z</time>
      </trkpt>
      <trkpt lat="51.119684" lon="8.170574">
        <ele>314.8</ele>
        <time>2026-01-30T16:20:31.566000Z</time>
      </trkpt>
      <trkpt lat="51.119843" lon="8.170615">
        <ele>314.8</ele>
        <time>2026-01-30T16:20:47.775000Z</time>
      </trkpt>
      <trkpt lat="51.119905" lon="8.170632">
        <ele>314.8</ele>
        <time>2026-01-30T16:20:54.202000Z</time>
      </trkpt>
      <trkpt lat="51.120102" lon="8.170728">
        <ele>315.1</ele>
        <time>2026-01-30T16:21:15.564000Z</time>
      </trkpt>
      <trkpt lat="51.120425" lon="8.170887">
        <ele>315.7</ele>
        <time>2026-01-30T16:21:51.826000Z</time>
      </trkpt>
      <trkpt lat="51.120688" lon="8.171075">
        <ele>316.7</ele>
        <time>2026-01-30T16:22:24.097000Z</time>
      </trkpt>
      <trkpt lat="51.120773" lon="8.171167">
        <ele>317.1</ele>
        <time>2026-01-30T16:22:35.838000Z</time>
      </trkpt>
      <trkpt lat="51.120811" lon="8.171349">
        <ele>317.7</ele>
        <time>2026-01-30T16:22:49.770000Z</time>
      </trkpt>
      <trkpt lat="51.120886" lon="8.172333">
        <ele>321.2</ele>
        <time>2026-01-30T16:24:04.105000Z</time>
      </trkpt>
      <trkpt lat="51.120936" lon="8.173406">
        <ele>325.8</ele>
        <time>2026-01-30T16:25:27.650000Z</time>
      </trkpt>
      <trkpt lat="51.120919" lon="8.175598">
        <ele>332.4</ele>
        <time>2026-01-30T16:28:08.268000Z</time>
      </trkpt>
      <trkpt lat="51.121065" lon="8.177684">
        <ele>334.7</ele>
        <time>2026-01-30T16:30:28.111000Z</time>
      </trkpt>
      <trkpt lat="51.121209" lon="8.178481">
        <ele>335.9</ele>
        <time>2026-01-30T16:31:24.463000Z</time>
      </trkpt>
      <trkpt lat="51.121469" lon="8.179563">
        <ele>337.2</ele>
        <time>2026-01-30T16:32:41.728000Z</time>
      </trkpt>
      <trkpt lat="51.121686" lon="8.180066">
        <ele>337.4</ele>
        <time>2026-01-30T16:33:20.782000Z</time>
      </trkpt>
      <trkpt lat="51.122082" lon="8.180851">
        <ele>337.3</ele>
        <time>2026-01-30T16:34:24.221000Z</time>
      </trkpt>
      <trkpt lat="51.122175" lon="8.181099">
        <ele>337.2</ele>
        <time>2026-01-30T16:34:42.571000Z</time>
      </trkpt>
      <trkpt lat="51.122378" lon="8.181983">
        <ele>337</ele>
        <time>2026-01-30T16:35:42.217000Z</time>
      </trkpt>
      <trkpt lat="51.122453" lon="8.182509">
        <ele>337</ele>
        <time>2026-01-30T16:36:16.169000Z</time>
      </trkpt>
      <trkpt lat="51.122698" lon="8.183424">
        <ele>336.8</ele>
        <time>2026-01-30T16:37:18.942000Z</time>
      </trkpt>
      <trkpt lat="51.123118" lon="8.184317">
        <ele>336</ele>
        <time>2026-01-30T16:38:30.703000Z</time>
      </trkpt>
      <trkpt lat="51.12331" lon="8.184798">
        <ele>335.9</ele>
        <time>2026-01-30T16:39:06.787000Z</time>
      </trkpt>
      <trkpt lat="51.123586" lon="8.185868">
        <ele>336.6</ele>
        <time>2026-01-30T16:40:21.784000Z</time>
      </trkpt>
      <trkpt lat="51.123812" lon="8.186863">
        <ele>337.7</ele>
        <time>2026-01-30T16:41:32.238000Z</time>
      </trkpt>
      <trkpt lat="51.123857" lon="8.187176">
        <ele>338.1</ele>
        <time>2026-01-30T16:41:53.758000Z</time>
      </trkpt>
      <trkpt lat="51.123941" lon="8.188254">
        <ele>338.5</ele>
        <time>2026-01-30T16:43:03.727000Z</time>
      </trkpt>
      <trkpt lat="51.123913" lon="8.188709">
        <ele>338</ele>
        <time>2026-01-30T16:43:33.486000Z</time>
      </trkpt>
      <trkpt lat="51.123753" lon="8.189183">
        <ele>336.7</ele>
        <time>2026-01-30T16:44:10.070000Z</time>
      </trkpt>
      <trkpt lat="51.123726" lon="8.189471">
        <ele>335.7</ele>
        <time>2026-01-30T16:44:30.334000Z</time>
      </trkpt>
      <trkpt lat="51.12385" lon="8.190001">
        <ele>333.6</ele>
        <time>2026-01-30T16:45:10.056000Z</time>
      </trkpt>
      <trkpt lat="51.124114" lon="8.190902">
        <ele>330.3</ele>
        <time>2026-01-30T16:46:19.184000Z</time>
      </trkpt>
      <trkpt lat="51.124281" lon="8.190735">
        <ele>329.5</ele>
        <time>2026-01-30T16:46:40.676000Z</time>
      </trkpt>
      <trkpt lat="51.124412" lon="8.190596">
        <ele>328.9</ele>
        <time>2026-01-30T16:46:57.567000Z</time>
      </trkpt>
      <trkpt lat="51.124595" lon="8.190412">
        <ele>328.3</ele>
        <time>2026-01-30T16:47:20.482000Z</time>
      </trkpt>
      <trkpt lat="51.124987" lon="8.190052">
        <ele>328.3</ele>
        <time>2026-01-30T16:48:05.828000Z</time>
      </trkpt>
      <trkpt lat="51.124927" lon="8.189582">
        <ele>329.4</ele>
        <time>2026-01-30T16:48:39.761000Z</time>
      </trkpt>
      <trkpt lat="51.124986" lon="8.189434">
        <ele>330.1</ele>
        <time>2026-01-30T16:48:52.944000Z</time>
      </trkpt>
      <trkpt lat="51.124985" lon="8.189006">
        <ele>332.1</ele>
        <time>2026-01-30T16:49:26.690000Z</time>
      </trkpt>
      <trkpt lat="51.12505" lon="8.188793">
        <ele>333.4</ele>
        <time>2026-01-30T16:49:45.864000Z</time>
      </trkpt>
      <trkpt lat="51.125195" lon="8.188657">
        <ele>334.8</ele>
        <time>2026-01-30T16:50:07.658000Z</time>
      </trkpt>
      <trkpt lat="51.12551" lon="8.188598">
        <ele>337.7</ele>
        <time>2026-01-30T16:50:49.317000Z</time>
      </trkpt>
      <trkpt lat="51.125595" lon="8.188616">
        <ele>338.7</ele>
        <time>2026-01-30T16:51:00.900000Z</time>
      </trkpt>
      <trkpt lat="51.125858" lon="8.188657">
        <ele>341.9</ele>
        <time>2026-01-30T16:51:39.250000Z</time>
      </trkpt>
      <trkpt lat="51.125986" lon="8.188635">
        <ele>343.6</ele>
        <time>2026-01-30T16:51:59.101000Z</time>
      </trkpt>
      <trkpt lat="51.126064" lon="8.188622">
        <ele>344.7</ele>
        <time>2026-01-30T16:52:11.446000Z</time>
      </trkpt>
      <trkpt lat="51.126322" lon="8.188523">
        <ele>348.7</ele>
        <time>2026-01-30T16:52:55.207000Z</time>
      </trkpt>
      <trkpt lat="51.126391" lon="8.188601">
        <ele>350</ele>
        <time>2026-01-30T16:53:09.467000Z</time>
      </trkpt>
      <trkpt lat="51.126579" lon="8.189117">
        <ele>355.4</ele>
        <time>2026-01-30T16:54:09.066000Z</time>
      </trkpt>
      <trkpt lat="51.126651" lon="8.18913">
        <ele>356.2</ele>
        <time>2026-01-30T16:54:19.482000Z</time>
      </trkpt>
      <trkpt lat="51.126705" lon="8.189167">
        <ele>356.9</ele>
        <time>2026-01-30T16:54:27.821000Z</time>
      </trkpt>
      <trkpt lat="51.127065" lon="8.189142">
        <ele>360.7</ele>
        <time>2026-01-30T16:55:16.467000Z</time>
      </trkpt>
      <trkpt lat="51.127157" lon="8.189395">
        <ele>362.5</ele>
        <time>2026-01-30T16:55:40.902000Z</time>
      </trkpt>
      <trkpt lat="51.127224" lon="8.189446">
        <ele>363.2</ele>
        <time>2026-01-30T16:55:50.717000Z</time>
      </trkpt>
      <trkpt lat="51.127291" lon="8.189284">
        <ele>364.3</ele>
        <time>2026-01-30T16:56:06.769000Z</time>
      </trkpt>
      <trkpt lat="51.12732" lon="8.189143">
        <ele>365.2</ele>
        <time>2026-01-30T16:56:18.900000Z</time>
      </trkpt>
      <trkpt lat="51.127308" lon="8.188956">
        <ele>366.2</ele>
        <time>2026-01-30T16:56:34.140000Z</time>
      </trkpt>
      <trkpt lat="51.127294" lon="8.188728">
        <ele>367.4</ele>
        <time>2026-01-30T16:56:52.617000Z</time>
      </trkpt>
      <trkpt lat="51.127323" lon="8.188358">
        <ele>369</ele>
        <time>2026-01-30T16:57:21.645000Z</time>
      </trkpt>
      <trkpt lat="51.127145" lon="8.18673">
        <ele>370.6</ele>
        <time>2026-01-30T16:59:11.148000Z</time>
      </trkpt>
      <trkpt lat="51.127071" lon="8.186569">
        <ele>370.5</ele>
        <time>2026-01-30T16:59:24.038000Z</time>
      </trkpt>
      <trkpt lat="51.126951" lon="8.18643">
        <ele>370.1</ele>
        <time>2026-01-30T16:59:39.628000Z</time>
      </trkpt>
      <trkpt lat="51.126755" lon="8.186345">
        <ele>369.3</ele>
        <time>2026-01-30T17:00:01.557000Z</time>
      </trkpt>
      <trkpt lat="51.126567" lon="8.18631">
        <ele>368.4</ele>
        <time>2026-01-30T17:00:22.424000Z</time>
      </trkpt>
      <trkpt lat="51.126432" lon="8.186287">
        <ele>367.5</ele>
        <time>2026-01-30T17:00:37.717000Z</time>
      </trkpt>
      <trkpt lat="51.126244" lon="8.186199">
        <ele>366.2</ele>
        <time>2026-01-30T17:01:00.083000Z</time>
      </trkpt>
      <trkpt lat="51.126051" lon="8.185992">
        <ele>364.2</ele>
        <time>2026-01-30T17:01:27.253000Z</time>
      </trkpt>
      <trkpt lat="51.125711" lon="8.185518">
        <ele>360.3</ele>
        <time>2026-01-30T17:02:20.290000Z</time>
      </trkpt>
      <trkpt lat="51.125562" lon="8.185255">
        <ele>358.9</ele>
        <time>2026-01-30T17:02:45.426000Z</time>
      </trkpt>
      <trkpt lat="51.125331" lon="8.184695">
        <ele>357</ele>
        <time>2026-01-30T17:03:31.315000Z</time>
      </trkpt>
      <trkpt lat="51.124959" lon="8.183009">
        <ele>354.2</ele>
        <time>2026-01-30T17:05:29.270000Z</time>
      </trkpt>
      <trkpt lat="51.12489" lon="8.182613">
        <ele>354</ele>
        <time>2026-01-30T17:05:55.684000Z</time>
      </trkpt>
      <trkpt lat="51.124853" lon="8.182222">
        <ele>353.7</ele>
        <time>2026-01-30T17:06:20.994000Z</time>
      </trkpt>
      <trkpt lat="51.124795" lon="8.180688">
        <ele>352.1</ele>
        <time>2026-01-30T17:08:00.899000Z</time>
      </trkpt>
      <trkpt lat="51.124799" lon="8.180418">
        <ele>351.5</ele>
        <time>2026-01-30T17:08:19.120000Z</time>
      </trkpt>
      <trkpt lat="51.124875" lon="8.179672">
        <ele>349.2</ele>
        <time>2026-01-30T17:09:11.195000Z</time>
      </trkpt>
      <trkpt lat="51.124629" lon="8.178596">
        <ele>344.2</ele>
        <time>2026-01-30T17:10:33.082000Z</time>
      </trkpt>
      <trkpt lat="51.12453" lon="8.177794">
        <ele>339.7</ele>
        <time>2026-01-30T17:11:33.367000Z</time>
      </trkpt>
      <trkpt lat="51.124405" lon="8.177223">
        <ele>336.6</ele>
        <time>2026-01-30T17:12:17.596000Z</time>
      </trkpt>
      <trkpt lat="51.12425" lon="8.176349">
        <ele>332.9</ele>
        <time>2026-01-30T17:13:22.192000Z</time>
      </trkpt>
      <trkpt lat="51.123997" lon="8.17523">
        <ele>329.1</ele>
        <time>2026-01-30T17:14:44.499000Z</time>
      </trkpt>
      <trkpt lat="51.124042" lon="8.174833">
        <ele>328.2</ele>
        <time>2026-01-30T17:15:11.795000Z</time>
      </trkpt>
      <trkpt lat="51.123973" lon="8.174811">
        <ele>327.9</ele>
        <time>2026-01-30T17:15:19.326000Z</time>
      </trkpt>
      <trkpt lat="51.123897" lon="8.174697">
        <ele>327.6</ele>
        <time>2026-01-30T17:15:30.469000Z</time>
      </trkpt>
      <trkpt lat="51.123846" lon="8.174618">
        <ele>327.3</ele>
        <time>2026-01-30T17:15:38.045000Z</time>
      </trkpt>
      <trkpt lat="51.123484" lon="8.173882">
        <ele>325.6</ele>
        <time>2026-01-30T17:16:40.478000Z</time>
      </trkpt>
      <trkpt lat="51.123156" lon="8.173516">
        <ele>324.4</ele>
        <time>2026-01-30T17:17:22.910000Z</time>
      </trkpt>
      <trkpt lat="51.122865" lon="8.172994">
        <ele>323.3</ele>
        <time>2026-01-30T17:18:09.041000Z</time>
      </trkpt>
      <trkpt lat="51.122446" lon="8.171301">
        <ele>321.5</ele>
        <time>2026-01-30T17:20:07.065000Z</time>
      </trkpt>
      <trkpt lat="51.122291" lon="8.171045">
        <ele>321.3</ele>
        <time>2026-01-30T17:20:29.915000Z</time>
      </trkpt>
      <trkpt lat="51.122153" lon="8.170687">
        <ele>321.1</ele>
        <time>2026-01-30T17:20:56.710000Z</time>
      </trkpt>
      <trkpt lat="51.122015" lon="8.170297">
        <ele>320.9</ele>
        <time>2026-01-30T17:21:25.217000Z</time>
      </trkpt>
      <trkpt lat="51.12197" lon="8.170215">
        <ele>320.9</ele>
        <time>2026-01-30T17:21:32.156000Z</time>
      </trkpt>
      <trkpt lat="51.121773" lon="8.170066">
        <ele>321.1</ele>
        <time>2026-01-30T17:21:54.494000Z</time>
      </trkpt>
      <trkpt lat="51.121431" lon="8.169704">
        <ele>321.2</ele>
        <time>2026-01-30T17:22:36.149000Z</time>
      </trkpt>
      <trkpt lat="51.121362" lon="8.169679">
        <ele>321.2</ele>
        <time>2026-01-30T17:22:43.388000Z</time>
      </trkpt>
      <trkpt lat="51.121245" lon="8.169736">
        <ele>321</ele>
        <time>2026-01-30T17:22:55.978000Z</time>
      </trkpt>
      <trkpt lat="51.120947" lon="8.169406">
        <ele>320.5</ele>
        <time>2026-01-30T17:23:33.435000Z</time>
      </trkpt>
      <trkpt lat="51.120673" lon="8.16929">
        <ele>320.3</ele>
        <time>2026-01-30T17:24:02.147000Z</time>
      </trkpt>
      <trkpt lat="51.120645" lon="8.169285">
        <ele>320.3</ele>
        <time>2026-01-30T17:24:05.079000Z</time>
      </trkpt>
      <trkpt lat="51.120578" lon="8.169767">
        <ele>319.9</ele>
        <time>2026-01-30T17:24:36.906000Z</time>
      </trkpt>
      <trkpt lat="51.120191" lon="8.169555">
        <ele>319.2</ele>
        <time>2026-01-30T17:25:19.290000Z</time>
      </trkpt>
      <trkpt lat="51.120123" lon="8.169455">
        <ele>318.9</ele>
        <time>2026-01-30T17:25:29.117000Z</time>
      </trkpt>
      <trkpt lat="51.120094" lon="8.169339">
        <ele>318.7</ele>
        <time>2026-01-30T17:25:37.392000Z</time>
      </trkpt>
      <trkpt lat="51.118998" lon="8.169295">
        <ele>315.9</ele>
        <time>2026-01-30T17:27:32.924000Z</time>
      </trkpt>
      <trkpt lat="51.118596" lon="8.16917">
        <ele>315.1</ele>
        <time>2026-01-30T17:28:15.610000Z</time>
      </trkpt>
      <trkpt lat="51.118252" lon="8.168971">
        <ele>314.4</ele>
        <time>2026-01-30T17:28:53.631000Z</time>
      </trkpt>
      <trkpt lat="51.118222" lon="8.169149">
        <ele>314.2</ele>
        <time>2026-01-30T17:29:05.555000Z</time>
      </trkpt>
      <trkpt lat="51.118172" lon="8.169511">
        <ele>313.9</ele>
        <time>2026-01-30T17:29:29.596000Z</time>
      </trkpt>
      <trkpt lat="51.118155" lon="8.169628">
        <ele>313.8</ele>
        <time>2026-01-30T17:29:37.352000Z</time>
      </trkpt>
      <trkpt lat="51.117671" lon="8.169435">
        <ele>313.2</ele>
        <time>2026-01-30T17:30:28.395000Z</time>
      </trkpt>
      <trkpt lat="51.117186" lon="8.169243">
        <ele>313</ele>
        <time>2026-01-30T17:31:19.016000Z</time>
      </trkpt>
      <trkpt lat="51.117058" lon="8.168908">
        <ele>312.8</ele>
        <time>2026-01-30T17:31:43.965000Z</time>
      </trkpt>
      <trkpt lat="51.116984" lon="8.168582">
        <ele>312.7</ele>
        <time>2026-01-30T17:32:06.018000Z</time>
      </trkpt>
      <trkpt lat="51.116939" lon="8.168173">
        <ele>312.5</ele>
        <time>2026-01-30T17:32:32.387000Z</time>
      </trkpt>
      <trkpt lat="51.116817" lon="8.167811">
        <ele>312.4</ele>
        <time>2026-01-30T17:32:58.354000Z</time>
      </trkpt>
      <trkpt lat="51.116808" lon="8.167232">
        <ele>312.3</ele>
        <time>2026-01-30T17:33:34.937000Z</time>
      </trkpt>
      <trkpt lat="51.116839" lon="8.167183">
        <ele>312.3</ele>
        <time>2026-01-30T17:33:39.321000Z</time>
      </trkpt>
      <trkpt lat="51.116931" lon="8.16678">
        <ele>312.3</ele>
        <time>2026-01-30T17:34:06.377000Z</time>
      </trkpt>
      <trkpt lat="51.116883" lon="8.166249">
        <ele>312.3</ele>
        <time>2026-01-30T17:34:40.173000Z</time>
      </trkpt>
      <trkpt lat="51.116935" lon="8.166277">
        <ele>312.3</ele>
        <time>2026-01-30T17:34:45.774000Z</time>
      </trkpt>
      <trkpt lat="51.117123" lon="8.166324">
        <ele>312.4</ele>
        <time>2026-01-30T17:35:04.995000Z</time>
      </trkpt>
      <trkpt lat="51.117171" lon="8.166336">
        <ele>312.4</ele>
        <time>2026-01-30T17:35:09.943000Z</time>
      </trkpt>
      <trkpt lat="51.117161" lon="8.166513">
        <ele>312.4</ele>
        <time>2026-01-30T17:35:21.331000Z</time>
      </trkpt>
      <trkpt lat="51.117165" lon="8.166621">
        <ele>312.5</ele>
        <time>2026-01-30T17:35:28.230000Z</time>
      </trkpt>
      <trkpt lat="51.117161" lon="8.166513">
        <ele>312.5</ele>
        <time>2026-01-30T17:35:35.178000Z</time>
      </trkpt>
      <trkpt lat="51.117171" lon="8.166336">
        <ele>312.6</ele>
        <time>2026-01-30T17:35:46.546000Z</time>
      </trkpt>
      <trkpt lat="51.117275" lon="8.166326">
        <ele>312.7</ele>
        <time>2026-01-30T17:35:57.284000Z</time>
      </trkpt>
      <trkpt lat="51.11729" lon="8.166405">
        <ele>312.7</ele>
        <time>2026-01-30T17:36:02.601000Z</time>
      </trkpt>
      <trkpt lat="51.117332" lon="8.1666">
        <ele>312.8</ele>
        <time>2026-01-30T17:36:15.858000Z</time>
      </trkpt>
      <trkpt lat="51.117424" lon="8.16683">
        <ele>312.9</ele>
        <time>2026-01-30T17:36:33.384000Z</time>
      </trkpt>
      <trkpt lat="51.117547" lon="8.166962">
        <ele>313</ele>
        <time>2026-01-30T17:36:48.620000Z</time>
      </trkpt>
      <trkpt lat="51.117605" lon="8.166987">
        <ele>313</ele>
        <time>2026-01-30T17:36:54.888000Z</time>
      </trkpt>
      <trkpt lat="51.117734" lon="8.166946">
        <ele>313.1</ele>
        <time>2026-01-30T17:37:08.337000Z</time>
      </trkpt>
      <trkpt lat="51.117787" lon="8.166929">
        <ele>313.2</ele>
        <time>2026-01-30T17:37:13.795000Z</time>
      </trkpt>
      <trkpt lat="51.11777" lon="8.16675">
        <ele>313.2</ele>
        <time>2026-01-30T17:37:25.408000Z</time>
      </trkpt>
      <trkpt lat="51.117827" lon="8.166742">
        <ele>313.3</ele>
        <time>2026-01-30T17:37:31.240000Z</time>
      </trkpt>
    </trkseg>
  </trk>
</gpx>