<?xml version="1.0" encoding="UTF-8"?>
<gpx xmlns="http://www.topografix.com/GPX/1/1" xmlns:xsi="http://www.w3.org/2001/XMLSchema-instance" xsi:schemaLocation="http://www.topografix.com/GPX/1/1 http://www.topografix.com/GPX/1/1/gpx.xsd" version="1.1" creator="Robert Kampf">
  <metadata>
    <name>Dornstetten Dorf Runde von Seestall</name>
    <desc>Distance: 5.675km, Estimated duration: 1.46h, Elevation up: 23.859691725654557m, Elevation down: 23.175195423264313m, Grade: easy</desc>
    <author>
      <name>Robert Kampf</name>
      <link href="https://www.komoot.de/user/4125295338453">
        <text>View Robert Kampf's Profile on Komoot</text>
      </link>
    </author>
    <link href="https://www.komoot.de/tour/2853529478">
      <text>View tour on Komoot</text>
    </link>
  </metadata>
  <wpt lat="47.965039" lon="10.864703">
    <name>Seestall Gh. Flößerstuben</name>
    <cmt></cmt>
    <desc></desc>
    <src>Komoot</src>
    <type>POI</type>
  </wpt>
  <wpt lat="47.981647" lon="10.87268">
    <ele>612.4</ele>
    <name>Dornstetten Village</name>
    <cmt>https://d2exd72xrrp1s7.cloudfront.net/www/000/1k5/1w/1w2xjrjofnnz81d1xj7p74rt8k3py0wgcn-uhi30616840/0</cmt>
    <desc></desc>
    <src>Komoot</src>
    <link href="https://www.komoot.de/highlight/3048585">
      <text>View POI on Komoot</text>
    </link>
    <type>Highlight</type>
  </wpt>
  <trk>
    <name>Dornstetten Dorf Runde von Seestall</name>
    <desc>Distance: 5.675km, Estimated duration: 1.46h, Elevation up: 23.859691725654557m, Elevation down: 23.175195423264313m, Grade: easy</desc>
    <link href="https://www.komoot.de/tour/2853529478">
      <text>View tour on Komoot</text>
    </link>
    <trkseg>
      <trkpt lat="47.965005" lon="10.86461">
        <ele>619.9</ele>
        <time>2026-03-30T12:11:39.667000Z</time>
      </trkpt>
      <trkpt lat="47.965037" lon="10.864584">
        <ele>619.8</ele>
        <time>2026-03-30T12:11:43.330000Z</time>
      </trkpt>
      <trkpt lat="47.965525" lon="10.864668">
        <ele>619.6</ele>
        <time>2026-03-30T12:12:32.912000Z</time>
      </trkpt>
      <trkpt lat="47.965583" lon="10.864678">
        <ele>619.6</ele>
        <time>2026-03-30T12:12:38.868000Z</time>
      </trkpt>
      <trkpt lat="47.965761" lon="10.864717">
        <ele>619.5</ele>
        <time>2026-03-30T12:12:57.068000Z</time>
      </trkpt>
      <trkpt lat="47.965802" lon="10.864736">
        <ele>619.5</ele>
        <time>2026-03-30T12:13:01.393000Z</time>
      </trkpt>
      <trkpt lat="47.966001" lon="10.864822">
        <ele>619.4</ele>
        <time>2026-03-30T12:13:22.341000Z</time>
      </trkpt>
      <trkpt lat="47.966011" lon="10.864828">
        <ele>619.4</ele>
        <time>2026-03-30T12:13:23.453000Z</time>
      </trkpt>
      <trkpt lat="47.96615" lon="10.864925">
        <ele>619.3</ele>
        <time>2026-03-30T12:13:38.982000Z</time>
      </trkpt>
      <trkpt lat="47.96621" lon="10.864985">
        <ele>619.3</ele>
        <time>2026-03-30T12:13:46.262000Z</time>
      </trkpt>
      <trkpt lat="47.966256" lon="10.86501">
        <ele>619.2</ele>
        <time>2026-03-30T12:13:51.170000Z</time>
      </trkpt>
      <trkpt lat="47.966297" lon="10.865042">
        <ele>619.2</ele>
        <time>2026-03-30T12:13:55.897000Z</time>
      </trkpt>
      <trkpt lat="47.966498" lon="10.865169">
        <ele>619.1</ele>
        <time>2026-03-30T12:14:17.884000Z</time>
      </trkpt>
      <trkpt lat="47.96665" lon="10.865295">
        <ele>619</ele>
        <time>2026-03-30T12:14:35.502000Z</time>
      </trkpt>
      <trkpt lat="47.966751" lon="10.865417">
        <ele>619</ele>
        <time>2026-03-30T12:14:48.589000Z</time>
      </trkpt>
      <trkpt lat="47.966967" lon="10.865712">
        <ele>618.9</ele>
        <time>2026-03-30T12:15:18.066000Z</time>
      </trkpt>
      <trkpt lat="47.967123" lon="10.865957">
        <ele>618.8</ele>
        <time>2026-03-30T12:15:40.873000Z</time>
      </trkpt>
      <trkpt lat="47.96756" lon="10.866737">
        <ele>618.7</ele>
        <time>2026-03-30T12:16:49.355000Z</time>
      </trkpt>
      <trkpt lat="47.967723" lon="10.867066">
        <ele>618.5</ele>
        <time>2026-03-30T12:17:17.070000Z</time>
      </trkpt>
      <trkpt lat="47.967998" lon="10.867692">
        <ele>618.3</ele>
        <time>2026-03-30T12:18:07.755000Z</time>
      </trkpt>
      <trkpt lat="47.968072" lon="10.8678">
        <ele>618.2</ele>
        <time>2026-03-30T12:18:18.288000Z</time>
      </trkpt>
      <trkpt lat="47.968503" lon="10.868225">
        <ele>617.9</ele>
        <time>2026-03-30T12:19:10.491000Z</time>
      </trkpt>
      <trkpt lat="47.968786" lon="10.86856">
        <ele>617.7</ele>
        <time>2026-03-30T12:19:47.165000Z</time>
      </trkpt>
      <trkpt lat="47.96896" lon="10.868826">
        <ele>617.5</ele>
        <time>2026-03-30T12:20:12.537000Z</time>
      </trkpt>
      <trkpt lat="47.969442" lon="10.869822">
        <ele>617.1</ele>
        <time>2026-03-30T12:21:35.608000Z</time>
      </trkpt>
      <trkpt lat="47.969582" lon="10.870254">
        <ele>617.1</ele>
        <time>2026-03-30T12:22:07.864000Z</time>
      </trkpt>
      <trkpt lat="47.969651" lon="10.870644">
        <ele>617.1</ele>
        <time>2026-03-30T12:22:34.880000Z</time>
      </trkpt>
      <trkpt lat="47.969831" lon="10.871378">
        <ele>617.2</ele>
        <time>2026-03-30T12:23:27.773000Z</time>
      </trkpt>
      <trkpt lat="47.970013" lon="10.871959">
        <ele>617.4</ele>
        <time>2026-03-30T12:24:11.570000Z</time>
      </trkpt>
      <trkpt lat="47.970101" lon="10.872122">
        <ele>617.5</ele>
        <time>2026-03-30T12:24:25.791000Z</time>
      </trkpt>
      <trkpt lat="47.970351" lon="10.872452">
        <ele>617.5</ele>
        <time>2026-03-30T12:24:59.149000Z</time>
      </trkpt>
      <trkpt lat="47.97068" lon="10.872818">
        <ele>617.4</ele>
        <time>2026-03-30T12:25:40.544000Z</time>
      </trkpt>
      <trkpt lat="47.971055" lon="10.873176">
        <ele>617.1</ele>
        <time>2026-03-30T12:26:25.648000Z</time>
      </trkpt>
      <trkpt lat="47.971957" lon="10.873881">
        <ele>615.2</ele>
        <time>2026-03-30T12:28:11.386000Z</time>
      </trkpt>
      <trkpt lat="47.972207" lon="10.874165">
        <ele>614.5</ele>
        <time>2026-03-30T12:28:44.236000Z</time>
      </trkpt>
      <trkpt lat="47.972658" lon="10.874915">
        <ele>613.1</ele>
        <time>2026-03-30T12:29:54.795000Z</time>
      </trkpt>
      <trkpt lat="47.97325" lon="10.876099">
        <ele>611.4</ele>
        <time>2026-03-30T12:31:37.225000Z</time>
      </trkpt>
      <trkpt lat="47.974443" lon="10.876929">
        <ele>610.1</ele>
        <time>2026-03-30T12:33:51.686000Z</time>
      </trkpt>
      <trkpt lat="47.975" lon="10.877334">
        <ele>609.7</ele>
        <time>2026-03-30T12:34:54.491000Z</time>
      </trkpt>
      <trkpt lat="47.975298" lon="10.877491">
        <ele>609.5</ele>
        <time>2026-03-30T12:35:26.513000Z</time>
      </trkpt>
      <trkpt lat="47.975468" lon="10.87779">
        <ele>609.4</ele>
        <time>2026-03-30T12:35:53.099000Z</time>
      </trkpt>
      <trkpt lat="47.976065" lon="10.878462">
        <ele>609.2</ele>
        <time>2026-03-30T12:37:08.292000Z</time>
      </trkpt>
      <trkpt lat="47.976809" lon="10.878793">
        <ele>609.1</ele>
        <time>2026-03-30T12:38:26.167000Z</time>
      </trkpt>
      <trkpt lat="47.97701" lon="10.878835">
        <ele>609.2</ele>
        <time>2026-03-30T12:38:46.682000Z</time>
      </trkpt>
      <trkpt lat="47.97713" lon="10.878834">
        <ele>609.2</ele>
        <time>2026-03-30T12:38:58.781000Z</time>
      </trkpt>
      <trkpt lat="47.977163" lon="10.87853">
        <ele>609.4</ele>
        <time>2026-03-30T12:39:20.082000Z</time>
      </trkpt>
      <trkpt lat="47.977251" lon="10.878534">
        <ele>609.5</ele>
        <time>2026-03-30T12:39:29.140000Z</time>
      </trkpt>
      <trkpt lat="47.977292" lon="10.878369">
        <ele>609.6</ele>
        <time>2026-03-30T12:39:41.533000Z</time>
      </trkpt>
      <trkpt lat="47.977668" lon="10.87787">
        <ele>610.2</ele>
        <time>2026-03-30T12:40:33.977000Z</time>
      </trkpt>
      <trkpt lat="47.977695" lon="10.877725">
        <ele>610.4</ele>
        <time>2026-03-30T12:40:44.620000Z</time>
      </trkpt>
      <trkpt lat="47.977689" lon="10.8774">
        <ele>610.6</ele>
        <time>2026-03-30T12:41:07.269000Z</time>
      </trkpt>
      <trkpt lat="47.977712" lon="10.877062">
        <ele>610.8</ele>
        <time>2026-03-30T12:41:30.731000Z</time>
      </trkpt>
      <trkpt lat="47.977886" lon="10.876618">
        <ele>611</ele>
        <time>2026-03-30T12:42:05.708000Z</time>
      </trkpt>
      <trkpt lat="47.97889" lon="10.875906">
        <ele>610.6</ele>
        <time>2026-03-30T12:43:57.732000Z</time>
      </trkpt>
      <trkpt lat="47.97971" lon="10.875423">
        <ele>610</ele>
        <time>2026-03-30T12:45:27.175000Z</time>
      </trkpt>
      <trkpt lat="47.980576" lon="10.875132">
        <ele>609.8</ele>
        <time>2026-03-30T12:46:56.368000Z</time>
      </trkpt>
      <trkpt lat="47.980951" lon="10.874943">
        <ele>609.7</ele>
        <time>2026-03-30T12:47:36.105000Z</time>
      </trkpt>
      <trkpt lat="47.981447" lon="10.87462">
        <ele>609.9</ele>
        <time>2026-03-30T12:48:30.724000Z</time>
      </trkpt>
      <trkpt lat="47.981631" lon="10.874432">
        <ele>610</ele>
        <time>2026-03-30T12:48:53.587000Z</time>
      </trkpt>
      <trkpt lat="47.98172" lon="10.874248">
        <ele>610.2</ele>
        <time>2026-03-30T12:49:09.264000Z</time>
      </trkpt>
      <trkpt lat="47.981765" lon="10.874037">
        <ele>610.3</ele>
        <time>2026-03-30T12:49:24.688000Z</time>
      </trkpt>
      <trkpt lat="47.981684" lon="10.873288">
        <ele>610.8</ele>
        <time>2026-03-30T12:50:17.182000Z</time>
      </trkpt>
      <trkpt lat="47.981596" lon="10.872705">
        <ele>611.1</ele>
        <time>2026-03-30T12:50:58.471000Z</time>
      </trkpt>
      <trkpt lat="47.981568" lon="10.872519">
        <ele>611.3</ele>
        <time>2026-03-30T12:51:11.621000Z</time>
      </trkpt>
      <trkpt lat="47.983452" lon="10.873273">
        <ele>611.6</ele>
        <time>2026-03-30T12:54:27.945000Z</time>
      </trkpt>
      <trkpt lat="47.983789" lon="10.873351">
        <ele>612.1</ele>
        <time>2026-03-30T12:55:03.809000Z</time>
      </trkpt>
      <trkpt lat="47.983914" lon="10.873059">
        <ele>612.5</ele>
        <time>2026-03-30T12:55:28.687000Z</time>
      </trkpt>
      <trkpt lat="47.984014" lon="10.872755">
        <ele>613.1</ele>
        <time>2026-03-30T12:55:53.325000Z</time>
      </trkpt>
      <trkpt lat="47.984056" lon="10.872567">
        <ele>613.5</ele>
        <time>2026-03-30T12:56:07.931000Z</time>
      </trkpt>
      <trkpt lat="47.984112" lon="10.872084">
        <ele>614.4</ele>
        <time>2026-03-30T12:56:44.226000Z</time>
      </trkpt>
      <trkpt lat="47.98415" lon="10.871143">
        <ele>616.4</ele>
        <time>2026-03-30T12:57:54.175000Z</time>
      </trkpt>
      <trkpt lat="47.984152" lon="10.870972">
        <ele>616.7</ele>
        <time>2026-03-30T12:58:06.685000Z</time>
      </trkpt>
      <trkpt lat="47.984094" lon="10.870715">
        <ele>617.1</ele>
        <time>2026-03-30T12:58:26.426000Z</time>
      </trkpt>
      <trkpt lat="47.983085" lon="10.870696">
        <ele>618.8</ele>
        <time>2026-03-30T13:00:13.474000Z</time>
      </trkpt>
      <trkpt lat="47.982519" lon="10.870698">
        <ele>619.5</ele>
        <time>2026-03-30T13:01:12.661000Z</time>
      </trkpt>
      <trkpt lat="47.98242" lon="10.8707">
        <ele>619.7</ele>
        <time>2026-03-30T13:01:23.031000Z</time>
      </trkpt>
      <trkpt lat="47.982276" lon="10.870694">
        <ele>619.9</ele>
        <time>2026-03-30T13:01:38.183000Z</time>
      </trkpt>
      <trkpt lat="47.982086" lon="10.870685">
        <ele>620.2</ele>
        <time>2026-03-30T13:01:58.273000Z</time>
      </trkpt>
      <trkpt lat="47.981929" lon="10.870678">
        <ele>620.4</ele>
        <time>2026-03-30T13:02:14.739000Z</time>
      </trkpt>
      <trkpt lat="47.981644" lon="10.870668">
        <ele>620.8</ele>
        <time>2026-03-30T13:02:44.784000Z</time>
      </trkpt>
      <trkpt lat="47.981362" lon="10.870618">
        <ele>621.2</ele>
        <time>2026-03-30T13:03:14.745000Z</time>
      </trkpt>
      <trkpt lat="47.981218" lon="10.870561">
        <ele>621.5</ele>
        <time>2026-03-30T13:03:30.442000Z</time>
      </trkpt>
      <trkpt lat="47.980906" lon="10.870411">
        <ele>622</ele>
        <time>2026-03-30T13:04:05.062000Z</time>
      </trkpt>
      <trkpt lat="47.980801" lon="10.870303">
        <ele>622.1</ele>
        <time>2026-03-30T13:04:18.410000Z</time>
      </trkpt>
      <trkpt lat="47.980649" lon="10.870055">
        <ele>622.4</ele>
        <time>2026-03-30T13:04:41.756000Z</time>
      </trkpt>
      <trkpt lat="47.980581" lon="10.869846">
        <ele>622.5</ele>
        <time>2026-03-30T13:04:57.740000Z</time>
      </trkpt>
      <trkpt lat="47.98022" lon="10.869852">
        <ele>622.6</ele>
        <time>2026-03-30T13:05:34.369000Z</time>
      </trkpt>
      <trkpt lat="47.98002" lon="10.869857">
        <ele>622.6</ele>
        <time>2026-03-30T13:05:54.545000Z</time>
      </trkpt>
      <trkpt lat="47.979772" lon="10.869863">
        <ele>622.7</ele>
        <time>2026-03-30T13:06:19.546000Z</time>
      </trkpt>
      <trkpt lat="47.979699" lon="10.869865">
        <ele>622.7</ele>
        <time>2026-03-30T13:06:26.950000Z</time>
      </trkpt>
      <trkpt lat="47.979171" lon="10.869794">
        <ele>622.8</ele>
        <time>2026-03-30T13:07:20.154000Z</time>
      </trkpt>
      <trkpt lat="47.97878" lon="10.869406">
        <ele>622.7</ele>
        <time>2026-03-30T13:08:07.159000Z</time>
      </trkpt>
      <trkpt lat="47.977791" lon="10.868533">
        <ele>623.4</ele>
        <time>2026-03-30T13:10:04.508000Z</time>
      </trkpt>
      <trkpt lat="47.977423" lon="10.868141">
        <ele>623.9</ele>
        <time>2026-03-30T13:10:51.558000Z</time>
      </trkpt>
      <trkpt lat="47.976694" lon="10.867104">
        <ele>625.5</ele>
        <time>2026-03-30T13:12:38.062000Z</time>
      </trkpt>
      <trkpt lat="47.976449" lon="10.8666">
        <ele>626.2</ele>
        <time>2026-03-30T13:13:22.302000Z</time>
      </trkpt>
      <trkpt lat="47.976342" lon="10.866442">
        <ele>626.4</ele>
        <time>2026-03-30T13:13:38.106000Z</time>
      </trkpt>
      <trkpt lat="47.975925" lon="10.866">
        <ele>627.1</ele>
        <time>2026-03-30T13:14:31.563000Z</time>
      </trkpt>
      <trkpt lat="47.975441" lon="10.865372">
        <ele>627.5</ele>
        <time>2026-03-30T13:15:37.340000Z</time>
      </trkpt>
      <trkpt lat="47.975196" lon="10.865177">
        <ele>627.6</ele>
        <time>2026-03-30T13:16:05.478000Z</time>
      </trkpt>
      <trkpt lat="47.974847" lon="10.865013">
        <ele>627.7</ele>
        <time>2026-03-30T13:16:42.416000Z</time>
      </trkpt>
      <trkpt lat="47.974426" lon="10.86461">
        <ele>627.8</ele>
        <time>2026-03-30T13:17:32.789000Z</time>
      </trkpt>
      <trkpt lat="47.974269" lon="10.864422">
        <ele>627.9</ele>
        <time>2026-03-30T13:17:53.128000Z</time>
      </trkpt>
      <trkpt lat="47.97401" lon="10.864218">
        <ele>627.9</ele>
        <time>2026-03-30T13:18:22.644000Z</time>
      </trkpt>
      <trkpt lat="47.973334" lon="10.863786">
        <ele>628.2</ele>
        <time>2026-03-30T13:19:37.402000Z</time>
      </trkpt>
      <trkpt lat="47.973157" lon="10.863727">
        <ele>628.3</ele>
        <time>2026-03-30T13:19:55.876000Z</time>
      </trkpt>
      <trkpt lat="47.971961" lon="10.864234">
        <ele>628.9</ele>
        <time>2026-03-30T13:22:02.475000Z</time>
      </trkpt>
      <trkpt lat="47.971285" lon="10.864215">
        <ele>629.1</ele>
        <time>2026-03-30T13:23:10.805000Z</time>
      </trkpt>
      <trkpt lat="47.971147" lon="10.864141">
        <ele>629.2</ele>
        <time>2026-03-30T13:23:25.568000Z</time>
      </trkpt>
      <trkpt lat="47.970838" lon="10.863898">
        <ele>629.2</ele>
        <time>2026-03-30T13:24:00.564000Z</time>
      </trkpt>
      <trkpt lat="47.970545" lon="10.863738">
        <ele>629.2</ele>
        <time>2026-03-30T13:24:31.902000Z</time>
      </trkpt>
      <trkpt lat="47.970437" lon="10.863664">
        <ele>629.1</ele>
        <time>2026-03-30T13:24:43.765000Z</time>
      </trkpt>
      <trkpt lat="47.970315" lon="10.863639">
        <ele>629.1</ele>
        <time>2026-03-30T13:24:56.163000Z</time>
      </trkpt>
      <trkpt lat="47.969594" lon="10.863744">
        <ele>628.6</ele>
        <time>2026-03-30T13:26:09.754000Z</time>
      </trkpt>
      <trkpt lat="47.969236" lon="10.863847">
        <ele>628.1</ele>
        <time>2026-03-30T13:26:47.269000Z</time>
      </trkpt>
      <trkpt lat="47.96894" lon="10.863856">
        <ele>627.6</ele>
        <time>2026-03-30T13:27:18.013000Z</time>
      </trkpt>
      <trkpt lat="47.968566" lon="10.863812">
        <ele>627</ele>
        <time>2026-03-30T13:27:56.718000Z</time>
      </trkpt>
      <trkpt lat="47.968435" lon="10.863759">
        <ele>626.8</ele>
        <time>2026-03-30T13:28:10.721000Z</time>
      </trkpt>
      <trkpt lat="47.96819" lon="10.863478">
        <ele>626.4</ele>
        <time>2026-03-30T13:28:42.558000Z</time>
      </trkpt>
      <trkpt lat="47.968059" lon="10.863376">
        <ele>626.2</ele>
        <time>2026-03-30T13:28:57.770000Z</time>
      </trkpt>
      <trkpt lat="47.967901" lon="10.863239">
        <ele>625.9</ele>
        <time>2026-03-30T13:29:16.502000Z</time>
      </trkpt>
      <trkpt lat="47.967458" lon="10.862973">
        <ele>625.5</ele>
        <time>2026-03-30T13:30:05.232000Z</time>
      </trkpt>
      <trkpt lat="47.966566" lon="10.862873">
        <ele>625.4</ele>
        <time>2026-03-30T13:31:34.984000Z</time>
      </trkpt>
      <trkpt lat="47.965559" lon="10.86228">
        <ele>626.6</ele>
        <time>2026-03-30T13:33:27.652000Z</time>
      </trkpt>
      <trkpt lat="47.965131" lon="10.862274">
        <ele>627.3</ele>
        <time>2026-03-30T13:34:12.793000Z</time>
      </trkpt>
      <trkpt lat="47.964865" lon="10.862363">
        <ele>627.5</ele>
        <time>2026-03-30T13:34:40.984000Z</time>
      </trkpt>
      <trkpt lat="47.964756" lon="10.862452">
        <ele>627.4</ele>
        <time>2026-03-30T13:34:53.478000Z</time>
      </trkpt>
      <trkpt lat="47.964322" lon="10.86287">
        <ele>626.5</ele>
        <time>2026-03-30T13:35:47.185000Z</time>
      </trkpt>
      <trkpt lat="47.96417" lon="10.86307">
        <ele>625.9</ele>
        <time>2026-03-30T13:36:08.714000Z</time>
      </trkpt>
      <trkpt lat="47.964091" lon="10.8633">
        <ele>625.3</ele>
        <time>2026-03-30T13:36:27.264000Z</time>
      </trkpt>
      <trkpt lat="47.964092" lon="10.86343">
        <ele>625</ele>
        <time>2026-03-30T13:36:36.674000Z</time>
      </trkpt>
      <trkpt lat="47.964121" lon="10.863528">
        <ele>624.7</ele>
        <time>2026-03-30T13:36:44.326000Z</time>
      </trkpt>
      <trkpt lat="47.964172" lon="10.863625">
        <ele>624.4</ele>
        <time>2026-03-30T13:36:53.216000Z</time>
      </trkpt>
      <trkpt lat="47.96435" lon="10.86369">
        <ele>623.7</ele>
        <time>2026-03-30T13:37:12.935000Z</time>
      </trkpt>
      <trkpt lat="47.964608" lon="10.863795">
        <ele>622.8</ele>
        <time>2026-03-30T13:37:41.706000Z</time>
      </trkpt>
      <trkpt lat="47.964809" lon="10.863967">
        <ele>621.9</ele>
        <time>2026-03-30T13:38:06.547000Z</time>
      </trkpt>
      <trkpt lat="47.964947" lon="10.864282">
        <ele>621.1</ele>
        <time>2026-03-30T13:38:33.605000Z</time>
      </trkpt>
      <trkpt lat="47.965037" lon="10.864584">
        <ele>620.6</ele>
        <time>2026-03-30T13:38:56.796000Z</time>
      </trkpt>
      <trkpt lat="47.965005" lon="10.86461">
        <ele>620.5</ele>
        <time>2026-03-30T13:39:00.514000Z</time>
      </trkpt>
    </trkseg>
  </trk>
</gpx>