<?xml version="1.0" encoding="UTF-8"?>
<gpx xmlns="http://www.topografix.com/GPX/1/1" xmlns:xsi="http://www.w3.org/2001/XMLSchema-instance" xsi:schemaLocation="http://www.topografix.com/GPX/1/1 http://www.topografix.com/GPX/1/1/gpx.xsd" version="1.1" creator="Robert Kampf">
  <metadata>
    <name>Felsenspitz – St.-Ulrichs-Kapelle Runde von Unterhausen (Bay) Stw 1</name>
    <desc>Distance: 8.773km, Estimated duration: 2.41h, Elevation up: 145.56982682472665m, Elevation down: 145.56982682472653m, Grade: moderate</desc>
    <author>
      <name>Robert Kampf</name>
      <link href="https://www.komoot.de/user/4125295338453">
        <text>View Robert Kampf's Profile on Komoot</text>
      </link>
    </author>
    <link href="https://www.komoot.de/tour/3049312855">
      <text>View tour on Komoot</text>
    </link>
  </metadata>
  <wpt lat="48.720114" lon="11.094014">
    <name>Unterhausen, Feuerwehrhaus</name>
    <cmt></cmt>
    <desc></desc>
    <src>Komoot</src>
    <type>POI</type>
  </wpt>
  <wpt lat="48.737385" lon="11.062367">
    <ele>440.7</ele>
    <name>Felsenspitz</name>
    <cmt>https://d2exd72xrrp1s7.cloudfront.net/www/000/1k5/1n/1ncwxohxnfso6eigrtwzv5iu03p454g1g-uhi29888427/0</cmt>
    <desc>Fabi: Der am weitesten nach Westen reichende Juraausläufer südlich der Donau fällt hier in einer ca. 30 m hohen Felswand zur Donau und zur kleinen Paar ab. 
Die Donau erzwang sich hier einen Durchbruch bei Unterhausen/Stepperg. 
Im 19. Jahrhundert wurden Teile des Jurariffs weggesprengt zur Materialgewinnung für die Donaubefestigung.
Unweit des Felsenspitz vereinigt sich die Kleine Paar mit der Friedberger Ach, welche schließlich nach ein paar hundert Metern in die Donau mündet.
――――――――――
FatmodulAnt🖤: Felswand zur Donau
――――――――――
Dani Snuff Degi 👾🫟: Mini trail Richtung Donau</desc>
    <src>Komoot</src>
    <link href="https://www.komoot.de/highlight/5120254">
      <text>View POI on Komoot</text>
    </link>
    <type>Highlight</type>
  </wpt>
  <wpt lat="48.735662" lon="11.060385">
    <ele>393.4</ele>
    <name>Friedberger Ach</name>
    <cmt>https://d2exd72xrrp1s7.cloudfront.net/www/000/1k3/j7/j71jo4t8cltx1rmnewty85pzv2xuirtas-uhi5403842/0</cmt>
    <desc></desc>
    <src>Komoot</src>
    <link href="https://www.komoot.de/highlight/729079">
      <text>View POI on Komoot</text>
    </link>
    <type>Highlight</type>
  </wpt>
  <wpt lat="48.735398" lon="11.060072">
    <ele>412</ele>
    <name>Scenic Forest Path</name>
    <cmt>https://d2exd72xrrp1s7.cloudfront.net/www/000/1k6/1r/1r84gueer6xbq11mt2vc5z79s742yqq2gi-uhi46906084/0</cmt>
    <desc></desc>
    <src>Komoot</src>
    <link href="https://www.komoot.de/highlight/4127066">
      <text>View POI on Komoot</text>
    </link>
    <type>Highlight</type>
  </wpt>
  <wpt lat="48.731977" lon="11.059729">
    <ele>440</ele>
    <name>Deadwood in the forest</name>
    <cmt>https://d2exd72xrrp1s7.cloudfront.net/www/000/1k5/5o/5ovx08tuxodj1jje2rb5buwhv3zxuv4ww-uhi44971633/0</cmt>
    <desc>Förster: Die großen, beeindruckenden Dinge entlang des schmalen Pfades, wie der abgebrochene Buchenstamm, stechen meist sofort ins Auge. Doch achten sie auch auf die kleinen Waldbewohner: Zahlreiche Weinbergschnecken tummeln sich im Sommer auf den Wegen. Der Wasserspeicher "Totholz" kommt der geschützten Schneckenart zu Gute, denn er sorgt auch in trockenen Zeiten für ausreichend Feuchtigkeit im Wald.</desc>
    <src>Komoot</src>
    <link href="https://www.komoot.de/highlight/3982149">
      <text>View POI on Komoot</text>
    </link>
    <type>Highlight</type>
  </wpt>
  <wpt lat="48.729676" lon="11.062535">
    <ele>454</ele>
    <name>Ivy-Covered Tree in Upper Bavaria Forest</name>
    <cmt>https://d2exd72xrrp1s7.cloudfront.net/www/000/1k5/13/13oxii1mo4cy316ygaie2iaodt3zxu7sas-uhi44971327/0</cmt>
    <desc>Förster: Bei den Bäumen entlang des Weges scheinen nicht nur die Kronen voller grüner Blätter zu sein, sondern auch ganze Baumstämme. Der kleine "Kletter-Max", der die Bäume als Rankhilfe nutzt um sich seinen Weg zur Sonne zu bahnen, heißt Efeu.</desc>
    <src>Komoot</src>
    <link href="https://www.komoot.de/highlight/3982120">
      <text>View POI on Komoot</text>
    </link>
    <type>Highlight</type>
  </wpt>
  <wpt lat="48.729678" lon="11.064831">
    <ele>481</ele>
    <name>Silbermannstein</name>
    <cmt>https://d2exd72xrrp1s7.cloudfront.net/www/000/1k5/ob/obpevunno7au1xdubn1q1zgtn3p45ddaa-uhi29889256/0</cmt>
    <desc>Fabi: Grenzstein aus massivem Kalkstein.
Ein Freiherr Silbermann (Hofmark Straß 1721, Richter und Pfleger zu Burgheim) besaß früher den Wald auf dem Stätteberg und den angrenzenden Auwald an der Donau. 
Der Stein hat den Freiherr überdauert und steht wahrscheinlich noch hier, wenn wir schon alle zu Staub zerfallen sind. :D
――――――――――
Albrecht: Der Silbermann-Stein als Grenzstein </desc>
    <src>Komoot</src>
    <link href="https://www.komoot.de/highlight/3010941">
      <text>View POI on Komoot</text>
    </link>
    <type>Highlight</type>
  </wpt>
  <wpt lat="48.726715" lon="11.087773">
    <ele>489</ele>
    <name>St. Ulrich Chapel</name>
    <cmt>https://d2exd72xrrp1s7.cloudfront.net/www/000/1k4/1m/1m6v1i0pn6uvy1inb0e5ezooy3bbwlnji-uhi11043229/0</cmt>
    <desc>IRI𝕊 with
🅱️🅴🅻🅻🅰️ 🚵‍♀️: 1982/83 erbaute Waldkapelle ist dem heiligen Ulrich gewidmet. Die Figuren wurden von Josef Ettinger aus Unterhausen geschnitzt, ebenso der "Vater unser-Baum" neben der Kapelle.
――――――――――
IRI𝕊 with
🅱️🅴🅻🅻🅰️ 🚵‍♀️: 1982/83 erbaute Waldkapelle ist dem heiligen Ulrich gewidmet. Die Figuren wurden von Josef Ettinger aus Unterhausen geschnitzt, ebenso der "Vater unser-Baum" neben der Kapelle
――――――――――
S🌼nja: Schöner Rastplatz direkt neben der Kapelle mit Blick in den Süden.
――――――――――
Gerd: Auf Privatinitiative und auf Grundlage zahlreicher Geldspenden errichtet und in 1983 eingeweiht.
――――――――――
Meribor: Eine Kapelle und eine Sitzgelegenheit laden ein zum Rasten. Einfach pausieren und schauen.
――――――――――
ja18: Eine super Aussicht und ruhig gelegen.
――――――――――
Dani Snuff Degi 👾🫟: Kapelle vorm Wald
――――――――――
Dexter Cath: An dieser kleiner Wegkreuzung findet man diese nette Waldkapelle, einen Gebetsbaum (Vater unser) sowie eine Rastbank.
――――――――――
Dani Snuff Degi 👾🫟: baum</desc>
    <src>Komoot</src>
    <link href="https://www.komoot.de/highlight/1132430">
      <text>View POI on Komoot</text>
    </link>
    <type>Highlight</type>
  </wpt>
  <wpt lat="48.726844" lon="11.088035">
    <ele>490</ele>
    <name>Forest Chapel and Our Father Tree</name>
    <cmt>https://d2exd72xrrp1s7.cloudfront.net/www/000/1k7/1w/1w21pw7ow8bwn1ddngd58buxgz4ix3r7re-uhi58556494/0</cmt>
    <desc></desc>
    <src>Komoot</src>
    <link href="https://www.komoot.de/highlight/5584770">
      <text>View POI on Komoot</text>
    </link>
    <type>Highlight</type>
  </wpt>
  <trk>
    <name>Felsenspitz – St.-Ulrichs-Kapelle Runde von Unterhausen (Bay) Stw 1</name>
    <desc>Distance: 8.773km, Estimated duration: 2.41h, Elevation up: 145.56982682472665m, Elevation down: 145.56982682472653m, Grade: moderate</desc>
    <link href="https://www.komoot.de/tour/3049312855">
      <text>View tour on Komoot</text>
    </link>
    <trkseg>
      <trkpt lat="48.720183" lon="11.09401">
        <ele>410.3</ele>
        <time>2026-06-19T12:09:50.927000Z</time>
      </trkpt>
      <trkpt lat="48.72018" lon="11.093858">
        <ele>410.3</ele>
        <time>2026-06-19T12:10:00.988000Z</time>
      </trkpt>
      <trkpt lat="48.720176" lon="11.093651">
        <ele>410.3</ele>
        <time>2026-06-19T12:10:14.778000Z</time>
      </trkpt>
      <trkpt lat="48.720173" lon="11.093528">
        <ele>410.3</ele>
        <time>2026-06-19T12:10:23.045000Z</time>
      </trkpt>
      <trkpt lat="48.720171" lon="11.093416">
        <ele>410.4</ele>
        <time>2026-06-19T12:10:30.611000Z</time>
      </trkpt>
      <trkpt lat="48.720631" lon="11.093421">
        <ele>410.9</ele>
        <time>2026-06-19T12:11:18.604000Z</time>
      </trkpt>
      <trkpt lat="48.720914" lon="11.09345">
        <ele>411.8</ele>
        <time>2026-06-19T12:11:50.023000Z</time>
      </trkpt>
      <trkpt lat="48.720932" lon="11.093548">
        <ele>412</ele>
        <time>2026-06-19T12:11:57.636000Z</time>
      </trkpt>
      <trkpt lat="48.721163" lon="11.09364">
        <ele>413.1</ele>
        <time>2026-06-19T12:12:25.306000Z</time>
      </trkpt>
      <trkpt lat="48.721482" lon="11.093699">
        <ele>415</ele>
        <time>2026-06-19T12:13:03.835000Z</time>
      </trkpt>
      <trkpt lat="48.721938" lon="11.093777">
        <ele>418.4</ele>
        <time>2026-06-19T12:14:01.475000Z</time>
      </trkpt>
      <trkpt lat="48.722707" lon="11.093894">
        <ele>426.6</ele>
        <time>2026-06-19T12:15:46.355000Z</time>
      </trkpt>
      <trkpt lat="48.72279" lon="11.09387">
        <ele>427.6</ele>
        <time>2026-06-19T12:15:58.522000Z</time>
      </trkpt>
      <trkpt lat="48.722831" lon="11.093997">
        <ele>428.7</ele>
        <time>2026-06-19T12:16:11.728000Z</time>
      </trkpt>
      <trkpt lat="48.722984" lon="11.094125">
        <ele>430.8</ele>
        <time>2026-06-19T12:16:36.582000Z</time>
      </trkpt>
      <trkpt lat="48.724162" lon="11.094825">
        <ele>442.6</ele>
        <time>2026-06-19T12:19:23.021000Z</time>
      </trkpt>
      <trkpt lat="48.724775" lon="11.093891">
        <ele>446.3</ele>
        <time>2026-06-19T12:21:02.788000Z</time>
      </trkpt>
      <trkpt lat="48.725163" lon="11.093563">
        <ele>447.2</ele>
        <time>2026-06-19T12:21:50.709000Z</time>
      </trkpt>
      <trkpt lat="48.72615" lon="11.092033">
        <ele>449.1</ele>
        <time>2026-06-19T12:24:18.527000Z</time>
      </trkpt>
      <trkpt lat="48.726233" lon="11.091313">
        <ele>448.3</ele>
        <time>2026-06-19T12:25:08.318000Z</time>
      </trkpt>
      <trkpt lat="48.726224" lon="11.091125">
        <ele>448</ele>
        <time>2026-06-19T12:25:21.384000Z</time>
      </trkpt>
      <trkpt lat="48.726492" lon="11.090983">
        <ele>446.9</ele>
        <time>2026-06-19T12:25:51.987000Z</time>
      </trkpt>
      <trkpt lat="48.726643" lon="11.090941">
        <ele>446.2</ele>
        <time>2026-06-19T12:26:08.857000Z</time>
      </trkpt>
      <trkpt lat="48.727076" lon="11.090874">
        <ele>443.9</ele>
        <time>2026-06-19T12:26:57.003000Z</time>
      </trkpt>
      <trkpt lat="48.727257" lon="11.090916">
        <ele>443.1</ele>
        <time>2026-06-19T12:27:16.909000Z</time>
      </trkpt>
      <trkpt lat="48.72719" lon="11.090457">
        <ele>441.9</ele>
        <time>2026-06-19T12:27:50.328000Z</time>
      </trkpt>
      <trkpt lat="48.727109" lon="11.090162">
        <ele>441.1</ele>
        <time>2026-06-19T12:28:13.121000Z</time>
      </trkpt>
      <trkpt lat="48.727098" lon="11.089766">
        <ele>440.2</ele>
        <time>2026-06-19T12:28:41.275000Z</time>
      </trkpt>
      <trkpt lat="48.727194" lon="11.088956">
        <ele>438.2</ele>
        <time>2026-06-19T12:29:39.743000Z</time>
      </trkpt>
      <trkpt lat="48.727183" lon="11.088693">
        <ele>437.7</ele>
        <time>2026-06-19T12:29:58.085000Z</time>
      </trkpt>
      <trkpt lat="48.727159" lon="11.088505">
        <ele>437.4</ele>
        <time>2026-06-19T12:30:11.236000Z</time>
      </trkpt>
      <trkpt lat="48.727028" lon="11.088176">
        <ele>437</ele>
        <time>2026-06-19T12:30:37.389000Z</time>
      </trkpt>
      <trkpt lat="48.726844" lon="11.088034">
        <ele>436.8</ele>
        <time>2026-06-19T12:30:58.683000Z</time>
      </trkpt>
      <trkpt lat="48.72679" lon="11.087993">
        <ele>436.7</ele>
        <time>2026-06-19T12:31:04.856000Z</time>
      </trkpt>
      <trkpt lat="48.726693" lon="11.08786">
        <ele>436.5</ele>
        <time>2026-06-19T12:31:18.331000Z</time>
      </trkpt>
      <trkpt lat="48.726717" lon="11.087774">
        <ele>436.4</ele>
        <time>2026-06-19T12:31:24.630000Z</time>
      </trkpt>
      <trkpt lat="48.726771" lon="11.087577">
        <ele>436.3</ele>
        <time>2026-06-19T12:31:39.077000Z</time>
      </trkpt>
      <trkpt lat="48.726899" lon="11.087276">
        <ele>435.9</ele>
        <time>2026-06-19T12:32:03.479000Z</time>
      </trkpt>
      <trkpt lat="48.72717" lon="11.086613">
        <ele>435</ele>
        <time>2026-06-19T12:32:56.939000Z</time>
      </trkpt>
      <trkpt lat="48.727231" lon="11.086308">
        <ele>434.6</ele>
        <time>2026-06-19T12:33:18.728000Z</time>
      </trkpt>
      <trkpt lat="48.727571" lon="11.083847">
        <ele>429.8</ele>
        <time>2026-06-19T12:36:14.516000Z</time>
      </trkpt>
      <trkpt lat="48.727799" lon="11.082023">
        <ele>428</ele>
        <time>2026-06-19T12:38:20.886000Z</time>
      </trkpt>
      <trkpt lat="48.727769" lon="11.081561">
        <ele>428.3</ele>
        <time>2026-06-19T12:38:52.904000Z</time>
      </trkpt>
      <trkpt lat="48.727703" lon="11.081196">
        <ele>429.1</ele>
        <time>2026-06-19T12:39:20.600000Z</time>
      </trkpt>
      <trkpt lat="48.727682" lon="11.081102">
        <ele>429.4</ele>
        <time>2026-06-19T12:39:28.015000Z</time>
      </trkpt>
      <trkpt lat="48.727533" lon="11.080444">
        <ele>431.8</ele>
        <time>2026-06-19T12:40:22.502000Z</time>
      </trkpt>
      <trkpt lat="48.727741" lon="11.080193">
        <ele>433.7</ele>
        <time>2026-06-19T12:40:55.319000Z</time>
      </trkpt>
      <trkpt lat="48.728245" lon="11.079742">
        <ele>438.2</ele>
        <time>2026-06-19T12:42:09.279000Z</time>
      </trkpt>
      <trkpt lat="48.728783" lon="11.079085">
        <ele>443.1</ele>
        <time>2026-06-19T12:43:35.123000Z</time>
      </trkpt>
      <trkpt lat="48.729218" lon="11.07857">
        <ele>444.3</ele>
        <time>2026-06-19T12:44:34.786000Z</time>
      </trkpt>
      <trkpt lat="48.729642" lon="11.077909">
        <ele>443.1</ele>
        <time>2026-06-19T12:45:38.279000Z</time>
      </trkpt>
      <trkpt lat="48.729752" lon="11.077728">
        <ele>442.3</ele>
        <time>2026-06-19T12:45:56.028000Z</time>
      </trkpt>
      <trkpt lat="48.730564" lon="11.076985">
        <ele>435.5</ele>
        <time>2026-06-19T12:47:44.627000Z</time>
      </trkpt>
      <trkpt lat="48.730614" lon="11.076881">
        <ele>434.8</ele>
        <time>2026-06-19T12:47:54.577000Z</time>
      </trkpt>
      <trkpt lat="48.731179" lon="11.075641">
        <ele>426.7</ele>
        <time>2026-06-19T12:49:50.185000Z</time>
      </trkpt>
      <trkpt lat="48.731338" lon="11.075155">
        <ele>424.1</ele>
        <time>2026-06-19T12:50:31.231000Z</time>
      </trkpt>
      <trkpt lat="48.731481" lon="11.073355">
        <ele>416.4</ele>
        <time>2026-06-19T12:52:46.410000Z</time>
      </trkpt>
      <trkpt lat="48.731781" lon="11.070828">
        <ele>405.8</ele>
        <time>2026-06-19T12:55:57.298000Z</time>
      </trkpt>
      <trkpt lat="48.731854" lon="11.070475">
        <ele>404.6</ele>
        <time>2026-06-19T12:56:24.070000Z</time>
      </trkpt>
      <trkpt lat="48.7321" lon="11.069842">
        <ele>403.2</ele>
        <time>2026-06-19T12:57:15.567000Z</time>
      </trkpt>
      <trkpt lat="48.732166" lon="11.069445">
        <ele>402.9</ele>
        <time>2026-06-19T12:57:43.138000Z</time>
      </trkpt>
      <trkpt lat="48.732114" lon="11.068935">
        <ele>403.2</ele>
        <time>2026-06-19T12:58:18.400000Z</time>
      </trkpt>
      <trkpt lat="48.732156" lon="11.06832">
        <ele>404.6</ele>
        <time>2026-06-19T12:59:04.063000Z</time>
      </trkpt>
      <trkpt lat="48.732149" lon="11.067941">
        <ele>405.9</ele>
        <time>2026-06-19T12:59:33.471000Z</time>
      </trkpt>
      <trkpt lat="48.732037" lon="11.067619">
        <ele>407.3</ele>
        <time>2026-06-19T13:00:02.343000Z</time>
      </trkpt>
      <trkpt lat="48.731653" lon="11.066514">
        <ele>412.1</ele>
        <time>2026-06-19T13:01:41.276000Z</time>
      </trkpt>
      <trkpt lat="48.73153" lon="11.06605">
        <ele>413.4</ele>
        <time>2026-06-19T13:02:19.009000Z</time>
      </trkpt>
      <trkpt lat="48.73153" lon="11.065921">
        <ele>413.7</ele>
        <time>2026-06-19T13:02:28.378000Z</time>
      </trkpt>
      <trkpt lat="48.731676" lon="11.06573">
        <ele>414.1</ele>
        <time>2026-06-19T13:02:49.257000Z</time>
      </trkpt>
      <trkpt lat="48.732069" lon="11.065634">
        <ele>414.5</ele>
        <time>2026-06-19T13:03:30.373000Z</time>
      </trkpt>
      <trkpt lat="48.732556" lon="11.065515">
        <ele>413.9</ele>
        <time>2026-06-19T13:04:20.958000Z</time>
      </trkpt>
      <trkpt lat="48.732928" lon="11.065808">
        <ele>412.8</ele>
        <time>2026-06-19T13:05:05.171000Z</time>
      </trkpt>
      <trkpt lat="48.734257" lon="11.065672">
        <ele>407.5</ele>
        <time>2026-06-19T13:07:29.305000Z</time>
      </trkpt>
      <trkpt lat="48.734727" lon="11.065437">
        <ele>404.8</ele>
        <time>2026-06-19T13:08:24.317000Z</time>
      </trkpt>
      <trkpt lat="48.735568" lon="11.065417">
        <ele>399.5</ele>
        <time>2026-06-19T13:09:59.074000Z</time>
      </trkpt>
      <trkpt lat="48.736252" lon="11.065222">
        <ele>395.8</ele>
        <time>2026-06-19T13:11:16.430000Z</time>
      </trkpt>
      <trkpt lat="48.736497" lon="11.065203">
        <ele>394.8</ele>
        <time>2026-06-19T13:11:42.929000Z</time>
      </trkpt>
      <trkpt lat="48.736761" lon="11.065183">
        <ele>394</ele>
        <time>2026-06-19T13:12:11Z</time>
      </trkpt>
      <trkpt lat="48.737761" lon="11.064231">
        <ele>392.8</ele>
        <time>2026-06-19T13:14:11.785000Z</time>
      </trkpt>
      <trkpt lat="48.737882" lon="11.063918">
        <ele>393.2</ele>
        <time>2026-06-19T13:14:37.112000Z</time>
      </trkpt>
      <trkpt lat="48.737933" lon="11.063163">
        <ele>394.6</ele>
        <time>2026-06-19T13:15:32.166000Z</time>
      </trkpt>
      <trkpt lat="48.737952" lon="11.063117">
        <ele>394.7</ele>
        <time>2026-06-19T13:15:36.069000Z</time>
      </trkpt>
      <trkpt lat="48.737759" lon="11.062656">
        <ele>396</ele>
        <time>2026-06-19T13:16:16.834000Z</time>
      </trkpt>
      <trkpt lat="48.737591" lon="11.062541">
        <ele>396.7</ele>
        <time>2026-06-19T13:16:37.711000Z</time>
      </trkpt>
      <trkpt lat="48.737373" lon="11.062493">
        <ele>397.5</ele>
        <time>2026-06-19T13:17:02.551000Z</time>
      </trkpt>
      <trkpt lat="48.737181" lon="11.062451">
        <ele>398.2</ele>
        <time>2026-06-19T13:17:24.269000Z</time>
      </trkpt>
      <trkpt lat="48.737028" lon="11.062316">
        <ele>398.7</ele>
        <time>2026-06-19T13:17:43.792000Z</time>
      </trkpt>
      <trkpt lat="48.736849" lon="11.062075">
        <ele>399.2</ele>
        <time>2026-06-19T13:18:09.603000Z</time>
      </trkpt>
      <trkpt lat="48.736523" lon="11.061485">
        <ele>399.1</ele>
        <time>2026-06-19T13:19:00.732000Z</time>
      </trkpt>
      <trkpt lat="48.735993" lon="11.061057">
        <ele>396.8</ele>
        <time>2026-06-19T13:20:05.592000Z</time>
      </trkpt>
      <trkpt lat="48.735777" lon="11.06056">
        <ele>394.6</ele>
        <time>2026-06-19T13:20:49.191000Z</time>
      </trkpt>
      <trkpt lat="48.735668" lon="11.060376">
        <ele>393.7</ele>
        <time>2026-06-19T13:21:07.423000Z</time>
      </trkpt>
      <trkpt lat="48.735524" lon="11.060132">
        <ele>392.6</ele>
        <time>2026-06-19T13:21:31.245000Z</time>
      </trkpt>
      <trkpt lat="48.735403" lon="11.060099">
        <ele>392</ele>
        <time>2026-06-19T13:21:44.743000Z</time>
      </trkpt>
      <trkpt lat="48.735392" lon="11.060092">
        <ele>391.9</ele>
        <time>2026-06-19T13:21:46.072000Z</time>
      </trkpt>
      <trkpt lat="48.735192" lon="11.059969">
        <ele>391</ele>
        <time>2026-06-19T13:22:09.572000Z</time>
      </trkpt>
      <trkpt lat="48.734722" lon="11.060093">
        <ele>389.8</ele>
        <time>2026-06-19T13:22:59.767000Z</time>
      </trkpt>
      <trkpt lat="48.734131" lon="11.06008">
        <ele>390.1</ele>
        <time>2026-06-19T13:24:00.023000Z</time>
      </trkpt>
      <trkpt lat="48.733908" lon="11.060178">
        <ele>390.6</ele>
        <time>2026-06-19T13:24:24.869000Z</time>
      </trkpt>
      <trkpt lat="48.733727" lon="11.060153">
        <ele>391.1</ele>
        <time>2026-06-19T13:24:44.772000Z</time>
      </trkpt>
      <trkpt lat="48.733628" lon="11.06001">
        <ele>391.4</ele>
        <time>2026-06-19T13:24:59.635000Z</time>
      </trkpt>
      <trkpt lat="48.733462" lon="11.060221">
        <ele>392</ele>
        <time>2026-06-19T13:25:23.294000Z</time>
      </trkpt>
      <trkpt lat="48.73293" lon="11.060186">
        <ele>392.8</ele>
        <time>2026-06-19T13:26:19.587000Z</time>
      </trkpt>
      <trkpt lat="48.732621" lon="11.060053">
        <ele>392.9</ele>
        <time>2026-06-19T13:26:52.045000Z</time>
      </trkpt>
      <trkpt lat="48.731997" lon="11.059657">
        <ele>392</ele>
        <time>2026-06-19T13:28:01.631000Z</time>
      </trkpt>
      <trkpt lat="48.731674" lon="11.059453">
        <ele>391.1</ele>
        <time>2026-06-19T13:28:38.485000Z</time>
      </trkpt>
      <trkpt lat="48.731499" lon="11.059371">
        <ele>390.6</ele>
        <time>2026-06-19T13:28:57.815000Z</time>
      </trkpt>
      <trkpt lat="48.731185" lon="11.05929">
        <ele>389.9</ele>
        <time>2026-06-19T13:29:31.219000Z</time>
      </trkpt>
      <trkpt lat="48.730979" lon="11.059526">
        <ele>389.5</ele>
        <time>2026-06-19T13:29:57.865000Z</time>
      </trkpt>
      <trkpt lat="48.73062" lon="11.059716">
        <ele>389.1</ele>
        <time>2026-06-19T13:30:36.772000Z</time>
      </trkpt>
      <trkpt lat="48.73041" lon="11.059945">
        <ele>389</ele>
        <time>2026-06-19T13:31:02.680000Z</time>
      </trkpt>
      <trkpt lat="48.730015" lon="11.060913">
        <ele>389.9</ele>
        <time>2026-06-19T13:32:20.792000Z</time>
      </trkpt>
      <trkpt lat="48.729871" lon="11.06143">
        <ele>390.6</ele>
        <time>2026-06-19T13:33:00.532000Z</time>
      </trkpt>
      <trkpt lat="48.729725" lon="11.062102">
        <ele>391.8</ele>
        <time>2026-06-19T13:33:51.292000Z</time>
      </trkpt>
      <trkpt lat="48.729702" lon="11.062538">
        <ele>392.7</ele>
        <time>2026-06-19T13:34:23.487000Z</time>
      </trkpt>
      <trkpt lat="48.7297" lon="11.062558">
        <ele>392.8</ele>
        <time>2026-06-19T13:34:25.002000Z</time>
      </trkpt>
      <trkpt lat="48.729531" lon="11.063095">
        <ele>394.5</ele>
        <time>2026-06-19T13:35:10.412000Z</time>
      </trkpt>
      <trkpt lat="48.729335" lon="11.063541">
        <ele>396.8</ele>
        <time>2026-06-19T13:35:53.604000Z</time>
      </trkpt>
      <trkpt lat="48.729197" lon="11.064155">
        <ele>399.5</ele>
        <time>2026-06-19T13:36:45.668000Z</time>
      </trkpt>
      <trkpt lat="48.729384" lon="11.064442">
        <ele>401</ele>
        <time>2026-06-19T13:37:17.438000Z</time>
      </trkpt>
      <trkpt lat="48.729549" lon="11.064792">
        <ele>402.5</ele>
        <time>2026-06-19T13:37:50.972000Z</time>
      </trkpt>
      <trkpt lat="48.72967" lon="11.064861">
        <ele>403.1</ele>
        <time>2026-06-19T13:38:06.023000Z</time>
      </trkpt>
      <trkpt lat="48.729549" lon="11.064792">
        <ele>403.6</ele>
        <time>2026-06-19T13:38:20.899000Z</time>
      </trkpt>
      <trkpt lat="48.729458" lon="11.064858">
        <ele>404</ele>
        <time>2026-06-19T13:38:32.426000Z</time>
      </trkpt>
      <trkpt lat="48.729235" lon="11.06489">
        <ele>404.8</ele>
        <time>2026-06-19T13:38:57.395000Z</time>
      </trkpt>
      <trkpt lat="48.729181" lon="11.064927">
        <ele>404.9</ele>
        <time>2026-06-19T13:39:03.960000Z</time>
      </trkpt>
      <trkpt lat="48.728705" lon="11.065289">
        <ele>405.5</ele>
        <time>2026-06-19T13:39:59.093000Z</time>
      </trkpt>
      <trkpt lat="48.728214" lon="11.065498">
        <ele>405.2</ele>
        <time>2026-06-19T13:40:50.733000Z</time>
      </trkpt>
      <trkpt lat="48.727876" lon="11.065734">
        <ele>405.2</ele>
        <time>2026-06-19T13:41:28Z</time>
      </trkpt>
      <trkpt lat="48.726779" lon="11.066906">
        <ele>404.1</ele>
        <time>2026-06-19T13:43:44.650000Z</time>
      </trkpt>
      <trkpt lat="48.726001" lon="11.067302">
        <ele>401</ele>
        <time>2026-06-19T13:45:12.914000Z</time>
      </trkpt>
      <trkpt lat="48.725705" lon="11.067499">
        <ele>399.4</ele>
        <time>2026-06-19T13:45:48.572000Z</time>
      </trkpt>
      <trkpt lat="48.725465" lon="11.067692">
        <ele>398.3</ele>
        <time>2026-06-19T13:46:18.003000Z</time>
      </trkpt>
      <trkpt lat="48.725287" lon="11.06789">
        <ele>397.6</ele>
        <time>2026-06-19T13:46:41.550000Z</time>
      </trkpt>
      <trkpt lat="48.725058" lon="11.068214">
        <ele>396.8</ele>
        <time>2026-06-19T13:47:14.586000Z</time>
      </trkpt>
      <trkpt lat="48.724886" lon="11.068286">
        <ele>396.4</ele>
        <time>2026-06-19T13:47:33.170000Z</time>
      </trkpt>
      <trkpt lat="48.725035" lon="11.068447">
        <ele>396.2</ele>
        <time>2026-06-19T13:47:51.921000Z</time>
      </trkpt>
      <trkpt lat="48.724731" lon="11.069552">
        <ele>396.3</ele>
        <time>2026-06-19T13:49:11.265000Z</time>
      </trkpt>
      <trkpt lat="48.724547" lon="11.070572">
        <ele>397.2</ele>
        <time>2026-06-19T13:50:24.319000Z</time>
      </trkpt>
      <trkpt lat="48.724582" lon="11.071183">
        <ele>397.7</ele>
        <time>2026-06-19T13:51:06.673000Z</time>
      </trkpt>
      <trkpt lat="48.724811" lon="11.071766">
        <ele>398.5</ele>
        <time>2026-06-19T13:51:54.078000Z</time>
      </trkpt>
      <trkpt lat="48.724854" lon="11.071929">
        <ele>398.7</ele>
        <time>2026-06-19T13:52:06.457000Z</time>
      </trkpt>
      <trkpt lat="48.725754" lon="11.074182">
        <ele>404.3</ele>
        <time>2026-06-19T13:55:20.052000Z</time>
      </trkpt>
      <trkpt lat="48.726054" lon="11.075008">
        <ele>406.9</ele>
        <time>2026-06-19T13:56:31.519000Z</time>
      </trkpt>
      <trkpt lat="48.726182" lon="11.07542">
        <ele>408.2</ele>
        <time>2026-06-19T13:57:05.777000Z</time>
      </trkpt>
      <trkpt lat="48.726295" lon="11.075957">
        <ele>409.6</ele>
        <time>2026-06-19T13:57:48.134000Z</time>
      </trkpt>
      <trkpt lat="48.726387" lon="11.076542">
        <ele>411.1</ele>
        <time>2026-06-19T13:58:32.888000Z</time>
      </trkpt>
      <trkpt lat="48.726421" lon="11.077528">
        <ele>413.5</ele>
        <time>2026-06-19T13:59:46.780000Z</time>
      </trkpt>
      <trkpt lat="48.726515" lon="11.077571">
        <ele>414</ele>
        <time>2026-06-19T13:59:58.234000Z</time>
      </trkpt>
      <trkpt lat="48.726534" lon="11.07761">
        <ele>414.2</ele>
        <time>2026-06-19T14:00:01.922000Z</time>
      </trkpt>
      <trkpt lat="48.726571" lon="11.078237">
        <ele>416.4</ele>
        <time>2026-06-19T14:00:51.368000Z</time>
      </trkpt>
      <trkpt lat="48.726603" lon="11.078334">
        <ele>416.8</ele>
        <time>2026-06-19T14:00:59.944000Z</time>
      </trkpt>
      <trkpt lat="48.726667" lon="11.078382">
        <ele>417.3</ele>
        <time>2026-06-19T14:01:08.656000Z</time>
      </trkpt>
      <trkpt lat="48.726928" lon="11.078404">
        <ele>419</ele>
        <time>2026-06-19T14:01:40.856000Z</time>
      </trkpt>
      <trkpt lat="48.726978" lon="11.078516">
        <ele>419.7</ele>
        <time>2026-06-19T14:01:51.862000Z</time>
      </trkpt>
      <trkpt lat="48.726982" lon="11.078801">
        <ele>420.9</ele>
        <time>2026-06-19T14:02:14.964000Z</time>
      </trkpt>
      <trkpt lat="48.727028" lon="11.078945">
        <ele>421.6</ele>
        <time>2026-06-19T14:02:27.897000Z</time>
      </trkpt>
      <trkpt lat="48.727311" lon="11.079299">
        <ele>423.7</ele>
        <time>2026-06-19T14:03:12.057000Z</time>
      </trkpt>
      <trkpt lat="48.727396" lon="11.079466">
        <ele>424.5</ele>
        <time>2026-06-19T14:03:28.428000Z</time>
      </trkpt>
      <trkpt lat="48.727445" lon="11.079697">
        <ele>425.2</ele>
        <time>2026-06-19T14:03:47.023000Z</time>
      </trkpt>
      <trkpt lat="48.727449" lon="11.080008">
        <ele>426</ele>
        <time>2026-06-19T14:04:10.397000Z</time>
      </trkpt>
      <trkpt lat="48.727533" lon="11.080444">
        <ele>426.9</ele>
        <time>2026-06-19T14:04:43.418000Z</time>
      </trkpt>
      <trkpt lat="48.727682" lon="11.081102">
        <ele>427.6</ele>
        <time>2026-06-19T14:05:31.976000Z</time>
      </trkpt>
      <trkpt lat="48.727703" lon="11.081196">
        <ele>427.7</ele>
        <time>2026-06-19T14:05:38.730000Z</time>
      </trkpt>
      <trkpt lat="48.727769" lon="11.081561">
        <ele>427.8</ele>
        <time>2026-06-19T14:06:04.242000Z</time>
      </trkpt>
      <trkpt lat="48.727799" lon="11.082023">
        <ele>428</ele>
        <time>2026-06-19T14:06:35.513000Z</time>
      </trkpt>
      <trkpt lat="48.727571" lon="11.083847">
        <ele>429.8</ele>
        <time>2026-06-19T14:08:44.608000Z</time>
      </trkpt>
      <trkpt lat="48.727231" lon="11.086308">
        <ele>434.6</ele>
        <time>2026-06-19T14:11:47.350000Z</time>
      </trkpt>
      <trkpt lat="48.72717" lon="11.086613">
        <ele>435</ele>
        <time>2026-06-19T14:12:09.698000Z</time>
      </trkpt>
      <trkpt lat="48.726899" lon="11.087276">
        <ele>435.9</ele>
        <time>2026-06-19T14:13:04.573000Z</time>
      </trkpt>
      <trkpt lat="48.726771" lon="11.087577">
        <ele>436.3</ele>
        <time>2026-06-19T14:13:29.489000Z</time>
      </trkpt>
      <trkpt lat="48.726717" lon="11.087774">
        <ele>436.4</ele>
        <time>2026-06-19T14:13:44.211000Z</time>
      </trkpt>
      <trkpt lat="48.726693" lon="11.08786">
        <ele>436.5</ele>
        <time>2026-06-19T14:13:50.601000Z</time>
      </trkpt>
      <trkpt lat="48.72679" lon="11.087993">
        <ele>436.7</ele>
        <time>2026-06-19T14:14:04.336000Z</time>
      </trkpt>
      <trkpt lat="48.726844" lon="11.088034">
        <ele>436.8</ele>
        <time>2026-06-19T14:14:10.615000Z</time>
      </trkpt>
      <trkpt lat="48.727028" lon="11.088176">
        <ele>437</ele>
        <time>2026-06-19T14:14:32.334000Z</time>
      </trkpt>
      <trkpt lat="48.727159" lon="11.088505">
        <ele>437.4</ele>
        <time>2026-06-19T14:14:59.090000Z</time>
      </trkpt>
      <trkpt lat="48.727183" lon="11.088693">
        <ele>437.7</ele>
        <time>2026-06-19T14:15:12.607000Z</time>
      </trkpt>
      <trkpt lat="48.727194" lon="11.088956">
        <ele>438.2</ele>
        <time>2026-06-19T14:15:31.627000Z</time>
      </trkpt>
      <trkpt lat="48.727098" lon="11.089766">
        <ele>440.2</ele>
        <time>2026-06-19T14:16:33.037000Z</time>
      </trkpt>
      <trkpt lat="48.727109" lon="11.090162">
        <ele>441.1</ele>
        <time>2026-06-19T14:17:02.555000Z</time>
      </trkpt>
      <trkpt lat="48.72719" lon="11.090457">
        <ele>441.9</ele>
        <time>2026-06-19T14:17:26.543000Z</time>
      </trkpt>
      <trkpt lat="48.727257" lon="11.090916">
        <ele>443.1</ele>
        <time>2026-06-19T14:18:01.692000Z</time>
      </trkpt>
      <trkpt lat="48.727076" lon="11.090874">
        <ele>443.9</ele>
        <time>2026-06-19T14:18:22.737000Z</time>
      </trkpt>
      <trkpt lat="48.726643" lon="11.090941">
        <ele>446.2</ele>
        <time>2026-06-19T14:19:14.140000Z</time>
      </trkpt>
      <trkpt lat="48.726492" lon="11.090983">
        <ele>446.9</ele>
        <time>2026-06-19T14:19:32.083000Z</time>
      </trkpt>
      <trkpt lat="48.726224" lon="11.091125">
        <ele>448</ele>
        <time>2026-06-19T14:20:04.243000Z</time>
      </trkpt>
      <trkpt lat="48.726233" lon="11.091313">
        <ele>448.3</ele>
        <time>2026-06-19T14:20:17.762000Z</time>
      </trkpt>
      <trkpt lat="48.72615" lon="11.092033">
        <ele>449.1</ele>
        <time>2026-06-19T14:21:08.666000Z</time>
      </trkpt>
      <trkpt lat="48.725163" lon="11.093563">
        <ele>447.2</ele>
        <time>2026-06-19T14:23:33.760000Z</time>
      </trkpt>
      <trkpt lat="48.724775" lon="11.093891">
        <ele>446.3</ele>
        <time>2026-06-19T14:24:20.250000Z</time>
      </trkpt>
      <trkpt lat="48.724162" lon="11.094825">
        <ele>442.6</ele>
        <time>2026-06-19T14:25:54.703000Z</time>
      </trkpt>
      <trkpt lat="48.722984" lon="11.094125">
        <ele>430.8</ele>
        <time>2026-06-19T14:28:24.776000Z</time>
      </trkpt>
      <trkpt lat="48.722831" lon="11.093997">
        <ele>428.7</ele>
        <time>2026-06-19T14:28:46.277000Z</time>
      </trkpt>
      <trkpt lat="48.72279" lon="11.09387">
        <ele>427.6</ele>
        <time>2026-06-19T14:28:57.749000Z</time>
      </trkpt>
      <trkpt lat="48.722707" lon="11.093894">
        <ele>426.6</ele>
        <time>2026-06-19T14:29:08.221000Z</time>
      </trkpt>
      <trkpt lat="48.721938" lon="11.093777">
        <ele>418.4</ele>
        <time>2026-06-19T14:30:41.786000Z</time>
      </trkpt>
      <trkpt lat="48.721482" lon="11.093699">
        <ele>415</ele>
        <time>2026-06-19T14:31:34.582000Z</time>
      </trkpt>
      <trkpt lat="48.721163" lon="11.09364">
        <ele>413.1</ele>
        <time>2026-06-19T14:32:10.465000Z</time>
      </trkpt>
      <trkpt lat="48.720932" lon="11.093548">
        <ele>412</ele>
        <time>2026-06-19T14:32:36.587000Z</time>
      </trkpt>
      <trkpt lat="48.720914" lon="11.09345">
        <ele>411.8</ele>
        <time>2026-06-19T14:32:43.825000Z</time>
      </trkpt>
      <trkpt lat="48.720631" lon="11.093421">
        <ele>410.9</ele>
        <time>2026-06-19T14:33:13.985000Z</time>
      </trkpt>
      <trkpt lat="48.720171" lon="11.093416">
        <ele>410.4</ele>
        <time>2026-06-19T14:34:01.185000Z</time>
      </trkpt>
      <trkpt lat="48.720173" lon="11.093528">
        <ele>410.3</ele>
        <time>2026-06-19T14:34:08.681000Z</time>
      </trkpt>
      <trkpt lat="48.720176" lon="11.093651">
        <ele>410.3</ele>
        <time>2026-06-19T14:34:16.894000Z</time>
      </trkpt>
      <trkpt lat="48.72018" lon="11.093858">
        <ele>410.3</ele>
        <time>2026-06-19T14:34:30.636000Z</time>
      </trkpt>
      <trkpt lat="48.720183" lon="11.09401">
        <ele>410.3</ele>
        <time>2026-06-19T14:34:40.685000Z</time>
      </trkpt>
    </trkseg>
  </trk>
</gpx>