<?xml version="1.0" encoding="UTF-8"?>
<gpx xmlns="http://www.topografix.com/GPX/1/1" xmlns:xsi="http://www.w3.org/2001/XMLSchema-instance" xsi:schemaLocation="http://www.topografix.com/GPX/1/1 http://www.topografix.com/GPX/1/1/gpx.xsd" version="1.1" creator="Robert Kampf">
  <metadata>
    <name>Felsenspitz – Silbermannstein Runde von Antoniberg</name>
    <desc>Distance: 8.096km, Estimated duration: 2.18h, Elevation up: 103.39028107802443m, Elevation down: 103.39028107802449m, Grade: moderate</desc>
    <author>
      <name>Robert Kampf</name>
      <link href="https://www.komoot.de/user/4125295338453">
        <text>View Robert Kampf's Profile on Komoot</text>
      </link>
    </author>
    <link href="https://www.komoot.de/tour/2920435836">
      <text>View tour on Komoot</text>
    </link>
  </metadata>
  <wpt lat="48.735398" lon="11.060072">
    <ele>412</ele>
    <name>Scenic Forest Path</name>
    <cmt>https://d2exd72xrrp1s7.cloudfront.net/www/000/1k6/1r/1r84gueer6xbq11mt2vc5z79s742yqq2gi-uhi46906084/0</cmt>
    <desc></desc>
    <src>Komoot</src>
    <link href="https://www.komoot.de/highlight/4127066">
      <text>View POI on Komoot</text>
    </link>
    <type>Highlight</type>
  </wpt>
  <wpt lat="48.737385" lon="11.062367">
    <ele>440.7</ele>
    <name>Felsenspitz</name>
    <cmt>https://d2exd72xrrp1s7.cloudfront.net/www/000/1k5/1n/1ncwxohxnfso6eigrtwzv5iu03p454g1g-uhi29888427/0</cmt>
    <desc>Fabi: Der am weitesten nach Westen reichende Juraausläufer südlich der Donau fällt hier in einer ca. 30 m hohen Felswand zur Donau und zur kleinen Paar ab. 
Die Donau erzwang sich hier einen Durchbruch bei Unterhausen/Stepperg. 
Im 19. Jahrhundert wurden Teile des Jurariffs weggesprengt zur Materialgewinnung für die Donaubefestigung.
Unweit des Felsenspitz vereinigt sich die Kleine Paar mit der Friedberger Ach, welche schließlich nach ein paar hundert Metern in die Donau mündet.
――――――――――
FatmodulAnt🖤: Felswand zur Donau
――――――――――
Dani Snuff Degi 👾🫟: Mini trail Richtung Donau</desc>
    <src>Komoot</src>
    <link href="https://www.komoot.de/highlight/5120254">
      <text>View POI on Komoot</text>
    </link>
    <type>Highlight</type>
  </wpt>
  <wpt lat="48.735793" lon="11.067457">
    <ele>437.7</ele>
    <name>Enchanted Oak Grove</name>
    <cmt>https://d2exd72xrrp1s7.cloudfront.net/www/000/1k5/ia/iap8sw1za2kv1ensc3gw2f3cy3p45b9da-uhi29889050/0</cmt>
    <desc>Fabi: Eine wunderschöne Lichtung, auf der mehrere uralte Eichen zusammenstehen. Im richtigen Licht sehr majestätisch, in der Dämmerung auch etwas unheimlich. Solche knorrigen Baumriesen sind selbst in den Auwäldern der Donau kein alltäglicher Anblick.</desc>
    <src>Komoot</src>
    <link href="https://www.komoot.de/highlight/3010927">
      <text>View POI on Komoot</text>
    </link>
    <type>Highlight</type>
  </wpt>
  <wpt lat="48.729678" lon="11.064831">
    <ele>481</ele>
    <name>Silbermannstein</name>
    <cmt>https://d2exd72xrrp1s7.cloudfront.net/www/000/1k5/ob/obpevunno7au1xdubn1q1zgtn3p45ddaa-uhi29889256/0</cmt>
    <desc>Fabi: Grenzstein aus massivem Kalkstein.
Ein Freiherr Silbermann (Hofmark Straß 1721, Richter und Pfleger zu Burgheim) besaß früher den Wald auf dem Stätteberg und den angrenzenden Auwald an der Donau. 
Der Stein hat den Freiherr überdauert und steht wahrscheinlich noch hier, wenn wir schon alle zu Staub zerfallen sind. :D
――――――――――
Albrecht: Der Silbermann-Stein als Grenzstein </desc>
    <src>Komoot</src>
    <link href="https://www.komoot.de/highlight/3010941">
      <text>View POI on Komoot</text>
    </link>
    <type>Highlight</type>
  </wpt>
  <wpt lat="48.732609" lon="11.06239">
    <ele>488.3</ele>
    <name>Celtic Cult Site on Stätteberg</name>
    <cmt>https://d2exd72xrrp1s7.cloudfront.net/www/000/1k5/1l/1lbuyg3cb2jcizqlch1i0tas3p45m94w-uhi29890183/0</cmt>
    <desc>Fabi: Hoch oben auf dem Stätteberg thronte einst ein keltisches Kultzentrum innerhalb einer großen Wallanlage. 
Das Institut für Vor- und Frühgeschichtliche Archäologie und Provinzialrömische Archäologie der Ludwig-Maximilians-Universität München führt hier archäologische Ausgrabungen durch.

In der Wallanlage fand sich auf einem flachen Fundament aus Kalksteinen ein Brandopferplatz, der von einer Ascheschicht mit Feuerspuren, einigen Zentnern verglühter Tierknochen und einer ungeheuren Masse von Scherben bedeckt war, darin ein Bronzedolch (Opfermesser?). 

Nach Manching ist dies die zweitgrößte Anlage dieser Art in der Region. 

Der Hauptwall bestand aus einer 3 m dicken Trockenmauer mit Holzversteifung und Brustwehr.

Bitte die Absperrung und Hinweisschilder beachten.</desc>
    <src>Komoot</src>
    <link href="https://www.komoot.de/highlight/3010982">
      <text>View POI on Komoot</text>
    </link>
    <type>Highlight</type>
  </wpt>
  <wpt lat="48.735934" lon="11.06151">
    <ele>484.7</ele>
    <name>View of the Danube from Stätteberg</name>
    <cmt>https://d2exd72xrrp1s7.cloudfront.net/www/000/1k5/rm/rm0i49z9jcbde4k69vi2d4ap3p45visd-uhi29891238/0</cmt>
    <desc>Fabi: Dieser mehr als 30 m hohe Aussichtspunkt auf dem Stätteberg bietet einen tollen Blick auf die Donau, den Auwald sowie die umliegenden Felder und Dörfer.
Bei gutem Wetter sind Ausblicke bis nach Rennertshofen, Stepperg und Schloss Bertoldsheim möglich.</desc>
    <src>Komoot</src>
    <link href="https://www.komoot.de/highlight/3011017">
      <text>View POI on Komoot</text>
    </link>
    <type>Highlight</type>
  </wpt>
  <wpt lat="48.733613" lon="11.059499">
    <ele>440.2</ele>
    <name>Bridge Over the Kleine Paar</name>
    <cmt>https://d2exd72xrrp1s7.cloudfront.net/www/000/1k5/1u/1uo8nnrorbjs3m7gdzev4owtr3ucl5047-uhi37325760/0</cmt>
    <desc>IRI𝕊 with
🅱️🅴🅻🅻🅰️ 🚵‍♀️: die Überquerung der kleinen Paar
――――――――――
Fabi: Malerisch gelegene Brücke über die Kleine Paar.
――――――――――
FatmodulAnt🖤: Schöner Platz für ne Pause, habe hier nen Eisvogel geshen 🐦
――――――――――
Dani Snuff Degi 👾🫟: Brücke 
――――――――――
Albrecht: Kleine Brücke am Rad- und Wanderweg </desc>
    <src>Komoot</src>
    <link href="https://www.komoot.de/highlight/3010857">
      <text>View POI on Komoot</text>
    </link>
    <type>Highlight</type>
  </wpt>
  <wpt lat="48.731736" lon="11.054752">
    <ele>458.5</ele>
    <name>Alte Rinne Trail</name>
    <cmt>https://d2exd72xrrp1s7.cloudfront.net/www/000/1k5/ir/ireicvenuxrd1o5asf5ypk0xa3p45yukt-uhi29891530/0</cmt>
    <desc>Fabi: Schöner Wanderweg entlang des ehemaligen Flusslaufs der Friedberger Ach. Die Friedberger Ach wird im Landkreis Neuburg auch "Rinne" genannt, daher der Name "Alte Rinne". Besonders im Herbst und Winter zu empfehlen - im Sommer aufgrund der Mückenschwärme nur für hartgesottene Wanderer oder Imker im Komplettanzug. ;)</desc>
    <src>Komoot</src>
    <link href="https://www.komoot.de/highlight/3010831">
      <text>View POI on Komoot</text>
    </link>
    <type>Highlight</type>
  </wpt>
  <trk>
    <name>Felsenspitz – Silbermannstein Runde von Antoniberg</name>
    <desc>Distance: 8.096km, Estimated duration: 2.18h, Elevation up: 103.39028107802443m, Elevation down: 103.39028107802449m, Grade: moderate</desc>
    <link href="https://www.komoot.de/tour/2920435836">
      <text>View tour on Komoot</text>
    </link>
    <trkseg>
      <trkpt lat="48.72958" lon="11.053406">
        <ele>386.4</ele>
        <time>2026-04-30T11:59:27.146000Z</time>
      </trkpt>
      <trkpt lat="48.729724" lon="11.053453">
        <ele>386.5</ele>
        <time>2026-04-30T11:59:42.237000Z</time>
      </trkpt>
      <trkpt lat="48.729937" lon="11.053467">
        <ele>386.7</ele>
        <time>2026-04-30T12:00:04.071000Z</time>
      </trkpt>
      <trkpt lat="48.730003" lon="11.053444">
        <ele>386.7</ele>
        <time>2026-04-30T12:00:10.998000Z</time>
      </trkpt>
      <trkpt lat="48.730083" lon="11.053271">
        <ele>386.8</ele>
        <time>2026-04-30T12:00:25.269000Z</time>
      </trkpt>
      <trkpt lat="48.730205" lon="11.05276">
        <ele>387.1</ele>
        <time>2026-04-30T12:01:02.041000Z</time>
      </trkpt>
      <trkpt lat="48.730235" lon="11.05267">
        <ele>387.1</ele>
        <time>2026-04-30T12:01:08.860000Z</time>
      </trkpt>
      <trkpt lat="48.730304" lon="11.052546">
        <ele>387.2</ele>
        <time>2026-04-30T12:01:19.812000Z</time>
      </trkpt>
      <trkpt lat="48.730513" lon="11.052942">
        <ele>387.4</ele>
        <time>2026-04-30T12:01:54.185000Z</time>
      </trkpt>
      <trkpt lat="48.730721" lon="11.053334">
        <ele>387.6</ele>
        <time>2026-04-30T12:02:27.926000Z</time>
      </trkpt>
      <trkpt lat="48.731141" lon="11.05399">
        <ele>387.7</ele>
        <time>2026-04-30T12:03:28.786000Z</time>
      </trkpt>
      <trkpt lat="48.731577" lon="11.054404">
        <ele>387.8</ele>
        <time>2026-04-30T12:04:20.480000Z</time>
      </trkpt>
      <trkpt lat="48.73181" lon="11.054699">
        <ele>387.8</ele>
        <time>2026-04-30T12:04:50.899000Z</time>
      </trkpt>
      <trkpt lat="48.732135" lon="11.055195">
        <ele>387.6</ele>
        <time>2026-04-30T12:05:37.287000Z</time>
      </trkpt>
      <trkpt lat="48.732296" lon="11.055618">
        <ele>387.5</ele>
        <time>2026-04-30T12:06:09.882000Z</time>
      </trkpt>
      <trkpt lat="48.732401" lon="11.055782">
        <ele>387.4</ele>
        <time>2026-04-30T12:06:25.158000Z</time>
      </trkpt>
      <trkpt lat="48.732529" lon="11.056199">
        <ele>387.2</ele>
        <time>2026-04-30T12:06:55.936000Z</time>
      </trkpt>
      <trkpt lat="48.732522" lon="11.056386">
        <ele>387.1</ele>
        <time>2026-04-30T12:07:08.483000Z</time>
      </trkpt>
      <trkpt lat="48.73246" lon="11.056796">
        <ele>386.9</ele>
        <time>2026-04-30T12:07:36.671000Z</time>
      </trkpt>
      <trkpt lat="48.732457" lon="11.056982">
        <ele>386.8</ele>
        <time>2026-04-30T12:07:49.113000Z</time>
      </trkpt>
      <trkpt lat="48.732474" lon="11.057046">
        <ele>386.8</ele>
        <time>2026-04-30T12:07:53.715000Z</time>
      </trkpt>
      <trkpt lat="48.73267" lon="11.057819">
        <ele>386.5</ele>
        <time>2026-04-30T12:08:48.951000Z</time>
      </trkpt>
      <trkpt lat="48.732739" lon="11.057967">
        <ele>386.5</ele>
        <time>2026-04-30T12:09:00.936000Z</time>
      </trkpt>
      <trkpt lat="48.732847" lon="11.058062">
        <ele>386.5</ele>
        <time>2026-04-30T12:09:13.472000Z</time>
      </trkpt>
      <trkpt lat="48.733057" lon="11.058328">
        <ele>386.7</ele>
        <time>2026-04-30T12:09:41.467000Z</time>
      </trkpt>
      <trkpt lat="48.733261" lon="11.058692">
        <ele>387.2</ele>
        <time>2026-04-30T12:10:14.835000Z</time>
      </trkpt>
      <trkpt lat="48.733418" lon="11.059073">
        <ele>387.7</ele>
        <time>2026-04-30T12:10:46.380000Z</time>
      </trkpt>
      <trkpt lat="48.733579" lon="11.05927">
        <ele>388</ele>
        <time>2026-04-30T12:11:08.016000Z</time>
      </trkpt>
      <trkpt lat="48.733625" lon="11.059441">
        <ele>388.1</ele>
        <time>2026-04-30T12:11:20.690000Z</time>
      </trkpt>
      <trkpt lat="48.733624" lon="11.059499">
        <ele>388.2</ele>
        <time>2026-04-30T12:11:24.702000Z</time>
      </trkpt>
      <trkpt lat="48.733622" lon="11.059611">
        <ele>388.2</ele>
        <time>2026-04-30T12:11:32.367000Z</time>
      </trkpt>
      <trkpt lat="48.733628" lon="11.06001">
        <ele>388.4</ele>
        <time>2026-04-30T12:11:59.463000Z</time>
      </trkpt>
      <trkpt lat="48.733727" lon="11.060153">
        <ele>388.6</ele>
        <time>2026-04-30T12:12:13.504000Z</time>
      </trkpt>
      <trkpt lat="48.733908" lon="11.060178">
        <ele>388.7</ele>
        <time>2026-04-30T12:12:32.300000Z</time>
      </trkpt>
      <trkpt lat="48.734131" lon="11.06008">
        <ele>388.9</ele>
        <time>2026-04-30T12:12:56.328000Z</time>
      </trkpt>
      <trkpt lat="48.734722" lon="11.060093">
        <ele>389.8</ele>
        <time>2026-04-30T12:13:58.697000Z</time>
      </trkpt>
      <trkpt lat="48.735192" lon="11.059969">
        <ele>391</ele>
        <time>2026-04-30T12:14:50.631000Z</time>
      </trkpt>
      <trkpt lat="48.735392" lon="11.060092">
        <ele>391.9</ele>
        <time>2026-04-30T12:15:15.459000Z</time>
      </trkpt>
      <trkpt lat="48.735403" lon="11.060099">
        <ele>392</ele>
        <time>2026-04-30T12:15:16.865000Z</time>
      </trkpt>
      <trkpt lat="48.735524" lon="11.060132">
        <ele>392.6</ele>
        <time>2026-04-30T12:15:31.200000Z</time>
      </trkpt>
      <trkpt lat="48.735777" lon="11.06056">
        <ele>394.6</ele>
        <time>2026-04-30T12:16:16.158000Z</time>
      </trkpt>
      <trkpt lat="48.735993" lon="11.061057">
        <ele>396.8</ele>
        <time>2026-04-30T12:17:02.832000Z</time>
      </trkpt>
      <trkpt lat="48.736133" lon="11.06117">
        <ele>397.5</ele>
        <time>2026-04-30T12:17:21.419000Z</time>
      </trkpt>
      <trkpt lat="48.736523" lon="11.061485">
        <ele>399.1</ele>
        <time>2026-04-30T12:18:11.039000Z</time>
      </trkpt>
      <trkpt lat="48.736849" lon="11.062075">
        <ele>399.2</ele>
        <time>2026-04-30T12:19:02.410000Z</time>
      </trkpt>
      <trkpt lat="48.737028" lon="11.062316">
        <ele>398.7</ele>
        <time>2026-04-30T12:19:27.435000Z</time>
      </trkpt>
      <trkpt lat="48.737181" lon="11.062451">
        <ele>398.2</ele>
        <time>2026-04-30T12:19:46.207000Z</time>
      </trkpt>
      <trkpt lat="48.737373" lon="11.062493">
        <ele>397.5</ele>
        <time>2026-04-30T12:20:06.976000Z</time>
      </trkpt>
      <trkpt lat="48.737591" lon="11.062541">
        <ele>396.7</ele>
        <time>2026-04-30T12:20:30.668000Z</time>
      </trkpt>
      <trkpt lat="48.737759" lon="11.062656">
        <ele>396</ele>
        <time>2026-04-30T12:20:50.525000Z</time>
      </trkpt>
      <trkpt lat="48.737952" lon="11.063117">
        <ele>394.7</ele>
        <time>2026-04-30T12:21:29.328000Z</time>
      </trkpt>
      <trkpt lat="48.737933" lon="11.063163">
        <ele>394.6</ele>
        <time>2026-04-30T12:21:33.085000Z</time>
      </trkpt>
      <trkpt lat="48.737882" lon="11.063918">
        <ele>393.2</ele>
        <time>2026-04-30T12:22:26.080000Z</time>
      </trkpt>
      <trkpt lat="48.737761" lon="11.064231">
        <ele>392.8</ele>
        <time>2026-04-30T12:22:50.802000Z</time>
      </trkpt>
      <trkpt lat="48.736761" lon="11.065183">
        <ele>392.6</ele>
        <time>2026-04-30T12:24:49.373000Z</time>
      </trkpt>
      <trkpt lat="48.736497" lon="11.065203">
        <ele>392.6</ele>
        <time>2026-04-30T12:25:15.930000Z</time>
      </trkpt>
      <trkpt lat="48.736405" lon="11.065461">
        <ele>392.6</ele>
        <time>2026-04-30T12:25:35.342000Z</time>
      </trkpt>
      <trkpt lat="48.73581" lon="11.065799">
        <ele>392.6</ele>
        <time>2026-04-30T12:26:38.932000Z</time>
      </trkpt>
      <trkpt lat="48.735531" lon="11.065992">
        <ele>392.5</ele>
        <time>2026-04-30T12:27:09.850000Z</time>
      </trkpt>
      <trkpt lat="48.735439" lon="11.066239">
        <ele>392.5</ele>
        <time>2026-04-30T12:27:28.663000Z</time>
      </trkpt>
      <trkpt lat="48.735332" lon="11.066341">
        <ele>392.5</ele>
        <time>2026-04-30T12:27:41.314000Z</time>
      </trkpt>
      <trkpt lat="48.735439" lon="11.066239">
        <ele>392.5</ele>
        <time>2026-04-30T12:27:53.970000Z</time>
      </trkpt>
      <trkpt lat="48.735531" lon="11.065992">
        <ele>392.5</ele>
        <time>2026-04-30T12:28:12.856000Z</time>
      </trkpt>
      <trkpt lat="48.73581" lon="11.065799">
        <ele>392.8</ele>
        <time>2026-04-30T12:28:44.557000Z</time>
      </trkpt>
      <trkpt lat="48.736405" lon="11.065461">
        <ele>394.1</ele>
        <time>2026-04-30T12:29:52.572000Z</time>
      </trkpt>
      <trkpt lat="48.736497" lon="11.065203">
        <ele>394.7</ele>
        <time>2026-04-30T12:30:14.095000Z</time>
      </trkpt>
      <trkpt lat="48.736252" lon="11.065222">
        <ele>395.6</ele>
        <time>2026-04-30T12:30:41.920000Z</time>
      </trkpt>
      <trkpt lat="48.735568" lon="11.065417">
        <ele>399.5</ele>
        <time>2026-04-30T12:32:05.057000Z</time>
      </trkpt>
      <trkpt lat="48.734727" lon="11.065437">
        <ele>404.8</ele>
        <time>2026-04-30T12:33:47.414000Z</time>
      </trkpt>
      <trkpt lat="48.734257" lon="11.065672">
        <ele>407.5</ele>
        <time>2026-04-30T12:34:46.345000Z</time>
      </trkpt>
      <trkpt lat="48.732928" lon="11.065808">
        <ele>412.8</ele>
        <time>2026-04-30T12:37:18.095000Z</time>
      </trkpt>
      <trkpt lat="48.732903" lon="11.065789">
        <ele>412.9</ele>
        <time>2026-04-30T12:37:21.152000Z</time>
      </trkpt>
      <trkpt lat="48.732556" lon="11.065515">
        <ele>413.9</ele>
        <time>2026-04-30T12:38:03.938000Z</time>
      </trkpt>
      <trkpt lat="48.732069" lon="11.065634">
        <ele>414.5</ele>
        <time>2026-04-30T12:38:55.414000Z</time>
      </trkpt>
      <trkpt lat="48.731676" lon="11.06573">
        <ele>414.1</ele>
        <time>2026-04-30T12:39:36.015000Z</time>
      </trkpt>
      <trkpt lat="48.73153" lon="11.065921">
        <ele>413.7</ele>
        <time>2026-04-30T12:39:56.228000Z</time>
      </trkpt>
      <trkpt lat="48.73153" lon="11.06605">
        <ele>413.4</ele>
        <time>2026-04-30T12:40:05.221000Z</time>
      </trkpt>
      <trkpt lat="48.731653" lon="11.066514">
        <ele>412.1</ele>
        <time>2026-04-30T12:40:41.012000Z</time>
      </trkpt>
      <trkpt lat="48.732149" lon="11.067941">
        <ele>405.9</ele>
        <time>2026-04-30T12:42:39.982000Z</time>
      </trkpt>
      <trkpt lat="48.732156" lon="11.06832">
        <ele>404.6</ele>
        <time>2026-04-30T12:43:07.564000Z</time>
      </trkpt>
      <trkpt lat="48.732114" lon="11.068935">
        <ele>403.2</ele>
        <time>2026-04-30T12:43:51.208000Z</time>
      </trkpt>
      <trkpt lat="48.732166" lon="11.069445">
        <ele>402.9</ele>
        <time>2026-04-30T12:44:25.974000Z</time>
      </trkpt>
      <trkpt lat="48.7321" lon="11.069842">
        <ele>403.2</ele>
        <time>2026-04-30T12:44:53.934000Z</time>
      </trkpt>
      <trkpt lat="48.731854" lon="11.070475">
        <ele>404.6</ele>
        <time>2026-04-30T12:45:47.570000Z</time>
      </trkpt>
      <trkpt lat="48.731781" lon="11.070828">
        <ele>405.8</ele>
        <time>2026-04-30T12:46:15.997000Z</time>
      </trkpt>
      <trkpt lat="48.731481" lon="11.073355">
        <ele>416.4</ele>
        <time>2026-04-30T12:49:41.974000Z</time>
      </trkpt>
      <trkpt lat="48.731338" lon="11.075155">
        <ele>424.1</ele>
        <time>2026-04-30T12:52:08.075000Z</time>
      </trkpt>
      <trkpt lat="48.731179" lon="11.075641">
        <ele>426.7</ele>
        <time>2026-04-30T12:52:52.825000Z</time>
      </trkpt>
      <trkpt lat="48.730614" lon="11.076881">
        <ele>434</ele>
        <time>2026-04-30T12:54:57.143000Z</time>
      </trkpt>
      <trkpt lat="48.730564" lon="11.076985">
        <ele>434.6</ele>
        <time>2026-04-30T12:55:07.593000Z</time>
      </trkpt>
      <trkpt lat="48.73024" lon="11.076758">
        <ele>436.8</ele>
        <time>2026-04-30T12:55:51.037000Z</time>
      </trkpt>
      <trkpt lat="48.72993" lon="11.076496">
        <ele>438.5</ele>
        <time>2026-04-30T12:56:32.498000Z</time>
      </trkpt>
      <trkpt lat="48.729827" lon="11.076409">
        <ele>439</ele>
        <time>2026-04-30T12:56:45.902000Z</time>
      </trkpt>
      <trkpt lat="48.72932" lon="11.075926">
        <ele>440.2</ele>
        <time>2026-04-30T12:57:50.328000Z</time>
      </trkpt>
      <trkpt lat="48.729251" lon="11.075688">
        <ele>440.4</ele>
        <time>2026-04-30T12:58:07.892000Z</time>
      </trkpt>
      <trkpt lat="48.729274" lon="11.075066">
        <ele>440.2</ele>
        <time>2026-04-30T12:58:49.296000Z</time>
      </trkpt>
      <trkpt lat="48.729587" lon="11.073943">
        <ele>438.1</ele>
        <time>2026-04-30T13:00:14.213000Z</time>
      </trkpt>
      <trkpt lat="48.729909" lon="11.072103">
        <ele>432.4</ele>
        <time>2026-04-30T13:02:31.464000Z</time>
      </trkpt>
      <trkpt lat="48.729998" lon="11.070902">
        <ele>429</ele>
        <time>2026-04-30T13:03:58.093000Z</time>
      </trkpt>
      <trkpt lat="48.730374" lon="11.069725">
        <ele>426.1</ele>
        <time>2026-04-30T13:05:30.467000Z</time>
      </trkpt>
      <trkpt lat="48.730073" lon="11.068385">
        <ele>423.4</ele>
        <time>2026-04-30T13:07:09.402000Z</time>
      </trkpt>
      <trkpt lat="48.729846" lon="11.067174">
        <ele>420.4</ele>
        <time>2026-04-30T13:08:38.654000Z</time>
      </trkpt>
      <trkpt lat="48.729547" lon="11.066573">
        <ele>417.7</ele>
        <time>2026-04-30T13:09:33.848000Z</time>
      </trkpt>
      <trkpt lat="48.729582" lon="11.065424">
        <ele>412.5</ele>
        <time>2026-04-30T13:11:00.227000Z</time>
      </trkpt>
      <trkpt lat="48.729181" lon="11.064927">
        <ele>409.7</ele>
        <time>2026-04-30T13:11:57.821000Z</time>
      </trkpt>
      <trkpt lat="48.729235" lon="11.06489">
        <ele>409.4</ele>
        <time>2026-04-30T13:12:04.291000Z</time>
      </trkpt>
      <trkpt lat="48.729458" lon="11.064858">
        <ele>408.7</ele>
        <time>2026-04-30T13:12:28.138000Z</time>
      </trkpt>
      <trkpt lat="48.729549" lon="11.064792">
        <ele>408.5</ele>
        <time>2026-04-30T13:12:38.750000Z</time>
      </trkpt>
      <trkpt lat="48.72967" lon="11.064861">
        <ele>408.3</ele>
        <time>2026-04-30T13:12:52.115000Z</time>
      </trkpt>
      <trkpt lat="48.729549" lon="11.064792">
        <ele>408.1</ele>
        <time>2026-04-30T13:13:05.287000Z</time>
      </trkpt>
      <trkpt lat="48.730181" lon="11.064324">
        <ele>409.9</ele>
        <time>2026-04-30T13:14:21.948000Z</time>
      </trkpt>
      <trkpt lat="48.73033" lon="11.064165">
        <ele>410.7</ele>
        <time>2026-04-30T13:14:42.918000Z</time>
      </trkpt>
      <trkpt lat="48.730651" lon="11.063712">
        <ele>412.9</ele>
        <time>2026-04-30T13:15:34.471000Z</time>
      </trkpt>
      <trkpt lat="48.731141" lon="11.063163">
        <ele>416.1</ele>
        <time>2026-04-30T13:16:46.514000Z</time>
      </trkpt>
      <trkpt lat="48.73163" lon="11.062823">
        <ele>418.4</ele>
        <time>2026-04-30T13:17:48.201000Z</time>
      </trkpt>
      <trkpt lat="48.732103" lon="11.062389">
        <ele>419.3</ele>
        <time>2026-04-30T13:18:46.849000Z</time>
      </trkpt>
      <trkpt lat="48.732262" lon="11.062221">
        <ele>419.3</ele>
        <time>2026-04-30T13:19:06.316000Z</time>
      </trkpt>
      <trkpt lat="48.732399" lon="11.062035">
        <ele>419.1</ele>
        <time>2026-04-30T13:19:25.141000Z</time>
      </trkpt>
      <trkpt lat="48.732741" lon="11.061569">
        <ele>418</ele>
        <time>2026-04-30T13:20:13.298000Z</time>
      </trkpt>
      <trkpt lat="48.732926" lon="11.061406">
        <ele>417.3</ele>
        <time>2026-04-30T13:20:36.105000Z</time>
      </trkpt>
      <trkpt lat="48.733218" lon="11.061323">
        <ele>416.2</ele>
        <time>2026-04-30T13:21:08.135000Z</time>
      </trkpt>
      <trkpt lat="48.734194" lon="11.061364">
        <ele>413.4</ele>
        <time>2026-04-30T13:22:51.629000Z</time>
      </trkpt>
      <trkpt lat="48.735276" lon="11.061271">
        <ele>412.9</ele>
        <time>2026-04-30T13:24:41.220000Z</time>
      </trkpt>
      <trkpt lat="48.735414" lon="11.061337">
        <ele>413.1</ele>
        <time>2026-04-30T13:24:56.502000Z</time>
      </trkpt>
      <trkpt lat="48.735738" lon="11.061604">
        <ele>414</ele>
        <time>2026-04-30T13:25:36.479000Z</time>
      </trkpt>
      <trkpt lat="48.735932" lon="11.061615">
        <ele>414.5</ele>
        <time>2026-04-30T13:25:57.891000Z</time>
      </trkpt>
      <trkpt lat="48.735738" lon="11.061604">
        <ele>415.2</ele>
        <time>2026-04-30T13:26:19.674000Z</time>
      </trkpt>
      <trkpt lat="48.735934" lon="11.062058">
        <ele>416.5</ele>
        <time>2026-04-30T13:27:00.046000Z</time>
      </trkpt>
      <trkpt lat="48.73605" lon="11.062491">
        <ele>417.6</ele>
        <time>2026-04-30T13:27:34.676000Z</time>
      </trkpt>
      <trkpt lat="48.736004" lon="11.062798">
        <ele>418.3</ele>
        <time>2026-04-30T13:27:57.984000Z</time>
      </trkpt>
      <trkpt lat="48.735972" lon="11.062881">
        <ele>418.6</ele>
        <time>2026-04-30T13:28:05.303000Z</time>
      </trkpt>
      <trkpt lat="48.735825" lon="11.063147">
        <ele>419.5</ele>
        <time>2026-04-30T13:28:31.566000Z</time>
      </trkpt>
      <trkpt lat="48.735687" lon="11.063322">
        <ele>420.2</ele>
        <time>2026-04-30T13:28:51.882000Z</time>
      </trkpt>
      <trkpt lat="48.735451" lon="11.063485">
        <ele>421.1</ele>
        <time>2026-04-30T13:29:20.864000Z</time>
      </trkpt>
      <trkpt lat="48.734057" lon="11.063912">
        <ele>423.8</ele>
        <time>2026-04-30T13:31:52.870000Z</time>
      </trkpt>
      <trkpt lat="48.733426" lon="11.064173">
        <ele>423.2</ele>
        <time>2026-04-30T13:32:59.514000Z</time>
      </trkpt>
      <trkpt lat="48.73283" lon="11.064289">
        <ele>421.4</ele>
        <time>2026-04-30T13:34:03.447000Z</time>
      </trkpt>
      <trkpt lat="48.732643" lon="11.064376">
        <ele>420.6</ele>
        <time>2026-04-30T13:34:24.515000Z</time>
      </trkpt>
      <trkpt lat="48.732569" lon="11.064471">
        <ele>420.2</ele>
        <time>2026-04-30T13:34:35.070000Z</time>
      </trkpt>
      <trkpt lat="48.73242" lon="11.064798">
        <ele>419.1</ele>
        <time>2026-04-30T13:35:03.649000Z</time>
      </trkpt>
      <trkpt lat="48.732033" lon="11.065482">
        <ele>416.6</ele>
        <time>2026-04-30T13:36:08.215000Z</time>
      </trkpt>
      <trkpt lat="48.732017" lon="11.065579">
        <ele>416.3</ele>
        <time>2026-04-30T13:36:15.321000Z</time>
      </trkpt>
      <trkpt lat="48.732069" lon="11.065634">
        <ele>416</ele>
        <time>2026-04-30T13:36:22.214000Z</time>
      </trkpt>
      <trkpt lat="48.732556" lon="11.065515">
        <ele>414.2</ele>
        <time>2026-04-30T13:37:15.255000Z</time>
      </trkpt>
      <trkpt lat="48.732903" lon="11.065789">
        <ele>412.9</ele>
        <time>2026-04-30T13:37:57.127000Z</time>
      </trkpt>
      <trkpt lat="48.732928" lon="11.065808">
        <ele>412.8</ele>
        <time>2026-04-30T13:38:00.091000Z</time>
      </trkpt>
      <trkpt lat="48.734257" lon="11.065672">
        <ele>407.5</ele>
        <time>2026-04-30T13:40:24.293000Z</time>
      </trkpt>
      <trkpt lat="48.734727" lon="11.065437">
        <ele>404.8</ele>
        <time>2026-04-30T13:41:19.305000Z</time>
      </trkpt>
      <trkpt lat="48.735568" lon="11.065417">
        <ele>399.5</ele>
        <time>2026-04-30T13:42:54.062000Z</time>
      </trkpt>
      <trkpt lat="48.736252" lon="11.065222">
        <ele>395.8</ele>
        <time>2026-04-30T13:44:11.418000Z</time>
      </trkpt>
      <trkpt lat="48.736497" lon="11.065203">
        <ele>394.8</ele>
        <time>2026-04-30T13:44:37.918000Z</time>
      </trkpt>
      <trkpt lat="48.736761" lon="11.065183">
        <ele>394</ele>
        <time>2026-04-30T13:45:05.988000Z</time>
      </trkpt>
      <trkpt lat="48.737761" lon="11.064231">
        <ele>392.8</ele>
        <time>2026-04-30T13:47:06.773000Z</time>
      </trkpt>
      <trkpt lat="48.737882" lon="11.063918">
        <ele>393.2</ele>
        <time>2026-04-30T13:47:32.101000Z</time>
      </trkpt>
      <trkpt lat="48.737933" lon="11.063163">
        <ele>394.6</ele>
        <time>2026-04-30T13:48:27.154000Z</time>
      </trkpt>
      <trkpt lat="48.737952" lon="11.063117">
        <ele>394.7</ele>
        <time>2026-04-30T13:48:31.057000Z</time>
      </trkpt>
      <trkpt lat="48.737759" lon="11.062656">
        <ele>396</ele>
        <time>2026-04-30T13:49:11.823000Z</time>
      </trkpt>
      <trkpt lat="48.737591" lon="11.062541">
        <ele>396.7</ele>
        <time>2026-04-30T13:49:32.699000Z</time>
      </trkpt>
      <trkpt lat="48.737373" lon="11.062493">
        <ele>397.5</ele>
        <time>2026-04-30T13:49:57.540000Z</time>
      </trkpt>
      <trkpt lat="48.737181" lon="11.062451">
        <ele>398.2</ele>
        <time>2026-04-30T13:50:19.257000Z</time>
      </trkpt>
      <trkpt lat="48.737028" lon="11.062316">
        <ele>398.7</ele>
        <time>2026-04-30T13:50:38.780000Z</time>
      </trkpt>
      <trkpt lat="48.736849" lon="11.062075">
        <ele>399.2</ele>
        <time>2026-04-30T13:51:04.592000Z</time>
      </trkpt>
      <trkpt lat="48.736523" lon="11.061485">
        <ele>399.1</ele>
        <time>2026-04-30T13:51:55.721000Z</time>
      </trkpt>
      <trkpt lat="48.736133" lon="11.06117">
        <ele>397.5</ele>
        <time>2026-04-30T13:52:43.118000Z</time>
      </trkpt>
      <trkpt lat="48.735993" lon="11.061057">
        <ele>396.8</ele>
        <time>2026-04-30T13:53:00.578000Z</time>
      </trkpt>
      <trkpt lat="48.735777" lon="11.06056">
        <ele>394.6</ele>
        <time>2026-04-30T13:53:44.177000Z</time>
      </trkpt>
      <trkpt lat="48.735524" lon="11.060132">
        <ele>392.6</ele>
        <time>2026-04-30T13:54:26.230000Z</time>
      </trkpt>
      <trkpt lat="48.735403" lon="11.060099">
        <ele>392</ele>
        <time>2026-04-30T13:54:39.728000Z</time>
      </trkpt>
      <trkpt lat="48.735392" lon="11.060092">
        <ele>391.9</ele>
        <time>2026-04-30T13:54:41.057000Z</time>
      </trkpt>
      <trkpt lat="48.735192" lon="11.059969">
        <ele>391</ele>
        <time>2026-04-30T13:55:04.558000Z</time>
      </trkpt>
      <trkpt lat="48.734722" lon="11.060093">
        <ele>389.8</ele>
        <time>2026-04-30T13:55:54.753000Z</time>
      </trkpt>
      <trkpt lat="48.734131" lon="11.06008">
        <ele>388.9</ele>
        <time>2026-04-30T13:56:55.788000Z</time>
      </trkpt>
      <trkpt lat="48.733908" lon="11.060178">
        <ele>388.7</ele>
        <time>2026-04-30T13:57:19.468000Z</time>
      </trkpt>
      <trkpt lat="48.733727" lon="11.060153">
        <ele>388.6</ele>
        <time>2026-04-30T13:57:38.040000Z</time>
      </trkpt>
      <trkpt lat="48.733628" lon="11.06001">
        <ele>388.4</ele>
        <time>2026-04-30T13:57:51.921000Z</time>
      </trkpt>
      <trkpt lat="48.733622" lon="11.059611">
        <ele>388.2</ele>
        <time>2026-04-30T13:58:18.703000Z</time>
      </trkpt>
      <trkpt lat="48.733624" lon="11.059499">
        <ele>388.2</ele>
        <time>2026-04-30T13:58:26.264000Z</time>
      </trkpt>
      <trkpt lat="48.733625" lon="11.059441">
        <ele>388.1</ele>
        <time>2026-04-30T13:58:30.191000Z</time>
      </trkpt>
      <trkpt lat="48.733579" lon="11.05927">
        <ele>388</ele>
        <time>2026-04-30T13:58:42.687000Z</time>
      </trkpt>
      <trkpt lat="48.733418" lon="11.059073">
        <ele>387.7</ele>
        <time>2026-04-30T13:59:03.927000Z</time>
      </trkpt>
      <trkpt lat="48.733261" lon="11.058692">
        <ele>387.2</ele>
        <time>2026-04-30T13:59:34.685000Z</time>
      </trkpt>
      <trkpt lat="48.733057" lon="11.058328">
        <ele>386.7</ele>
        <time>2026-04-30T14:00:07.277000Z</time>
      </trkpt>
      <trkpt lat="48.732847" lon="11.058062">
        <ele>386.5</ele>
        <time>2026-04-30T14:00:35.011000Z</time>
      </trkpt>
      <trkpt lat="48.732739" lon="11.057967">
        <ele>386.5</ele>
        <time>2026-04-30T14:00:47.554000Z</time>
      </trkpt>
      <trkpt lat="48.73267" lon="11.057819">
        <ele>386.5</ele>
        <time>2026-04-30T14:00:59.571000Z</time>
      </trkpt>
      <trkpt lat="48.732474" lon="11.057046">
        <ele>386.8</ele>
        <time>2026-04-30T14:01:55.185000Z</time>
      </trkpt>
      <trkpt lat="48.732457" lon="11.056982">
        <ele>386.8</ele>
        <time>2026-04-30T14:01:59.829000Z</time>
      </trkpt>
      <trkpt lat="48.73246" lon="11.056796">
        <ele>386.9</ele>
        <time>2026-04-30T14:02:12.391000Z</time>
      </trkpt>
      <trkpt lat="48.732522" lon="11.056386">
        <ele>387.1</ele>
        <time>2026-04-30T14:02:40.867000Z</time>
      </trkpt>
      <trkpt lat="48.732529" lon="11.056199">
        <ele>387.2</ele>
        <time>2026-04-30T14:02:53.545000Z</time>
      </trkpt>
      <trkpt lat="48.732401" lon="11.055782">
        <ele>387.4</ele>
        <time>2026-04-30T14:03:24.636000Z</time>
      </trkpt>
      <trkpt lat="48.732296" lon="11.055618">
        <ele>387.5</ele>
        <time>2026-04-30T14:03:40.052000Z</time>
      </trkpt>
      <trkpt lat="48.732135" lon="11.055195">
        <ele>387.6</ele>
        <time>2026-04-30T14:04:12.897000Z</time>
      </trkpt>
      <trkpt lat="48.73181" lon="11.054699">
        <ele>387.8</ele>
        <time>2026-04-30T14:04:59.486000Z</time>
      </trkpt>
      <trkpt lat="48.731577" lon="11.054404">
        <ele>387.8</ele>
        <time>2026-04-30T14:05:29.924000Z</time>
      </trkpt>
      <trkpt lat="48.731141" lon="11.05399">
        <ele>387.7</ele>
        <time>2026-04-30T14:06:21.532000Z</time>
      </trkpt>
      <trkpt lat="48.730721" lon="11.053334">
        <ele>387.6</ele>
        <time>2026-04-30T14:07:22.183000Z</time>
      </trkpt>
      <trkpt lat="48.730513" lon="11.052942">
        <ele>387.4</ele>
        <time>2026-04-30T14:07:55.695000Z</time>
      </trkpt>
      <trkpt lat="48.730304" lon="11.052546">
        <ele>387.2</ele>
        <time>2026-04-30T14:08:29.713000Z</time>
      </trkpt>
      <trkpt lat="48.730235" lon="11.05267">
        <ele>387.1</ele>
        <time>2026-04-30T14:08:40.548000Z</time>
      </trkpt>
      <trkpt lat="48.730205" lon="11.05276">
        <ele>387.1</ele>
        <time>2026-04-30T14:08:47.294000Z</time>
      </trkpt>
      <trkpt lat="48.730083" lon="11.053271">
        <ele>386.8</ele>
        <time>2026-04-30T14:09:23.700000Z</time>
      </trkpt>
      <trkpt lat="48.730003" lon="11.053444">
        <ele>386.7</ele>
        <time>2026-04-30T14:09:37.833000Z</time>
      </trkpt>
      <trkpt lat="48.729937" lon="11.053467">
        <ele>386.7</ele>
        <time>2026-04-30T14:09:44.694000Z</time>
      </trkpt>
      <trkpt lat="48.729724" lon="11.053453">
        <ele>386.5</ele>
        <time>2026-04-30T14:10:06.316000Z</time>
      </trkpt>
      <trkpt lat="48.72958" lon="11.053406">
        <ele>386.4</ele>
        <time>2026-04-30T14:10:21.264000Z</time>
      </trkpt>
    </trkseg>
  </trk>
</gpx>