<?xml version="1.0" encoding="UTF-8"?>
<gpx xmlns="http://www.topografix.com/GPX/1/1" xmlns:xsi="http://www.w3.org/2001/XMLSchema-instance" xsi:schemaLocation="http://www.topografix.com/GPX/1/1 http://www.topografix.com/GPX/1/1/gpx.xsd" version="1.1" creator="Robert Kampf">
  <metadata>
    <name>Feuersteinwehr – Flussverlauf bei Roth Runde von Eckersmühlen</name>
    <desc>Distance: 12.403km, Estimated duration: 3.25h, Elevation up: 93.88176048533182m, Elevation down: 93.88176048533188m, Grade: moderate</desc>
    <author>
      <name>Robert Kampf</name>
      <link href="https://www.komoot.de/user/4125295338453">
        <text>View Robert Kampf's Profile on Komoot</text>
      </link>
    </author>
    <link href="https://www.komoot.de/tour/3243957512">
      <text>View tour on Komoot</text>
    </link>
  </metadata>
  <wpt lat="49.215472" lon="11.138124">
    <name>Eckersmühlen</name>
    <cmt></cmt>
    <desc></desc>
    <src>Komoot</src>
    <type>POI</type>
  </wpt>
  <wpt lat="49.22045" lon="11.133558">
    <ele>392.3</ele>
    <name>Historic Iron Hammer, Eckersmühlen</name>
    <cmt>https://d2exd72xrrp1s7.cloudfront.net/www/000/1k5/dc/dclbna83n8341tv4lv8idwldz3ptn8n2m-uhi30479938/0</cmt>
    <desc>🚲CyklistCR🚲: 30 Kilometer südlich von Nürnberg, nahe der Ortschaft Eckersmühlen, liegt der ehemalige Schäff-Eisenhammer. Dieses an der Roth gelegene industriegeschichtliche Kleinod ist heute ein Museum – ein lebendiges Museum, das dem Besucher die Kunst des Hammerschmiedens, der Umgang mit dem glühenden Eisen, eindrucksvoll vor Augen führt. Über fünf Generationen war der Eisenhammer im Besitz der Familie Schäff, einer weit verzweigten Hammerschmiede-Dynastie.

https://www.museum.de/museen/historischer-eisenhammer
――――――――――
Cathrin: Der Eisenhammer liegt sehr idyllisch in einem schönen Tal. Am Eisenhammer gibt es Sitz. - Rastmöglichkeiten eine sogar Überdacht. Es werden Führungen angeboten (siehe Info bei den Bildern). Hier verlaufen auch mehrere Wanderwege.
――――――――――
Stadt Roth: Der Historische Eisenhammer Eckersmühlen ist wirklich ein beeindruckendes Museum, besonders die Schmiedevorführungen sind sehr empfehlenswert.

Öffnungszeiten:
1. März - 30. März: Samstags und Sonntags von 13 - 17 Uhr
2. April – 31. Oktober: Mittwoch bis Sonntag sowie Feiertage von 13 - 17 Uhr und nach Vereinbarung

Eintritt:
Erwachsene: 3 Euro
Kinder: 1 Euro
Familien: 5 Euro
Gruppen (mind. 10 Pers.): Erwachsene 2 Euro, Schüler/Kinder 1 Euro;
Schmiedevorführung 10 Euro

Kontakt:
Telefon 09171 812020 oder 09171 811329
www.eisenhammer-eckersmuehlen.de
eisenhammer@landratsamt-roth.de
――――――――――
Nils: Ein starkes Stück.
――――――――――
Rombea: Der Lufthammer steht direkt am Parkplatz an der Zufahrt zum Museum und ist auch schon ein Exponat des Eisenhammers.
――――――――――
Rombea: Unbedingt sehenswertes Museum rund um Eisen und die Schmiedekunst. Der Eintritt ist mit 4€ human und trägt zum Erhalt der Ausstellung bei. Die großen Maschinen sind immer noch einsatzbereit und stellen dies bei den Schmiedevorführung unter Beweis.
――――――――――
Thorsten | Laufend-Glücklich Blog: Das historische Eisenhammer ist mittlerweile ein Museum und ein lohnenswertes Ausflugsziel (egal ob mit dem Rad oder zu Fuß). Alleine der Blick auf den wild dahinfließenden Fluss ist faszinierend. Daran anschließend eine kleine Wiese.
――――――――――
ML: Nahe des Rother Ortsteils Eckersmühlen liegt der Historische Eisenhammer, der sich über fünf Generationen im Besitz der Familie Schäff befand. Dieses industriegeschichtliche Kleinod produzierte tatsächlich noch bis 1974. Heute ist es ein "lebendiges Museum", in dem die Gäste die Kunst des Hammerschmiedens eindrucksvoll und hautnah dargestellt bekommen. Ausgestellt ist ebenso eine Auswahl der dort produzierten Erzeugnisse. Im Eisenhammer entstanden einst die verschiedensten Geräte zur Holzbearbeitung und für die Landwirtschaft.
Quelle und weitere Infos: 
https://www.stadt-roth.de/de/freizeit-tourismus/museen/eisenhammer
――――――――――
☘️ Werner: Das ehemalige Hammerwerk bei Eckersmühlen befand sich fünf Generationen lang im Besitz der Familie Schäff, bevor es 1974 stillgelegt wurde. 
――――――――――
S+S 👣👣: Für den historischen Eisenhammer sollte man sich etwa für eine Führung, oder eine kleine Rast etwas Zeit nehmen.
――――――――――
Stadt Roth: Öffnungszeiten:
1. März - 30. März: Samstags und Sonntags von 13 - 17 Uhr
2. April – 31. Oktober: Mittwoch bis Sonntag sowie Feiertage von 13 - 17 Uhr
und nach Vereinbarung

Eintritt:
Erwachsene: 3 Euro
Kinder: 1 Euro
Familien: 5 Euro
Gruppen (mind. 10 Pers.): Erwachsene 2 Euro, Schüler/Kinder 1 Euro
Schmiedevorführung 10 Euro

weitere Informationen unter www.eisenhammer-eckersmühlen.de
――――――――――
Udo  🐬: Sehr schön gelegenes Mühle mit Museum am Wasser wo immer noch Veranstaltungen stattfinden.

Fritz Schäff führte die Mühle in fünfter Generation bis 1974. Das heißt, sie war seit 1775 bereits im Besitz der Familie Schäff. Einen Eisenhammer gab es hier bereits seit 1686. Doch auch zuvor befanden sich hier schon Mühlen: 1464 wurde bereits eine Ölmühle erwähnt, später ein Zain- und Messinghammer. Unweit des Eisenhammers gibt es auch noch einen Straßennamen „Am Kupferhammer“, der auf ähnliche Mühlen in der Gegend hinweist. Und auch der Mühlenweg mit den vielen Stationen zeigt: Mühlen waren – und sind – hier in der Gegend häufig.

Die ersten Generationen Schäff bezogen ihr Eisen aus Sulzbach-Rosenberg, den Vorläufern der Maxhütte. Doch die letzten beiden Besitzer bezogen ihr Material aus gänzlich anderer Quelle: Von der Eisenbahn! Alte Eisenbahn-Bahnreifen, die von der Bahn ausrangiert wurden, wurden quasi als Schrott günstig weiterverkauft. Dies war das Rohmaterial aus dem all diese Werkzeuge entstanden, die man hier im Vorraum bewundern kann.

Doch im Laufe des 20. Jahrhunderts wurde die Eisenwarenproduktion auf diese aufwändige handwerkliche Art unrentabel. Gegen die Massenproduktion konnte man sich nicht mehr behaupten. Seine Ehefrau Käthe war bereits 1956 überraschend erkrankt und gestorben und da es keine Nachkommen gab, die das Geschäft hätten übernehmen könnte, musste Schäff sich fragen, was er mit dem Eisenhammer tun sollte. Für ihn war klar, dass er ihn nicht einfach schließen wollte. Er sollte museal genutzt werden. Und das geschah auch. Das Anwesen ging zu einem Drittel an die Stadt Roth, zu zwei Dritteln an das Landratsamt Roth, die es heute noch in Besitz haben. Das Museum wurde 1985 eröffnet.
――――――――――
Udo  🐬: Sehr schön gelegenes Mühle mit Museum am Wasser wo immer noch Veranstaltungen stattfinden.
Fritz Schäff führte die Mühle in fünfter Generation bis 1974. Das heißt, sie war seit 1775 bereits im Besitz der Familie Schäff. Einen Eisenhammer gab es hier bereits seit 1686. Doch auch zuvor befanden sich hier schon Mühlen: 1464 wurde bereits eine Ölmühle erwähnt, später ein Zain- und Messinghammer. Unweit des Eisenhammers gibt es auch noch einen Straßennamen „Am Kupferhammer“, der auf ähnliche Mühlen in der Gegend hinweist. Und auch der Mühlenweg mit den vielen Stationen zeigt: Mühlen waren – und sind – hier in der Gegend häufig.
Die ersten Generationen Schäff bezogen ihr Eisen aus Sulzbach-Rosenberg, den Vorläufern der Maxhütte. Doch die letzten beiden Besitzer bezogen ihr Material aus gänzlich anderer Quelle: Von der Eisenbahn! Alte Eisenbahn-Bahnreifen, die von der Bahn ausrangiert wurden, wurden quasi als Schrott günstig weiterverkauft. Dies war das Rohmaterial aus dem all diese Werkzeuge entstanden, die man hier im Vorraum bewundern kann.
Doch im Laufe des 20. Jahrhunderts wurde die Eisenwarenproduktion auf diese aufwändige handwerkliche Art unrentabel. Gegen die Massenproduktion konnte man sich nicht mehr behaupten. Seine Ehefrau Käthe war bereits 1956 überraschend erkrankt und gestorben und da es keine Nachkommen gab, die das Geschäft hätten übernehmen könnte, musste Schäff sich fragen, was er mit dem Eisenhammer tun sollte. Für ihn war klar, dass er ihn nicht einfach schließen wollte. Er sollte museal genutzt werden. Und das geschah auch. Das Anwesen ging zu einem Drittel an die Stadt Roth, zu zwei Dritteln an das Landratsamt Roth, die es heute noch in Besitz haben. Das Museum wurde 1985 eröffnet.
――――――――――
Mario: Hier werden auch traditionelle Messerschmiedekurse angeboten.
――――――――――
ultimatecf: Bucket list Rennen für jeden Triathleten
――――――――――
KiWaWa: Schon am Parkplatz zum Museum des historischen Eisenhammers kann man eine pneumatisch-elektrischen Eisenhammer begutachten.
――――――――――
Thorsten | Laufend-Glücklich Blog: "Nahe des Rother Ortsteils Eckersmühlen liegt der Historische Eisenhammer, der sich über fünf Generationen im Besitz der Familie Schäff befand. Dieses industriegeschichtliche Kleinod produzierte tatsächlich noch bis 1974." (Quelle: https://www.stadt-roth.de/de/freizeit-tourismus/museen/eisenhammer)

Schnittpunkt verschiedener Wanderwege und ein interessanter Zwischenstopp beim Laufen.
――――――――――
Trixi: Eine Vorführung des historischen Eisenhammers ist eindrucksvoll.
――――――――――
🚲CyklistCR🚲: In den Jahren 1699 und 1700 wurde das Herrenhaus mit einer aufwendig gearbeiteten Fachwerkfassade erbaut und legte so Zeugnis vom ausgeprägten Standesbewusstsein der Hammerherren ab. Zahlreiche Umbauten, Erweiterungen und Renovierungen im Stil der jeweiligen Zeit veränderten Aussehen und Charakter des Gebäudes.
――――――――――
MoreMarkus79: Ideal für ein Foto</desc>
    <src>Komoot</src>
    <link href="https://www.komoot.de/highlight/130837">
      <text>View POI on Komoot</text>
    </link>
    <type>Highlight</type>
  </wpt>
  <wpt lat="49.24683" lon="11.095288">
    <ele>385.6</ele>
    <name>Fabrikmuseum Roth</name>
    <cmt>https://d2exd72xrrp1s7.cloudfront.net/www/000/1k4/1b/1bijxuxo9rm2p1by490a6raxcn3hh46yf4-uhi20437600/0</cmt>
    <desc>Stadt Roth: Das Fabrikmuseum Roth wurde zu Recht 2003 mit dem Bayerischen Museumspreis ausgezeichnet. Der Drahtzug und die Herstellung von Leonischen Waren wird bei einer Führungen an laufenden Maschinen unglaublich faszinierend dargestellt.

Öffnungszeiten: 
März bis Oktober, Sonntag: 13.30 bis 16.30 Uhr
Gruppenführungen nach Voranmeldung unter Tel. 09171/60564, 
weitere Informationen: www.fabrikmuseum-roth.de
――――――――――
Rombea: Feine Gold- und Silberdrähte, versilberte und vergoldete Kupferdrähte, goldfarben vermessingte Kupferdrähte und die daraus hergestellten Produkte wie Plätte, Gespinste und Bouillon heißen in Deutschland „Leonische Waren“. Von der einstmals die Stadt Roth dominierenden leonischen Industrie ist heute nichts mehr übrig geblieben – außer Relikten und Erinnerungen. https://fabrikmuseum-roth.de/
――――――――――
Udo  🐬: Das Fabrikmuseum Roth befasst sich mit der Leonischen Industrie, die bestimmend für die Industrialisierung der Stadt und prägend für die Entwicklung Roths im 19. Jahrhundert war. Das Verfahren, einen vergoldeten oder versilberten Faden zur Herstellung feiner Gespinste und Gewebe nutzen, stammt aus Lyon/Frankreich, dem Zentrum der Webkunst.

Es wurde durch den Hugenotten George Fournier nach Roth gebracht und von dem Tressenfabrikanten Johann Philipp Stieber im großen Stil ausgebaut.

Im Fabrikmuseum wird an laufenden Maschinen bei einer eindrucksvollen Führung der Weg des Drahtes zur Leonischen Ware gezeigt. Die einzelnen Stationen sind hierbei der Feinzug, die Plätterei, die unterschiedlichsten Formen der Weiterverarbeitung auf Umspinnmaschinen und Webstühlen sowie die Verpackung.

2003 wurde das Fabrikmuseum von der Versicherungskammer Bayern mit dem Bayerischen Museumspreis ausgezeichnet.
――――――――――
ERICH🕺🍺🚐🥂🚲👋: Eine sehr drahtige Angelegenheit... Sehenswert! 😉
――――――――――
Sebastian Kowalke: Roth war bereits sehr früh ein wichtiges Zentrum der Drahtherstellung. Vor allem Leonische Waren – also feinste Schmuckdrähte nach der Technik aus Lyon – waren ein echter Verkaufsschlager. Im Fabrikmuseum erfährst du alles über die Herstellung und das Leben der Darhtzieher.

Öffnungszeiten und Eintrittspreise findest du hier: https://fabrikmuseum-roth.de/
――――――――――
🚲CyklistCR🚲: Von der einstmals die Stadt Roth dominierenden leonischen Industrie ist heute nichts mehr übrig geblieben – außer Relikten und Erinnerungen. Um sie zu erhalten, zu sammeln und der Öffentlichkeit zugänglich zu machen, entschloss sich der Historische Verein Roth 1986 zur Einrichtung eines Museums der leonischen Industrie – des ersten und bisher einzigen seiner Art.
――――――――――
S+S 👣👣: Das nächste Mal planen wir auf jeden Fall etwas Zeit für einen Besuch im Museum mit ein.</desc>
    <src>Komoot</src>
    <link href="https://www.komoot.de/highlight/717816">
      <text>View POI on Komoot</text>
    </link>
    <type>Highlight</type>
  </wpt>
  <wpt lat="49.243147" lon="11.108579">
    <ele>388.1</ele>
    <name>Feuerstein Weir</name>
    <cmt>https://d2exd72xrrp1s7.cloudfront.net/www/000/1k5/1k/1k2v1lsv9xl211fktowi870glk3qzdjrin-uhi32054364/0</cmt>
    <desc>Cathrin: Interessant, einfach mal stehen bleiben und dem Wasser zusehen wie es runter rauscht
――――――――――
Rombea: Wehranlage mit Übergang am Mühlenweg.
――――――――――
Bo: Von hier entlang der Roth zum See und zurück, sehr abwechslungsreich.
――――――――――
Udo  🐬: Schönes  Wehr auf dem Wanderweg von Roth nach Hilpoltstein genannt "Feuersteinwehr"</desc>
    <src>Komoot</src>
    <link href="https://www.komoot.de/highlight/3135021">
      <text>View POI on Komoot</text>
    </link>
    <type>Highlight</type>
  </wpt>
  <wpt lat="49.238519" lon="11.120582">
    <ele>380.3</ele>
    <name>River Course near Roth</name>
    <cmt>https://d2exd72xrrp1s7.cloudfront.net/www/000/1k5/1d/1dxwe049rdofc1woebi6i0lvfk3oqtybbh-uhi29374548/0</cmt>
    <desc></desc>
    <src>Komoot</src>
    <link href="https://www.komoot.de/highlight/2987176">
      <text>View POI on Komoot</text>
    </link>
    <type>Highlight</type>
  </wpt>
  <wpt lat="49.237163" lon="11.122381">
    <ele>388</ele>
    <name>Creek Crossing in Middle Franconia Forest</name>
    <cmt>https://d2exd72xrrp1s7.cloudfront.net/www/000/1k6/1w/1w210ccvgxsmwfsdfatabd9gj4awb1f5x-uhi54181075/0</cmt>
    <desc></desc>
    <src>Komoot</src>
    <link href="https://www.komoot.de/highlight/4337168">
      <text>View POI on Komoot</text>
    </link>
    <type>Highlight</type>
  </wpt>
  <wpt lat="49.236432" lon="11.123016">
    <ele>393.8</ele>
    <name>Bench With View of Wiesental and Steinerne Höhe</name>
    <cmt>https://d2exd72xrrp1s7.cloudfront.net/www/000/1k8/4g/4gxmgpcjwkb64t4hv6b5cxrt53r84fzd-uhi77792880/0</cmt>
    <desc>Udo  🐬: Sehr schön gelegene Rastbank mit Blick auf die Steinerne Höhe
――――――――――
Roland 🥾 &amp; Mickey 🐶🐾: schöner Rastplatz mit Blick ins Wiesental</desc>
    <src>Komoot</src>
    <link href="https://www.komoot.de/highlight/6966066">
      <text>View POI on Komoot</text>
    </link>
    <type>Highlight</type>
  </wpt>
  <wpt lat="49.233204" lon="11.12312">
    <ele>396.5</ele>
    <name>Hydroelectric Power Station</name>
    <cmt>https://d2exd72xrrp1s7.cloudfront.net/www/000/1k4/9k/9kkfep2x2d5jnpk587qezodq3c1va6y6-uhi11443940/0</cmt>
    <desc>Cathrin: Interessante Technik und sehr sehenswert
――――――――――
Cathrin: begehbares Wehr, daneben ist ein interessantes Wasserkraftwerk</desc>
    <src>Komoot</src>
    <link href="https://www.komoot.de/highlight/1214287">
      <text>View POI on Komoot</text>
    </link>
    <type>Highlight</type>
  </wpt>
  <wpt lat="49.222548" lon="11.134134">
    <ele>359.4</ele>
    <name>Riverbank Trail</name>
    <cmt>https://d2exd72xrrp1s7.cloudfront.net/www/000/1k7/y0/y0hvp3ep0q6q1fdgciqc9f9yl4gcaqop5-uhi57356948/0</cmt>
    <desc>FelixX: Ein Fluss? Mittelfranken? Was soll das G‘schmarri? </desc>
    <src>Komoot</src>
    <link href="https://www.komoot.de/highlight/5645326">
      <text>View POI on Komoot</text>
    </link>
    <type>Highlight</type>
  </wpt>
  <trk>
    <name>Feuersteinwehr – Flussverlauf bei Roth Runde von Eckersmühlen</name>
    <desc>Distance: 12.403km, Estimated duration: 3.25h, Elevation up: 93.88176048533182m, Elevation down: 93.88176048533188m, Grade: moderate</desc>
    <link href="https://www.komoot.de/tour/3243957512">
      <text>View tour on Komoot</text>
    </link>
    <trkseg>
      <trkpt lat="49.215463" lon="11.138131">
        <ele>360.4</ele>
        <time>2026-08-30T11:59:28.016000Z</time>
      </trkpt>
      <trkpt lat="49.215471" lon="11.138034">
        <ele>360.4</ele>
        <time>2026-08-30T11:59:34.571000Z</time>
      </trkpt>
      <trkpt lat="49.215488" lon="11.138038">
        <ele>360.5</ele>
        <time>2026-08-30T11:59:36.334000Z</time>
      </trkpt>
      <trkpt lat="49.215643" lon="11.138041">
        <ele>360.5</ele>
        <time>2026-08-30T11:59:51.935000Z</time>
      </trkpt>
      <trkpt lat="49.215688" lon="11.13805">
        <ele>360.5</ele>
        <time>2026-08-30T11:59:56.573000Z</time>
      </trkpt>
      <trkpt lat="49.215697" lon="11.137941">
        <ele>360.5</ele>
        <time>2026-08-30T12:00:03.823000Z</time>
      </trkpt>
      <trkpt lat="49.215863" lon="11.137983">
        <ele>360.5</ele>
        <time>2026-08-30T12:00:20.742000Z</time>
      </trkpt>
      <trkpt lat="49.216039" lon="11.138027">
        <ele>360.5</ele>
        <time>2026-08-30T12:00:38.594000Z</time>
      </trkpt>
      <trkpt lat="49.216257" lon="11.138081">
        <ele>360.5</ele>
        <time>2026-08-30T12:01:00.807000Z</time>
      </trkpt>
      <trkpt lat="49.216319" lon="11.137889">
        <ele>360.4</ele>
        <time>2026-08-30T12:01:14.951000Z</time>
      </trkpt>
      <trkpt lat="49.216334" lon="11.137835">
        <ele>360.4</ele>
        <time>2026-08-30T12:01:18.811000Z</time>
      </trkpt>
      <trkpt lat="49.216551" lon="11.1379">
        <ele>360.3</ele>
        <time>2026-08-30T12:01:41.071000Z</time>
      </trkpt>
      <trkpt lat="49.216971" lon="11.138043">
        <ele>360.2</ele>
        <time>2026-08-30T12:02:24.433000Z</time>
      </trkpt>
      <trkpt lat="49.217276" lon="11.138211">
        <ele>360.1</ele>
        <time>2026-08-30T12:02:57.099000Z</time>
      </trkpt>
      <trkpt lat="49.217393" lon="11.136974">
        <ele>359.5</ele>
        <time>2026-08-30T12:04:20.157000Z</time>
      </trkpt>
      <trkpt lat="49.217421" lon="11.136442">
        <ele>359</ele>
        <time>2026-08-30T12:04:55.956000Z</time>
      </trkpt>
      <trkpt lat="49.2174" lon="11.135993">
        <ele>358.6</ele>
        <time>2026-08-30T12:05:26.320000Z</time>
      </trkpt>
      <trkpt lat="49.217419" lon="11.135789">
        <ele>358.4</ele>
        <time>2026-08-30T12:05:40.260000Z</time>
      </trkpt>
      <trkpt lat="49.217645" lon="11.135553">
        <ele>357.9</ele>
        <time>2026-08-30T12:06:08.576000Z</time>
      </trkpt>
      <trkpt lat="49.217961" lon="11.135046">
        <ele>357.2</ele>
        <time>2026-08-30T12:06:55.890000Z</time>
      </trkpt>
      <trkpt lat="49.218105" lon="11.134926">
        <ele>356.9</ele>
        <time>2026-08-30T12:07:12.837000Z</time>
      </trkpt>
      <trkpt lat="49.218197" lon="11.134756">
        <ele>356.6</ele>
        <time>2026-08-30T12:07:27.847000Z</time>
      </trkpt>
      <trkpt lat="49.21823" lon="11.134636">
        <ele>356.5</ele>
        <time>2026-08-30T12:07:36.700000Z</time>
      </trkpt>
      <trkpt lat="49.218298" lon="11.134536">
        <ele>356.2</ele>
        <time>2026-08-30T12:07:46.570000Z</time>
      </trkpt>
      <trkpt lat="49.218308" lon="11.134227">
        <ele>355.7</ele>
        <time>2026-08-30T12:08:07.824000Z</time>
      </trkpt>
      <trkpt lat="49.218433" lon="11.134">
        <ele>355.2</ele>
        <time>2026-08-30T12:08:28.362000Z</time>
      </trkpt>
      <trkpt lat="49.218536" lon="11.133908">
        <ele>354.8</ele>
        <time>2026-08-30T12:08:41.069000Z</time>
      </trkpt>
      <trkpt lat="49.218711" lon="11.133866">
        <ele>354.2</ele>
        <time>2026-08-30T12:09:00.120000Z</time>
      </trkpt>
      <trkpt lat="49.218894" lon="11.133745">
        <ele>353.5</ele>
        <time>2026-08-30T12:09:21.450000Z</time>
      </trkpt>
      <trkpt lat="49.21931" lon="11.133736">
        <ele>352</ele>
        <time>2026-08-30T12:10:06.096000Z</time>
      </trkpt>
      <trkpt lat="49.219803" lon="11.133876">
        <ele>349.8</ele>
        <time>2026-08-30T12:11:00.923000Z</time>
      </trkpt>
      <trkpt lat="49.219946" lon="11.133824">
        <ele>349.1</ele>
        <time>2026-08-30T12:11:16.926000Z</time>
      </trkpt>
      <trkpt lat="49.220089" lon="11.133623">
        <ele>348.2</ele>
        <time>2026-08-30T12:11:38.155000Z</time>
      </trkpt>
      <trkpt lat="49.220177" lon="11.13359">
        <ele>347.9</ele>
        <time>2026-08-30T12:11:47.994000Z</time>
      </trkpt>
      <trkpt lat="49.220276" lon="11.133553">
        <ele>347.5</ele>
        <time>2026-08-30T12:11:58.963000Z</time>
      </trkpt>
      <trkpt lat="49.220382" lon="11.133515">
        <ele>347.1</ele>
        <time>2026-08-30T12:12:10.605000Z</time>
      </trkpt>
      <trkpt lat="49.220436" lon="11.133505">
        <ele>346.9</ele>
        <time>2026-08-30T12:12:16.482000Z</time>
      </trkpt>
      <trkpt lat="49.220568" lon="11.133479">
        <ele>346.5</ele>
        <time>2026-08-30T12:12:30.616000Z</time>
      </trkpt>
      <trkpt lat="49.220632" lon="11.133454">
        <ele>346.3</ele>
        <time>2026-08-30T12:12:37.575000Z</time>
      </trkpt>
      <trkpt lat="49.220689" lon="11.133431">
        <ele>346.2</ele>
        <time>2026-08-30T12:12:43.830000Z</time>
      </trkpt>
      <trkpt lat="49.220927" lon="11.133289">
        <ele>345.6</ele>
        <time>2026-08-30T12:13:10.556000Z</time>
      </trkpt>
      <trkpt lat="49.221053" lon="11.133122">
        <ele>345.3</ele>
        <time>2026-08-30T12:13:27.909000Z</time>
      </trkpt>
      <trkpt lat="49.221411" lon="11.132803">
        <ele>344.9</ele>
        <time>2026-08-30T12:14:10.247000Z</time>
      </trkpt>
      <trkpt lat="49.221831" lon="11.132357">
        <ele>345.6</ele>
        <time>2026-08-30T12:15:04.004000Z</time>
      </trkpt>
      <trkpt lat="49.221961" lon="11.132108">
        <ele>346.2</ele>
        <time>2026-08-30T12:15:27.108000Z</time>
      </trkpt>
      <trkpt lat="49.222169" lon="11.131635">
        <ele>347.8</ele>
        <time>2026-08-30T12:16:10.002000Z</time>
      </trkpt>
      <trkpt lat="49.222397" lon="11.131445">
        <ele>349.3</ele>
        <time>2026-08-30T12:16:40.971000Z</time>
      </trkpt>
      <trkpt lat="49.222529" lon="11.131256">
        <ele>350.5</ele>
        <time>2026-08-30T12:17:03.070000Z</time>
      </trkpt>
      <trkpt lat="49.222714" lon="11.130892">
        <ele>352.5</ele>
        <time>2026-08-30T12:17:40.101000Z</time>
      </trkpt>
      <trkpt lat="49.222973" lon="11.130696">
        <ele>354.2</ele>
        <time>2026-08-30T12:18:15.001000Z</time>
      </trkpt>
      <trkpt lat="49.2231" lon="11.130516">
        <ele>355.1</ele>
        <time>2026-08-30T12:18:35.346000Z</time>
      </trkpt>
      <trkpt lat="49.2231" lon="11.130123">
        <ele>356.3</ele>
        <time>2026-08-30T12:19:05.102000Z</time>
      </trkpt>
      <trkpt lat="49.22305" lon="11.12987">
        <ele>356.9</ele>
        <time>2026-08-30T12:19:24.571000Z</time>
      </trkpt>
      <trkpt lat="49.223259" lon="11.129786">
        <ele>357.5</ele>
        <time>2026-08-30T12:19:48.339000Z</time>
      </trkpt>
      <trkpt lat="49.223548" lon="11.129605">
        <ele>358.1</ele>
        <time>2026-08-30T12:20:21.630000Z</time>
      </trkpt>
      <trkpt lat="49.223872" lon="11.129402">
        <ele>358.3</ele>
        <time>2026-08-30T12:20:57.345000Z</time>
      </trkpt>
      <trkpt lat="49.224853" lon="11.12891">
        <ele>357.5</ele>
        <time>2026-08-30T12:22:42.343000Z</time>
      </trkpt>
      <trkpt lat="49.225561" lon="11.128486">
        <ele>357.4</ele>
        <time>2026-08-30T12:23:58.624000Z</time>
      </trkpt>
      <trkpt lat="49.225731" lon="11.128376">
        <ele>357.4</ele>
        <time>2026-08-30T12:24:17.193000Z</time>
      </trkpt>
      <trkpt lat="49.225591" lon="11.128232">
        <ele>357.5</ele>
        <time>2026-08-30T12:24:34.247000Z</time>
      </trkpt>
      <trkpt lat="49.225188" lon="11.128046">
        <ele>357.5</ele>
        <time>2026-08-30T12:25:16.701000Z</time>
      </trkpt>
      <trkpt lat="49.22505" lon="11.127932">
        <ele>357.6</ele>
        <time>2026-08-30T12:25:32.466000Z</time>
      </trkpt>
      <trkpt lat="49.225" lon="11.127868">
        <ele>357.6</ele>
        <time>2026-08-30T12:25:39.027000Z</time>
      </trkpt>
      <trkpt lat="49.224823" lon="11.127529">
        <ele>357.7</ele>
        <time>2026-08-30T12:26:07.632000Z</time>
      </trkpt>
      <trkpt lat="49.224737" lon="11.127461">
        <ele>357.7</ele>
        <time>2026-08-30T12:26:17.424000Z</time>
      </trkpt>
      <trkpt lat="49.224535" lon="11.127216">
        <ele>357.7</ele>
        <time>2026-08-30T12:26:43.209000Z</time>
      </trkpt>
      <trkpt lat="49.224601" lon="11.127162">
        <ele>357.6</ele>
        <time>2026-08-30T12:26:50.789000Z</time>
      </trkpt>
      <trkpt lat="49.224953" lon="11.127036">
        <ele>357.3</ele>
        <time>2026-08-30T12:27:27.493000Z</time>
      </trkpt>
      <trkpt lat="49.227155" lon="11.12638">
        <ele>356.4</ele>
        <time>2026-08-30T12:31:13.876000Z</time>
      </trkpt>
      <trkpt lat="49.227274" lon="11.126294">
        <ele>356.7</ele>
        <time>2026-08-30T12:31:28.145000Z</time>
      </trkpt>
      <trkpt lat="49.227313" lon="11.126044">
        <ele>357.1</ele>
        <time>2026-08-30T12:31:46.432000Z</time>
      </trkpt>
      <trkpt lat="49.227163" lon="11.124573">
        <ele>360.6</ele>
        <time>2026-08-30T12:33:35.768000Z</time>
      </trkpt>
      <trkpt lat="49.227128" lon="11.122847">
        <ele>363.7</ele>
        <time>2026-08-30T12:35:39.613000Z</time>
      </trkpt>
      <trkpt lat="49.227244" lon="11.122139">
        <ele>363.8</ele>
        <time>2026-08-30T12:36:27.743000Z</time>
      </trkpt>
      <trkpt lat="49.227566" lon="11.121981">
        <ele>363.6</ele>
        <time>2026-08-30T12:37:02.110000Z</time>
      </trkpt>
      <trkpt lat="49.227873" lon="11.121819">
        <ele>363</ele>
        <time>2026-08-30T12:37:35.882000Z</time>
      </trkpt>
      <trkpt lat="49.228346" lon="11.121569">
        <ele>361.6</ele>
        <time>2026-08-30T12:38:28.700000Z</time>
      </trkpt>
      <trkpt lat="49.229086" lon="11.121179">
        <ele>359.6</ele>
        <time>2026-08-30T12:39:51.223000Z</time>
      </trkpt>
      <trkpt lat="49.229441" lon="11.120945">
        <ele>358.6</ele>
        <time>2026-08-30T12:40:32Z</time>
      </trkpt>
      <trkpt lat="49.229443" lon="11.120653">
        <ele>358</ele>
        <time>2026-08-30T12:40:52.203000Z</time>
      </trkpt>
      <trkpt lat="49.229397" lon="11.120258">
        <ele>357.3</ele>
        <time>2026-08-30T12:41:19.885000Z</time>
      </trkpt>
      <trkpt lat="49.229557" lon="11.120154">
        <ele>356.9</ele>
        <time>2026-08-30T12:41:38.054000Z</time>
      </trkpt>
      <trkpt lat="49.229729" lon="11.120058">
        <ele>356.6</ele>
        <time>2026-08-30T12:41:57.071000Z</time>
      </trkpt>
      <trkpt lat="49.229941" lon="11.119719">
        <ele>356.2</ele>
        <time>2026-08-30T12:42:28.680000Z</time>
      </trkpt>
      <trkpt lat="49.229814" lon="11.119439">
        <ele>355.9</ele>
        <time>2026-08-30T12:42:51.439000Z</time>
      </trkpt>
      <trkpt lat="49.22978" lon="11.119333">
        <ele>355.9</ele>
        <time>2026-08-30T12:42:59.303000Z</time>
      </trkpt>
      <trkpt lat="49.229774" lon="11.119092">
        <ele>355.7</ele>
        <time>2026-08-30T12:43:15.365000Z</time>
      </trkpt>
      <trkpt lat="49.230088" lon="11.118268">
        <ele>355.5</ele>
        <time>2026-08-30T12:44:18.124000Z</time>
      </trkpt>
      <trkpt lat="49.230757" lon="11.118002">
        <ele>355.8</ele>
        <time>2026-08-30T12:45:28.123000Z</time>
      </trkpt>
      <trkpt lat="49.230881" lon="11.118123">
        <ele>355.8</ele>
        <time>2026-08-30T12:45:42.953000Z</time>
      </trkpt>
      <trkpt lat="49.23183" lon="11.117644">
        <ele>355.6</ele>
        <time>2026-08-30T12:47:23.294000Z</time>
      </trkpt>
      <trkpt lat="49.231749" lon="11.116919">
        <ele>355.7</ele>
        <time>2026-08-30T12:48:11.475000Z</time>
      </trkpt>
      <trkpt lat="49.231347" lon="11.113338">
        <ele>359.6</ele>
        <time>2026-08-30T12:52:22.924000Z</time>
      </trkpt>
      <trkpt lat="49.231275" lon="11.11269">
        <ele>360.6</ele>
        <time>2026-08-30T12:53:09.425000Z</time>
      </trkpt>
      <trkpt lat="49.230936" lon="11.108418">
        <ele>366.7</ele>
        <time>2026-08-30T12:58:12.201000Z</time>
      </trkpt>
      <trkpt lat="49.231111" lon="11.108229">
        <ele>366.9</ele>
        <time>2026-08-30T12:58:34.397000Z</time>
      </trkpt>
      <trkpt lat="49.232646" lon="11.106988">
        <ele>367.1</ele>
        <time>2026-08-30T13:01:28.957000Z</time>
      </trkpt>
      <trkpt lat="49.232841" lon="11.106861">
        <ele>367.2</ele>
        <time>2026-08-30T13:01:50.354000Z</time>
      </trkpt>
      <trkpt lat="49.233459" lon="11.10669">
        <ele>367.6</ele>
        <time>2026-08-30T13:02:54.688000Z</time>
      </trkpt>
      <trkpt lat="49.233721" lon="11.106575">
        <ele>367.9</ele>
        <time>2026-08-30T13:03:22.974000Z</time>
      </trkpt>
      <trkpt lat="49.234355" lon="11.106069">
        <ele>368.7</ele>
        <time>2026-08-30T13:04:37.344000Z</time>
      </trkpt>
      <trkpt lat="49.234923" lon="11.105469">
        <ele>369.3</ele>
        <time>2026-08-30T13:05:48.786000Z</time>
      </trkpt>
      <trkpt lat="49.235314" lon="11.105056">
        <ele>369.8</ele>
        <time>2026-08-30T13:06:37.787000Z</time>
      </trkpt>
      <trkpt lat="49.236023" lon="11.104307">
        <ele>369.9</ele>
        <time>2026-08-30T13:08:04.629000Z</time>
      </trkpt>
      <trkpt lat="49.23644" lon="11.10401">
        <ele>369.7</ele>
        <time>2026-08-30T13:08:51.146000Z</time>
      </trkpt>
      <trkpt lat="49.236844" lon="11.103836">
        <ele>369.1</ele>
        <time>2026-08-30T13:09:34.436000Z</time>
      </trkpt>
      <trkpt lat="49.237528" lon="11.103449">
        <ele>367.3</ele>
        <time>2026-08-30T13:10:51.160000Z</time>
      </trkpt>
      <trkpt lat="49.237985" lon="11.103311">
        <ele>365.8</ele>
        <time>2026-08-30T13:11:40.775000Z</time>
      </trkpt>
      <trkpt lat="49.239377" lon="11.104207">
        <ele>359.8</ele>
        <time>2026-08-30T13:14:24.207000Z</time>
      </trkpt>
      <trkpt lat="49.239616" lon="11.10434">
        <ele>358.4</ele>
        <time>2026-08-30T13:14:52.515000Z</time>
      </trkpt>
      <trkpt lat="49.240431" lon="11.104954">
        <ele>353</ele>
        <time>2026-08-30T13:16:34.163000Z</time>
      </trkpt>
      <trkpt lat="49.24078" lon="11.104417">
        <ele>350.2</ele>
        <time>2026-08-30T13:17:29.315000Z</time>
      </trkpt>
      <trkpt lat="49.241062" lon="11.103982">
        <ele>348.4</ele>
        <time>2026-08-30T13:18:13.101000Z</time>
      </trkpt>
      <trkpt lat="49.241539" lon="11.10329">
        <ele>346.3</ele>
        <time>2026-08-30T13:19:23.119000Z</time>
      </trkpt>
      <trkpt lat="49.241558" lon="11.103195">
        <ele>346.2</ele>
        <time>2026-08-30T13:19:29.922000Z</time>
      </trkpt>
      <trkpt lat="49.241623" lon="11.103158">
        <ele>346</ele>
        <time>2026-08-30T13:19:37.263000Z</time>
      </trkpt>
      <trkpt lat="49.24211" lon="11.10236">
        <ele>344.7</ele>
        <time>2026-08-30T13:20:51.282000Z</time>
      </trkpt>
      <trkpt lat="49.242157" lon="11.102283">
        <ele>344.6</ele>
        <time>2026-08-30T13:20:58.346000Z</time>
      </trkpt>
      <trkpt lat="49.242321" lon="11.101942">
        <ele>344.3</ele>
        <time>2026-08-30T13:21:26.693000Z</time>
      </trkpt>
      <trkpt lat="49.242436" lon="11.101619">
        <ele>344.1</ele>
        <time>2026-08-30T13:21:51.158000Z</time>
      </trkpt>
      <trkpt lat="49.242499" lon="11.101353">
        <ele>344</ele>
        <time>2026-08-30T13:22:09.991000Z</time>
      </trkpt>
      <trkpt lat="49.242542" lon="11.101349">
        <ele>343.9</ele>
        <time>2026-08-30T13:22:14.303000Z</time>
      </trkpt>
      <trkpt lat="49.242704" lon="11.101476">
        <ele>343.9</ele>
        <time>2026-08-30T13:22:32.719000Z</time>
      </trkpt>
      <trkpt lat="49.242762" lon="11.101536">
        <ele>343.8</ele>
        <time>2026-08-30T13:22:39.759000Z</time>
      </trkpt>
      <trkpt lat="49.242894" lon="11.101264">
        <ele>343.8</ele>
        <time>2026-08-30T13:23:01.951000Z</time>
      </trkpt>
      <trkpt lat="49.243163" lon="11.100641">
        <ele>343.8</ele>
        <time>2026-08-30T13:23:50.835000Z</time>
      </trkpt>
      <trkpt lat="49.243178" lon="11.100603">
        <ele>343.8</ele>
        <time>2026-08-30T13:23:53.779000Z</time>
      </trkpt>
      <trkpt lat="49.243253" lon="11.100415">
        <ele>343.8</ele>
        <time>2026-08-30T13:24:08.238000Z</time>
      </trkpt>
      <trkpt lat="49.243359" lon="11.100152">
        <ele>343.9</ele>
        <time>2026-08-30T13:24:28.630000Z</time>
      </trkpt>
      <trkpt lat="49.243413" lon="11.100017">
        <ele>343.9</ele>
        <time>2026-08-30T13:24:39.064000Z</time>
      </trkpt>
      <trkpt lat="49.243685" lon="11.09933">
        <ele>344</ele>
        <time>2026-08-30T13:25:31.846000Z</time>
      </trkpt>
      <trkpt lat="49.243703" lon="11.099285">
        <ele>344</ele>
        <time>2026-08-30T13:25:35.268000Z</time>
      </trkpt>
      <trkpt lat="49.243715" lon="11.099255">
        <ele>344</ele>
        <time>2026-08-30T13:25:37.596000Z</time>
      </trkpt>
      <trkpt lat="49.243859" lon="11.098869">
        <ele>344</ele>
        <time>2026-08-30T13:26:06.757000Z</time>
      </trkpt>
      <trkpt lat="49.24396" lon="11.098565">
        <ele>344</ele>
        <time>2026-08-30T13:26:29.113000Z</time>
      </trkpt>
      <trkpt lat="49.244188" lon="11.097918">
        <ele>343.8</ele>
        <time>2026-08-30T13:27:17.570000Z</time>
      </trkpt>
      <trkpt lat="49.244211" lon="11.097824">
        <ele>343.7</ele>
        <time>2026-08-30T13:27:24.265000Z</time>
      </trkpt>
      <trkpt lat="49.24443" lon="11.097841">
        <ele>343.6</ele>
        <time>2026-08-30T13:27:46.550000Z</time>
      </trkpt>
      <trkpt lat="49.244439" lon="11.097779">
        <ele>343.5</ele>
        <time>2026-08-30T13:27:50.709000Z</time>
      </trkpt>
      <trkpt lat="49.244492" lon="11.097412">
        <ele>343.4</ele>
        <time>2026-08-30T13:28:15.673000Z</time>
      </trkpt>
      <trkpt lat="49.244569" lon="11.097183">
        <ele>343.3</ele>
        <time>2026-08-30T13:28:32.736000Z</time>
      </trkpt>
      <trkpt lat="49.244689" lon="11.096988">
        <ele>343.1</ele>
        <time>2026-08-30T13:28:50.508000Z</time>
      </trkpt>
      <trkpt lat="49.244786" lon="11.096832">
        <ele>343.1</ele>
        <time>2026-08-30T13:29:04.717000Z</time>
      </trkpt>
      <trkpt lat="49.24489" lon="11.096663">
        <ele>343</ele>
        <time>2026-08-30T13:29:20.140000Z</time>
      </trkpt>
      <trkpt lat="49.244983" lon="11.096513">
        <ele>342.9</ele>
        <time>2026-08-30T13:29:33.859000Z</time>
      </trkpt>
      <trkpt lat="49.245119" lon="11.096219">
        <ele>342.6</ele>
        <time>2026-08-30T13:29:57.835000Z</time>
      </trkpt>
      <trkpt lat="49.245227" lon="11.095984">
        <ele>342.5</ele>
        <time>2026-08-30T13:30:17.007000Z</time>
      </trkpt>
      <trkpt lat="49.245335" lon="11.09575">
        <ele>342.3</ele>
        <time>2026-08-30T13:30:36.043000Z</time>
      </trkpt>
      <trkpt lat="49.245401" lon="11.0956">
        <ele>342.2</ele>
        <time>2026-08-30T13:30:48.114000Z</time>
      </trkpt>
      <trkpt lat="49.245534" lon="11.095295">
        <ele>341.9</ele>
        <time>2026-08-30T13:31:12.672000Z</time>
      </trkpt>
      <trkpt lat="49.245742" lon="11.094864">
        <ele>341.4</ele>
        <time>2026-08-30T13:31:48.810000Z</time>
      </trkpt>
      <trkpt lat="49.245941" lon="11.094508">
        <ele>340.6</ele>
        <time>2026-08-30T13:32:20.962000Z</time>
      </trkpt>
      <trkpt lat="49.246078" lon="11.094256">
        <ele>339.9</ele>
        <time>2026-08-30T13:32:43.781000Z</time>
      </trkpt>
      <trkpt lat="49.246523" lon="11.094512">
        <ele>338.1</ele>
        <time>2026-08-30T13:33:35.114000Z</time>
      </trkpt>
      <trkpt lat="49.246758" lon="11.094943">
        <ele>336.6</ele>
        <time>2026-08-30T13:34:14.843000Z</time>
      </trkpt>
      <trkpt lat="49.246911" lon="11.095139">
        <ele>335.8</ele>
        <time>2026-08-30T13:34:36.414000Z</time>
      </trkpt>
      <trkpt lat="49.247081" lon="11.095357">
        <ele>335</ele>
        <time>2026-08-30T13:35:00.227000Z</time>
      </trkpt>
      <trkpt lat="49.247172" lon="11.095245">
        <ele>334.6</ele>
        <time>2026-08-30T13:35:12.595000Z</time>
      </trkpt>
      <trkpt lat="49.247277" lon="11.095599">
        <ele>333.9</ele>
        <time>2026-08-30T13:35:39.480000Z</time>
      </trkpt>
      <trkpt lat="49.247289" lon="11.095781">
        <ele>333.7</ele>
        <time>2026-08-30T13:35:51.936000Z</time>
      </trkpt>
      <trkpt lat="49.24726" lon="11.096179">
        <ele>333.3</ele>
        <time>2026-08-30T13:36:18.958000Z</time>
      </trkpt>
      <trkpt lat="49.247245" lon="11.096378">
        <ele>333.2</ele>
        <time>2026-08-30T13:36:32.239000Z</time>
      </trkpt>
      <trkpt lat="49.247196" lon="11.096709">
        <ele>333.2</ele>
        <time>2026-08-30T13:36:54.535000Z</time>
      </trkpt>
      <trkpt lat="49.246993" lon="11.097323">
        <ele>333.5</ele>
        <time>2026-08-30T13:37:40.521000Z</time>
      </trkpt>
      <trkpt lat="49.24685" lon="11.097699">
        <ele>333.6</ele>
        <time>2026-08-30T13:38:09.428000Z</time>
      </trkpt>
      <trkpt lat="49.246789" lon="11.097941">
        <ele>333.7</ele>
        <time>2026-08-30T13:38:26.739000Z</time>
      </trkpt>
      <trkpt lat="49.246744" lon="11.098108">
        <ele>333.8</ele>
        <time>2026-08-30T13:38:38.869000Z</time>
      </trkpt>
      <trkpt lat="49.24673" lon="11.098286">
        <ele>333.9</ele>
        <time>2026-08-30T13:38:50.789000Z</time>
      </trkpt>
      <trkpt lat="49.246766" lon="11.098604">
        <ele>333.9</ele>
        <time>2026-08-30T13:39:11.887000Z</time>
      </trkpt>
      <trkpt lat="49.246795" lon="11.098721">
        <ele>333.8</ele>
        <time>2026-08-30T13:39:20.150000Z</time>
      </trkpt>
      <trkpt lat="49.246803" lon="11.099041">
        <ele>333.7</ele>
        <time>2026-08-30T13:39:41.359000Z</time>
      </trkpt>
      <trkpt lat="49.246756" lon="11.099347">
        <ele>333.5</ele>
        <time>2026-08-30T13:40:02.192000Z</time>
      </trkpt>
      <trkpt lat="49.246585" lon="11.09979">
        <ele>333.3</ele>
        <time>2026-08-30T13:40:36.292000Z</time>
      </trkpt>
      <trkpt lat="49.246508" lon="11.100099">
        <ele>333.2</ele>
        <time>2026-08-30T13:40:58.209000Z</time>
      </trkpt>
      <trkpt lat="49.246423" lon="11.100573">
        <ele>333.1</ele>
        <time>2026-08-30T13:41:30.424000Z</time>
      </trkpt>
      <trkpt lat="49.246346" lon="11.100837">
        <ele>333.1</ele>
        <time>2026-08-30T13:41:49.445000Z</time>
      </trkpt>
      <trkpt lat="49.245978" lon="11.101627">
        <ele>333.5</ele>
        <time>2026-08-30T13:42:54.118000Z</time>
      </trkpt>
      <trkpt lat="49.245915" lon="11.101818">
        <ele>333.6</ele>
        <time>2026-08-30T13:43:08.620000Z</time>
      </trkpt>
      <trkpt lat="49.245851" lon="11.102148">
        <ele>333.9</ele>
        <time>2026-08-30T13:43:32.158000Z</time>
      </trkpt>
      <trkpt lat="49.245823" lon="11.102598">
        <ele>334.3</ele>
        <time>2026-08-30T13:44:02.857000Z</time>
      </trkpt>
      <trkpt lat="49.245838" lon="11.103618">
        <ele>334.3</ele>
        <time>2026-08-30T13:45:09.708000Z</time>
      </trkpt>
      <trkpt lat="49.24576" lon="11.10415">
        <ele>334.2</ele>
        <time>2026-08-30T13:45:45.540000Z</time>
      </trkpt>
      <trkpt lat="49.245689" lon="11.104325">
        <ele>334.2</ele>
        <time>2026-08-30T13:45:59.068000Z</time>
      </trkpt>
      <trkpt lat="49.245454" lon="11.104549">
        <ele>334.2</ele>
        <time>2026-08-30T13:46:26.902000Z</time>
      </trkpt>
      <trkpt lat="49.245145" lon="11.105013">
        <ele>334.5</ele>
        <time>2026-08-30T13:47:11.226000Z</time>
      </trkpt>
      <trkpt lat="49.244749" lon="11.105204">
        <ele>335.2</ele>
        <time>2026-08-30T13:47:55.199000Z</time>
      </trkpt>
      <trkpt lat="49.244453" lon="11.105465">
        <ele>335.9</ele>
        <time>2026-08-30T13:48:31.787000Z</time>
      </trkpt>
      <trkpt lat="49.243882" lon="11.105893">
        <ele>336.8</ele>
        <time>2026-08-30T13:49:38.800000Z</time>
      </trkpt>
      <trkpt lat="49.243829" lon="11.10598">
        <ele>336.9</ele>
        <time>2026-08-30T13:49:46.731000Z</time>
      </trkpt>
      <trkpt lat="49.24375" lon="11.106397">
        <ele>336.9</ele>
        <time>2026-08-30T13:50:15.052000Z</time>
      </trkpt>
      <trkpt lat="49.243801" lon="11.106795">
        <ele>336.7</ele>
        <time>2026-08-30T13:50:42.028000Z</time>
      </trkpt>
      <trkpt lat="49.243788" lon="11.106942">
        <ele>336.6</ele>
        <time>2026-08-30T13:50:51.920000Z</time>
      </trkpt>
      <trkpt lat="49.243527" lon="11.107411">
        <ele>335.8</ele>
        <time>2026-08-30T13:51:33.806000Z</time>
      </trkpt>
      <trkpt lat="49.243435" lon="11.107566">
        <ele>335.4</ele>
        <time>2026-08-30T13:51:48.293000Z</time>
      </trkpt>
      <trkpt lat="49.243373" lon="11.107756">
        <ele>335</ele>
        <time>2026-08-30T13:52:02.925000Z</time>
      </trkpt>
      <trkpt lat="49.243352" lon="11.107981">
        <ele>334.6</ele>
        <time>2026-08-30T13:52:18.605000Z</time>
      </trkpt>
      <trkpt lat="49.243152" lon="11.108583">
        <ele>333.5</ele>
        <time>2026-08-30T13:53:04.957000Z</time>
      </trkpt>
      <trkpt lat="49.243121" lon="11.108673">
        <ele>333.4</ele>
        <time>2026-08-30T13:53:11.864000Z</time>
      </trkpt>
      <trkpt lat="49.243116" lon="11.108825">
        <ele>333.2</ele>
        <time>2026-08-30T13:53:22.219000Z</time>
      </trkpt>
      <trkpt lat="49.243096" lon="11.108975">
        <ele>333</ele>
        <time>2026-08-30T13:53:32.661000Z</time>
      </trkpt>
      <trkpt lat="49.243075" lon="11.109055">
        <ele>332.9</ele>
        <time>2026-08-30T13:53:38.455000Z</time>
      </trkpt>
      <trkpt lat="49.243035" lon="11.109185">
        <ele>332.8</ele>
        <time>2026-08-30T13:53:48.156000Z</time>
      </trkpt>
      <trkpt lat="49.242691" lon="11.110748">
        <ele>332.9</ele>
        <time>2026-08-30T13:55:36.410000Z</time>
      </trkpt>
      <trkpt lat="49.2427" lon="11.11092">
        <ele>333.1</ele>
        <time>2026-08-30T13:55:48.393000Z</time>
      </trkpt>
      <trkpt lat="49.242576" lon="11.1115">
        <ele>334</ele>
        <time>2026-08-30T13:56:31.363000Z</time>
      </trkpt>
      <trkpt lat="49.242528" lon="11.111726">
        <ele>334.4</ele>
        <time>2026-08-30T13:56:48.314000Z</time>
      </trkpt>
      <trkpt lat="49.242303" lon="11.112781">
        <ele>336.6</ele>
        <time>2026-08-30T13:58:08.666000Z</time>
      </trkpt>
      <trkpt lat="49.242199" lon="11.113479">
        <ele>338</ele>
        <time>2026-08-30T13:59:00.329000Z</time>
      </trkpt>
      <trkpt lat="49.242168" lon="11.113869">
        <ele>338.6</ele>
        <time>2026-08-30T13:59:28.186000Z</time>
      </trkpt>
      <trkpt lat="49.242125" lon="11.115196">
        <ele>340.5</ele>
        <time>2026-08-30T14:01:01.622000Z</time>
      </trkpt>
      <trkpt lat="49.242042" lon="11.115262">
        <ele>340.7</ele>
        <time>2026-08-30T14:01:11.696000Z</time>
      </trkpt>
      <trkpt lat="49.241929" lon="11.115689">
        <ele>341.3</ele>
        <time>2026-08-30T14:01:44.072000Z</time>
      </trkpt>
      <trkpt lat="49.241727" lon="11.116743">
        <ele>343</ele>
        <time>2026-08-30T14:03:01.815000Z</time>
      </trkpt>
      <trkpt lat="49.241602" lon="11.117828">
        <ele>344.7</ele>
        <time>2026-08-30T14:04:19.773000Z</time>
      </trkpt>
      <trkpt lat="49.241464" lon="11.118639">
        <ele>345.6</ele>
        <time>2026-08-30T14:05:17.611000Z</time>
      </trkpt>
      <trkpt lat="49.241392" lon="11.118799">
        <ele>345.7</ele>
        <time>2026-08-30T14:05:30.589000Z</time>
      </trkpt>
      <trkpt lat="49.241121" lon="11.119401">
        <ele>345.4</ele>
        <time>2026-08-30T14:06:18.958000Z</time>
      </trkpt>
      <trkpt lat="49.240923" lon="11.119825">
        <ele>344.5</ele>
        <time>2026-08-30T14:06:54.918000Z</time>
      </trkpt>
      <trkpt lat="49.240613" lon="11.119407">
        <ele>342.6</ele>
        <time>2026-08-30T14:07:40.062000Z</time>
      </trkpt>
      <trkpt lat="49.24032" lon="11.119178">
        <ele>341</ele>
        <time>2026-08-30T14:08:16.266000Z</time>
      </trkpt>
      <trkpt lat="49.23981" lon="11.118929">
        <ele>338.5</ele>
        <time>2026-08-30T14:09:14.948000Z</time>
      </trkpt>
      <trkpt lat="49.239676" lon="11.118939">
        <ele>337.9</ele>
        <time>2026-08-30T14:09:29.500000Z</time>
      </trkpt>
      <trkpt lat="49.239595" lon="11.119095">
        <ele>337.4</ele>
        <time>2026-08-30T14:09:43.471000Z</time>
      </trkpt>
      <trkpt lat="49.239373" lon="11.119696">
        <ele>336.1</ele>
        <time>2026-08-30T14:10:31.395000Z</time>
      </trkpt>
      <trkpt lat="49.2392" lon="11.119934">
        <ele>335.8</ele>
        <time>2026-08-30T14:10:55.368000Z</time>
      </trkpt>
      <trkpt lat="49.239077" lon="11.119961">
        <ele>335.7</ele>
        <time>2026-08-30T14:11:07.799000Z</time>
      </trkpt>
      <trkpt lat="49.238968" lon="11.12009">
        <ele>335.8</ele>
        <time>2026-08-30T14:11:21.967000Z</time>
      </trkpt>
      <trkpt lat="49.239077" lon="11.119961">
        <ele>336.1</ele>
        <time>2026-08-30T14:11:36.543000Z</time>
      </trkpt>
      <trkpt lat="49.2392" lon="11.119934">
        <ele>336.3</ele>
        <time>2026-08-30T14:11:49.779000Z</time>
      </trkpt>
      <trkpt lat="49.239373" lon="11.119696">
        <ele>336.9</ele>
        <time>2026-08-30T14:12:15.100000Z</time>
      </trkpt>
      <trkpt lat="49.239356" lon="11.119824">
        <ele>337.1</ele>
        <time>2026-08-30T14:12:24.566000Z</time>
      </trkpt>
      <trkpt lat="49.239373" lon="11.120256">
        <ele>338</ele>
        <time>2026-08-30T14:12:56.065000Z</time>
      </trkpt>
      <trkpt lat="49.239292" lon="11.12061">
        <ele>338.9</ele>
        <time>2026-08-30T14:13:23.492000Z</time>
      </trkpt>
      <trkpt lat="49.239145" lon="11.120913">
        <ele>339.8</ele>
        <time>2026-08-30T14:13:51.338000Z</time>
      </trkpt>
      <trkpt lat="49.238972" lon="11.121173">
        <ele>340.7</ele>
        <time>2026-08-30T14:14:18.954000Z</time>
      </trkpt>
      <trkpt lat="49.238716" lon="11.12148">
        <ele>342</ele>
        <time>2026-08-30T14:14:55.854000Z</time>
      </trkpt>
      <trkpt lat="49.238392" lon="11.121444">
        <ele>343</ele>
        <time>2026-08-30T14:15:31.942000Z</time>
      </trkpt>
      <trkpt lat="49.238142" lon="11.121506">
        <ele>343.5</ele>
        <time>2026-08-30T14:15:59.202000Z</time>
      </trkpt>
      <trkpt lat="49.237606" lon="11.121809">
        <ele>344.3</ele>
        <time>2026-08-30T14:16:59.154000Z</time>
      </trkpt>
      <trkpt lat="49.237454" lon="11.121937">
        <ele>344.4</ele>
        <time>2026-08-30T14:17:16.792000Z</time>
      </trkpt>
      <trkpt lat="49.237206" lon="11.122245">
        <ele>344.5</ele>
        <time>2026-08-30T14:17:49.125000Z</time>
      </trkpt>
      <trkpt lat="49.237131" lon="11.122337">
        <ele>344.5</ele>
        <time>2026-08-30T14:17:58.816000Z</time>
      </trkpt>
      <trkpt lat="49.237105" lon="11.122357">
        <ele>344.5</ele>
        <time>2026-08-30T14:18:01.663000Z</time>
      </trkpt>
      <trkpt lat="49.237051" lon="11.122433">
        <ele>344.5</ele>
        <time>2026-08-30T14:18:09.105000Z</time>
      </trkpt>
      <trkpt lat="49.236801" lon="11.122777">
        <ele>344.6</ele>
        <time>2026-08-30T14:18:42.872000Z</time>
      </trkpt>
      <trkpt lat="49.236583" lon="11.1229">
        <ele>344.6</ele>
        <time>2026-08-30T14:19:06.273000Z</time>
      </trkpt>
      <trkpt lat="49.236446" lon="11.123046">
        <ele>344.6</ele>
        <time>2026-08-30T14:19:23.184000Z</time>
      </trkpt>
      <trkpt lat="49.236401" lon="11.123094">
        <ele>344.7</ele>
        <time>2026-08-30T14:19:28.804000Z</time>
      </trkpt>
      <trkpt lat="49.236226" lon="11.123338">
        <ele>344.8</ele>
        <time>2026-08-30T14:19:53.068000Z</time>
      </trkpt>
      <trkpt lat="49.236042" lon="11.123495">
        <ele>344.9</ele>
        <time>2026-08-30T14:20:14.511000Z</time>
      </trkpt>
      <trkpt lat="49.235406" lon="11.123861">
        <ele>345.2</ele>
        <time>2026-08-30T14:21:23.461000Z</time>
      </trkpt>
      <trkpt lat="49.234895" lon="11.124202">
        <ele>345.8</ele>
        <time>2026-08-30T14:22:21.249000Z</time>
      </trkpt>
      <trkpt lat="49.234637" lon="11.124253">
        <ele>345.8</ele>
        <time>2026-08-30T14:22:47.454000Z</time>
      </trkpt>
      <trkpt lat="49.234442" lon="11.124381">
        <ele>345.8</ele>
        <time>2026-08-30T14:23:08.837000Z</time>
      </trkpt>
      <trkpt lat="49.234189" lon="11.124491">
        <ele>345.6</ele>
        <time>2026-08-30T14:23:35.522000Z</time>
      </trkpt>
      <trkpt lat="49.23397" lon="11.12453">
        <ele>345.4</ele>
        <time>2026-08-30T14:23:58.038000Z</time>
      </trkpt>
      <trkpt lat="49.233737" lon="11.124081">
        <ele>344.8</ele>
        <time>2026-08-30T14:24:36.799000Z</time>
      </trkpt>
      <trkpt lat="49.233564" lon="11.123861">
        <ele>344.4</ele>
        <time>2026-08-30T14:25:00.133000Z</time>
      </trkpt>
      <trkpt lat="49.232941" lon="11.123259">
        <ele>342.7</ele>
        <time>2026-08-30T14:26:17.190000Z</time>
      </trkpt>
      <trkpt lat="49.23298" lon="11.12313">
        <ele>342.7</ele>
        <time>2026-08-30T14:26:26.724000Z</time>
      </trkpt>
      <trkpt lat="49.233009" lon="11.123065">
        <ele>342.6</ele>
        <time>2026-08-30T14:26:31.950000Z</time>
      </trkpt>
      <trkpt lat="49.233093" lon="11.123085">
        <ele>342.5</ele>
        <time>2026-08-30T14:26:40.576000Z</time>
      </trkpt>
      <trkpt lat="49.233149" lon="11.123131">
        <ele>342.5</ele>
        <time>2026-08-30T14:26:47.006000Z</time>
      </trkpt>
      <trkpt lat="49.233202" lon="11.123143">
        <ele>342.5</ele>
        <time>2026-08-30T14:26:52.379000Z</time>
      </trkpt>
      <trkpt lat="49.233149" lon="11.123131">
        <ele>342.5</ele>
        <time>2026-08-30T14:26:57.719000Z</time>
      </trkpt>
      <trkpt lat="49.233093" lon="11.123085">
        <ele>342.5</ele>
        <time>2026-08-30T14:27:04.110000Z</time>
      </trkpt>
      <trkpt lat="49.233009" lon="11.123065">
        <ele>342.5</ele>
        <time>2026-08-30T14:27:12.729000Z</time>
      </trkpt>
      <trkpt lat="49.23298" lon="11.12313">
        <ele>342.5</ele>
        <time>2026-08-30T14:27:17.873000Z</time>
      </trkpt>
      <trkpt lat="49.232941" lon="11.123259">
        <ele>342.6</ele>
        <time>2026-08-30T14:27:27.380000Z</time>
      </trkpt>
      <trkpt lat="49.232712" lon="11.123222">
        <ele>342.7</ele>
        <time>2026-08-30T14:27:50.988000Z</time>
      </trkpt>
      <trkpt lat="49.232479" lon="11.123429">
        <ele>343</ele>
        <time>2026-08-30T14:28:18.866000Z</time>
      </trkpt>
      <trkpt lat="49.232315" lon="11.123735">
        <ele>343.2</ele>
        <time>2026-08-30T14:28:45.424000Z</time>
      </trkpt>
      <trkpt lat="49.232225" lon="11.123813">
        <ele>343.2</ele>
        <time>2026-08-30T14:28:56.017000Z</time>
      </trkpt>
      <trkpt lat="49.232104" lon="11.123857">
        <ele>343.3</ele>
        <time>2026-08-30T14:29:08.612000Z</time>
      </trkpt>
      <trkpt lat="49.231919" lon="11.123807">
        <ele>343.3</ele>
        <time>2026-08-30T14:29:27.415000Z</time>
      </trkpt>
      <trkpt lat="49.231786" lon="11.123818">
        <ele>343.3</ele>
        <time>2026-08-30T14:29:40.785000Z</time>
      </trkpt>
      <trkpt lat="49.231699" lon="11.123963">
        <ele>343.3</ele>
        <time>2026-08-30T14:29:53.734000Z</time>
      </trkpt>
      <trkpt lat="49.231613" lon="11.124271">
        <ele>343.1</ele>
        <time>2026-08-30T14:30:15.995000Z</time>
      </trkpt>
      <trkpt lat="49.231464" lon="11.124494">
        <ele>342.8</ele>
        <time>2026-08-30T14:30:37.360000Z</time>
      </trkpt>
      <trkpt lat="49.231201" lon="11.12511">
        <ele>342.1</ele>
        <time>2026-08-30T14:31:26.902000Z</time>
      </trkpt>
      <trkpt lat="49.23113" lon="11.125514">
        <ele>341.7</ele>
        <time>2026-08-30T14:31:55.091000Z</time>
      </trkpt>
      <trkpt lat="49.231129" lon="11.125922">
        <ele>341.4</ele>
        <time>2026-08-30T14:32:22.324000Z</time>
      </trkpt>
      <trkpt lat="49.231168" lon="11.126134">
        <ele>341.4</ele>
        <time>2026-08-30T14:32:36.909000Z</time>
      </trkpt>
      <trkpt lat="49.231148" lon="11.126452">
        <ele>341.3</ele>
        <time>2026-08-30T14:32:57.854000Z</time>
      </trkpt>
      <trkpt lat="49.23113" lon="11.126591">
        <ele>341.3</ele>
        <time>2026-08-30T14:33:07.123000Z</time>
      </trkpt>
      <trkpt lat="49.231054" lon="11.126792">
        <ele>341.3</ele>
        <time>2026-08-30T14:33:22.454000Z</time>
      </trkpt>
      <trkpt lat="49.230784" lon="11.127155">
        <ele>341.5</ele>
        <time>2026-08-30T14:33:58.973000Z</time>
      </trkpt>
      <trkpt lat="49.230172" lon="11.127737">
        <ele>342</ele>
        <time>2026-08-30T14:35:12.706000Z</time>
      </trkpt>
      <trkpt lat="49.229527" lon="11.128076">
        <ele>342.2</ele>
        <time>2026-08-30T14:36:21.781000Z</time>
      </trkpt>
      <trkpt lat="49.229377" lon="11.128065">
        <ele>342.2</ele>
        <time>2026-08-30T14:36:36.859000Z</time>
      </trkpt>
      <trkpt lat="49.22849" lon="11.127574">
        <ele>342.2</ele>
        <time>2026-08-30T14:38:11.295000Z</time>
      </trkpt>
      <trkpt lat="49.228389" lon="11.127594">
        <ele>342.2</ele>
        <time>2026-08-30T14:38:21.575000Z</time>
      </trkpt>
      <trkpt lat="49.228282" lon="11.127703">
        <ele>342.1</ele>
        <time>2026-08-30T14:38:34.505000Z</time>
      </trkpt>
      <trkpt lat="49.227997" lon="11.12838">
        <ele>342</ele>
        <time>2026-08-30T14:39:27.454000Z</time>
      </trkpt>
      <trkpt lat="49.22795" lon="11.128489">
        <ele>342</ele>
        <time>2026-08-30T14:39:36.083000Z</time>
      </trkpt>
      <trkpt lat="49.227897" lon="11.128773">
        <ele>341.9</ele>
        <time>2026-08-30T14:39:55.489000Z</time>
      </trkpt>
      <trkpt lat="49.227904" lon="11.128957">
        <ele>341.9</ele>
        <time>2026-08-30T14:40:07.590000Z</time>
      </trkpt>
      <trkpt lat="49.227773" lon="11.128936">
        <ele>341.9</ele>
        <time>2026-08-30T14:40:20.785000Z</time>
      </trkpt>
      <trkpt lat="49.227731" lon="11.128963">
        <ele>341.9</ele>
        <time>2026-08-30T14:40:25.333000Z</time>
      </trkpt>
      <trkpt lat="49.227611" lon="11.12904">
        <ele>341.9</ele>
        <time>2026-08-30T14:40:38.484000Z</time>
      </trkpt>
      <trkpt lat="49.227474" lon="11.12919">
        <ele>342</ele>
        <time>2026-08-30T14:40:55.637000Z</time>
      </trkpt>
      <trkpt lat="49.227291" lon="11.129422">
        <ele>342.3</ele>
        <time>2026-08-30T14:41:20.581000Z</time>
      </trkpt>
      <trkpt lat="49.227098" lon="11.129732">
        <ele>343</ele>
        <time>2026-08-30T14:41:51.022000Z</time>
      </trkpt>
      <trkpt lat="49.227193" lon="11.129919">
        <ele>343.5</ele>
        <time>2026-08-30T14:42:08.353000Z</time>
      </trkpt>
      <trkpt lat="49.227282" lon="11.130095">
        <ele>344.1</ele>
        <time>2026-08-30T14:42:24.898000Z</time>
      </trkpt>
      <trkpt lat="49.227339" lon="11.130208">
        <ele>344.4</ele>
        <time>2026-08-30T14:42:35.605000Z</time>
      </trkpt>
      <trkpt lat="49.227389" lon="11.130461">
        <ele>345.3</ele>
        <time>2026-08-30T14:42:55.764000Z</time>
      </trkpt>
      <trkpt lat="49.227393" lon="11.130687">
        <ele>346</ele>
        <time>2026-08-30T14:43:13.181000Z</time>
      </trkpt>
      <trkpt lat="49.227312" lon="11.130989">
        <ele>347.1</ele>
        <time>2026-08-30T14:43:38.215000Z</time>
      </trkpt>
      <trkpt lat="49.227021" lon="11.131584">
        <ele>349.6</ele>
        <time>2026-08-30T14:44:35.298000Z</time>
      </trkpt>
      <trkpt lat="49.226998" lon="11.131715">
        <ele>350</ele>
        <time>2026-08-30T14:44:45.609000Z</time>
      </trkpt>
      <trkpt lat="49.227005" lon="11.131853">
        <ele>350.4</ele>
        <time>2026-08-30T14:44:56.268000Z</time>
      </trkpt>
      <trkpt lat="49.227053" lon="11.132028">
        <ele>351</ele>
        <time>2026-08-30T14:45:10.702000Z</time>
      </trkpt>
      <trkpt lat="49.226841" lon="11.132342">
        <ele>352.2</ele>
        <time>2026-08-30T14:45:44.215000Z</time>
      </trkpt>
      <trkpt lat="49.226822" lon="11.132371">
        <ele>352.2</ele>
        <time>2026-08-30T14:45:47.173000Z</time>
      </trkpt>
      <trkpt lat="49.22662" lon="11.132709">
        <ele>353.2</ele>
        <time>2026-08-30T14:46:20.396000Z</time>
      </trkpt>
      <trkpt lat="49.226177" lon="11.133461">
        <ele>354.3</ele>
        <time>2026-08-30T14:47:30.599000Z</time>
      </trkpt>
      <trkpt lat="49.225906" lon="11.133988">
        <ele>354.4</ele>
        <time>2026-08-30T14:48:14.869000Z</time>
      </trkpt>
      <trkpt lat="49.225834" lon="11.134148">
        <ele>354.4</ele>
        <time>2026-08-30T14:48:27.530000Z</time>
      </trkpt>
      <trkpt lat="49.225623" lon="11.134556">
        <ele>354.2</ele>
        <time>2026-08-30T14:49:01.967000Z</time>
      </trkpt>
      <trkpt lat="49.225214" lon="11.13467">
        <ele>353.8</ele>
        <time>2026-08-30T14:49:44.347000Z</time>
      </trkpt>
      <trkpt lat="49.225057" lon="11.134853">
        <ele>353.6</ele>
        <time>2026-08-30T14:50:04.709000Z</time>
      </trkpt>
      <trkpt lat="49.224839" lon="11.135024">
        <ele>353</ele>
        <time>2026-08-30T14:50:30.274000Z</time>
      </trkpt>
      <trkpt lat="49.224506" lon="11.13526">
        <ele>351.9</ele>
        <time>2026-08-30T14:51:09.374000Z</time>
      </trkpt>
      <trkpt lat="49.224166" lon="11.135444">
        <ele>350.5</ele>
        <time>2026-08-30T14:51:48.202000Z</time>
      </trkpt>
      <trkpt lat="49.224188" lon="11.135158">
        <ele>349.8</ele>
        <time>2026-08-30T14:52:08.446000Z</time>
      </trkpt>
      <trkpt lat="49.224151" lon="11.134837">
        <ele>349</ele>
        <time>2026-08-30T14:52:31.408000Z</time>
      </trkpt>
      <trkpt lat="49.224094" lon="11.134567">
        <ele>348.4</ele>
        <time>2026-08-30T14:52:51.191000Z</time>
      </trkpt>
      <trkpt lat="49.224043" lon="11.134205">
        <ele>347.7</ele>
        <time>2026-08-30T14:53:16.944000Z</time>
      </trkpt>
      <trkpt lat="49.223951" lon="11.134037">
        <ele>347.3</ele>
        <time>2026-08-30T14:53:32.046000Z</time>
      </trkpt>
      <trkpt lat="49.223795" lon="11.133965">
        <ele>346.9</ele>
        <time>2026-08-30T14:53:49.262000Z</time>
      </trkpt>
      <trkpt lat="49.223473" lon="11.1339">
        <ele>346.1</ele>
        <time>2026-08-30T14:54:23.380000Z</time>
      </trkpt>
      <trkpt lat="49.223179" lon="11.133914">
        <ele>345.7</ele>
        <time>2026-08-30T14:54:53.675000Z</time>
      </trkpt>
      <trkpt lat="49.223058" lon="11.13395">
        <ele>345.6</ele>
        <time>2026-08-30T14:55:06.207000Z</time>
      </trkpt>
      <trkpt lat="49.22286" lon="11.134158">
        <ele>345.5</ele>
        <time>2026-08-30T14:55:30.369000Z</time>
      </trkpt>
      <trkpt lat="49.222765" lon="11.134204">
        <ele>345.5</ele>
        <time>2026-08-30T14:55:40.315000Z</time>
      </trkpt>
      <trkpt lat="49.22267" lon="11.134197">
        <ele>345.6</ele>
        <time>2026-08-30T14:55:49.954000Z</time>
      </trkpt>
      <trkpt lat="49.222546" lon="11.134189">
        <ele>345.6</ele>
        <time>2026-08-30T14:56:02.474000Z</time>
      </trkpt>
      <trkpt lat="49.22253" lon="11.134188">
        <ele>345.6</ele>
        <time>2026-08-30T14:56:04.043000Z</time>
      </trkpt>
      <trkpt lat="49.22224" lon="11.134037">
        <ele>345.6</ele>
        <time>2026-08-30T14:56:34.893000Z</time>
      </trkpt>
      <trkpt lat="49.222029" lon="11.133726">
        <ele>345.6</ele>
        <time>2026-08-30T14:57:04.288000Z</time>
      </trkpt>
      <trkpt lat="49.221889" lon="11.133592">
        <ele>345.5</ele>
        <time>2026-08-30T14:57:21.014000Z</time>
      </trkpt>
      <trkpt lat="49.221787" lon="11.133538">
        <ele>345.4</ele>
        <time>2026-08-30T14:57:31.976000Z</time>
      </trkpt>
      <trkpt lat="49.221665" lon="11.133619">
        <ele>345.2</ele>
        <time>2026-08-30T14:57:45.579000Z</time>
      </trkpt>
      <trkpt lat="49.221501" lon="11.133784">
        <ele>345</ele>
        <time>2026-08-30T14:58:05.671000Z</time>
      </trkpt>
      <trkpt lat="49.221387" lon="11.133992">
        <ele>344.8</ele>
        <time>2026-08-30T14:58:23.856000Z</time>
      </trkpt>
      <trkpt lat="49.221224" lon="11.134171">
        <ele>344.7</ele>
        <time>2026-08-30T14:58:44.271000Z</time>
      </trkpt>
      <trkpt lat="49.220734" lon="11.134366">
        <ele>344.9</ele>
        <time>2026-08-30T14:59:35.758000Z</time>
      </trkpt>
      <trkpt lat="49.220667" lon="11.134477">
        <ele>345</ele>
        <time>2026-08-30T14:59:46.095000Z</time>
      </trkpt>
      <trkpt lat="49.220648" lon="11.134467">
        <ele>345</ele>
        <time>2026-08-30T14:59:48.251000Z</time>
      </trkpt>
      <trkpt lat="49.22061" lon="11.134439">
        <ele>345.1</ele>
        <time>2026-08-30T14:59:52.570000Z</time>
      </trkpt>
      <trkpt lat="49.220609" lon="11.134381">
        <ele>345.1</ele>
        <time>2026-08-30T14:59:56.562000Z</time>
      </trkpt>
      <trkpt lat="49.22048" lon="11.134246">
        <ele>345.4</ele>
        <time>2026-08-30T15:00:12.964000Z</time>
      </trkpt>
      <trkpt lat="49.220497" lon="11.134151">
        <ele>345.5</ele>
        <time>2026-08-30T15:00:19.811000Z</time>
      </trkpt>
      <trkpt lat="49.220508" lon="11.133941">
        <ele>345.8</ele>
        <time>2026-08-30T15:00:34.640000Z</time>
      </trkpt>
      <trkpt lat="49.22051" lon="11.133873">
        <ele>345.8</ele>
        <time>2026-08-30T15:00:39.381000Z</time>
      </trkpt>
      <trkpt lat="49.220429" lon="11.133793">
        <ele>346.1</ele>
        <time>2026-08-30T15:00:50.049000Z</time>
      </trkpt>
      <trkpt lat="49.220382" lon="11.133706">
        <ele>346.3</ele>
        <time>2026-08-30T15:00:58.098000Z</time>
      </trkpt>
      <trkpt lat="49.220295" lon="11.133728">
        <ele>346.6</ele>
        <time>2026-08-30T15:01:08.082000Z</time>
      </trkpt>
      <trkpt lat="49.220276" lon="11.133553">
        <ele>347.1</ele>
        <time>2026-08-30T15:01:21.112000Z</time>
      </trkpt>
      <trkpt lat="49.220177" lon="11.13359">
        <ele>347.5</ele>
        <time>2026-08-30T15:01:32.687000Z</time>
      </trkpt>
      <trkpt lat="49.220089" lon="11.133623">
        <ele>347.9</ele>
        <time>2026-08-30T15:01:43.224000Z</time>
      </trkpt>
      <trkpt lat="49.219946" lon="11.133824">
        <ele>348.8</ele>
        <time>2026-08-30T15:02:05.973000Z</time>
      </trkpt>
      <trkpt lat="49.219803" lon="11.133876">
        <ele>349.6</ele>
        <time>2026-08-30T15:02:23.235000Z</time>
      </trkpt>
      <trkpt lat="49.21931" lon="11.133736">
        <ele>352</ele>
        <time>2026-08-30T15:03:21.956000Z</time>
      </trkpt>
      <trkpt lat="49.218894" lon="11.133745">
        <ele>353.5</ele>
        <time>2026-08-30T15:04:08.746000Z</time>
      </trkpt>
      <trkpt lat="49.218711" lon="11.133866">
        <ele>354.2</ele>
        <time>2026-08-30T15:04:31.115000Z</time>
      </trkpt>
      <trkpt lat="49.218536" lon="11.133908">
        <ele>354.8</ele>
        <time>2026-08-30T15:04:51.043000Z</time>
      </trkpt>
      <trkpt lat="49.218433" lon="11.134">
        <ele>355.2</ele>
        <time>2026-08-30T15:05:04.293000Z</time>
      </trkpt>
      <trkpt lat="49.218308" lon="11.134227">
        <ele>355.7</ele>
        <time>2026-08-30T15:05:25.643000Z</time>
      </trkpt>
      <trkpt lat="49.218298" lon="11.134536">
        <ele>356.2</ele>
        <time>2026-08-30T15:05:47.644000Z</time>
      </trkpt>
      <trkpt lat="49.21823" lon="11.134636">
        <ele>356.5</ele>
        <time>2026-08-30T15:05:57.832000Z</time>
      </trkpt>
      <trkpt lat="49.218197" lon="11.134756">
        <ele>356.6</ele>
        <time>2026-08-30T15:06:06.944000Z</time>
      </trkpt>
      <trkpt lat="49.218105" lon="11.134926">
        <ele>356.9</ele>
        <time>2026-08-30T15:06:22.340000Z</time>
      </trkpt>
      <trkpt lat="49.217961" lon="11.135046">
        <ele>357.2</ele>
        <time>2026-08-30T15:06:39.705000Z</time>
      </trkpt>
      <trkpt lat="49.217645" lon="11.135553">
        <ele>357.9</ele>
        <time>2026-08-30T15:07:28.079000Z</time>
      </trkpt>
      <trkpt lat="49.217419" lon="11.135789">
        <ele>358.4</ele>
        <time>2026-08-30T15:07:57.081000Z</time>
      </trkpt>
      <trkpt lat="49.2174" lon="11.135993">
        <ele>358.6</ele>
        <time>2026-08-30T15:08:11.358000Z</time>
      </trkpt>
      <trkpt lat="49.217421" lon="11.136442">
        <ele>359</ele>
        <time>2026-08-30T15:08:42.362000Z</time>
      </trkpt>
      <trkpt lat="49.217393" lon="11.136974">
        <ele>359.5</ele>
        <time>2026-08-30T15:09:18.802000Z</time>
      </trkpt>
      <trkpt lat="49.217276" lon="11.138211">
        <ele>360.1</ele>
        <time>2026-08-30T15:10:42.830000Z</time>
      </trkpt>
      <trkpt lat="49.216971" lon="11.138043">
        <ele>360.2</ele>
        <time>2026-08-30T15:11:15.663000Z</time>
      </trkpt>
      <trkpt lat="49.216551" lon="11.1379">
        <ele>360.3</ele>
        <time>2026-08-30T15:11:59.210000Z</time>
      </trkpt>
      <trkpt lat="49.216334" lon="11.137835">
        <ele>360.4</ele>
        <time>2026-08-30T15:12:21.585000Z</time>
      </trkpt>
      <trkpt lat="49.216319" lon="11.137889">
        <ele>360.4</ele>
        <time>2026-08-30T15:12:25.450000Z</time>
      </trkpt>
      <trkpt lat="49.216257" lon="11.138081">
        <ele>360.5</ele>
        <time>2026-08-30T15:12:39.677000Z</time>
      </trkpt>
      <trkpt lat="49.216039" lon="11.138027">
        <ele>360.5</ele>
        <time>2026-08-30T15:13:01.984000Z</time>
      </trkpt>
      <trkpt lat="49.215863" lon="11.137983">
        <ele>360.5</ele>
        <time>2026-08-30T15:13:19.843000Z</time>
      </trkpt>
      <trkpt lat="49.215697" lon="11.137941">
        <ele>360.5</ele>
        <time>2026-08-30T15:13:36.735000Z</time>
      </trkpt>
      <trkpt lat="49.215688" lon="11.13805">
        <ele>360.5</ele>
        <time>2026-08-30T15:13:43.938000Z</time>
      </trkpt>
      <trkpt lat="49.215643" lon="11.138041">
        <ele>360.5</ele>
        <time>2026-08-30T15:13:48.580000Z</time>
      </trkpt>
      <trkpt lat="49.215488" lon="11.138038">
        <ele>360.5</ele>
        <time>2026-08-30T15:14:04.115000Z</time>
      </trkpt>
      <trkpt lat="49.215471" lon="11.138034">
        <ele>360.4</ele>
        <time>2026-08-30T15:14:05.876000Z</time>
      </trkpt>
      <trkpt lat="49.215463" lon="11.138131">
        <ele>360.4</ele>
        <time>2026-08-30T15:14:12.385000Z</time>
      </trkpt>
    </trkseg>
  </trk>
</gpx>