<?xml version="1.0" encoding="UTF-8"?>
<gpx xmlns="http://www.topografix.com/GPX/1/1" xmlns:xsi="http://www.w3.org/2001/XMLSchema-instance" xsi:schemaLocation="http://www.topografix.com/GPX/1/1 http://www.topografix.com/GPX/1/1/gpx.xsd" version="1.1" creator="Robert Kampf">
  <metadata>
    <name>Fischteich – Bergahorn-Samenplantage Runde von Freienried</name>
    <desc>Distance: 4.939km, Estimated duration: 1.29h, Elevation up: 36.40857331182076m, Elevation down: 36.408573311820874m, Grade: easy</desc>
    <author>
      <name>Robert Kampf</name>
      <link href="https://www.komoot.de/user/4125295338453">
        <text>View Robert Kampf's Profile on Komoot</text>
      </link>
    </author>
    <link href="https://www.komoot.de/tour/2734719880">
      <text>View tour on Komoot</text>
    </link>
  </metadata>
  <wpt lat="48.327847" lon="11.137284">
    <name>Freienried, Gewerbegebiet</name>
    <cmt></cmt>
    <desc>Not accessible</desc>
    <src>Komoot</src>
    <type>POI</type>
  </wpt>
  <wpt lat="48.326381" lon="11.142373">
    <ele>569.6</ele>
    <name>Fish Pond</name>
    <cmt>https://d2exd72xrrp1s7.cloudfront.net/www/000/1k5/5j/5jkotu5qte1hkvjpk3tra74u3s4ddg7x-uhi33792003/0</cmt>
    <desc>Aussie-Sherpa: Obwohl nahe der Straße, strahlt der Ort eine gewisse Ruhe aus und lädt bei gemäht Wiese zum Verweilen ein</desc>
    <src>Komoot</src>
    <link href="https://www.komoot.de/highlight/3265886">
      <text>View POI on Komoot</text>
    </link>
    <type>Highlight</type>
  </wpt>
  <wpt lat="48.32285" lon="11.137097">
    <ele>577.5</ele>
    <name>Bergahorn Seed Plantation</name>
    <cmt>https://d2exd72xrrp1s7.cloudfront.net/www/000/1k6/6s/6shkoc708ecj124r7i25ojpby45lb4gyb-uhi49186962/0</cmt>
    <desc>Aussie-Sherpa: Plantage zur Gewinnung von Samen einheimischer Laubbäume</desc>
    <src>Komoot</src>
    <link href="https://www.komoot.de/highlight/4376260">
      <text>View POI on Komoot</text>
    </link>
    <type>Highlight</type>
  </wpt>
  <trk>
    <name>Fischteich – Bergahorn-Samenplantage Runde von Freienried</name>
    <desc>Distance: 4.939km, Estimated duration: 1.29h, Elevation up: 36.40857331182076m, Elevation down: 36.408573311820874m, Grade: easy</desc>
    <link href="https://www.komoot.de/tour/2734719880">
      <text>View tour on Komoot</text>
    </link>
    <trkseg>
      <trkpt lat="48.327826" lon="11.137339">
        <ele>519.3</ele>
        <time>2025-12-31T13:02:04.266000Z</time>
      </trkpt>
      <trkpt lat="48.327749" lon="11.137342">
        <ele>519.2</ele>
        <time>2025-12-31T13:02:12.041000Z</time>
      </trkpt>
      <trkpt lat="48.327711" lon="11.137442">
        <ele>519.2</ele>
        <time>2025-12-31T13:02:19.806000Z</time>
      </trkpt>
      <trkpt lat="48.327573" lon="11.137443">
        <ele>519.1</ele>
        <time>2025-12-31T13:02:33.689000Z</time>
      </trkpt>
      <trkpt lat="48.327371" lon="11.137528">
        <ele>519.1</ele>
        <time>2025-12-31T13:02:54.827000Z</time>
      </trkpt>
      <trkpt lat="48.327178" lon="11.137659">
        <ele>519.1</ele>
        <time>2025-12-31T13:03:16.038000Z</time>
      </trkpt>
      <trkpt lat="48.327107" lon="11.137758">
        <ele>519</ele>
        <time>2025-12-31T13:03:25.732000Z</time>
      </trkpt>
      <trkpt lat="48.326981" lon="11.13811">
        <ele>519.1</ele>
        <time>2025-12-31T13:03:52.348000Z</time>
      </trkpt>
      <trkpt lat="48.32685" lon="11.13812">
        <ele>519.1</ele>
        <time>2025-12-31T13:04:05.582000Z</time>
      </trkpt>
      <trkpt lat="48.326683" lon="11.138181">
        <ele>519.1</ele>
        <time>2025-12-31T13:04:22.899000Z</time>
      </trkpt>
      <trkpt lat="48.326403" lon="11.138433">
        <ele>519.3</ele>
        <time>2025-12-31T13:04:56.290000Z</time>
      </trkpt>
      <trkpt lat="48.326287" lon="11.138485">
        <ele>519.4</ele>
        <time>2025-12-31T13:05:08.812000Z</time>
      </trkpt>
      <trkpt lat="48.326178" lon="11.138511">
        <ele>519.6</ele>
        <time>2025-12-31T13:05:20.338000Z</time>
      </trkpt>
      <trkpt lat="48.32595" lon="11.138455">
        <ele>519.7</ele>
        <time>2025-12-31T13:05:44.145000Z</time>
      </trkpt>
      <trkpt lat="48.325656" lon="11.13918">
        <ele>519.9</ele>
        <time>2025-12-31T13:06:41.052000Z</time>
      </trkpt>
      <trkpt lat="48.325635" lon="11.139331">
        <ele>519.8</ele>
        <time>2025-12-31T13:06:51.368000Z</time>
      </trkpt>
      <trkpt lat="48.325556" lon="11.139519">
        <ele>519.7</ele>
        <time>2025-12-31T13:07:06.514000Z</time>
      </trkpt>
      <trkpt lat="48.325712" lon="11.139677">
        <ele>519.4</ele>
        <time>2025-12-31T13:07:25.778000Z</time>
      </trkpt>
      <trkpt lat="48.325991" lon="11.139891">
        <ele>519.1</ele>
        <time>2025-12-31T13:07:57.774000Z</time>
      </trkpt>
      <trkpt lat="48.326157" lon="11.139997">
        <ele>519</ele>
        <time>2025-12-31T13:08:16.161000Z</time>
      </trkpt>
      <trkpt lat="48.32634" lon="11.140017">
        <ele>518.8</ele>
        <time>2025-12-31T13:08:34.811000Z</time>
      </trkpt>
      <trkpt lat="48.326397" lon="11.140069">
        <ele>518.8</ele>
        <time>2025-12-31T13:08:41.634000Z</time>
      </trkpt>
      <trkpt lat="48.326468" lon="11.140148">
        <ele>518.7</ele>
        <time>2025-12-31T13:08:50.622000Z</time>
      </trkpt>
      <trkpt lat="48.326474" lon="11.140216">
        <ele>518.7</ele>
        <time>2025-12-31T13:08:55.197000Z</time>
      </trkpt>
      <trkpt lat="48.326358" lon="11.140481">
        <ele>518.5</ele>
        <time>2025-12-31T13:09:16.743000Z</time>
      </trkpt>
      <trkpt lat="48.326141" lon="11.141311">
        <ele>518</ele>
        <time>2025-12-31T13:10:16.996000Z</time>
      </trkpt>
      <trkpt lat="48.326049" lon="11.141722">
        <ele>517.9</ele>
        <time>2025-12-31T13:10:46.209000Z</time>
      </trkpt>
      <trkpt lat="48.326034" lon="11.141882">
        <ele>517.9</ele>
        <time>2025-12-31T13:10:57.069000Z</time>
      </trkpt>
      <trkpt lat="48.326036" lon="11.141993">
        <ele>517.9</ele>
        <time>2025-12-31T13:11:04.559000Z</time>
      </trkpt>
      <trkpt lat="48.326097" lon="11.142183">
        <ele>518</ele>
        <time>2025-12-31T13:11:18.880000Z</time>
      </trkpt>
      <trkpt lat="48.326194" lon="11.142287">
        <ele>518.1</ele>
        <time>2025-12-31T13:11:31.079000Z</time>
      </trkpt>
      <trkpt lat="48.326299" lon="11.142346">
        <ele>518.2</ele>
        <time>2025-12-31T13:11:42.556000Z</time>
      </trkpt>
      <trkpt lat="48.326401" lon="11.142372">
        <ele>518.2</ele>
        <time>2025-12-31T13:11:53.091000Z</time>
      </trkpt>
      <trkpt lat="48.326537" lon="11.142527">
        <ele>518.3</ele>
        <time>2025-12-31T13:12:10.538000Z</time>
      </trkpt>
      <trkpt lat="48.326581" lon="11.142747">
        <ele>518.4</ele>
        <time>2025-12-31T13:12:26.189000Z</time>
      </trkpt>
      <trkpt lat="48.326533" lon="11.143334">
        <ele>518.6</ele>
        <time>2025-12-31T13:13:06.106000Z</time>
      </trkpt>
      <trkpt lat="48.326431" lon="11.143887">
        <ele>518.5</ele>
        <time>2025-12-31T13:13:44.386000Z</time>
      </trkpt>
      <trkpt lat="48.326413" lon="11.144438">
        <ele>518.4</ele>
        <time>2025-12-31T13:14:21.426000Z</time>
      </trkpt>
      <trkpt lat="48.326355" lon="11.144977">
        <ele>517.8</ele>
        <time>2025-12-31T13:14:58.928000Z</time>
      </trkpt>
      <trkpt lat="48.326369" lon="11.145178">
        <ele>517.5</ele>
        <time>2025-12-31T13:15:13.043000Z</time>
      </trkpt>
      <trkpt lat="48.326503" lon="11.146457">
        <ele>514.7</ele>
        <time>2025-12-31T13:16:44.931000Z</time>
      </trkpt>
      <trkpt lat="48.326626" lon="11.147229">
        <ele>513</ele>
        <time>2025-12-31T13:17:41.228000Z</time>
      </trkpt>
      <trkpt lat="48.326615" lon="11.147381">
        <ele>512.8</ele>
        <time>2025-12-31T13:17:51.867000Z</time>
      </trkpt>
      <trkpt lat="48.326518" lon="11.147745">
        <ele>512.3</ele>
        <time>2025-12-31T13:18:18.972000Z</time>
      </trkpt>
      <trkpt lat="48.32649" lon="11.148021">
        <ele>512</ele>
        <time>2025-12-31T13:18:38.061000Z</time>
      </trkpt>
      <trkpt lat="48.326496" lon="11.148784">
        <ele>511.7</ele>
        <time>2025-12-31T13:19:29.545000Z</time>
      </trkpt>
      <trkpt lat="48.326496" lon="11.149492">
        <ele>512.1</ele>
        <time>2025-12-31T13:20:18.122000Z</time>
      </trkpt>
      <trkpt lat="48.326508" lon="11.150121">
        <ele>513</ele>
        <time>2025-12-31T13:21:02.929000Z</time>
      </trkpt>
      <trkpt lat="48.326616" lon="11.1517">
        <ele>515.1</ele>
        <time>2025-12-31T13:22:56.151000Z</time>
      </trkpt>
      <trkpt lat="48.326498" lon="11.154827">
        <ele>515.1</ele>
        <time>2025-12-31T13:26:24.664000Z</time>
      </trkpt>
      <trkpt lat="48.326125" lon="11.154914">
        <ele>515.3</ele>
        <time>2025-12-31T13:27:03.053000Z</time>
      </trkpt>
      <trkpt lat="48.32578" lon="11.154864">
        <ele>515.5</ele>
        <time>2025-12-31T13:27:38.634000Z</time>
      </trkpt>
      <trkpt lat="48.325761" lon="11.154861">
        <ele>515.6</ele>
        <time>2025-12-31T13:27:40.573000Z</time>
      </trkpt>
      <trkpt lat="48.324691" lon="11.15495">
        <ele>517.1</ele>
        <time>2025-12-31T13:29:33.277000Z</time>
      </trkpt>
      <trkpt lat="48.324574" lon="11.154983">
        <ele>517.2</ele>
        <time>2025-12-31T13:29:45.729000Z</time>
      </trkpt>
      <trkpt lat="48.3245" lon="11.155057">
        <ele>517.4</ele>
        <time>2025-12-31T13:29:55.227000Z</time>
      </trkpt>
      <trkpt lat="48.32387" lon="11.156095">
        <ele>519.4</ele>
        <time>2025-12-31T13:31:35.824000Z</time>
      </trkpt>
      <trkpt lat="48.323649" lon="11.156373">
        <ele>520.2</ele>
        <time>2025-12-31T13:32:07.518000Z</time>
      </trkpt>
      <trkpt lat="48.323481" lon="11.156407">
        <ele>520.6</ele>
        <time>2025-12-31T13:32:25.925000Z</time>
      </trkpt>
      <trkpt lat="48.322522" lon="11.156598">
        <ele>521.2</ele>
        <time>2025-12-31T13:34:04.622000Z</time>
      </trkpt>
      <trkpt lat="48.322238" lon="11.156693">
        <ele>520.6</ele>
        <time>2025-12-31T13:34:34.854000Z</time>
      </trkpt>
      <trkpt lat="48.322148" lon="11.156673">
        <ele>520.4</ele>
        <time>2025-12-31T13:34:44.511000Z</time>
      </trkpt>
      <trkpt lat="48.322117" lon="11.157098">
        <ele>519.4</ele>
        <time>2025-12-31T13:35:15.047000Z</time>
      </trkpt>
      <trkpt lat="48.321632" lon="11.157093">
        <ele>516.8</ele>
        <time>2025-12-31T13:36:08.681000Z</time>
      </trkpt>
      <trkpt lat="48.32121" lon="11.157142">
        <ele>514.4</ele>
        <time>2025-12-31T13:36:55.927000Z</time>
      </trkpt>
      <trkpt lat="48.320854" lon="11.157251">
        <ele>512.3</ele>
        <time>2025-12-31T13:37:36.587000Z</time>
      </trkpt>
      <trkpt lat="48.320435" lon="11.157487">
        <ele>510.2</ele>
        <time>2025-12-31T13:38:25.688000Z</time>
      </trkpt>
      <trkpt lat="48.319946" lon="11.157831">
        <ele>508.8</ele>
        <time>2025-12-31T13:39:22.444000Z</time>
      </trkpt>
      <trkpt lat="48.319875" lon="11.157101">
        <ele>508.9</ele>
        <time>2025-12-31T13:40:11.683000Z</time>
      </trkpt>
      <trkpt lat="48.319673" lon="11.154766">
        <ele>514</ele>
        <time>2025-12-31T13:43:06.230000Z</time>
      </trkpt>
      <trkpt lat="48.319432" lon="11.152458">
        <ele>519.9</ele>
        <time>2025-12-31T13:46:02.404000Z</time>
      </trkpt>
      <trkpt lat="48.31935" lon="11.15191">
        <ele>520.5</ele>
        <time>2025-12-31T13:46:42.029000Z</time>
      </trkpt>
      <trkpt lat="48.319353" lon="11.15157">
        <ele>520.7</ele>
        <time>2025-12-31T13:47:05.274000Z</time>
      </trkpt>
      <trkpt lat="48.319328" lon="11.150742">
        <ele>520.4</ele>
        <time>2025-12-31T13:48:01.088000Z</time>
      </trkpt>
      <trkpt lat="48.31931" lon="11.150629">
        <ele>520.3</ele>
        <time>2025-12-31T13:48:09.058000Z</time>
      </trkpt>
      <trkpt lat="48.319263" lon="11.148503">
        <ele>515.5</ele>
        <time>2025-12-31T13:50:40.359000Z</time>
      </trkpt>
      <trkpt lat="48.319376" lon="11.146397">
        <ele>511.5</ele>
        <time>2025-12-31T13:53:09.145000Z</time>
      </trkpt>
      <trkpt lat="48.319381" lon="11.146223">
        <ele>511.7</ele>
        <time>2025-12-31T13:53:21.221000Z</time>
      </trkpt>
      <trkpt lat="48.319731" lon="11.146353">
        <ele>512.5</ele>
        <time>2025-12-31T13:54:00.095000Z</time>
      </trkpt>
      <trkpt lat="48.319831" lon="11.14639">
        <ele>512.7</ele>
        <time>2025-12-31T13:54:11.479000Z</time>
      </trkpt>
      <trkpt lat="48.320004" lon="11.14642">
        <ele>513.3</ele>
        <time>2025-12-31T13:54:30.923000Z</time>
      </trkpt>
      <trkpt lat="48.320207" lon="11.146391">
        <ele>514.1</ele>
        <time>2025-12-31T13:54:54.062000Z</time>
      </trkpt>
      <trkpt lat="48.320293" lon="11.146379">
        <ele>514.5</ele>
        <time>2025-12-31T13:55:03.928000Z</time>
      </trkpt>
      <trkpt lat="48.320483" lon="11.145906">
        <ele>516.1</ele>
        <time>2025-12-31T13:55:46.287000Z</time>
      </trkpt>
      <trkpt lat="48.320689" lon="11.145249">
        <ele>517.2</ele>
        <time>2025-12-31T13:56:38.711000Z</time>
      </trkpt>
      <trkpt lat="48.320725" lon="11.144663">
        <ele>517.6</ele>
        <time>2025-12-31T13:57:19.118000Z</time>
      </trkpt>
      <trkpt lat="48.320842" lon="11.144024">
        <ele>517.9</ele>
        <time>2025-12-31T13:58:04.323000Z</time>
      </trkpt>
      <trkpt lat="48.320893" lon="11.143585">
        <ele>518.2</ele>
        <time>2025-12-31T13:58:35.107000Z</time>
      </trkpt>
      <trkpt lat="48.320912" lon="11.142955">
        <ele>518.9</ele>
        <time>2025-12-31T13:59:19.637000Z</time>
      </trkpt>
      <trkpt lat="48.320891" lon="11.141679">
        <ele>520.9</ele>
        <time>2025-12-31T14:00:51.550000Z</time>
      </trkpt>
      <trkpt lat="48.320885" lon="11.141286">
        <ele>521.5</ele>
        <time>2025-12-31T14:01:19.828000Z</time>
      </trkpt>
      <trkpt lat="48.3214" lon="11.138369">
        <ele>524.1</ele>
        <time>2025-12-31T14:04:49.949000Z</time>
      </trkpt>
      <trkpt lat="48.321552" lon="11.136607">
        <ele>524.5</ele>
        <time>2025-12-31T14:06:49.717000Z</time>
      </trkpt>
      <trkpt lat="48.322625" lon="11.137016">
        <ele>524.9</ele>
        <time>2025-12-31T14:08:41.854000Z</time>
      </trkpt>
      <trkpt lat="48.322852" lon="11.137078">
        <ele>524.9</ele>
        <time>2025-12-31T14:09:05.054000Z</time>
      </trkpt>
      <trkpt lat="48.322857" lon="11.137079">
        <ele>524.9</ele>
        <time>2025-12-31T14:09:05.593000Z</time>
      </trkpt>
      <trkpt lat="48.323029" lon="11.137199">
        <ele>524.9</ele>
        <time>2025-12-31T14:09:24.569000Z</time>
      </trkpt>
      <trkpt lat="48.323095" lon="11.137239">
        <ele>524.9</ele>
        <time>2025-12-31T14:09:31.710000Z</time>
      </trkpt>
      <trkpt lat="48.32426" lon="11.138382">
        <ele>523.6</ele>
        <time>2025-12-31T14:11:53.520000Z</time>
      </trkpt>
      <trkpt lat="48.324756" lon="11.138754">
        <ele>522.8</ele>
        <time>2025-12-31T14:12:50.646000Z</time>
      </trkpt>
      <trkpt lat="48.325556" lon="11.139519">
        <ele>521.2</ele>
        <time>2025-12-31T14:14:28.992000Z</time>
      </trkpt>
      <trkpt lat="48.325635" lon="11.139331">
        <ele>520.9</ele>
        <time>2025-12-31T14:14:44.311000Z</time>
      </trkpt>
      <trkpt lat="48.325656" lon="11.13918">
        <ele>520.8</ele>
        <time>2025-12-31T14:14:54.855000Z</time>
      </trkpt>
      <trkpt lat="48.32595" lon="11.138455">
        <ele>519.9</ele>
        <time>2025-12-31T14:15:53.160000Z</time>
      </trkpt>
      <trkpt lat="48.326178" lon="11.138511">
        <ele>519.6</ele>
        <time>2025-12-31T14:16:16.993000Z</time>
      </trkpt>
      <trkpt lat="48.326287" lon="11.138485">
        <ele>519.4</ele>
        <time>2025-12-31T14:16:28.349000Z</time>
      </trkpt>
      <trkpt lat="48.326403" lon="11.138433">
        <ele>519.3</ele>
        <time>2025-12-31T14:16:40.684000Z</time>
      </trkpt>
      <trkpt lat="48.326683" lon="11.138181">
        <ele>519.1</ele>
        <time>2025-12-31T14:17:13.776000Z</time>
      </trkpt>
      <trkpt lat="48.32685" lon="11.13812">
        <ele>519.1</ele>
        <time>2025-12-31T14:17:31.030000Z</time>
      </trkpt>
      <trkpt lat="48.326981" lon="11.13811">
        <ele>519.1</ele>
        <time>2025-12-31T14:17:44.241000Z</time>
      </trkpt>
      <trkpt lat="48.327107" lon="11.137758">
        <ele>519</ele>
        <time>2025-12-31T14:18:10.844000Z</time>
      </trkpt>
      <trkpt lat="48.327178" lon="11.137659">
        <ele>519.1</ele>
        <time>2025-12-31T14:18:20.552000Z</time>
      </trkpt>
      <trkpt lat="48.327371" lon="11.137528">
        <ele>519.1</ele>
        <time>2025-12-31T14:18:41.803000Z</time>
      </trkpt>
      <trkpt lat="48.327573" lon="11.137443">
        <ele>519.1</ele>
        <time>2025-12-31T14:19:03.024000Z</time>
      </trkpt>
      <trkpt lat="48.327711" lon="11.137442">
        <ele>519.2</ele>
        <time>2025-12-31T14:19:16.979000Z</time>
      </trkpt>
      <trkpt lat="48.327749" lon="11.137342">
        <ele>519.2</ele>
        <time>2025-12-31T14:19:24.793000Z</time>
      </trkpt>
      <trkpt lat="48.327826" lon="11.137339">
        <ele>519.3</ele>
        <time>2025-12-31T14:19:32.631000Z</time>
      </trkpt>
    </trkseg>
  </trk>
</gpx>