<?xml version="1.0" encoding="UTF-8"?>
<gpx xmlns="http://www.topografix.com/GPX/1/1" xmlns:xsi="http://www.w3.org/2001/XMLSchema-instance" xsi:schemaLocation="http://www.topografix.com/GPX/1/1 http://www.topografix.com/GPX/1/1/gpx.xsd" version="1.1" creator="Robert Kampf">
  <metadata>
    <name>Fluss Schmutter – Kloster Holzen Runde von Brunnenmahdsiedlung</name>
    <desc>Distance: 19.423km, Estimated duration: 4.98h, Elevation up: 82.06515448363587m, Elevation down: 81.97974569275436m, Grade: moderate</desc>
    <author>
      <name>Robert Kampf</name>
      <link href="https://www.komoot.de/user/4125295338453">
        <text>View Robert Kampf's Profile on Komoot</text>
      </link>
    </author>
    <link href="https://www.komoot.de/tour/3013980633">
      <text>View tour on Komoot</text>
    </link>
  </metadata>
  <wpt lat="48.633476" lon="10.818356">
    <name>Schmutter</name>
    <cmt></cmt>
    <desc></desc>
    <src>Komoot</src>
    <type>POI</type>
  </wpt>
  <wpt lat="48.613952" lon="10.81656">
    <ele>420</ele>
    <name>Schmutter River</name>
    <cmt>https://d2exd72xrrp1s7.cloudfront.net/www/000/1k5/1i/1igh9dhsabqpk1kawmjbmp12qg3pgrq6w8-uhi30170255/0</cmt>
    <desc>Lenaaaa: An mehreren Stellen auf dieser Runde trifft man auf die Schmutter</desc>
    <src>Komoot</src>
    <link href="https://www.komoot.de/highlight/3024572">
      <text>View POI on Komoot</text>
    </link>
    <type>Highlight</type>
  </wpt>
  <wpt lat="48.613" lon="10.81429">
    <ele>437.1</ele>
    <name>Ecce Homo Shrine at Moritzkapelle</name>
    <cmt>https://d2exd72xrrp1s7.cloudfront.net/www/000/1k7/13/13fp4qs2ahicqqvsizdha6uf84rkirtuc-uhi66926517/0</cmt>
    <desc></desc>
    <src>Komoot</src>
    <link href="https://www.komoot.de/highlight/4344171">
      <text>View POI on Komoot</text>
    </link>
    <type>Highlight</type>
  </wpt>
  <wpt lat="48.609882" lon="10.815199">
    <ele>422.4</ele>
    <name>Wonderful paths along the Schmutter</name>
    <cmt>https://d2exd72xrrp1s7.cloudfront.net/www/000/1ka/8k/8kdkc5i2a58u76lpq7fv8jgx5q0e4n0k-uhi99057914/0</cmt>
    <desc>Marius: Rund um das Kloster Holzen führen schöne Wege entlang der Schmutter. Das erste Kloster lag um 1150 im Tal. Hier befand sich auch die frühere Klosterkirche. Die Lage am Fluss erwies sich jedoch als problematisch, da der Untergrund zu nass und sumpfig war. Nach mehrfachen Zerstörungen hat man sich deshalb dazu entschieden, das Kloster weiter oben auf dem Berg aufzubauen. Die Schmutter blieb dennoch wichtig. Entlang des Flusses verlief der Weg zur klostereigenen Mühle, die noch bis in die 1960er in Betrieb war.
――――――――――
Lenaaaa: Unter anderem sind hier Hühner, Enten, Kühe und Pferde zu sehen. Viel Spaß bei deiner Safari an der Schmutter.</desc>
    <src>Komoot</src>
    <link href="https://www.komoot.de/highlight/3024565">
      <text>View POI on Komoot</text>
    </link>
    <type>Highlight</type>
  </wpt>
  <wpt lat="48.606998" lon="10.815758">
    <ele>470.4</ele>
    <name>Schmutter Bridge in Holzen</name>
    <cmt>https://d2exd72xrrp1s7.cloudfront.net/www/000/1k9/1h/1hr56jaidh71411ku0by1l0avz5abc0e98-uhi83382375/0</cmt>
    <desc></desc>
    <src>Komoot</src>
    <link href="https://www.komoot.de/highlight/7275302">
      <text>View POI on Komoot</text>
    </link>
    <type>Highlight</type>
  </wpt>
  <wpt lat="48.601227" lon="10.815243">
    <ele>473.5</ele>
    <name>Kloster Holzen</name>
    <cmt>https://d2exd72xrrp1s7.cloudfront.net/www/000/1k8/rq/rqj6mm1lkxm87hnfigcsqnsm4xsdwta7-uhi70591330/0</cmt>
    <desc>HePeMa: Kloster Holzen &amp; Karlsberg – historischer Überblick

Das heutige Kloster Holzen liegt auf dem Karlsberg, einer rund 20 Meter erhöhten Anhöhe über dem Schmuttertal bei Allmannshofen. Der Name „Karlsberg“ geht auf eine Kapelle zurück, die Anfang des 17. Jahrhunderts zu Ehren des hl. Karl Borromäus errichtet wurde.

Ursprünglich befand sich das im 12. Jahrhundert gegründete Benediktinerinnenkloster im Tal nahe der Schmutter. Wegen Hochwassergefahr und baulichem Verfall entschied man sich Ende des 17. Jahrhunderts für einen Neubau auf dem höher gelegenen Plateau. Die Klosteranlage mit der weithin sichtbaren barocken Kirche St. Johannes der Täufer entstand zwischen 1696 und 1710 nach Plänen des Vorarlberger Baumeisters Franz Beer.

Nach der Säkularisation 1803 wurde die Anlage zunächst weltlich genutzt. Seit 1927 gehört sie dem Dominikus-Ringeisen-Werk und dient heute als soziale Einrichtung, Hotel- und Tagungsstandort.

Kloster Holzen und der Karlsberg bilden damit ein historisch gewachsenes Ensemble, das Landschaft, Ortsgeschichte und Barockarchitektur der Region eindrucksvoll verbindet.

schwabenmedia.de/Kirchen/Landkreis-augsburg/St-johannes-holzen.php

Lageplan Kloster Holzen (PDF)
kloster-holzen.de/media/78971/lageplan-kloster-holzen-2784639.pdf</desc>
    <src>Komoot</src>
    <link href="https://www.komoot.de/highlight/6517523">
      <text>View POI on Komoot</text>
    </link>
    <type>Highlight</type>
  </wpt>
  <wpt lat="48.600009" lon="10.817514">
    <ele>420.3</ele>
    <name>View of Kloster Holzen</name>
    <cmt>https://d2exd72xrrp1s7.cloudfront.net/www/000/1k8/17/17drf76tet323z8z6f646szb056ori7rq-uhi81016664/0</cmt>
    <desc></desc>
    <src>Komoot</src>
    <link href="https://www.komoot.de/highlight/7148819">
      <text>View POI on Komoot</text>
    </link>
    <type>Highlight</type>
  </wpt>
  <wpt lat="48.594654" lon="10.823552">
    <ele>419</ele>
    <name>Schmutter River</name>
    <cmt>https://d2exd72xrrp1s7.cloudfront.net/www/000/1ka/ox/ox1g0v4yo2ie1kep2qaeodou95n08zxun-uhi97331386/0</cmt>
    <desc></desc>
    <src>Komoot</src>
    <link href="https://www.komoot.de/highlight/7145707">
      <text>View POI on Komoot</text>
    </link>
    <type>Highlight</type>
  </wpt>
  <wpt lat="48.610856" lon="10.828217">
    <ele>469</ele>
    <name>Gut Schwaighof</name>
    <cmt>https://d2exd72xrrp1s7.cloudfront.net/www/000/1k5/1i/1i1sklizclm8t1u0laiikrhz6t3p3pavlo-uhi29825598/0</cmt>
    <desc>Siggi: Das Gut Schwaighof ist ein bayerisches Trakehner-Gestüt.
Außerdem sind auf dem Gut eine Molkerei, ein Grünland- und Feldbaubetrieb sowie eine Gärtnerei angesiedelt. Die Gutsanlage steht als Gesamtensemble unter Denkmalschutz.</desc>
    <src>Komoot</src>
    <link href="https://www.komoot.de/highlight/3007858">
      <text>View POI on Komoot</text>
    </link>
    <type>Highlight</type>
  </wpt>
  <trk>
    <name>Fluss Schmutter – Kloster Holzen Runde von Brunnenmahdsiedlung</name>
    <desc>Distance: 19.423km, Estimated duration: 4.98h, Elevation up: 82.06515448363587m, Elevation down: 81.97974569275436m, Grade: moderate</desc>
    <link href="https://www.komoot.de/tour/3013980633">
      <text>View tour on Komoot</text>
    </link>
    <trkseg>
      <trkpt lat="48.626795" lon="10.831049">
        <ele>412.7</ele>
        <time>2026-06-05T12:22:14.362000Z</time>
      </trkpt>
      <trkpt lat="48.628363" lon="10.830795">
        <ele>412.5</ele>
        <time>2026-06-05T12:24:52.516000Z</time>
      </trkpt>
      <trkpt lat="48.632459" lon="10.830519">
        <ele>412.4</ele>
        <time>2026-06-05T12:31:43.042000Z</time>
      </trkpt>
      <trkpt lat="48.636724" lon="10.830207">
        <ele>411.4</ele>
        <time>2026-06-05T12:38:52.580000Z</time>
      </trkpt>
      <trkpt lat="48.636837" lon="10.832377">
        <ele>411.1</ele>
        <time>2026-06-05T12:41:17.160000Z</time>
      </trkpt>
      <trkpt lat="48.636924" lon="10.833591">
        <ele>411.2</ele>
        <time>2026-06-05T12:42:38.410000Z</time>
      </trkpt>
      <trkpt lat="48.636935" lon="10.833986">
        <ele>411.2</ele>
        <time>2026-06-05T12:43:04.605000Z</time>
      </trkpt>
      <trkpt lat="48.63696" lon="10.834157">
        <ele>411.3</ele>
        <time>2026-06-05T12:43:16.213000Z</time>
      </trkpt>
      <trkpt lat="48.637011" lon="10.834247">
        <ele>411.3</ele>
        <time>2026-06-05T12:43:24.115000Z</time>
      </trkpt>
      <trkpt lat="48.638491" lon="10.833986">
        <ele>411.1</ele>
        <time>2026-06-05T12:45:53.581000Z</time>
      </trkpt>
      <trkpt lat="48.638502" lon="10.833873">
        <ele>411</ele>
        <time>2026-06-05T12:46:01.150000Z</time>
      </trkpt>
      <trkpt lat="48.638607" lon="10.833764">
        <ele>411</ele>
        <time>2026-06-05T12:46:14.062000Z</time>
      </trkpt>
      <trkpt lat="48.643001" lon="10.833391">
        <ele>408.9</ele>
        <time>2026-06-05T12:53:38.849000Z</time>
      </trkpt>
      <trkpt lat="48.644991" lon="10.833259">
        <ele>409.1</ele>
        <time>2026-06-05T12:56:58.994000Z</time>
      </trkpt>
      <trkpt lat="48.646675" lon="10.833058">
        <ele>409.5</ele>
        <time>2026-06-05T12:59:49.187000Z</time>
      </trkpt>
      <trkpt lat="48.647141" lon="10.832986">
        <ele>409.4</ele>
        <time>2026-06-05T13:00:36.361000Z</time>
      </trkpt>
      <trkpt lat="48.648671" lon="10.832645">
        <ele>408.7</ele>
        <time>2026-06-05T13:03:12.444000Z</time>
      </trkpt>
      <trkpt lat="48.650395" lon="10.83203">
        <ele>409.2</ele>
        <time>2026-06-05T13:06:11.216000Z</time>
      </trkpt>
      <trkpt lat="48.652193" lon="10.831191">
        <ele>409</ele>
        <time>2026-06-05T13:09:19.907000Z</time>
      </trkpt>
      <trkpt lat="48.653377" lon="10.830566">
        <ele>408.8</ele>
        <time>2026-06-05T13:11:25.723000Z</time>
      </trkpt>
      <trkpt lat="48.653832" lon="10.830295">
        <ele>408.7</ele>
        <time>2026-06-05T13:12:14.840000Z</time>
      </trkpt>
      <trkpt lat="48.655093" lon="10.829335">
        <ele>408.4</ele>
        <time>2026-06-05T13:14:36.734000Z</time>
      </trkpt>
      <trkpt lat="48.656595" lon="10.828288">
        <ele>407.7</ele>
        <time>2026-06-05T13:17:23.778000Z</time>
      </trkpt>
      <trkpt lat="48.657032" lon="10.827972">
        <ele>407.8</ele>
        <time>2026-06-05T13:18:12.602000Z</time>
      </trkpt>
      <trkpt lat="48.657135" lon="10.827934">
        <ele>407.8</ele>
        <time>2026-06-05T13:18:23.257000Z</time>
      </trkpt>
      <trkpt lat="48.657433" lon="10.828048">
        <ele>408</ele>
        <time>2026-06-05T13:18:54.490000Z</time>
      </trkpt>
      <trkpt lat="48.657558" lon="10.827949">
        <ele>408</ele>
        <time>2026-06-05T13:19:08.911000Z</time>
      </trkpt>
      <trkpt lat="48.657749" lon="10.827727">
        <ele>408.2</ele>
        <time>2026-06-05T13:19:33.462000Z</time>
      </trkpt>
      <trkpt lat="48.658173" lon="10.827215">
        <ele>408.4</ele>
        <time>2026-06-05T13:20:28.598000Z</time>
      </trkpt>
      <trkpt lat="48.658355" lon="10.827037">
        <ele>408.5</ele>
        <time>2026-06-05T13:20:50.568000Z</time>
      </trkpt>
      <trkpt lat="48.659643" lon="10.826066">
        <ele>408.4</ele>
        <time>2026-06-05T13:23:14.915000Z</time>
      </trkpt>
      <trkpt lat="48.660006" lon="10.825777">
        <ele>408.4</ele>
        <time>2026-06-05T13:23:56.043000Z</time>
      </trkpt>
      <trkpt lat="48.660179" lon="10.82569">
        <ele>408.4</ele>
        <time>2026-06-05T13:24:14.468000Z</time>
      </trkpt>
      <trkpt lat="48.660365" lon="10.825597">
        <ele>408.5</ele>
        <time>2026-06-05T13:24:34.389000Z</time>
      </trkpt>
      <trkpt lat="48.660435" lon="10.825724">
        <ele>408.6</ele>
        <time>2026-06-05T13:24:45.507000Z</time>
      </trkpt>
      <trkpt lat="48.660545" lon="10.825526">
        <ele>408.7</ele>
        <time>2026-06-05T13:25:02.918000Z</time>
      </trkpt>
      <trkpt lat="48.660545" lon="10.825443">
        <ele>408.7</ele>
        <time>2026-06-05T13:25:08.493000Z</time>
      </trkpt>
      <trkpt lat="48.660466" lon="10.825394">
        <ele>408.8</ele>
        <time>2026-06-05T13:25:17.184000Z</time>
      </trkpt>
      <trkpt lat="48.660411" lon="10.825436">
        <ele>408.8</ele>
        <time>2026-06-05T13:25:23.370000Z</time>
      </trkpt>
      <trkpt lat="48.660395" lon="10.825448">
        <ele>408.8</ele>
        <time>2026-06-05T13:25:25.178000Z</time>
      </trkpt>
      <trkpt lat="48.660358" lon="10.825333">
        <ele>408.8</ele>
        <time>2026-06-05T13:25:33.695000Z</time>
      </trkpt>
      <trkpt lat="48.660263" lon="10.825043">
        <ele>408.8</ele>
        <time>2026-06-05T13:25:55.221000Z</time>
      </trkpt>
      <trkpt lat="48.660232" lon="10.824946">
        <ele>408.8</ele>
        <time>2026-06-05T13:26:02.386000Z</time>
      </trkpt>
      <trkpt lat="48.660226" lon="10.824929">
        <ele>408.8</ele>
        <time>2026-06-05T13:26:03.635000Z</time>
      </trkpt>
      <trkpt lat="48.660194" lon="10.824831">
        <ele>408.8</ele>
        <time>2026-06-05T13:26:10.866000Z</time>
      </trkpt>
      <trkpt lat="48.660089" lon="10.824903">
        <ele>408.8</ele>
        <time>2026-06-05T13:26:22.401000Z</time>
      </trkpt>
      <trkpt lat="48.660055" lon="10.824819">
        <ele>408.8</ele>
        <time>2026-06-05T13:26:28.917000Z</time>
      </trkpt>
      <trkpt lat="48.659982" lon="10.824751">
        <ele>408.9</ele>
        <time>2026-06-05T13:26:37.528000Z</time>
      </trkpt>
      <trkpt lat="48.659881" lon="10.825069">
        <ele>408.9</ele>
        <time>2026-06-05T13:27:01.088000Z</time>
      </trkpt>
      <trkpt lat="48.659895" lon="10.825129">
        <ele>408.9</ele>
        <time>2026-06-05T13:27:05.352000Z</time>
      </trkpt>
      <trkpt lat="48.659739" lon="10.825237">
        <ele>409</ele>
        <time>2026-06-05T13:27:22.710000Z</time>
      </trkpt>
      <trkpt lat="48.65944" lon="10.825442">
        <ele>409.1</ele>
        <time>2026-06-05T13:27:56.021000Z</time>
      </trkpt>
      <trkpt lat="48.658649" lon="10.826025">
        <ele>409</ele>
        <time>2026-06-05T13:29:24.345000Z</time>
      </trkpt>
      <trkpt lat="48.658626" lon="10.8261">
        <ele>409</ele>
        <time>2026-06-05T13:29:29.786000Z</time>
      </trkpt>
      <trkpt lat="48.65859" lon="10.826125">
        <ele>409</ele>
        <time>2026-06-05T13:29:33.806000Z</time>
      </trkpt>
      <trkpt lat="48.658385" lon="10.826274">
        <ele>408.9</ele>
        <time>2026-06-05T13:29:56.720000Z</time>
      </trkpt>
      <trkpt lat="48.65825" lon="10.826372">
        <ele>408.8</ele>
        <time>2026-06-05T13:30:11.835000Z</time>
      </trkpt>
      <trkpt lat="48.658159" lon="10.826348">
        <ele>408.8</ele>
        <time>2026-06-05T13:30:21.181000Z</time>
      </trkpt>
      <trkpt lat="48.658049" lon="10.826178">
        <ele>408.7</ele>
        <time>2026-06-05T13:30:37.127000Z</time>
      </trkpt>
      <trkpt lat="48.657439" lon="10.826626">
        <ele>408.1</ele>
        <time>2026-06-05T13:31:46.223000Z</time>
      </trkpt>
      <trkpt lat="48.65736" lon="10.826684">
        <ele>408</ele>
        <time>2026-06-05T13:31:55.234000Z</time>
      </trkpt>
      <trkpt lat="48.657161" lon="10.82683">
        <ele>407.9</ele>
        <time>2026-06-05T13:32:17.664000Z</time>
      </trkpt>
      <trkpt lat="48.657082" lon="10.826887">
        <ele>407.8</ele>
        <time>2026-06-05T13:32:26.535000Z</time>
      </trkpt>
      <trkpt lat="48.656871" lon="10.827212">
        <ele>407.7</ele>
        <time>2026-06-05T13:32:56.784000Z</time>
      </trkpt>
      <trkpt lat="48.656518" lon="10.827872">
        <ele>407.7</ele>
        <time>2026-06-05T13:33:52.925000Z</time>
      </trkpt>
      <trkpt lat="48.65456" lon="10.829395">
        <ele>408.5</ele>
        <time>2026-06-05T13:37:36.196000Z</time>
      </trkpt>
      <trkpt lat="48.653963" lon="10.829803">
        <ele>408.6</ele>
        <time>2026-06-05T13:38:42.056000Z</time>
      </trkpt>
      <trkpt lat="48.653236" lon="10.830284">
        <ele>408.7</ele>
        <time>2026-06-05T13:40:01.667000Z</time>
      </trkpt>
      <trkpt lat="48.653124" lon="10.830246">
        <ele>408.7</ele>
        <time>2026-06-05T13:40:13.116000Z</time>
      </trkpt>
      <trkpt lat="48.650472" lon="10.828371">
        <ele>409.2</ele>
        <time>2026-06-05T13:45:07.994000Z</time>
      </trkpt>
      <trkpt lat="48.650177" lon="10.828216">
        <ele>409.3</ele>
        <time>2026-06-05T13:45:39.601000Z</time>
      </trkpt>
      <trkpt lat="48.649075" lon="10.828093">
        <ele>409.8</ele>
        <time>2026-06-05T13:47:31.979000Z</time>
      </trkpt>
      <trkpt lat="48.647798" lon="10.828318">
        <ele>410.7</ele>
        <time>2026-06-05T13:49:43.753000Z</time>
      </trkpt>
      <trkpt lat="48.647146" lon="10.828334">
        <ele>411.4</ele>
        <time>2026-06-05T13:50:51.627000Z</time>
      </trkpt>
      <trkpt lat="48.647043" lon="10.828202">
        <ele>411.6</ele>
        <time>2026-06-05T13:51:05.707000Z</time>
      </trkpt>
      <trkpt lat="48.646932" lon="10.828001">
        <ele>411.8</ele>
        <time>2026-06-05T13:51:23.830000Z</time>
      </trkpt>
      <trkpt lat="48.64669" lon="10.827557">
        <ele>412.2</ele>
        <time>2026-06-05T13:52:03.479000Z</time>
      </trkpt>
      <trkpt lat="48.646502" lon="10.827091">
        <ele>412.4</ele>
        <time>2026-06-05T13:52:40.244000Z</time>
      </trkpt>
      <trkpt lat="48.646302" lon="10.826548">
        <ele>412.6</ele>
        <time>2026-06-05T13:53:21.971000Z</time>
      </trkpt>
      <trkpt lat="48.646277" lon="10.82641">
        <ele>412.7</ele>
        <time>2026-06-05T13:53:31.653000Z</time>
      </trkpt>
      <trkpt lat="48.646075" lon="10.826275">
        <ele>412.7</ele>
        <time>2026-06-05T13:53:53.975000Z</time>
      </trkpt>
      <trkpt lat="48.646035" lon="10.826132">
        <ele>412.8</ele>
        <time>2026-06-05T13:54:04.453000Z</time>
      </trkpt>
      <trkpt lat="48.646018" lon="10.826071">
        <ele>412.8</ele>
        <time>2026-06-05T13:54:08.881000Z</time>
      </trkpt>
      <trkpt lat="48.646008" lon="10.825652">
        <ele>413</ele>
        <time>2026-06-05T13:54:37.386000Z</time>
      </trkpt>
      <trkpt lat="48.646056" lon="10.825448">
        <ele>413.2</ele>
        <time>2026-06-05T13:54:52.189000Z</time>
      </trkpt>
      <trkpt lat="48.64618" lon="10.825202">
        <ele>413.3</ele>
        <time>2026-06-05T13:55:13.333000Z</time>
      </trkpt>
      <trkpt lat="48.646307" lon="10.825033">
        <ele>413.5</ele>
        <time>2026-06-05T13:55:30.810000Z</time>
      </trkpt>
      <trkpt lat="48.646457" lon="10.824914">
        <ele>413.7</ele>
        <time>2026-06-05T13:55:48.369000Z</time>
      </trkpt>
      <trkpt lat="48.647044" lon="10.824608">
        <ele>414.3</ele>
        <time>2026-06-05T13:56:52.669000Z</time>
      </trkpt>
      <trkpt lat="48.647056" lon="10.82415">
        <ele>414.6</ele>
        <time>2026-06-05T13:57:24.140000Z</time>
      </trkpt>
      <trkpt lat="48.647013" lon="10.82371">
        <ele>415.1</ele>
        <time>2026-06-05T13:57:55.171000Z</time>
      </trkpt>
      <trkpt lat="48.646922" lon="10.823314">
        <ele>415.7</ele>
        <time>2026-06-05T13:58:25.012000Z</time>
      </trkpt>
      <trkpt lat="48.646696" lon="10.822693">
        <ele>417.2</ele>
        <time>2026-06-05T13:59:17.223000Z</time>
      </trkpt>
      <trkpt lat="48.646614" lon="10.822404">
        <ele>417.9</ele>
        <time>2026-06-05T13:59:40.431000Z</time>
      </trkpt>
      <trkpt lat="48.646568" lon="10.822059">
        <ele>418.5</ele>
        <time>2026-06-05T14:00:06.041000Z</time>
      </trkpt>
      <trkpt lat="48.646307" lon="10.82145">
        <ele>419.8</ele>
        <time>2026-06-05T14:00:58.436000Z</time>
      </trkpt>
      <trkpt lat="48.646261" lon="10.821195">
        <ele>420.1</ele>
        <time>2026-06-05T14:01:17.196000Z</time>
      </trkpt>
      <trkpt lat="48.64605" lon="10.821075">
        <ele>420.5</ele>
        <time>2026-06-05T14:01:40.963000Z</time>
      </trkpt>
      <trkpt lat="48.6454" lon="10.821082">
        <ele>420.9</ele>
        <time>2026-06-05T14:02:47.399000Z</time>
      </trkpt>
      <trkpt lat="48.645029" lon="10.820809">
        <ele>420.6</ele>
        <time>2026-06-05T14:03:29.365000Z</time>
      </trkpt>
      <trkpt lat="48.644578" lon="10.820674">
        <ele>420.6</ele>
        <time>2026-06-05T14:04:15.640000Z</time>
      </trkpt>
      <trkpt lat="48.643799" lon="10.820567">
        <ele>422.4</ele>
        <time>2026-06-05T14:05:40.324000Z</time>
      </trkpt>
      <trkpt lat="48.643753" lon="10.820015">
        <ele>423.6</ele>
        <time>2026-06-05T14:06:21.248000Z</time>
      </trkpt>
      <trkpt lat="48.643706" lon="10.817611">
        <ele>429.7</ele>
        <time>2026-06-05T14:09:21.406000Z</time>
      </trkpt>
      <trkpt lat="48.641795" lon="10.817794">
        <ele>433.8</ele>
        <time>2026-06-05T14:12:47.891000Z</time>
      </trkpt>
      <trkpt lat="48.641196" lon="10.817912">
        <ele>432.9</ele>
        <time>2026-06-05T14:13:50.260000Z</time>
      </trkpt>
      <trkpt lat="48.640692" lon="10.817848">
        <ele>431.3</ele>
        <time>2026-06-05T14:14:44.107000Z</time>
      </trkpt>
      <trkpt lat="48.639644" lon="10.817578">
        <ele>429.4</ele>
        <time>2026-06-05T14:16:34.453000Z</time>
      </trkpt>
      <trkpt lat="48.639534" lon="10.817517">
        <ele>429.5</ele>
        <time>2026-06-05T14:16:46.541000Z</time>
      </trkpt>
      <trkpt lat="48.639372" lon="10.817397">
        <ele>429.7</ele>
        <time>2026-06-05T14:17:05.200000Z</time>
      </trkpt>
      <trkpt lat="48.639182" lon="10.817143">
        <ele>429.9</ele>
        <time>2026-06-05T14:17:31.393000Z</time>
      </trkpt>
      <trkpt lat="48.63893" lon="10.816602">
        <ele>430.2</ele>
        <time>2026-06-05T14:18:16.103000Z</time>
      </trkpt>
      <trkpt lat="48.638737" lon="10.816229">
        <ele>430.3</ele>
        <time>2026-06-05T14:18:47.941000Z</time>
      </trkpt>
      <trkpt lat="48.638355" lon="10.816182">
        <ele>430.3</ele>
        <time>2026-06-05T14:19:26.339000Z</time>
      </trkpt>
      <trkpt lat="48.63808" lon="10.816084">
        <ele>430</ele>
        <time>2026-06-05T14:19:55.265000Z</time>
      </trkpt>
      <trkpt lat="48.637892" lon="10.815911">
        <ele>429.5</ele>
        <time>2026-06-05T14:20:18.189000Z</time>
      </trkpt>
      <trkpt lat="48.637801" lon="10.81589">
        <ele>429.3</ele>
        <time>2026-06-05T14:20:27.780000Z</time>
      </trkpt>
      <trkpt lat="48.637539" lon="10.815828">
        <ele>428.6</ele>
        <time>2026-06-05T14:20:55.720000Z</time>
      </trkpt>
      <trkpt lat="48.637412" lon="10.815798">
        <ele>428.3</ele>
        <time>2026-06-05T14:21:09.270000Z</time>
      </trkpt>
      <trkpt lat="48.637251" lon="10.815761">
        <ele>427.9</ele>
        <time>2026-06-05T14:21:26.365000Z</time>
      </trkpt>
      <trkpt lat="48.637158" lon="10.815739">
        <ele>427.7</ele>
        <time>2026-06-05T14:21:36.251000Z</time>
      </trkpt>
      <trkpt lat="48.637065" lon="10.815717">
        <ele>427.5</ele>
        <time>2026-06-05T14:21:46.050000Z</time>
      </trkpt>
      <trkpt lat="48.636775" lon="10.815649">
        <ele>427</ele>
        <time>2026-06-05T14:22:16.484000Z</time>
      </trkpt>
      <trkpt lat="48.636632" lon="10.815615">
        <ele>426.8</ele>
        <time>2026-06-05T14:22:31.399000Z</time>
      </trkpt>
      <trkpt lat="48.63599" lon="10.81542">
        <ele>426.1</ele>
        <time>2026-06-05T14:23:38.311000Z</time>
      </trkpt>
      <trkpt lat="48.635703" lon="10.815387">
        <ele>425.8</ele>
        <time>2026-06-05T14:24:07.765000Z</time>
      </trkpt>
      <trkpt lat="48.635556" lon="10.815413">
        <ele>425.7</ele>
        <time>2026-06-05T14:24:22.968000Z</time>
      </trkpt>
      <trkpt lat="48.635396" lon="10.815479">
        <ele>425.4</ele>
        <time>2026-06-05T14:24:39.946000Z</time>
      </trkpt>
      <trkpt lat="48.635421" lon="10.815557">
        <ele>425.4</ele>
        <time>2026-06-05T14:24:45.855000Z</time>
      </trkpt>
      <trkpt lat="48.635566" lon="10.815537">
        <ele>425</ele>
        <time>2026-06-05T14:25:01.165000Z</time>
      </trkpt>
      <trkpt lat="48.63578" lon="10.815605">
        <ele>424.3</ele>
        <time>2026-06-05T14:25:24.536000Z</time>
      </trkpt>
      <trkpt lat="48.635878" lon="10.815669">
        <ele>423.9</ele>
        <time>2026-06-05T14:25:36.064000Z</time>
      </trkpt>
      <trkpt lat="48.635982" lon="10.815825">
        <ele>423.2</ele>
        <time>2026-06-05T14:25:52.037000Z</time>
      </trkpt>
      <trkpt lat="48.636054" lon="10.816057">
        <ele>422.5</ele>
        <time>2026-06-05T14:26:10.540000Z</time>
      </trkpt>
      <trkpt lat="48.636073" lon="10.816593">
        <ele>420.7</ele>
        <time>2026-06-05T14:26:49.532000Z</time>
      </trkpt>
      <trkpt lat="48.636013" lon="10.816841">
        <ele>419.8</ele>
        <time>2026-06-05T14:27:08.915000Z</time>
      </trkpt>
      <trkpt lat="48.635782" lon="10.817511">
        <ele>417.4</ele>
        <time>2026-06-05T14:28:03.874000Z</time>
      </trkpt>
      <trkpt lat="48.635686" lon="10.817798">
        <ele>416.4</ele>
        <time>2026-06-05T14:28:27.164000Z</time>
      </trkpt>
      <trkpt lat="48.635571" lon="10.818186">
        <ele>415.1</ele>
        <time>2026-06-05T14:28:57.825000Z</time>
      </trkpt>
      <trkpt lat="48.635545" lon="10.818408">
        <ele>414.6</ele>
        <time>2026-06-05T14:29:13.729000Z</time>
      </trkpt>
      <trkpt lat="48.635504" lon="10.818861">
        <ele>414.1</ele>
        <time>2026-06-05T14:29:45.185000Z</time>
      </trkpt>
      <trkpt lat="48.635497" lon="10.818943">
        <ele>414</ele>
        <time>2026-06-05T14:29:50.815000Z</time>
      </trkpt>
      <trkpt lat="48.635049" lon="10.818859">
        <ele>413.6</ele>
        <time>2026-06-05T14:30:36.828000Z</time>
      </trkpt>
      <trkpt lat="48.634794" lon="10.818846">
        <ele>413.4</ele>
        <time>2026-06-05T14:31:02.659000Z</time>
      </trkpt>
      <trkpt lat="48.633619" lon="10.819033">
        <ele>413.5</ele>
        <time>2026-06-05T14:33:01.034000Z</time>
      </trkpt>
      <trkpt lat="48.633425" lon="10.818998">
        <ele>413.6</ele>
        <time>2026-06-05T14:33:20.925000Z</time>
      </trkpt>
      <trkpt lat="48.633083" lon="10.818936">
        <ele>413.8</ele>
        <time>2026-06-05T14:33:56.129000Z</time>
      </trkpt>
      <trkpt lat="48.632377" lon="10.818461">
        <ele>414.4</ele>
        <time>2026-06-05T14:35:15.564000Z</time>
      </trkpt>
      <trkpt lat="48.631745" lon="10.81844">
        <ele>414.7</ele>
        <time>2026-06-05T14:36:20.028000Z</time>
      </trkpt>
      <trkpt lat="48.631617" lon="10.818392">
        <ele>414.7</ele>
        <time>2026-06-05T14:36:33.263000Z</time>
      </trkpt>
      <trkpt lat="48.631548" lon="10.81835">
        <ele>414.7</ele>
        <time>2026-06-05T14:36:40.709000Z</time>
      </trkpt>
      <trkpt lat="48.631465" lon="10.818299">
        <ele>414.7</ele>
        <time>2026-06-05T14:36:49.671000Z</time>
      </trkpt>
      <trkpt lat="48.63149" lon="10.818097">
        <ele>414.7</ele>
        <time>2026-06-05T14:37:03.343000Z</time>
      </trkpt>
      <trkpt lat="48.631215" lon="10.818014">
        <ele>414.6</ele>
        <time>2026-06-05T14:37:31.606000Z</time>
      </trkpt>
      <trkpt lat="48.631168" lon="10.818004">
        <ele>414.6</ele>
        <time>2026-06-05T14:37:36.358000Z</time>
      </trkpt>
      <trkpt lat="48.631116" lon="10.817976">
        <ele>414.6</ele>
        <time>2026-06-05T14:37:41.986000Z</time>
      </trkpt>
      <trkpt lat="48.631079" lon="10.81796">
        <ele>414.5</ele>
        <time>2026-06-05T14:37:45.841000Z</time>
      </trkpt>
      <trkpt lat="48.630395" lon="10.817833">
        <ele>414.1</ele>
        <time>2026-06-05T14:38:55.604000Z</time>
      </trkpt>
      <trkpt lat="48.630292" lon="10.817713">
        <ele>414.1</ele>
        <time>2026-06-05T14:39:08.808000Z</time>
      </trkpt>
      <trkpt lat="48.629572" lon="10.817964">
        <ele>413.9</ele>
        <time>2026-06-05T14:40:23.086000Z</time>
      </trkpt>
      <trkpt lat="48.628921" lon="10.817863">
        <ele>414</ele>
        <time>2026-06-05T14:41:28.899000Z</time>
      </trkpt>
      <trkpt lat="48.628583" lon="10.817811">
        <ele>414.1</ele>
        <time>2026-06-05T14:42:03.122000Z</time>
      </trkpt>
      <trkpt lat="48.627587" lon="10.817755">
        <ele>414.1</ele>
        <time>2026-06-05T14:43:43.030000Z</time>
      </trkpt>
      <trkpt lat="48.625537" lon="10.817674">
        <ele>413.9</ele>
        <time>2026-06-05T14:47:08.679000Z</time>
      </trkpt>
      <trkpt lat="48.623305" lon="10.817449">
        <ele>414.5</ele>
        <time>2026-06-05T14:50:54.700000Z</time>
      </trkpt>
      <trkpt lat="48.620068" lon="10.816744">
        <ele>415.3</ele>
        <time>2026-06-05T14:56:24.699000Z</time>
      </trkpt>
      <trkpt lat="48.619267" lon="10.816659">
        <ele>415.4</ele>
        <time>2026-06-05T14:57:45.424000Z</time>
      </trkpt>
      <trkpt lat="48.619167" lon="10.816648">
        <ele>415.4</ele>
        <time>2026-06-05T14:57:55.575000Z</time>
      </trkpt>
      <trkpt lat="48.618298" lon="10.816789">
        <ele>415.7</ele>
        <time>2026-06-05T14:59:24.099000Z</time>
      </trkpt>
      <trkpt lat="48.617547" lon="10.817014">
        <ele>416.2</ele>
        <time>2026-06-05T15:00:42.661000Z</time>
      </trkpt>
      <trkpt lat="48.61618" lon="10.817376">
        <ele>417.4</ele>
        <time>2026-06-05T15:03:05.618000Z</time>
      </trkpt>
      <trkpt lat="48.615552" lon="10.817333">
        <ele>417.8</ele>
        <time>2026-06-05T15:04:10.181000Z</time>
      </trkpt>
      <trkpt lat="48.615221" lon="10.817302">
        <ele>418</ele>
        <time>2026-06-05T15:04:44.109000Z</time>
      </trkpt>
      <trkpt lat="48.614608" lon="10.817269">
        <ele>418.9</ele>
        <time>2026-06-05T15:05:48.383000Z</time>
      </trkpt>
      <trkpt lat="48.614122" lon="10.817269">
        <ele>420</ele>
        <time>2026-06-05T15:06:41.235000Z</time>
      </trkpt>
      <trkpt lat="48.61409" lon="10.816996">
        <ele>420.5</ele>
        <time>2026-06-05T15:07:01.336000Z</time>
      </trkpt>
      <trkpt lat="48.613982" lon="10.81654">
        <ele>421.3</ele>
        <time>2026-06-05T15:07:36.136000Z</time>
      </trkpt>
      <trkpt lat="48.6139" lon="10.816266">
        <ele>421.7</ele>
        <time>2026-06-05T15:07:57.423000Z</time>
      </trkpt>
      <trkpt lat="48.613762" lon="10.816073">
        <ele>422.1</ele>
        <time>2026-06-05T15:08:17.497000Z</time>
      </trkpt>
      <trkpt lat="48.613466" lon="10.815981">
        <ele>422.6</ele>
        <time>2026-06-05T15:08:49.552000Z</time>
      </trkpt>
      <trkpt lat="48.613268" lon="10.815964">
        <ele>422.9</ele>
        <time>2026-06-05T15:09:10.559000Z</time>
      </trkpt>
      <trkpt lat="48.612869" lon="10.815822">
        <ele>423.3</ele>
        <time>2026-06-05T15:09:52.996000Z</time>
      </trkpt>
      <trkpt lat="48.612671" lon="10.815717">
        <ele>423.5</ele>
        <time>2026-06-05T15:10:14.713000Z</time>
      </trkpt>
      <trkpt lat="48.612527" lon="10.815578">
        <ele>423.7</ele>
        <time>2026-06-05T15:10:32.660000Z</time>
      </trkpt>
      <trkpt lat="48.612475" lon="10.815489">
        <ele>423.9</ele>
        <time>2026-06-05T15:10:41.023000Z</time>
      </trkpt>
      <trkpt lat="48.612147" lon="10.814778">
        <ele>425.9</ele>
        <time>2026-06-05T15:11:45.372000Z</time>
      </trkpt>
      <trkpt lat="48.612076" lon="10.814512">
        <ele>427</ele>
        <time>2026-06-05T15:12:08.309000Z</time>
      </trkpt>
      <trkpt lat="48.612398" lon="10.814598">
        <ele>429.2</ele>
        <time>2026-06-05T15:12:48.475000Z</time>
      </trkpt>
      <trkpt lat="48.612501" lon="10.814588">
        <ele>429.8</ele>
        <time>2026-06-05T15:13:00.915000Z</time>
      </trkpt>
      <trkpt lat="48.612538" lon="10.814515">
        <ele>430.1</ele>
        <time>2026-06-05T15:13:08.202000Z</time>
      </trkpt>
      <trkpt lat="48.612594" lon="10.814238">
        <ele>430.9</ele>
        <time>2026-06-05T15:13:30.148000Z</time>
      </trkpt>
      <trkpt lat="48.612739" lon="10.814206">
        <ele>431.4</ele>
        <time>2026-06-05T15:13:46.582000Z</time>
      </trkpt>
      <trkpt lat="48.612782" lon="10.814138">
        <ele>431.6</ele>
        <time>2026-06-05T15:13:53.442000Z</time>
      </trkpt>
      <trkpt lat="48.6128" lon="10.814027">
        <ele>431.8</ele>
        <time>2026-06-05T15:14:01.706000Z</time>
      </trkpt>
      <trkpt lat="48.612942" lon="10.814286">
        <ele>432.1</ele>
        <time>2026-06-05T15:14:25.070000Z</time>
      </trkpt>
      <trkpt lat="48.612975" lon="10.814285">
        <ele>432.1</ele>
        <time>2026-06-05T15:14:28.500000Z</time>
      </trkpt>
      <trkpt lat="48.613" lon="10.814285">
        <ele>432.1</ele>
        <time>2026-06-05T15:14:31.055000Z</time>
      </trkpt>
      <trkpt lat="48.612975" lon="10.814285">
        <ele>432.1</ele>
        <time>2026-06-05T15:14:33.588000Z</time>
      </trkpt>
      <trkpt lat="48.612942" lon="10.814286">
        <ele>432.1</ele>
        <time>2026-06-05T15:14:36.970000Z</time>
      </trkpt>
      <trkpt lat="48.6128" lon="10.814027">
        <ele>431.8</ele>
        <time>2026-06-05T15:14:59.895000Z</time>
      </trkpt>
      <trkpt lat="48.612782" lon="10.814138">
        <ele>431.6</ele>
        <time>2026-06-05T15:15:07.865000Z</time>
      </trkpt>
      <trkpt lat="48.612739" lon="10.814206">
        <ele>431.4</ele>
        <time>2026-06-05T15:15:14.450000Z</time>
      </trkpt>
      <trkpt lat="48.612594" lon="10.814238">
        <ele>431</ele>
        <time>2026-06-05T15:15:30.052000Z</time>
      </trkpt>
      <trkpt lat="48.612538" lon="10.814515">
        <ele>430.3</ele>
        <time>2026-06-05T15:15:50.564000Z</time>
      </trkpt>
      <trkpt lat="48.612501" lon="10.814588">
        <ele>430</ele>
        <time>2026-06-05T15:15:57.277000Z</time>
      </trkpt>
      <trkpt lat="48.612398" lon="10.814598">
        <ele>429.5</ele>
        <time>2026-06-05T15:16:08.672000Z</time>
      </trkpt>
      <trkpt lat="48.612076" lon="10.814512">
        <ele>427.7</ele>
        <time>2026-06-05T15:16:45.084000Z</time>
      </trkpt>
      <trkpt lat="48.612147" lon="10.814778">
        <ele>426.8</ele>
        <time>2026-06-05T15:17:05.868000Z</time>
      </trkpt>
      <trkpt lat="48.611885" lon="10.814405">
        <ele>425.8</ele>
        <time>2026-06-05T15:17:43.969000Z</time>
      </trkpt>
      <trkpt lat="48.61171" lon="10.814426">
        <ele>425.5</ele>
        <time>2026-06-05T15:18:02.255000Z</time>
      </trkpt>
      <trkpt lat="48.611675" lon="10.814316">
        <ele>425.3</ele>
        <time>2026-06-05T15:18:10.570000Z</time>
      </trkpt>
      <trkpt lat="48.611294" lon="10.814392">
        <ele>425.1</ele>
        <time>2026-06-05T15:18:49.535000Z</time>
      </trkpt>
      <trkpt lat="48.611234" lon="10.814503">
        <ele>425.1</ele>
        <time>2026-06-05T15:18:59.037000Z</time>
      </trkpt>
      <trkpt lat="48.611093" lon="10.814657">
        <ele>425.1</ele>
        <time>2026-06-05T15:19:16.486000Z</time>
      </trkpt>
      <trkpt lat="48.611021" lon="10.814699">
        <ele>425.1</ele>
        <time>2026-06-05T15:19:24.223000Z</time>
      </trkpt>
      <trkpt lat="48.610263" lon="10.814892">
        <ele>423.9</ele>
        <time>2026-06-05T15:20:43.582000Z</time>
      </trkpt>
      <trkpt lat="48.609861" lon="10.815114">
        <ele>422.7</ele>
        <time>2026-06-05T15:21:28.820000Z</time>
      </trkpt>
      <trkpt lat="48.609689" lon="10.815208">
        <ele>422.4</ele>
        <time>2026-06-05T15:21:47.922000Z</time>
      </trkpt>
      <trkpt lat="48.609302" lon="10.815499">
        <ele>421.7</ele>
        <time>2026-06-05T15:22:32.598000Z</time>
      </trkpt>
      <trkpt lat="48.609088" lon="10.815564">
        <ele>421.4</ele>
        <time>2026-06-05T15:22:54.978000Z</time>
      </trkpt>
      <trkpt lat="48.608849" lon="10.815683">
        <ele>421.3</ele>
        <time>2026-06-05T15:23:20.381000Z</time>
      </trkpt>
      <trkpt lat="48.608444" lon="10.815754">
        <ele>421.4</ele>
        <time>2026-06-05T15:24:01.692000Z</time>
      </trkpt>
      <trkpt lat="48.607497" lon="10.815898">
        <ele>422.9</ele>
        <time>2026-06-05T15:25:42.099000Z</time>
      </trkpt>
      <trkpt lat="48.607114" lon="10.815829">
        <ele>423.7</ele>
        <time>2026-06-05T15:26:23.561000Z</time>
      </trkpt>
      <trkpt lat="48.606997" lon="10.815764">
        <ele>424</ele>
        <time>2026-06-05T15:26:37.112000Z</time>
      </trkpt>
      <trkpt lat="48.606922" lon="10.815722">
        <ele>424.2</ele>
        <time>2026-06-05T15:26:45.893000Z</time>
      </trkpt>
      <trkpt lat="48.606786" lon="10.815659">
        <ele>424.6</ele>
        <time>2026-06-05T15:27:01.509000Z</time>
      </trkpt>
      <trkpt lat="48.606092" lon="10.815411">
        <ele>427.6</ele>
        <time>2026-06-05T15:28:23.397000Z</time>
      </trkpt>
      <trkpt lat="48.605934" lon="10.815308">
        <ele>428.6</ele>
        <time>2026-06-05T15:28:44.089000Z</time>
      </trkpt>
      <trkpt lat="48.605823" lon="10.815437">
        <ele>429.6</ele>
        <time>2026-06-05T15:29:01.418000Z</time>
      </trkpt>
      <trkpt lat="48.605782" lon="10.815542">
        <ele>430.2</ele>
        <time>2026-06-05T15:29:11.651000Z</time>
      </trkpt>
      <trkpt lat="48.605745" lon="10.815333">
        <ele>431.6</ele>
        <time>2026-06-05T15:29:30.415000Z</time>
      </trkpt>
      <trkpt lat="48.605626" lon="10.815139">
        <ele>433.3</ele>
        <time>2026-06-05T15:29:53.659000Z</time>
      </trkpt>
      <trkpt lat="48.60561" lon="10.814778">
        <ele>435.7</ele>
        <time>2026-06-05T15:30:25.705000Z</time>
      </trkpt>
      <trkpt lat="48.605592" lon="10.814498">
        <ele>437.5</ele>
        <time>2026-06-05T15:30:50.335000Z</time>
      </trkpt>
      <trkpt lat="48.60546" lon="10.81443">
        <ele>438.8</ele>
        <time>2026-06-05T15:31:08.800000Z</time>
      </trkpt>
      <trkpt lat="48.605439" lon="10.814419">
        <ele>439</ele>
        <time>2026-06-05T15:31:11.643000Z</time>
      </trkpt>
      <trkpt lat="48.605173" lon="10.81441">
        <ele>441.5</ele>
        <time>2026-06-05T15:31:46.742000Z</time>
      </trkpt>
      <trkpt lat="48.605058" lon="10.814409">
        <ele>442.5</ele>
        <time>2026-06-05T15:32:01.572000Z</time>
      </trkpt>
      <trkpt lat="48.605019" lon="10.814362">
        <ele>442.9</ele>
        <time>2026-06-05T15:32:07.997000Z</time>
      </trkpt>
      <trkpt lat="48.604932" lon="10.814338">
        <ele>443.7</ele>
        <time>2026-06-05T15:32:19.423000Z</time>
      </trkpt>
      <trkpt lat="48.604883" lon="10.814343">
        <ele>444.1</ele>
        <time>2026-06-05T15:32:25.707000Z</time>
      </trkpt>
      <trkpt lat="48.604575" lon="10.814337">
        <ele>446.2</ele>
        <time>2026-06-05T15:33:03.903000Z</time>
      </trkpt>
      <trkpt lat="48.604584" lon="10.81393">
        <ele>447.8</ele>
        <time>2026-06-05T15:33:36.185000Z</time>
      </trkpt>
      <trkpt lat="48.604492" lon="10.81393">
        <ele>448.2</ele>
        <time>2026-06-05T15:33:46.776000Z</time>
      </trkpt>
      <trkpt lat="48.604446" lon="10.813924">
        <ele>448.4</ele>
        <time>2026-06-05T15:33:52.011000Z</time>
      </trkpt>
      <trkpt lat="48.604302" lon="10.813869">
        <ele>448.6</ele>
        <time>2026-06-05T15:34:07.846000Z</time>
      </trkpt>
      <trkpt lat="48.604312" lon="10.813553">
        <ele>448.6</ele>
        <time>2026-06-05T15:34:28.818000Z</time>
      </trkpt>
      <trkpt lat="48.604227" lon="10.813473">
        <ele>448.5</ele>
        <time>2026-06-05T15:34:39.086000Z</time>
      </trkpt>
      <trkpt lat="48.604226" lon="10.813246">
        <ele>448.2</ele>
        <time>2026-06-05T15:34:54.647000Z</time>
      </trkpt>
      <trkpt lat="48.604115" lon="10.81326">
        <ele>448</ele>
        <time>2026-06-05T15:35:06.432000Z</time>
      </trkpt>
      <trkpt lat="48.603981" lon="10.813322">
        <ele>447.6</ele>
        <time>2026-06-05T15:35:21.306000Z</time>
      </trkpt>
      <trkpt lat="48.603912" lon="10.813379">
        <ele>447.3</ele>
        <time>2026-06-05T15:35:29.685000Z</time>
      </trkpt>
      <trkpt lat="48.603794" lon="10.813391">
        <ele>446.9</ele>
        <time>2026-06-05T15:35:42.354000Z</time>
      </trkpt>
      <trkpt lat="48.603381" lon="10.813335">
        <ele>445</ele>
        <time>2026-06-05T15:36:27.751000Z</time>
      </trkpt>
      <trkpt lat="48.603192" lon="10.813245">
        <ele>443.9</ele>
        <time>2026-06-05T15:36:49.818000Z</time>
      </trkpt>
      <trkpt lat="48.602886" lon="10.813001">
        <ele>441.7</ele>
        <time>2026-06-05T15:37:28.830000Z</time>
      </trkpt>
      <trkpt lat="48.602539" lon="10.813636">
        <ele>438.1</ele>
        <time>2026-06-05T15:38:30.677000Z</time>
      </trkpt>
      <trkpt lat="48.602167" lon="10.814205">
        <ele>434.6</ele>
        <time>2026-06-05T15:39:30.641000Z</time>
      </trkpt>
      <trkpt lat="48.601231" lon="10.815252">
        <ele>427.8</ele>
        <time>2026-06-05T15:41:40.877000Z</time>
      </trkpt>
      <trkpt lat="48.600407" lon="10.816175">
        <ele>422.9</ele>
        <time>2026-06-05T15:43:33.397000Z</time>
      </trkpt>
      <trkpt lat="48.600303" lon="10.816317">
        <ele>422.4</ele>
        <time>2026-06-05T15:43:48.513000Z</time>
      </trkpt>
      <trkpt lat="48.60019" lon="10.816489">
        <ele>421.9</ele>
        <time>2026-06-05T15:44:05.586000Z</time>
      </trkpt>
      <trkpt lat="48.600064" lon="10.816597">
        <ele>421.4</ele>
        <time>2026-06-05T15:44:21.057000Z</time>
      </trkpt>
      <trkpt lat="48.600048" lon="10.816655">
        <ele>421.3</ele>
        <time>2026-06-05T15:44:25.483000Z</time>
      </trkpt>
      <trkpt lat="48.600081" lon="10.817034">
        <ele>420.7</ele>
        <time>2026-06-05T15:44:52.047000Z</time>
      </trkpt>
      <trkpt lat="48.600028" lon="10.817049">
        <ele>420.6</ele>
        <time>2026-06-05T15:44:57.649000Z</time>
      </trkpt>
      <trkpt lat="48.599975" lon="10.817065">
        <ele>420.5</ele>
        <time>2026-06-05T15:45:03.260000Z</time>
      </trkpt>
      <trkpt lat="48.600009" lon="10.817514">
        <ele>420</ele>
        <time>2026-06-05T15:45:34.151000Z</time>
      </trkpt>
      <trkpt lat="48.599051" lon="10.818529">
        <ele>419.3</ele>
        <time>2026-06-05T15:47:32.701000Z</time>
      </trkpt>
      <trkpt lat="48.598858" lon="10.818788">
        <ele>419.2</ele>
        <time>2026-06-05T15:47:58.619000Z</time>
      </trkpt>
      <trkpt lat="48.598646" lon="10.819012">
        <ele>419.2</ele>
        <time>2026-06-05T15:48:24.683000Z</time>
      </trkpt>
      <trkpt lat="48.598491" lon="10.819159">
        <ele>419.1</ele>
        <time>2026-06-05T15:48:43.063000Z</time>
      </trkpt>
      <trkpt lat="48.597981" lon="10.819459">
        <ele>419</ele>
        <time>2026-06-05T15:49:38.142000Z</time>
      </trkpt>
      <trkpt lat="48.597882" lon="10.81955">
        <ele>419</ele>
        <time>2026-06-05T15:49:49.751000Z</time>
      </trkpt>
      <trkpt lat="48.597506" lon="10.820096">
        <ele>418.9</ele>
        <time>2026-06-05T15:50:42.062000Z</time>
      </trkpt>
      <trkpt lat="48.595768" lon="10.822316">
        <ele>419.1</ele>
        <time>2026-06-05T15:54:30.325000Z</time>
      </trkpt>
      <trkpt lat="48.595185" lon="10.822798">
        <ele>419</ele>
        <time>2026-06-05T15:55:36.859000Z</time>
      </trkpt>
      <trkpt lat="48.594884" lon="10.822988">
        <ele>419</ele>
        <time>2026-06-05T15:56:09.621000Z</time>
      </trkpt>
      <trkpt lat="48.594878" lon="10.82305">
        <ele>419</ele>
        <time>2026-06-05T15:56:13.820000Z</time>
      </trkpt>
      <trkpt lat="48.594654" lon="10.823552">
        <ele>418.9</ele>
        <time>2026-06-05T15:56:53.952000Z</time>
      </trkpt>
      <trkpt lat="48.594574" lon="10.823836">
        <ele>418.9</ele>
        <time>2026-06-05T15:57:14.406000Z</time>
      </trkpt>
      <trkpt lat="48.594268" lon="10.825567">
        <ele>419.2</ele>
        <time>2026-06-05T15:59:13.890000Z</time>
      </trkpt>
      <trkpt lat="48.594125" lon="10.825975">
        <ele>419.3</ele>
        <time>2026-06-05T15:59:44.771000Z</time>
      </trkpt>
      <trkpt lat="48.59414" lon="10.825993">
        <ele>419.3</ele>
        <time>2026-06-05T15:59:46.717000Z</time>
      </trkpt>
      <trkpt lat="48.594323" lon="10.826263">
        <ele>419.3</ele>
        <time>2026-06-05T16:00:12.540000Z</time>
      </trkpt>
      <trkpt lat="48.594387" lon="10.826371">
        <ele>419.4</ele>
        <time>2026-06-05T16:00:22.226000Z</time>
      </trkpt>
      <trkpt lat="48.594406" lon="10.826798">
        <ele>419.5</ele>
        <time>2026-06-05T16:00:50.846000Z</time>
      </trkpt>
      <trkpt lat="48.594421" lon="10.82697">
        <ele>419.5</ele>
        <time>2026-06-05T16:01:02.465000Z</time>
      </trkpt>
      <trkpt lat="48.594299" lon="10.827127">
        <ele>419.5</ele>
        <time>2026-06-05T16:01:18.641000Z</time>
      </trkpt>
      <trkpt lat="48.59415" lon="10.827475">
        <ele>419.7</ele>
        <time>2026-06-05T16:01:46.566000Z</time>
      </trkpt>
      <trkpt lat="48.594115" lon="10.827622">
        <ele>419.7</ele>
        <time>2026-06-05T16:01:56.993000Z</time>
      </trkpt>
      <trkpt lat="48.59408" lon="10.827889">
        <ele>419.8</ele>
        <time>2026-06-05T16:02:15.295000Z</time>
      </trkpt>
      <trkpt lat="48.594137" lon="10.827968">
        <ele>419.8</ele>
        <time>2026-06-05T16:02:23.216000Z</time>
      </trkpt>
      <trkpt lat="48.594316" lon="10.828599">
        <ele>420.1</ele>
        <time>2026-06-05T16:03:09.522000Z</time>
      </trkpt>
      <trkpt lat="48.594399" lon="10.828957">
        <ele>420.2</ele>
        <time>2026-06-05T16:03:35.203000Z</time>
      </trkpt>
      <trkpt lat="48.594443" lon="10.829147">
        <ele>420.3</ele>
        <time>2026-06-05T16:03:48.837000Z</time>
      </trkpt>
      <trkpt lat="48.594467" lon="10.829273">
        <ele>420.4</ele>
        <time>2026-06-05T16:03:57.787000Z</time>
      </trkpt>
      <trkpt lat="48.594537" lon="10.829643">
        <ele>420.6</ele>
        <time>2026-06-05T16:04:24.128000Z</time>
      </trkpt>
      <trkpt lat="48.594618" lon="10.83003">
        <ele>420.9</ele>
        <time>2026-06-05T16:04:51.973000Z</time>
      </trkpt>
      <trkpt lat="48.594784" lon="10.830745">
        <ele>421.4</ele>
        <time>2026-06-05T16:05:43.991000Z</time>
      </trkpt>
      <trkpt lat="48.594936" lon="10.831375">
        <ele>421.8</ele>
        <time>2026-06-05T16:06:29.822000Z</time>
      </trkpt>
      <trkpt lat="48.594736" lon="10.831592">
        <ele>422</ele>
        <time>2026-06-05T16:06:55.156000Z</time>
      </trkpt>
      <trkpt lat="48.594681" lon="10.831708">
        <ele>422.1</ele>
        <time>2026-06-05T16:07:04.819000Z</time>
      </trkpt>
      <trkpt lat="48.594675" lon="10.831867">
        <ele>422.2</ele>
        <time>2026-06-05T16:07:15.707000Z</time>
      </trkpt>
      <trkpt lat="48.594817" lon="10.832431">
        <ele>422.4</ele>
        <time>2026-06-05T16:07:56.535000Z</time>
      </trkpt>
      <trkpt lat="48.594887" lon="10.832697">
        <ele>422.5</ele>
        <time>2026-06-05T16:08:15.768000Z</time>
      </trkpt>
      <trkpt lat="48.594906" lon="10.832857">
        <ele>422.5</ele>
        <time>2026-06-05T16:08:26.470000Z</time>
      </trkpt>
      <trkpt lat="48.594896" lon="10.833126">
        <ele>422.5</ele>
        <time>2026-06-05T16:08:44.337000Z</time>
      </trkpt>
      <trkpt lat="48.59483" lon="10.833444">
        <ele>422.5</ele>
        <time>2026-06-05T16:09:06.452000Z</time>
      </trkpt>
      <trkpt lat="48.594762" lon="10.833706">
        <ele>422.4</ele>
        <time>2026-06-05T16:09:25.212000Z</time>
      </trkpt>
      <trkpt lat="48.594696" lon="10.833937">
        <ele>422.4</ele>
        <time>2026-06-05T16:09:41.973000Z</time>
      </trkpt>
      <trkpt lat="48.594592" lon="10.834261">
        <ele>422.3</ele>
        <time>2026-06-05T16:10:05.826000Z</time>
      </trkpt>
      <trkpt lat="48.594565" lon="10.834348">
        <ele>422.3</ele>
        <time>2026-06-05T16:10:12.185000Z</time>
      </trkpt>
      <trkpt lat="48.594498" lon="10.834283">
        <ele>422.4</ele>
        <time>2026-06-05T16:10:20.234000Z</time>
      </trkpt>
      <trkpt lat="48.594335" lon="10.834831">
        <ele>422.2</ele>
        <time>2026-06-05T16:11:00.210000Z</time>
      </trkpt>
      <trkpt lat="48.594116" lon="10.835339">
        <ele>422.1</ele>
        <time>2026-06-05T16:11:40.569000Z</time>
      </trkpt>
      <trkpt lat="48.594166" lon="10.835337">
        <ele>422.1</ele>
        <time>2026-06-05T16:11:45.593000Z</time>
      </trkpt>
      <trkpt lat="48.594298" lon="10.835313">
        <ele>422.1</ele>
        <time>2026-06-05T16:11:58.855000Z</time>
      </trkpt>
      <trkpt lat="48.594294" lon="10.835205">
        <ele>422.1</ele>
        <time>2026-06-05T16:12:06.027000Z</time>
      </trkpt>
      <trkpt lat="48.594324" lon="10.835085">
        <ele>422.1</ele>
        <time>2026-06-05T16:12:14.544000Z</time>
      </trkpt>
      <trkpt lat="48.594487" lon="10.835121">
        <ele>422</ele>
        <time>2026-06-05T16:12:31.005000Z</time>
      </trkpt>
      <trkpt lat="48.594553" lon="10.835109">
        <ele>422</ele>
        <time>2026-06-05T16:12:37.747000Z</time>
      </trkpt>
      <trkpt lat="48.594682" lon="10.835053">
        <ele>422</ele>
        <time>2026-06-05T16:12:51.198000Z</time>
      </trkpt>
      <trkpt lat="48.594787" lon="10.83495">
        <ele>422</ele>
        <time>2026-06-05T16:13:03.867000Z</time>
      </trkpt>
      <trkpt lat="48.594839" lon="10.834898">
        <ele>421.9</ele>
        <time>2026-06-05T16:13:10.169000Z</time>
      </trkpt>
      <trkpt lat="48.5953" lon="10.834471">
        <ele>421.6</ele>
        <time>2026-06-05T16:14:05.035000Z</time>
      </trkpt>
      <trkpt lat="48.595437" lon="10.834338">
        <ele>421.5</ele>
        <time>2026-06-05T16:14:21.451000Z</time>
      </trkpt>
      <trkpt lat="48.595476" lon="10.834302">
        <ele>421.5</ele>
        <time>2026-06-05T16:14:26.008000Z</time>
      </trkpt>
      <trkpt lat="48.595773" lon="10.834019">
        <ele>421.4</ele>
        <time>2026-06-05T16:15:01.335000Z</time>
      </trkpt>
      <trkpt lat="48.595886" lon="10.833912">
        <ele>421.4</ele>
        <time>2026-06-05T16:15:14.751000Z</time>
      </trkpt>
      <trkpt lat="48.596112" lon="10.833722">
        <ele>421.3</ele>
        <time>2026-06-05T16:15:40.889000Z</time>
      </trkpt>
      <trkpt lat="48.596387" lon="10.833491">
        <ele>421.1</ele>
        <time>2026-06-05T16:16:12.689000Z</time>
      </trkpt>
      <trkpt lat="48.596754" lon="10.833178">
        <ele>421</ele>
        <time>2026-06-05T16:16:55.115000Z</time>
      </trkpt>
      <trkpt lat="48.596877" lon="10.833075">
        <ele>420.9</ele>
        <time>2026-06-05T16:17:09.255000Z</time>
      </trkpt>
      <trkpt lat="48.596962" lon="10.833">
        <ele>420.9</ele>
        <time>2026-06-05T16:17:19.140000Z</time>
      </trkpt>
      <trkpt lat="48.59707" lon="10.832904">
        <ele>420.9</ele>
        <time>2026-06-05T16:17:31.725000Z</time>
      </trkpt>
      <trkpt lat="48.59718" lon="10.832807">
        <ele>420.8</ele>
        <time>2026-06-05T16:17:44.543000Z</time>
      </trkpt>
      <trkpt lat="48.59725" lon="10.832744">
        <ele>420.8</ele>
        <time>2026-06-05T16:17:52.837000Z</time>
      </trkpt>
      <trkpt lat="48.597353" lon="10.832653">
        <ele>420.7</ele>
        <time>2026-06-05T16:18:04.923000Z</time>
      </trkpt>
      <trkpt lat="48.597432" lon="10.832583">
        <ele>420.7</ele>
        <time>2026-06-05T16:18:14.154000Z</time>
      </trkpt>
      <trkpt lat="48.597528" lon="10.832499">
        <ele>420.6</ele>
        <time>2026-06-05T16:18:25.401000Z</time>
      </trkpt>
      <trkpt lat="48.597585" lon="10.832448">
        <ele>420.6</ele>
        <time>2026-06-05T16:18:32.102000Z</time>
      </trkpt>
      <trkpt lat="48.597668" lon="10.832371">
        <ele>420.5</ele>
        <time>2026-06-05T16:18:41.953000Z</time>
      </trkpt>
      <trkpt lat="48.597908" lon="10.83213">
        <ele>420.4</ele>
        <time>2026-06-05T16:19:11.092000Z</time>
      </trkpt>
      <trkpt lat="48.598165" lon="10.831851">
        <ele>420.3</ele>
        <time>2026-06-05T16:19:42.986000Z</time>
      </trkpt>
      <trkpt lat="48.598134" lon="10.831801">
        <ele>420.3</ele>
        <time>2026-06-05T16:19:47.540000Z</time>
      </trkpt>
      <trkpt lat="48.598092" lon="10.831735">
        <ele>420.3</ele>
        <time>2026-06-05T16:19:53.601000Z</time>
      </trkpt>
      <trkpt lat="48.597789" lon="10.83125">
        <ele>420.2</ele>
        <time>2026-06-05T16:20:37.814000Z</time>
      </trkpt>
      <trkpt lat="48.59851" lon="10.830626">
        <ele>420.5</ele>
        <time>2026-06-05T16:22:01.887000Z</time>
      </trkpt>
      <trkpt lat="48.598904" lon="10.830162">
        <ele>420.6</ele>
        <time>2026-06-05T16:22:52.071000Z</time>
      </trkpt>
      <trkpt lat="48.598864" lon="10.829972">
        <ele>420.6</ele>
        <time>2026-06-05T16:23:05.241000Z</time>
      </trkpt>
      <trkpt lat="48.598902" lon="10.830148">
        <ele>420.6</ele>
        <time>2026-06-05T16:23:17.501000Z</time>
      </trkpt>
      <trkpt lat="48.598964" lon="10.830211">
        <ele>420.5</ele>
        <time>2026-06-05T16:23:24.983000Z</time>
      </trkpt>
      <trkpt lat="48.599034" lon="10.830224">
        <ele>420.5</ele>
        <time>2026-06-05T16:23:32.068000Z</time>
      </trkpt>
      <trkpt lat="48.599297" lon="10.83041">
        <ele>420.5</ele>
        <time>2026-06-05T16:24:01.367000Z</time>
      </trkpt>
      <trkpt lat="48.599563" lon="10.830311">
        <ele>420.3</ele>
        <time>2026-06-05T16:24:29.018000Z</time>
      </trkpt>
      <trkpt lat="48.599782" lon="10.8303">
        <ele>420.2</ele>
        <time>2026-06-05T16:24:51.181000Z</time>
      </trkpt>
      <trkpt lat="48.600201" lon="10.830237">
        <ele>420.1</ele>
        <time>2026-06-05T16:25:33.610000Z</time>
      </trkpt>
      <trkpt lat="48.600424" lon="10.830118">
        <ele>420</ele>
        <time>2026-06-05T16:25:57.510000Z</time>
      </trkpt>
      <trkpt lat="48.600728" lon="10.830007">
        <ele>419.8</ele>
        <time>2026-06-05T16:26:29.139000Z</time>
      </trkpt>
      <trkpt lat="48.600744" lon="10.829978">
        <ele>419.8</ele>
        <time>2026-06-05T16:26:31.646000Z</time>
      </trkpt>
      <trkpt lat="48.600935" lon="10.829897">
        <ele>419.7</ele>
        <time>2026-06-05T16:26:51.750000Z</time>
      </trkpt>
      <trkpt lat="48.601207" lon="10.829782">
        <ele>419.5</ele>
        <time>2026-06-05T16:27:20.389000Z</time>
      </trkpt>
      <trkpt lat="48.601526" lon="10.829646">
        <ele>419.3</ele>
        <time>2026-06-05T16:27:54.031000Z</time>
      </trkpt>
      <trkpt lat="48.60186" lon="10.829515">
        <ele>419.1</ele>
        <time>2026-06-05T16:28:28.925000Z</time>
      </trkpt>
      <trkpt lat="48.601903" lon="10.829494">
        <ele>419.1</ele>
        <time>2026-06-05T16:28:33.459000Z</time>
      </trkpt>
      <trkpt lat="48.602001" lon="10.829489">
        <ele>419</ele>
        <time>2026-06-05T16:28:43.406000Z</time>
      </trkpt>
      <trkpt lat="48.602898" lon="10.830025">
        <ele>418.6</ele>
        <time>2026-06-05T16:30:20.898000Z</time>
      </trkpt>
      <trkpt lat="48.603358" lon="10.829837">
        <ele>418.6</ele>
        <time>2026-06-05T16:31:08.654000Z</time>
      </trkpt>
      <trkpt lat="48.603971" lon="10.829467">
        <ele>418.6</ele>
        <time>2026-06-05T16:32:14.698000Z</time>
      </trkpt>
      <trkpt lat="48.604203" lon="10.829381">
        <ele>418.5</ele>
        <time>2026-06-05T16:32:38.684000Z</time>
      </trkpt>
      <trkpt lat="48.604363" lon="10.828764">
        <ele>418.3</ele>
        <time>2026-06-05T16:33:22.905000Z</time>
      </trkpt>
      <trkpt lat="48.604384" lon="10.828533">
        <ele>418.3</ele>
        <time>2026-06-05T16:33:38.387000Z</time>
      </trkpt>
      <trkpt lat="48.604396" lon="10.827431">
        <ele>418</ele>
        <time>2026-06-05T16:34:51.867000Z</time>
      </trkpt>
      <trkpt lat="48.605017" lon="10.827478">
        <ele>417.8</ele>
        <time>2026-06-05T16:35:54.636000Z</time>
      </trkpt>
      <trkpt lat="48.606919" lon="10.827788">
        <ele>417.8</ele>
        <time>2026-06-05T16:39:06.170000Z</time>
      </trkpt>
      <trkpt lat="48.606976" lon="10.827821">
        <ele>417.8</ele>
        <time>2026-06-05T16:39:12.231000Z</time>
      </trkpt>
      <trkpt lat="48.607915" lon="10.82795">
        <ele>417.9</ele>
        <time>2026-06-05T16:40:46.892000Z</time>
      </trkpt>
      <trkpt lat="48.608621" lon="10.828119">
        <ele>417.9</ele>
        <time>2026-06-05T16:41:58.515000Z</time>
      </trkpt>
      <trkpt lat="48.609796" lon="10.828532">
        <ele>418</ele>
        <time>2026-06-05T16:43:59.645000Z</time>
      </trkpt>
      <trkpt lat="48.610081" lon="10.828663">
        <ele>418.1</ele>
        <time>2026-06-05T16:44:29.925000Z</time>
      </trkpt>
      <trkpt lat="48.610312" lon="10.82871">
        <ele>418.2</ele>
        <time>2026-06-05T16:44:53.505000Z</time>
      </trkpt>
      <trkpt lat="48.61051" lon="10.82872">
        <ele>418.2</ele>
        <time>2026-06-05T16:45:13.546000Z</time>
      </trkpt>
      <trkpt lat="48.611035" lon="10.828672">
        <ele>418.5</ele>
        <time>2026-06-05T16:46:06.956000Z</time>
      </trkpt>
      <trkpt lat="48.61154" lon="10.828596">
        <ele>418.6</ele>
        <time>2026-06-05T16:46:58.448000Z</time>
      </trkpt>
      <trkpt lat="48.611531" lon="10.82852">
        <ele>418.7</ele>
        <time>2026-06-05T16:47:03.565000Z</time>
      </trkpt>
      <trkpt lat="48.611266" lon="10.828599">
        <ele>418.6</ele>
        <time>2026-06-05T16:47:30.630000Z</time>
      </trkpt>
      <trkpt lat="48.61087" lon="10.82863">
        <ele>418.5</ele>
        <time>2026-06-05T16:48:10.583000Z</time>
      </trkpt>
      <trkpt lat="48.611266" lon="10.828599">
        <ele>418.4</ele>
        <time>2026-06-05T16:48:50.600000Z</time>
      </trkpt>
      <trkpt lat="48.611531" lon="10.82852">
        <ele>418.2</ele>
        <time>2026-06-05T16:49:17.875000Z</time>
      </trkpt>
      <trkpt lat="48.61154" lon="10.828596">
        <ele>418.2</ele>
        <time>2026-06-05T16:49:23.030000Z</time>
      </trkpt>
      <trkpt lat="48.611844" lon="10.828467">
        <ele>418</ele>
        <time>2026-06-05T16:49:55.111000Z</time>
      </trkpt>
      <trkpt lat="48.612889" lon="10.827884">
        <ele>417</ele>
        <time>2026-06-05T16:51:48.571000Z</time>
      </trkpt>
      <trkpt lat="48.613734" lon="10.82749">
        <ele>416.5</ele>
        <time>2026-06-05T16:53:18.193000Z</time>
      </trkpt>
      <trkpt lat="48.61385" lon="10.827433">
        <ele>416.4</ele>
        <time>2026-06-05T16:53:30.449000Z</time>
      </trkpt>
      <trkpt lat="48.616598" lon="10.82608">
        <ele>415.8</ele>
        <time>2026-06-05T16:58:21.172000Z</time>
      </trkpt>
      <trkpt lat="48.617257" lon="10.830395">
        <ele>415.1</ele>
        <time>2026-06-05T17:03:15.461000Z</time>
      </trkpt>
      <trkpt lat="48.617559" lon="10.832422">
        <ele>415</ele>
        <time>2026-06-05T17:05:33.320000Z</time>
      </trkpt>
      <trkpt lat="48.617585" lon="10.832479">
        <ele>415</ele>
        <time>2026-06-05T17:05:37.928000Z</time>
      </trkpt>
      <trkpt lat="48.621752" lon="10.831865">
        <ele>413.6</ele>
        <time>2026-06-05T17:12:39.771000Z</time>
      </trkpt>
      <trkpt lat="48.626795" lon="10.831049">
        <ele>412.8</ele>
        <time>2026-06-05T17:21:09.002000Z</time>
      </trkpt>
    </trkseg>
  </trk>
</gpx>