<?xml version="1.0" encoding="UTF-8"?>
<gpx xmlns="http://www.topografix.com/GPX/1/1" xmlns:xsi="http://www.w3.org/2001/XMLSchema-instance" xsi:schemaLocation="http://www.topografix.com/GPX/1/1 http://www.topografix.com/GPX/1/1/gpx.xsd" version="1.1" creator="Robert Kampf">
  <metadata>
    <name>Gedenkstätte Wertachbrücke – Blick ins Wertachtal Runde von Siebnach</name>
    <desc>Distance: 8.813km, Estimated duration: 2.31h, Elevation up: 68.1414587119956m, Elevation down: 68.11065136182378m, Grade: moderate</desc>
    <author>
      <name>Robert Kampf</name>
      <link href="https://www.komoot.de/user/4125295338453">
        <text>View Robert Kampf's Profile on Komoot</text>
      </link>
    </author>
    <link href="https://www.komoot.de/tour/2847175237">
      <text>View tour on Komoot</text>
    </link>
  </metadata>
  <wpt lat="48.132573" lon="10.663617">
    <name>Gasthaus zum Kreuz</name>
    <cmt></cmt>
    <desc>gasthaus-zum-kreuz.com, 11 Am Bach, Ettringen, 86833</desc>
    <src>Komoot</src>
    <type>POI</type>
  </wpt>
  <wpt lat="48.13291" lon="10.680479">
    <ele>620.6</ele>
    <name>Wertach Bridge Memorial</name>
    <cmt>https://d2exd72xrrp1s7.cloudfront.net/www/000/1k5/1f/1f8qppzhzzns11picdxdjbjx3c3ryswj41-uhi33629195/0</cmt>
    <desc>KlaPePe: Gedenkstein, aufgestellt zur Errichtung der Brücke</desc>
    <src>Komoot</src>
    <link href="https://www.komoot.de/highlight/3257741">
      <text>View POI on Komoot</text>
    </link>
    <type>Highlight</type>
  </wpt>
  <wpt lat="48.145806" lon="10.66371">
    <ele>619.2</ele>
    <name>St. George's Church in Kirch-Siebnach</name>
    <cmt>https://d2exd72xrrp1s7.cloudfront.net/www/000/1k7/tz/tzewhb2auooorckyx3csbs1j4jvpsxcd-uhi59253284/0</cmt>
    <desc>breddy: An der Stelle an der sich die Kirche St. Georg befindet, war bereits seit frühester Zeit besiedelt. Eventuell befand sich an dieser Stelle die Burg Siebenach, die 1083 zerstört wurde. Aus der Burgkapelle könnte die Kirche hervorgegangen sein. Bereits seit 1666, als eine Bruderschaft eingerichtet wurde, war die Kirche das Ziel einer Wallfahrt. Der Abt von Steingaden, hatte zur Einführung der Bruderschaft ein Gnadenbild der Muttergottes aufstellen lassen.
1718/19 wurde die Kirche neu erbaut. Bei diesem Neubau wurde der quadratische Turmunterbau beibehalten. Dieser Unterbau stammt aus dem 15. Jahrhunderts und ist der einzige noch erhaltene Rest des Vorgängerbaues.
――――――――――
Loockes: Kirchsiebnach und. "  Füchsle  "
――――――――――
Catherine🌹: Ein Einkehrschwung ins "Füchsle" ist empfehlenswert 😋
――――――――――
Ronny F 3333 🚵‍♀️🧗‍♂️: Die St.-Georgs-Kirche besuchen und nebenan ins  Fuchsle Restaurant einkehren
――――――――――
Hoffi: Eine wunderbare Aussicht und ein urgemütliches Lokal erwartet einen hier. Die Preise sind vernünftig und das Essen ist ländlich rustikal.
――――――――――
Hans: Man kann drinnen oder draußen sitzen.
Ideal für Radfahrer.
Tip: Gutmann-Weizen !👌
Ergänzung: die Öffnungszeiten ändern sich jahreszeitlich!!!
――――――――――
Peter Engelschall: Guter Ausgangspunkt für Touren in die Stauden. Mit Parkplatz und empfehlenswerter Einkehrmöglichkeit im Gasthaus Beim Füchsle. 👍
――――――――――
Walter Fa.: Kirch-Siebnach ist ein kleiner Weiler etwa 1,5 km nördlich der Ortschaft Siebnach. Dominant steht die Wallfahrtskirche St. Georg etwas erhöht und vom Friedhof umgeben. Nebenan befindet sich das "Wirtshaus beim Füchsle".
――――――――――
Alfred Mayr: Wunderbarer Platz mit der sehenswerten Kirche. Sehr schönes Fotomotiv.</desc>
    <src>Komoot</src>
    <link href="https://www.komoot.de/highlight/2730368">
      <text>View POI on Komoot</text>
    </link>
    <type>Highlight</type>
  </wpt>
  <wpt lat="48.144931" lon="10.664937">
    <ele>615</ele>
    <name>Kneippland Unterallgäu Hiking Information Board (Ettringen)</name>
    <cmt>https://d2exd72xrrp1s7.cloudfront.net/www/000/1k5/1m/1m6oop0of6lf4pxr8y3lhfke63rypr1cz-uhi33625976/0</cmt>
    <desc>KlaPePe: Schöne Auswahl an Wanderwegen
――――――――――
Loockes: Kirchsiebnach  Ausflugslokal "Füchsle,"</desc>
    <src>Komoot</src>
    <link href="https://www.komoot.de/highlight/3257555">
      <text>View POI on Komoot</text>
    </link>
    <type>Highlight</type>
  </wpt>
  <wpt lat="48.137786" lon="10.655162">
    <ele>672.4</ele>
    <name>View of the Wertach Valley</name>
    <cmt>https://d2exd72xrrp1s7.cloudfront.net/www/000/1k5/1d/1dx5ftu06vj9v7zz3qvtkhc2w3ryquh3g-uhi33626766/0</cmt>
    <desc></desc>
    <src>Komoot</src>
    <link href="https://www.komoot.de/highlight/3257597">
      <text>View POI on Komoot</text>
    </link>
    <type>Highlight</type>
  </wpt>
  <trk>
    <name>Gedenkstätte Wertachbrücke – Blick ins Wertachtal Runde von Siebnach</name>
    <desc>Distance: 8.813km, Estimated duration: 2.31h, Elevation up: 68.1414587119956m, Elevation down: 68.11065136182378m, Grade: moderate</desc>
    <link href="https://www.komoot.de/tour/2847175237">
      <text>View tour on Komoot</text>
    </link>
    <trkseg>
      <trkpt lat="48.132474" lon="10.663807">
        <ele>570</ele>
        <time>2026-03-26T13:15:14.489000Z</time>
      </trkpt>
      <trkpt lat="48.132415" lon="10.663737">
        <ele>570</ele>
        <time>2026-03-26T13:15:22.018000Z</time>
      </trkpt>
      <trkpt lat="48.13193" lon="10.663417">
        <ele>569.9</ele>
        <time>2026-03-26T13:16:15.292000Z</time>
      </trkpt>
      <trkpt lat="48.131886" lon="10.66339">
        <ele>569.9</ele>
        <time>2026-03-26T13:16:20.128000Z</time>
      </trkpt>
      <trkpt lat="48.131848" lon="10.663682">
        <ele>569.8</ele>
        <time>2026-03-26T13:16:40.216000Z</time>
      </trkpt>
      <trkpt lat="48.13172" lon="10.664444">
        <ele>569.6</ele>
        <time>2026-03-26T13:17:33.149000Z</time>
      </trkpt>
      <trkpt lat="48.131714" lon="10.664482">
        <ele>569.6</ele>
        <time>2026-03-26T13:17:35.776000Z</time>
      </trkpt>
      <trkpt lat="48.131622" lon="10.665034">
        <ele>569.4</ele>
        <time>2026-03-26T13:18:14.199000Z</time>
      </trkpt>
      <trkpt lat="48.131296" lon="10.667619">
        <ele>569</ele>
        <time>2026-03-26T13:21:10.796000Z</time>
      </trkpt>
      <trkpt lat="48.12822" lon="10.664419">
        <ele>569.6</ele>
        <time>2026-03-26T13:27:27.807000Z</time>
      </trkpt>
      <trkpt lat="48.128009" lon="10.666529">
        <ele>569.5</ele>
        <time>2026-03-26T13:29:50.651000Z</time>
      </trkpt>
      <trkpt lat="48.127847" lon="10.667254">
        <ele>569.1</ele>
        <time>2026-03-26T13:30:42.498000Z</time>
      </trkpt>
      <trkpt lat="48.127803" lon="10.667326">
        <ele>569</ele>
        <time>2026-03-26T13:30:49.190000Z</time>
      </trkpt>
      <trkpt lat="48.127682" lon="10.667381">
        <ele>568.9</ele>
        <time>2026-03-26T13:31:02.003000Z</time>
      </trkpt>
      <trkpt lat="48.127291" lon="10.667471">
        <ele>568.6</ele>
        <time>2026-03-26T13:31:42.228000Z</time>
      </trkpt>
      <trkpt lat="48.127118" lon="10.667615">
        <ele>568.5</ele>
        <time>2026-03-26T13:32:02.323000Z</time>
      </trkpt>
      <trkpt lat="48.126875" lon="10.667621">
        <ele>568.4</ele>
        <time>2026-03-26T13:32:26.874000Z</time>
      </trkpt>
      <trkpt lat="48.126662" lon="10.667511">
        <ele>568.3</ele>
        <time>2026-03-26T13:32:49.543000Z</time>
      </trkpt>
      <trkpt lat="48.126384" lon="10.667701">
        <ele>568.3</ele>
        <time>2026-03-26T13:33:20.172000Z</time>
      </trkpt>
      <trkpt lat="48.125775" lon="10.667829">
        <ele>568.2</ele>
        <time>2026-03-26T13:34:21.927000Z</time>
      </trkpt>
      <trkpt lat="48.125391" lon="10.668264">
        <ele>567.6</ele>
        <time>2026-03-26T13:35:11.368000Z</time>
      </trkpt>
      <trkpt lat="48.125309" lon="10.668356">
        <ele>567.4</ele>
        <time>2026-03-26T13:35:21.996000Z</time>
      </trkpt>
      <trkpt lat="48.125231" lon="10.668491">
        <ele>567.2</ele>
        <time>2026-03-26T13:35:34.343000Z</time>
      </trkpt>
      <trkpt lat="48.125129" lon="10.669061">
        <ele>566.4</ele>
        <time>2026-03-26T13:36:15.481000Z</time>
      </trkpt>
      <trkpt lat="48.125194" lon="10.669343">
        <ele>565.9</ele>
        <time>2026-03-26T13:36:36.385000Z</time>
      </trkpt>
      <trkpt lat="48.125111" lon="10.669924">
        <ele>564.9</ele>
        <time>2026-03-26T13:37:18.228000Z</time>
      </trkpt>
      <trkpt lat="48.125547" lon="10.670259">
        <ele>563.8</ele>
        <time>2026-03-26T13:38:09.447000Z</time>
      </trkpt>
      <trkpt lat="48.126051" lon="10.670739">
        <ele>563.3</ele>
        <time>2026-03-26T13:39:10.217000Z</time>
      </trkpt>
      <trkpt lat="48.126498" lon="10.671263">
        <ele>563.2</ele>
        <time>2026-03-26T13:40:07.196000Z</time>
      </trkpt>
      <trkpt lat="48.127168" lon="10.672147">
        <ele>563.1</ele>
        <time>2026-03-26T13:41:36.879000Z</time>
      </trkpt>
      <trkpt lat="48.128056" lon="10.673518">
        <ele>562.4</ele>
        <time>2026-03-26T13:43:45.794000Z</time>
      </trkpt>
      <trkpt lat="48.128436" lon="10.674188">
        <ele>562.1</ele>
        <time>2026-03-26T13:44:45.072000Z</time>
      </trkpt>
      <trkpt lat="48.128632" lon="10.674601">
        <ele>562</ele>
        <time>2026-03-26T13:45:19.190000Z</time>
      </trkpt>
      <trkpt lat="48.128954" lon="10.675152">
        <ele>562</ele>
        <time>2026-03-26T13:46:08.241000Z</time>
      </trkpt>
      <trkpt lat="48.129328" lon="10.675966">
        <ele>561.9</ele>
        <time>2026-03-26T13:47:14.307000Z</time>
      </trkpt>
      <trkpt lat="48.130015" lon="10.677273">
        <ele>561.9</ele>
        <time>2026-03-26T13:49:05.525000Z</time>
      </trkpt>
      <trkpt lat="48.130519" lon="10.67814">
        <ele>562.1</ele>
        <time>2026-03-26T13:50:23.075000Z</time>
      </trkpt>
      <trkpt lat="48.13134" lon="10.679233">
        <ele>563</ele>
        <time>2026-03-26T13:52:16.237000Z</time>
      </trkpt>
      <trkpt lat="48.131873" lon="10.679782">
        <ele>563.9</ele>
        <time>2026-03-26T13:53:24.092000Z</time>
      </trkpt>
      <trkpt lat="48.132424" lon="10.680224">
        <ele>564.7</ele>
        <time>2026-03-26T13:54:29.539000Z</time>
      </trkpt>
      <trkpt lat="48.132682" lon="10.680386">
        <ele>564.9</ele>
        <time>2026-03-26T13:54:58.376000Z</time>
      </trkpt>
      <trkpt lat="48.132781" lon="10.680371">
        <ele>565</ele>
        <time>2026-03-26T13:55:08.454000Z</time>
      </trkpt>
      <trkpt lat="48.13294" lon="10.680416">
        <ele>565</ele>
        <time>2026-03-26T13:55:24.842000Z</time>
      </trkpt>
      <trkpt lat="48.132909" lon="10.680526">
        <ele>565</ele>
        <time>2026-03-26T13:55:32.886000Z</time>
      </trkpt>
      <trkpt lat="48.13294" lon="10.680416">
        <ele>565</ele>
        <time>2026-03-26T13:55:40.921000Z</time>
      </trkpt>
      <trkpt lat="48.13302" lon="10.680598">
        <ele>565</ele>
        <time>2026-03-26T13:55:55.568000Z</time>
      </trkpt>
      <trkpt lat="48.133139" lon="10.68076">
        <ele>564.9</ele>
        <time>2026-03-26T13:56:11.843000Z</time>
      </trkpt>
      <trkpt lat="48.134618" lon="10.681665">
        <ele>562.3</ele>
        <time>2026-03-26T13:58:57.022000Z</time>
      </trkpt>
      <trkpt lat="48.136114" lon="10.682693">
        <ele>561.3</ele>
        <time>2026-03-26T14:01:43.896000Z</time>
      </trkpt>
      <trkpt lat="48.14031" lon="10.685482">
        <ele>562</ele>
        <time>2026-03-26T14:09:25.855000Z</time>
      </trkpt>
      <trkpt lat="48.140557" lon="10.685623">
        <ele>562.3</ele>
        <time>2026-03-26T14:09:53.166000Z</time>
      </trkpt>
      <trkpt lat="48.140711" lon="10.685494">
        <ele>562.4</ele>
        <time>2026-03-26T14:10:11.329000Z</time>
      </trkpt>
      <trkpt lat="48.140839" lon="10.685443">
        <ele>562.5</ele>
        <time>2026-03-26T14:10:25.073000Z</time>
      </trkpt>
      <trkpt lat="48.140961" lon="10.685442">
        <ele>562.6</ele>
        <time>2026-03-26T14:10:37.620000Z</time>
      </trkpt>
      <trkpt lat="48.140894" lon="10.683232">
        <ele>563.6</ele>
        <time>2026-03-26T14:13:08.702000Z</time>
      </trkpt>
      <trkpt lat="48.140867" lon="10.680993">
        <ele>563.9</ele>
        <time>2026-03-26T14:15:39.592000Z</time>
      </trkpt>
      <trkpt lat="48.140818" lon="10.679435">
        <ele>564</ele>
        <time>2026-03-26T14:17:24.122000Z</time>
      </trkpt>
      <trkpt lat="48.140874" lon="10.678994">
        <ele>564</ele>
        <time>2026-03-26T14:17:54.062000Z</time>
      </trkpt>
      <trkpt lat="48.140901" lon="10.678811">
        <ele>564</ele>
        <time>2026-03-26T14:18:06.593000Z</time>
      </trkpt>
      <trkpt lat="48.141426" lon="10.676208">
        <ele>564.1</ele>
        <time>2026-03-26T14:21:08.320000Z</time>
      </trkpt>
      <trkpt lat="48.142204" lon="10.673382">
        <ele>564.9</ele>
        <time>2026-03-26T14:24:35.620000Z</time>
      </trkpt>
      <trkpt lat="48.143002" lon="10.670027">
        <ele>565.8</ele>
        <time>2026-03-26T14:28:36.580000Z</time>
      </trkpt>
      <trkpt lat="48.144028" lon="10.66741">
        <ele>565.3</ele>
        <time>2026-03-26T14:32:00.372000Z</time>
      </trkpt>
      <trkpt lat="48.144541" lon="10.666083">
        <ele>565.6</ele>
        <time>2026-03-26T14:33:43.898000Z</time>
      </trkpt>
      <trkpt lat="48.144945" lon="10.665104">
        <ele>566.9</ele>
        <time>2026-03-26T14:35:05.433000Z</time>
      </trkpt>
      <trkpt lat="48.145006" lon="10.665">
        <ele>567.1</ele>
        <time>2026-03-26T14:35:15.492000Z</time>
      </trkpt>
      <trkpt lat="48.145408" lon="10.664478">
        <ele>568.4</ele>
        <time>2026-03-26T14:36:13.262000Z</time>
      </trkpt>
      <trkpt lat="48.145708" lon="10.664154">
        <ele>568.9</ele>
        <time>2026-03-26T14:36:52.158000Z</time>
      </trkpt>
      <trkpt lat="48.14584" lon="10.663862">
        <ele>569.1</ele>
        <time>2026-03-26T14:37:16.346000Z</time>
      </trkpt>
      <trkpt lat="48.145826" lon="10.663706">
        <ele>569.2</ele>
        <time>2026-03-26T14:37:27.066000Z</time>
      </trkpt>
      <trkpt lat="48.14584" lon="10.663862">
        <ele>569.1</ele>
        <time>2026-03-26T14:37:37.704000Z</time>
      </trkpt>
      <trkpt lat="48.145708" lon="10.664154">
        <ele>569</ele>
        <time>2026-03-26T14:38:01.569000Z</time>
      </trkpt>
      <trkpt lat="48.145408" lon="10.664478">
        <ele>568.5</ele>
        <time>2026-03-26T14:38:39.481000Z</time>
      </trkpt>
      <trkpt lat="48.145006" lon="10.665">
        <ele>567.5</ele>
        <time>2026-03-26T14:39:34.907000Z</time>
      </trkpt>
      <trkpt lat="48.144926" lon="10.664976">
        <ele>567.3</ele>
        <time>2026-03-26T14:39:43.392000Z</time>
      </trkpt>
      <trkpt lat="48.142643" lon="10.664293">
        <ele>567.8</ele>
        <time>2026-03-26T14:43:38.167000Z</time>
      </trkpt>
      <trkpt lat="48.143029" lon="10.662337">
        <ele>571.9</ele>
        <time>2026-03-26T14:46:08.808000Z</time>
      </trkpt>
      <trkpt lat="48.143454" lon="10.660354">
        <ele>580.9</ele>
        <time>2026-03-26T14:48:58.739000Z</time>
      </trkpt>
      <trkpt lat="48.143459" lon="10.660258">
        <ele>581.5</ele>
        <time>2026-03-26T14:49:07.014000Z</time>
      </trkpt>
      <trkpt lat="48.143376" lon="10.659909">
        <ele>583.6</ele>
        <time>2026-03-26T14:49:39.073000Z</time>
      </trkpt>
      <trkpt lat="48.143354" lon="10.659669">
        <ele>585.1</ele>
        <time>2026-03-26T14:50:00.262000Z</time>
      </trkpt>
      <trkpt lat="48.14336" lon="10.659376">
        <ele>587</ele>
        <time>2026-03-26T14:50:26.148000Z</time>
      </trkpt>
      <trkpt lat="48.143509" lon="10.657984">
        <ele>597.3</ele>
        <time>2026-03-26T14:52:34.778000Z</time>
      </trkpt>
      <trkpt lat="48.143541" lon="10.657516">
        <ele>601</ele>
        <time>2026-03-26T14:53:19.061000Z</time>
      </trkpt>
      <trkpt lat="48.143532" lon="10.657262">
        <ele>603</ele>
        <time>2026-03-26T14:53:43.205000Z</time>
      </trkpt>
      <trkpt lat="48.143405" lon="10.656746">
        <ele>607.2</ele>
        <time>2026-03-26T14:54:34.191000Z</time>
      </trkpt>
      <trkpt lat="48.143081" lon="10.655953">
        <ele>613.1</ele>
        <time>2026-03-26T14:55:56.154000Z</time>
      </trkpt>
      <trkpt lat="48.143022" lon="10.655701">
        <ele>614.4</ele>
        <time>2026-03-26T14:56:18.585000Z</time>
      </trkpt>
      <trkpt lat="48.143025" lon="10.655503">
        <ele>615.3</ele>
        <time>2026-03-26T14:56:34.826000Z</time>
      </trkpt>
      <trkpt lat="48.143364" lon="10.654141">
        <ele>617.6</ele>
        <time>2026-03-26T14:58:20.157000Z</time>
      </trkpt>
      <trkpt lat="48.143614" lon="10.653346">
        <ele>616.8</ele>
        <time>2026-03-26T14:59:20.761000Z</time>
      </trkpt>
      <trkpt lat="48.143655" lon="10.653121">
        <ele>616.4</ele>
        <time>2026-03-26T14:59:37.026000Z</time>
      </trkpt>
      <trkpt lat="48.142131" lon="10.653313">
        <ele>613</ele>
        <time>2026-03-26T15:02:17.200000Z</time>
      </trkpt>
      <trkpt lat="48.141495" lon="10.653412">
        <ele>612.2</ele>
        <time>2026-03-26T15:03:22.782000Z</time>
      </trkpt>
      <trkpt lat="48.141009" lon="10.653452">
        <ele>612</ele>
        <time>2026-03-26T15:04:11.938000Z</time>
      </trkpt>
      <trkpt lat="48.139703" lon="10.653216">
        <ele>613</ele>
        <time>2026-03-26T15:06:27Z</time>
      </trkpt>
      <trkpt lat="48.139294" lon="10.653188">
        <ele>613.6</ele>
        <time>2026-03-26T15:07:10.272000Z</time>
      </trkpt>
      <trkpt lat="48.138406" lon="10.653127">
        <ele>615.5</ele>
        <time>2026-03-26T15:08:45.673000Z</time>
      </trkpt>
      <trkpt lat="48.137952" lon="10.655175">
        <ele>616.6</ele>
        <time>2026-03-26T15:11:13.829000Z</time>
      </trkpt>
      <trkpt lat="48.137789" lon="10.655132">
        <ele>615.9</ele>
        <time>2026-03-26T15:11:31.741000Z</time>
      </trkpt>
      <trkpt lat="48.137952" lon="10.655175">
        <ele>615</ele>
        <time>2026-03-26T15:11:50.071000Z</time>
      </trkpt>
      <trkpt lat="48.137885" lon="10.655758">
        <ele>612</ele>
        <time>2026-03-26T15:12:35.569000Z</time>
      </trkpt>
      <trkpt lat="48.137617" lon="10.656955">
        <ele>602</ele>
        <time>2026-03-26T15:14:19.482000Z</time>
      </trkpt>
      <trkpt lat="48.137675" lon="10.657454">
        <ele>597.3</ele>
        <time>2026-03-26T15:15:02.503000Z</time>
      </trkpt>
      <trkpt lat="48.137428" lon="10.659378">
        <ele>581</ele>
        <time>2026-03-26T15:17:45.145000Z</time>
      </trkpt>
      <trkpt lat="48.13729" lon="10.660108">
        <ele>576.3</ele>
        <time>2026-03-26T15:18:45.039000Z</time>
      </trkpt>
      <trkpt lat="48.136819" lon="10.661573">
        <ele>570.8</ele>
        <time>2026-03-26T15:20:44.866000Z</time>
      </trkpt>
      <trkpt lat="48.136047" lon="10.661197">
        <ele>569.7</ele>
        <time>2026-03-26T15:22:08.410000Z</time>
      </trkpt>
      <trkpt lat="48.135768" lon="10.661068">
        <ele>569.7</ele>
        <time>2026-03-26T15:22:37.614000Z</time>
      </trkpt>
      <trkpt lat="48.13521" lon="10.66081">
        <ele>569.9</ele>
        <time>2026-03-26T15:23:36.727000Z</time>
      </trkpt>
      <trkpt lat="48.134931" lon="10.660681">
        <ele>569.9</ele>
        <time>2026-03-26T15:24:05.936000Z</time>
      </trkpt>
      <trkpt lat="48.134871" lon="10.660654">
        <ele>569.9</ele>
        <time>2026-03-26T15:24:12.211000Z</time>
      </trkpt>
      <trkpt lat="48.134554" lon="10.660515">
        <ele>569.9</ele>
        <time>2026-03-26T15:24:45.438000Z</time>
      </trkpt>
      <trkpt lat="48.134315" lon="10.66041">
        <ele>570</ele>
        <time>2026-03-26T15:25:10.662000Z</time>
      </trkpt>
      <trkpt lat="48.134079" lon="10.660306">
        <ele>570.1</ele>
        <time>2026-03-26T15:25:35.680000Z</time>
      </trkpt>
      <trkpt lat="48.1338" lon="10.660203">
        <ele>570.3</ele>
        <time>2026-03-26T15:26:04.894000Z</time>
      </trkpt>
      <trkpt lat="48.133702" lon="10.660166">
        <ele>570.3</ele>
        <time>2026-03-26T15:26:15.159000Z</time>
      </trkpt>
      <trkpt lat="48.133524" lon="10.6601">
        <ele>570.4</ele>
        <time>2026-03-26T15:26:33.778000Z</time>
      </trkpt>
      <trkpt lat="48.132686" lon="10.660017">
        <ele>570.7</ele>
        <time>2026-03-26T15:27:59.150000Z</time>
      </trkpt>
      <trkpt lat="48.132672" lon="10.660231">
        <ele>570.8</ele>
        <time>2026-03-26T15:28:13.665000Z</time>
      </trkpt>
      <trkpt lat="48.132658" lon="10.660432">
        <ele>570.8</ele>
        <time>2026-03-26T15:28:27.230000Z</time>
      </trkpt>
      <trkpt lat="48.132648" lon="10.660545">
        <ele>570.8</ele>
        <time>2026-03-26T15:28:34.856000Z</time>
      </trkpt>
      <trkpt lat="48.132631" lon="10.660707">
        <ele>570.8</ele>
        <time>2026-03-26T15:28:45.858000Z</time>
      </trkpt>
      <trkpt lat="48.132558" lon="10.66122">
        <ele>570.7</ele>
        <time>2026-03-26T15:29:20.964000Z</time>
      </trkpt>
      <trkpt lat="48.132527" lon="10.661393">
        <ele>570.7</ele>
        <time>2026-03-26T15:29:32.963000Z</time>
      </trkpt>
      <trkpt lat="48.132424" lon="10.661933">
        <ele>570.6</ele>
        <time>2026-03-26T15:30:10.709000Z</time>
      </trkpt>
      <trkpt lat="48.132384" lon="10.662046">
        <ele>570.6</ele>
        <time>2026-03-26T15:30:19.320000Z</time>
      </trkpt>
      <trkpt lat="48.132277" lon="10.662159">
        <ele>570.6</ele>
        <time>2026-03-26T15:30:32.429000Z</time>
      </trkpt>
      <trkpt lat="48.132159" lon="10.662189">
        <ele>570.5</ele>
        <time>2026-03-26T15:30:44.483000Z</time>
      </trkpt>
      <trkpt lat="48.132031" lon="10.662159">
        <ele>570.5</ele>
        <time>2026-03-26T15:30:57.557000Z</time>
      </trkpt>
      <trkpt lat="48.132008" lon="10.662251">
        <ele>570.5</ele>
        <time>2026-03-26T15:31:04.132000Z</time>
      </trkpt>
      <trkpt lat="48.131978" lon="10.662369">
        <ele>570.4</ele>
        <time>2026-03-26T15:31:12.620000Z</time>
      </trkpt>
      <trkpt lat="48.131883" lon="10.662741">
        <ele>570.3</ele>
        <time>2026-03-26T15:31:39.457000Z</time>
      </trkpt>
      <trkpt lat="48.131806" lon="10.663353">
        <ele>570.2</ele>
        <time>2026-03-26T15:32:21.338000Z</time>
      </trkpt>
      <trkpt lat="48.131886" lon="10.66339">
        <ele>570.2</ele>
        <time>2026-03-26T15:32:29.701000Z</time>
      </trkpt>
      <trkpt lat="48.13193" lon="10.663417">
        <ele>570.2</ele>
        <time>2026-03-26T15:32:34.525000Z</time>
      </trkpt>
      <trkpt lat="48.132415" lon="10.663737">
        <ele>570.1</ele>
        <time>2026-03-26T15:33:27.776000Z</time>
      </trkpt>
      <trkpt lat="48.132474" lon="10.663807">
        <ele>570.1</ele>
        <time>2026-03-26T15:33:35.332000Z</time>
      </trkpt>
    </trkseg>
  </trk>
</gpx>