<?xml version="1.0" encoding="UTF-8"?>
<gpx xmlns="http://www.topografix.com/GPX/1/1" xmlns:xsi="http://www.w3.org/2001/XMLSchema-instance" xsi:schemaLocation="http://www.topografix.com/GPX/1/1 http://www.topografix.com/GPX/1/1/gpx.xsd" version="1.1" creator="Robert Kampf">
  <metadata>
    <name>Heiterwanger See – Blick auf den Heiterwanger See Runde von Heiterwang</name>
    <desc>Distance: 5.937km, Estimated duration: 1.54h, Elevation up: 39.30399708200525m, Elevation down: 39.303997082005026m, Grade: easy</desc>
    <author>
      <name>Robert Kampf</name>
      <link href="https://www.komoot.de/user/4125295338453">
        <text>View Robert Kampf's Profile on Komoot</text>
      </link>
    </author>
    <link href="https://www.komoot.de/tour/3312232412">
      <text>View tour on Komoot</text>
    </link>
  </metadata>
  <wpt lat="47.455601" lon="10.759632">
    <name>Fischer am See</name>
    <cmt></cmt>
    <desc></desc>
    <src>Komoot</src>
    <type>POI</type>
  </wpt>
  <wpt lat="47.452724" lon="10.768962">
    <ele>980</ele>
    <name>Lake Heiterwanger</name>
    <cmt>https://d2exd72xrrp1s7.cloudfront.net/www/000/1k3/9e/9eycbve0aieqr0uxrnf1pvb634n0xs8a-uhi8143727/0</cmt>
    <desc>günni: türkisblau-grüner See mit super Bergpanorama, wenn es nicht regnet ;)
――――――――――
Andreas XLV: Der Heiterwangersee ist sozusagen der Zwillingssee des Plansees. Der Plansee gehört zur Gemeinde Reutte, der Heiterwangersee zur Gemeinde Heiterwang, aber sie bilden dennoch eine Einheit, denn sie sind durch einen schmalen, 300 Meter langen Wasserkanal miteinander verbunden
――――――――――
PaT: idyllischer Fahrradweg entlang des Plansees
――――――――――
Alberto: Incredible views and a nice opportunity to take a bath!
――――――――――
Matthias: Einer der schönsten Seen, die ich kenne. Tolles Panorama und ideal für eine Erfrischung bei einer anstrengenden Fahrradtour.
――――――――――
Uschi PM: Auf der rechten Seite des Sees auf dem breiten Schotterweg fahren, dann kommt man zu einem kleinen Wäldchen. Dort kann man prima schwimmen und ausruhen.
――――――――――
Andreas XLV: Der See ist 1,37 km² groß und maximal 60 m tief, hat zwei oberirdische Zuflüsse und einen Abfluss.
――――――――――
Carsten 🏍🚲: Auch diesen See mal aus einer ganzen anderen Perspektive gesehen. Normalerweise fahren wir immer mit dem Motorrad daran vorbei! Mit dem Fahrrad ein sehr lohnenswerter Ausflug!
――――――――――
Rene' Rademakers: Hier gefällt es mir besonders...super schöne Natur, tolle Farbe des Sees...hier kann man einfach mal die Zeit genießen...
――――――――――
Veloholic: wunderschöner See, er wird gespeißt vom Rotlechstausee über einen unterirdischen Stollen der direkt unter dem Thaneller durchführt.
――――――――――
Lisa: Auf dem Bild sieht man sehr gut, die Wasserspiegelungen, das macht den See sehr reizvoll.
――――――――――
Jeanette: Schöner kleiner SB Imbiss am See. Saubere, öffentliche Toiletten vorhanden
――――――――――
breddy: Der Heiterwanger See ist nicht nur schön gelegen, sondern bietet auch eine Vielzahl an Wassersport Möglichkeiten
――――――――――
Veloholic: herrlicher Blick auf den Heiterwanger See
――――――――――
Holger: Lohnenswertes Ziel für einen kurzen Abstecher. Parken am besten kostenlos an der Tank-/Raststelle an der Einmündung zur Fernpass-Straße. 
――――――――――
Cube C68: Super schöner See unbedingt hinfahren
――――――――――
Cube C68: Perfekte Region zum Biken 
――――――――――
breddy: Schöner Blick über den Heiterwangersee
――――――――――
Veloholic: wunderschön am See entlang
――――――――――
Joe: der Heiterwanger See und der benachbarte Plansee liegen zwischen den Bergen eingeklemmt wie norwegische Fjorde
――――――――――
Veloholic: per Rennrad kann man leider nur ein Ufer erreichen, alle Wege die herumführen sind nur aus Schotter
――――――――――
Albrecht: Mit 28 mm-Reifen ist der Schotterradweg, der den Heiterwanger See mit dem Plasee verbindet, gut zu fahren, bis auf vereinzelte kurze Abschnitte mit lockerem Schotter. Wenn man von Heitwerang kommt, ist es zumal viel schöner, die Abfahrt vom Plansee nach Reutte zu nehmen, als über die sehr stark befahrene Fernpasstraße nach Reutte zu radeln.
――――――――――
Albrecht: Toller Badesee mit glasklarem Wasser 
――――――――――
Agnieszka Scholz: Ein Traum und empfehlenswert </desc>
    <src>Komoot</src>
    <link href="https://www.komoot.de/highlight/294875">
      <text>View POI on Komoot</text>
    </link>
    <type>Highlight</type>
  </wpt>
  <wpt lat="47.452674" lon="10.769408">
    <ele>981.6</ele>
    <name>View of Heiterwanger See</name>
    <cmt>https://d2exd72xrrp1s7.cloudfront.net/www/000/1k8/jv/jv4r54norhr1qo341s4enapi51hr0aqp-uhi74856488/0</cmt>
    <desc>Herbert: Super See zum Baden 😎
――――――――――
Veloholic: herrlicher Blick auf den See
――――――――――
Bruno Braunbär: Sehr schöne Wege mit toller Aussicht. Am Wochenende etwas überlaufen. Ein Bad im See ist herrlich
――――――――――
Mike Fox: Der See ist schön, der Blick auch...... nur nicht auf den Plansee sondern der Heiterwangersee.</desc>
    <src>Komoot</src>
    <link href="https://www.komoot.de/highlight/6779977">
      <text>View POI on Komoot</text>
    </link>
    <type>Highlight</type>
  </wpt>
  <wpt lat="47.452562" lon="10.769808">
    <ele>996.9</ele>
    <name>View of Lake Heiterwang</name>
    <cmt>https://d2exd72xrrp1s7.cloudfront.net/www/000/1k6/1m/1muno842t107rmvj7qzlvrrax494es6e0-uhi52443437/0</cmt>
    <desc>Freelancer 🥾 🚵 🏍️🏃‍♂️ 🧗🏼‍♂️: Ein wunderschöner See, der inmitten einer imposanten Bergwelt liegt und davon umrahmt wird. Es verläuft eine "Scenic Route" direkt am Nordufer, von der man aus dem Auto einen herrlichen Blick auf den See hat. Genügend Parkmöglichkeiten sind ebenfalls vorhanden, um auch länger zu verweilen. Auch zu Fuß kann man direkt am See entlang spazieren. Im Winter ist der See zugefroren.
――――――――――
Eric S. aus E.: Tolles Bildmotiv🏞👍🏼
――――――――――
🥾🚵‍♂️Steffen🥾🚵‍♂️: Super tolle Rundwanderung mit tollen Aussichten auf den See und ein herrliches Panorama
――――――――――
Aki: Sehr schönes Panorama und tolle Aussicht
――――――――――
JR on Tour: Schöner Ausblick über den Heiterwanger See
――――――――――
JR on Tour: Schöner Ausblick über den Heiterwanger See

@Manja: das ist nicht der Plansee :)
――――――――――
Cube C68: Sehr viele schöne MTB Strecke gibt es hier zu entdecken 
――――――――――
Fr.Kornschuh- Lenny 🐕: Tolles Panorama , super schöne Bilder kann man dort machen 
――――――――――
Manja unterwegs 🐶🌞: Der Plansee bei Reutte/Tirol ist immer einen Trip wert. Wandern um den See oder auf einen der Berge. Kanu oder SUP, schwimmen oder sogar tauchen 2 Campingplätze und 2 Hotels laden auch zum Übernachten ein. Vor über 20 Jahren bin ich das 1. Mal auf dem Weg von Garmisch nach Reutte am Plansee vorbei gekommen. Den ersten Blick auf den See werde ich nie vergessen 😍 seit dem zieht es mich immer wieder dort hin.</desc>
    <src>Komoot</src>
    <link href="https://www.komoot.de/highlight/3622745">
      <text>View POI on Komoot</text>
    </link>
    <type>Highlight</type>
  </wpt>
  <wpt lat="47.452989" lon="10.773278">
    <ele>1031.2</ele>
    <name>Bench with a view of Lake Heiterwanger See</name>
    <cmt>https://d2exd72xrrp1s7.cloudfront.net/www/000/1k7/1o/1o4kaubx6p4eo1lvau3ewloife4lwk4d2p-uhi61325097/0</cmt>
    <desc>JR on Tour: Schön gelegene Bank mit herrlicher Aussicht auf den See.
――――――――――
Melanie: Schöne gemütliche Bank, sehr ruhiger See zum Entspannen.
――――――――――
Marcelino (Die Maatz): Eine schöne Runde um den See, um die Beine mal zu schonen. Sehr schöne Badestellen um den See herum.
――――――――――
Sebastian O.: Es gibt um den See herum zahlreiche Bänke für eine kleine Rast.
――――――――――
KrishKsk: A nice viewpoint to sit and relax with a clear water view</desc>
    <src>Komoot</src>
    <link href="https://www.komoot.de/highlight/5810616">
      <text>View POI on Komoot</text>
    </link>
    <type>Highlight</type>
  </wpt>
  <wpt lat="47.453379" lon="10.780007">
    <ele>1030</ele>
    <name>View of Lake Heiterwanger</name>
    <cmt>https://d2exd72xrrp1s7.cloudfront.net/www/000/1k9/8z/8z05lqxjgjlr15pqvswfsci7x5f83qucv-uhi89012460/0</cmt>
    <desc>Stefan Weber aus Littfeld: Der Heiterwanger See ist ein wunderschöner Gebirgssee in den Ammergauer Alpen, der gemeinsam mit dem Plansee die zweitgrößte Wasserfläche Tirols bildet. Die Umrundung des Heiterwanger Sees mit seiner fjordähnlichen Landschaft und dem kristallklaren Wasser ist wirklich ein "Highlight".
――――――――――
KrishKsk: an elevated place to have a Panoramic View</desc>
    <src>Komoot</src>
    <link href="https://www.komoot.de/highlight/7598376">
      <text>View POI on Komoot</text>
    </link>
    <type>Highlight</type>
  </wpt>
  <wpt lat="47.454205" lon="10.789537">
    <ele>794.4</ele>
    <name>South Shore of Lake Heiterwang</name>
    <cmt>https://d2exd72xrrp1s7.cloudfront.net/www/000/1k6/x7/x7b445hgf6231y1nhelmf2n7v47j4b1ke-uhi50962557/0</cmt>
    <desc>JR on Tour: Herrlicher Blick über den hübschen Heiterwanger See.
――――――――――
JR on Tour: Hier kann man gemütlich spazieren gehen und die Aussicht auf den See genießen.
――――――――――
Fr.Kornschuh- Lenny 🐕: Wunderschöner Blick auf den See und das spiegeln der Berge im Wasser , toll.
――――――――――
Doreen: Schöner Blick auf den See.
――――――――――
JR on Tour: Direkt am hübschen Heiterwanger See grasen im Sommer immer die Kühe.
――――――――――
Sebastian O.: Hier gibt es entlang das Ufers auch kleine Möglichkeiten ans Wasser zu gelangen und sich etwas abzukühlen.
――――――――――
Karl-Heinz Schneider: Dieser See hat die schönsten Spiegelungen, die man sich vorstellen kann.
――――――――――
Cube C68: Wunderschönen hier mit dem Bike unterwegs zu sein 
――――――――――
Donauradler: Vom Plansee zum Heiterwangersee nach Ehrwald. Lange Tour mit wenig Steigungen.
――――――――――
breddy: Herrlich gelegen, ist der Heiterwangersee
――――――――――
Christian N - Allgäuer: Einer unserer schönsten Bergseen
――――――――――
Stephan O. 🚴‍♀️: Der Radweg am Ufer entlang ist super. Leider kann man am Nordufer nicht mit dem Fahrrad fahren...
――――――――――
KrishKsk: a great view from the bench
――――――――――
Marcelino (Die Maatz): Die Runde um den See ist einfach und nach anstrengen Wandertagen eine Wohltat für die Beine. Schöne Badestellen rund um den See.</desc>
    <src>Komoot</src>
    <link href="https://www.komoot.de/highlight/4943194">
      <text>View POI on Komoot</text>
    </link>
    <type>Highlight</type>
  </wpt>
  <wpt lat="47.45646" lon="10.787939">
    <ele>1029.3</ele>
    <name>Wooden Dock at Heiterwanger See</name>
    <cmt>https://d2exd72xrrp1s7.cloudfront.net/www/000/1k6/kd/kdp6thlciio11lqtucdzuu85h47phgbg6-uhi51154549/0</cmt>
    <desc>IRI𝕊 with
🅱️🅴🅻🅻🅰️ 🚵‍♀️: kleiner Steg am Heiterwanger Steg, erreichbar über schöne Wurzelwege,
――――――――――
Stefan Weber aus Littfeld: Der Heiterwanger See ist ein wunderschöner Gebirgssee in den Ammergauer Alpen, der gemeinsam mit dem Plansee die zweitgrößte Wasserfläche Tirols bildet. Die Umrundung des Heiterwanger Sees mit seiner fjordähnlichen Landschaft und dem kristallklaren Wasser ist wirklich ein "Highlight".
――――――――――
Wandern mit Beni u. Finn im 💞: Wenn man Glück hat, ist das ein wunderbar einsamer Platz über dem Wasser mit traumhaftem Blick.
――――――――――
Ute&amp;Rolf: viele schöne Stellen zum Baden.
――――――――――
Tanja🚶🏼‍♀️🌲: Kleiner Anlegesteg
――――――――――
Mike Fox: Tolle ecke für eine kleine Rast.
――――――――――
Veloholic: traumhafter Blick auf den Thaneller an dieser eigentlich ruhigen Badestelle
――――――――――
Veloholic: wunderschön zum Baden gehen
――――――――――
Cube C68: Immer wieder toll hier zu Radeln </desc>
    <src>Komoot</src>
    <link href="https://www.komoot.de/highlight/911051">
      <text>View POI on Komoot</text>
    </link>
    <type>Highlight</type>
  </wpt>
  <wpt lat="47.455903" lon="10.788891">
    <ele>1029.9</ele>
    <name>Picnic and barbecue area with jetty on Lake Heiterwanger See</name>
    <cmt>https://d2exd72xrrp1s7.cloudfront.net/www/000/1k8/1x/1x0rx5xs4zfh9mu1rd8zv6jci52w2j3co-uhi76657030/0</cmt>
    <desc>Markus Mann: Ruhig, nicht so überlaufen,  flache Badestelle
――――――――――
Anja: kein Mülleimer vor Ort!
――――――――――
JR on Tour: Schöner Rastplatz mit Grillstelle... herrliche Sicht auf den See
――――――――――
BDR: It's a great spot here for a rest if you're heading round the lake. Can't guarantee an excess of dry, fallen wood nearby, so the bear that in mind if you're planning on using the firepit.
――――――――――
Mike Fox: Schöner Pausen- oder Badestellenplatz am See mit toller Aussicht.
――――――――――
FamilieKopp: Hier hinten ist es deutlich ruhiger als an den jeweiligen Enden</desc>
    <src>Komoot</src>
    <link href="https://www.komoot.de/highlight/6693684">
      <text>View POI on Komoot</text>
    </link>
    <type>Highlight</type>
  </wpt>
  <trk>
    <name>Heiterwanger See – Blick auf den Heiterwanger See Runde von Heiterwang</name>
    <desc>Distance: 5.937km, Estimated duration: 1.54h, Elevation up: 39.30399708200525m, Elevation down: 39.303997082005026m, Grade: easy</desc>
    <link href="https://www.komoot.de/tour/3312232412">
      <text>View tour on Komoot</text>
    </link>
    <trkseg>
      <trkpt lat="47.455614" lon="10.759567">
        <ele>977.3</ele>
        <time>2026-09-27T10:17:08.184000Z</time>
      </trkpt>
      <trkpt lat="47.455571" lon="10.75955">
        <ele>977.3</ele>
        <time>2026-09-27T10:17:12.634000Z</time>
      </trkpt>
      <trkpt lat="47.455535" lon="10.759669">
        <ele>977.3</ele>
        <time>2026-09-27T10:17:21.529000Z</time>
      </trkpt>
      <trkpt lat="47.455541" lon="10.759792">
        <ele>977.3</ele>
        <time>2026-09-27T10:17:29.869000Z</time>
      </trkpt>
      <trkpt lat="47.455537" lon="10.760048">
        <ele>977.3</ele>
        <time>2026-09-27T10:17:47.174000Z</time>
      </trkpt>
      <trkpt lat="47.455544" lon="10.760133">
        <ele>977.3</ele>
        <time>2026-09-27T10:17:53.012000Z</time>
      </trkpt>
      <trkpt lat="47.455464" lon="10.760413">
        <ele>977.3</ele>
        <time>2026-09-27T10:18:13.604000Z</time>
      </trkpt>
      <trkpt lat="47.455456" lon="10.760707">
        <ele>977.3</ele>
        <time>2026-09-27T10:18:33.538000Z</time>
      </trkpt>
      <trkpt lat="47.455413" lon="10.761029">
        <ele>977.3</ele>
        <time>2026-09-27T10:18:55.767000Z</time>
      </trkpt>
      <trkpt lat="47.455275" lon="10.761407">
        <ele>977.3</ele>
        <time>2026-09-27T10:19:24.907000Z</time>
      </trkpt>
      <trkpt lat="47.455107" lon="10.76204">
        <ele>977.2</ele>
        <time>2026-09-27T10:20:11.021000Z</time>
      </trkpt>
      <trkpt lat="47.454986" lon="10.76227">
        <ele>977.1</ele>
        <time>2026-09-27T10:20:30.897000Z</time>
      </trkpt>
      <trkpt lat="47.45501" lon="10.763075">
        <ele>976.8</ele>
        <time>2026-09-27T10:21:26.052000Z</time>
      </trkpt>
      <trkpt lat="47.454976" lon="10.763159">
        <ele>976.8</ele>
        <time>2026-09-27T10:21:32.754000Z</time>
      </trkpt>
      <trkpt lat="47.454833" lon="10.76329">
        <ele>976.7</ele>
        <time>2026-09-27T10:21:49.762000Z</time>
      </trkpt>
      <trkpt lat="47.454794" lon="10.763619">
        <ele>976.6</ele>
        <time>2026-09-27T10:22:12.648000Z</time>
      </trkpt>
      <trkpt lat="47.454653" lon="10.764373">
        <ele>976.3</ele>
        <time>2026-09-27T10:23:06.072000Z</time>
      </trkpt>
      <trkpt lat="47.454637" lon="10.764735">
        <ele>976.2</ele>
        <time>2026-09-27T10:23:30.818000Z</time>
      </trkpt>
      <trkpt lat="47.454536" lon="10.76484">
        <ele>976.2</ele>
        <time>2026-09-27T10:23:43.225000Z</time>
      </trkpt>
      <trkpt lat="47.454458" lon="10.765063">
        <ele>976.2</ele>
        <time>2026-09-27T10:24:00.222000Z</time>
      </trkpt>
      <trkpt lat="47.454172" lon="10.765421">
        <ele>976.2</ele>
        <time>2026-09-27T10:24:37.761000Z</time>
      </trkpt>
      <trkpt lat="47.453682" lon="10.766253">
        <ele>976.2</ele>
        <time>2026-09-27T10:25:52.525000Z</time>
      </trkpt>
      <trkpt lat="47.453598" lon="10.766341">
        <ele>976.2</ele>
        <time>2026-09-27T10:26:02.845000Z</time>
      </trkpt>
      <trkpt lat="47.453422" lon="10.766721">
        <ele>976.2</ele>
        <time>2026-09-27T10:26:34.124000Z</time>
      </trkpt>
      <trkpt lat="47.453334" lon="10.766977">
        <ele>976.2</ele>
        <time>2026-09-27T10:26:53.582000Z</time>
      </trkpt>
      <trkpt lat="47.453377" lon="10.767464">
        <ele>976.5</ele>
        <time>2026-09-27T10:27:27.903000Z</time>
      </trkpt>
      <trkpt lat="47.453356" lon="10.767561">
        <ele>976.6</ele>
        <time>2026-09-27T10:27:35.209000Z</time>
      </trkpt>
      <trkpt lat="47.453304" lon="10.76762">
        <ele>976.8</ele>
        <time>2026-09-27T10:27:42.327000Z</time>
      </trkpt>
      <trkpt lat="47.453211" lon="10.767869">
        <ele>977.3</ele>
        <time>2026-09-27T10:28:03.268000Z</time>
      </trkpt>
      <trkpt lat="47.453068" lon="10.768095">
        <ele>977.7</ele>
        <time>2026-09-27T10:28:25.645000Z</time>
      </trkpt>
      <trkpt lat="47.45288" lon="10.768496">
        <ele>978.3</ele>
        <time>2026-09-27T10:29:01.015000Z</time>
      </trkpt>
      <trkpt lat="47.452823" lon="10.768514">
        <ele>978.5</ele>
        <time>2026-09-27T10:29:07.414000Z</time>
      </trkpt>
      <trkpt lat="47.452721" lon="10.768468">
        <ele>978.7</ele>
        <time>2026-09-27T10:29:18.946000Z</time>
      </trkpt>
      <trkpt lat="47.452556" lon="10.768225">
        <ele>979.4</ele>
        <time>2026-09-27T10:29:44.659000Z</time>
      </trkpt>
      <trkpt lat="47.452714" lon="10.768971">
        <ele>981</ele>
        <time>2026-09-27T10:30:43.279000Z</time>
      </trkpt>
      <trkpt lat="47.452709" lon="10.76905">
        <ele>981.2</ele>
        <time>2026-09-27T10:30:49.312000Z</time>
      </trkpt>
      <trkpt lat="47.452693" lon="10.76941">
        <ele>981.8</ele>
        <time>2026-09-27T10:31:15.823000Z</time>
      </trkpt>
      <trkpt lat="47.452675" lon="10.769819">
        <ele>982.1</ele>
        <time>2026-09-27T10:31:44.399000Z</time>
      </trkpt>
      <trkpt lat="47.452672" lon="10.769903">
        <ele>982</ele>
        <time>2026-09-27T10:31:50.135000Z</time>
      </trkpt>
      <trkpt lat="47.452603" lon="10.770084">
        <ele>982</ele>
        <time>2026-09-27T10:32:04.268000Z</time>
      </trkpt>
      <trkpt lat="47.452606" lon="10.770355">
        <ele>981.9</ele>
        <time>2026-09-27T10:32:22.810000Z</time>
      </trkpt>
      <trkpt lat="47.452677" lon="10.770618">
        <ele>981.8</ele>
        <time>2026-09-27T10:32:42.055000Z</time>
      </trkpt>
      <trkpt lat="47.452656" lon="10.771025">
        <ele>981.7</ele>
        <time>2026-09-27T10:33:10.002000Z</time>
      </trkpt>
      <trkpt lat="47.452669" lon="10.771112">
        <ele>981.6</ele>
        <time>2026-09-27T10:33:16.172000Z</time>
      </trkpt>
      <trkpt lat="47.452793" lon="10.771325">
        <ele>981.5</ele>
        <time>2026-09-27T10:33:35.520000Z</time>
      </trkpt>
      <trkpt lat="47.452898" lon="10.771715">
        <ele>981.2</ele>
        <time>2026-09-27T10:34:04.456000Z</time>
      </trkpt>
      <trkpt lat="47.452881" lon="10.772506">
        <ele>980.9</ele>
        <time>2026-09-27T10:34:58.675000Z</time>
      </trkpt>
      <trkpt lat="47.453045" lon="10.772939">
        <ele>981</ele>
        <time>2026-09-27T10:35:32.495000Z</time>
      </trkpt>
      <trkpt lat="47.453098" lon="10.773187">
        <ele>981.1</ele>
        <time>2026-09-27T10:35:50.527000Z</time>
      </trkpt>
      <trkpt lat="47.453098" lon="10.773278">
        <ele>981.1</ele>
        <time>2026-09-27T10:35:56.870000Z</time>
      </trkpt>
      <trkpt lat="47.453098" lon="10.773352">
        <ele>981.2</ele>
        <time>2026-09-27T10:36:02.016000Z</time>
      </trkpt>
      <trkpt lat="47.452893" lon="10.774144">
        <ele>981.9</ele>
        <time>2026-09-27T10:37:01.917000Z</time>
      </trkpt>
      <trkpt lat="47.452908" lon="10.774882">
        <ele>982.9</ele>
        <time>2026-09-27T10:37:55.408000Z</time>
      </trkpt>
      <trkpt lat="47.4531" lon="10.775502">
        <ele>984.1</ele>
        <time>2026-09-27T10:38:45.983000Z</time>
      </trkpt>
      <trkpt lat="47.453284" lon="10.776514">
        <ele>986.5</ele>
        <time>2026-09-27T10:40:05.294000Z</time>
      </trkpt>
      <trkpt lat="47.45331" lon="10.777428">
        <ele>988.1</ele>
        <time>2026-09-27T10:41:12.813000Z</time>
      </trkpt>
      <trkpt lat="47.453294" lon="10.777781">
        <ele>988.5</ele>
        <time>2026-09-27T10:41:38.177000Z</time>
      </trkpt>
      <trkpt lat="47.453331" lon="10.778143">
        <ele>988.8</ele>
        <time>2026-09-27T10:42:03.927000Z</time>
      </trkpt>
      <trkpt lat="47.453465" lon="10.778703">
        <ele>988.8</ele>
        <time>2026-09-27T10:42:44.391000Z</time>
      </trkpt>
      <trkpt lat="47.453484" lon="10.778958">
        <ele>988.7</ele>
        <time>2026-09-27T10:43:02.068000Z</time>
      </trkpt>
      <trkpt lat="47.453395" lon="10.77992">
        <ele>987.3</ele>
        <time>2026-09-27T10:44:10.663000Z</time>
      </trkpt>
      <trkpt lat="47.453372" lon="10.780003">
        <ele>987.1</ele>
        <time>2026-09-27T10:44:17.125000Z</time>
      </trkpt>
      <trkpt lat="47.453154" lon="10.780792">
        <ele>985.5</ele>
        <time>2026-09-27T10:45:18.148000Z</time>
      </trkpt>
      <trkpt lat="47.453032" lon="10.781444">
        <ele>983.9</ele>
        <time>2026-09-27T10:46:07.140000Z</time>
      </trkpt>
      <trkpt lat="47.453112" lon="10.782162">
        <ele>982</ele>
        <time>2026-09-27T10:47:00.188000Z</time>
      </trkpt>
      <trkpt lat="47.453593" lon="10.782934">
        <ele>980</ele>
        <time>2026-09-27T10:48:15.376000Z</time>
      </trkpt>
      <trkpt lat="47.453688" lon="10.783189">
        <ele>979.7</ele>
        <time>2026-09-27T10:48:35.804000Z</time>
      </trkpt>
      <trkpt lat="47.453729" lon="10.783569">
        <ele>979.3</ele>
        <time>2026-09-27T10:49:02.595000Z</time>
      </trkpt>
      <trkpt lat="47.453678" lon="10.78429">
        <ele>978.9</ele>
        <time>2026-09-27T10:49:52.579000Z</time>
      </trkpt>
      <trkpt lat="47.453679" lon="10.784611">
        <ele>978.9</ele>
        <time>2026-09-27T10:50:14.244000Z</time>
      </trkpt>
      <trkpt lat="47.453746" lon="10.785347">
        <ele>979.3</ele>
        <time>2026-09-27T10:51:05.891000Z</time>
      </trkpt>
      <trkpt lat="47.453859" lon="10.785731">
        <ele>979.6</ele>
        <time>2026-09-27T10:51:35.514000Z</time>
      </trkpt>
      <trkpt lat="47.453841" lon="10.785877">
        <ele>979.8</ele>
        <time>2026-09-27T10:51:46.042000Z</time>
      </trkpt>
      <trkpt lat="47.453573" lon="10.786813">
        <ele>980.9</ele>
        <time>2026-09-27T10:52:58.715000Z</time>
      </trkpt>
      <trkpt lat="47.453557" lon="10.787006">
        <ele>981.1</ele>
        <time>2026-09-27T10:53:12.844000Z</time>
      </trkpt>
      <trkpt lat="47.453607" lon="10.787702">
        <ele>982.2</ele>
        <time>2026-09-27T10:54:03.932000Z</time>
      </trkpt>
      <trkpt lat="47.453761" lon="10.78865">
        <ele>982.9</ele>
        <time>2026-09-27T10:55:12.534000Z</time>
      </trkpt>
      <trkpt lat="47.45385" lon="10.788915">
        <ele>982.9</ele>
        <time>2026-09-27T10:55:32.650000Z</time>
      </trkpt>
      <trkpt lat="47.454224" lon="10.789512">
        <ele>981.8</ele>
        <time>2026-09-27T10:56:30.001000Z</time>
      </trkpt>
      <trkpt lat="47.454476" lon="10.789914">
        <ele>980.6</ele>
        <time>2026-09-27T10:57:09.441000Z</time>
      </trkpt>
      <trkpt lat="47.454822" lon="10.790128">
        <ele>979.2</ele>
        <time>2026-09-27T10:57:50.071000Z</time>
      </trkpt>
      <trkpt lat="47.455208" lon="10.790185">
        <ele>977.8</ele>
        <time>2026-09-27T10:58:31.670000Z</time>
      </trkpt>
      <trkpt lat="47.455517" lon="10.790124">
        <ele>976.8</ele>
        <time>2026-09-27T10:59:04.887000Z</time>
      </trkpt>
      <trkpt lat="47.455872" lon="10.789908">
        <ele>976</ele>
        <time>2026-09-27T10:59:44.835000Z</time>
      </trkpt>
      <trkpt lat="47.456261" lon="10.789606">
        <ele>976</ele>
        <time>2026-09-27T11:00:28.928000Z</time>
      </trkpt>
      <trkpt lat="47.456446" lon="10.789529">
        <ele>975.9</ele>
        <time>2026-09-27T11:00:48.237000Z</time>
      </trkpt>
      <trkpt lat="47.456815" lon="10.789458">
        <ele>975.8</ele>
        <time>2026-09-27T11:01:25.938000Z</time>
      </trkpt>
      <trkpt lat="47.457016" lon="10.789281">
        <ele>975.6</ele>
        <time>2026-09-27T11:01:49.679000Z</time>
      </trkpt>
      <trkpt lat="47.457078" lon="10.789192">
        <ele>975.5</ele>
        <time>2026-09-27T11:01:58.484000Z</time>
      </trkpt>
      <trkpt lat="47.45719" lon="10.789033">
        <ele>975.4</ele>
        <time>2026-09-27T11:02:14.267000Z</time>
      </trkpt>
      <trkpt lat="47.45715" lon="10.788792">
        <ele>975.2</ele>
        <time>2026-09-27T11:02:31.417000Z</time>
      </trkpt>
      <trkpt lat="47.457035" lon="10.788341">
        <ele>974.8</ele>
        <time>2026-09-27T11:03:04.801000Z</time>
      </trkpt>
      <trkpt lat="47.456767" lon="10.788011">
        <ele>974.4</ele>
        <time>2026-09-27T11:03:40.599000Z</time>
      </trkpt>
      <trkpt lat="47.456677" lon="10.787984">
        <ele>974.3</ele>
        <time>2026-09-27T11:03:50.120000Z</time>
      </trkpt>
      <trkpt lat="47.456643" lon="10.787928">
        <ele>974.2</ele>
        <time>2026-09-27T11:03:55.306000Z</time>
      </trkpt>
      <trkpt lat="47.456545" lon="10.787883">
        <ele>974</ele>
        <time>2026-09-27T11:04:05.931000Z</time>
      </trkpt>
      <trkpt lat="47.456479" lon="10.78797">
        <ele>973.9</ele>
        <time>2026-09-27T11:04:15.033000Z</time>
      </trkpt>
      <trkpt lat="47.456406" lon="10.788068">
        <ele>973.8</ele>
        <time>2026-09-27T11:04:25.159000Z</time>
      </trkpt>
      <trkpt lat="47.455918" lon="10.788506">
        <ele>973.9</ele>
        <time>2026-09-27T11:05:22.608000Z</time>
      </trkpt>
      <trkpt lat="47.455866" lon="10.788753">
        <ele>974.1</ele>
        <time>2026-09-27T11:05:40.697000Z</time>
      </trkpt>
      <trkpt lat="47.455865" lon="10.788891">
        <ele>974.2</ele>
        <time>2026-09-27T11:05:50.368000Z</time>
      </trkpt>
      <trkpt lat="47.455864" lon="10.78911">
        <ele>974.4</ele>
        <time>2026-09-27T11:06:05.838000Z</time>
      </trkpt>
      <trkpt lat="47.455896" lon="10.789258">
        <ele>974.5</ele>
        <time>2026-09-27T11:06:16.805000Z</time>
      </trkpt>
      <trkpt lat="47.455972" lon="10.789446">
        <ele>974.7</ele>
        <time>2026-09-27T11:06:32.495000Z</time>
      </trkpt>
      <trkpt lat="47.455989" lon="10.789602">
        <ele>974.9</ele>
        <time>2026-09-27T11:06:43.846000Z</time>
      </trkpt>
      <trkpt lat="47.455964" lon="10.789772">
        <ele>975.1</ele>
        <time>2026-09-27T11:06:56.377000Z</time>
      </trkpt>
      <trkpt lat="47.455872" lon="10.789908">
        <ele>975.4</ele>
        <time>2026-09-27T11:07:10.301000Z</time>
      </trkpt>
      <trkpt lat="47.455517" lon="10.790124">
        <ele>976.6</ele>
        <time>2026-09-27T11:07:52.909000Z</time>
      </trkpt>
      <trkpt lat="47.455208" lon="10.790185">
        <ele>977.7</ele>
        <time>2026-09-27T11:08:28.165000Z</time>
      </trkpt>
      <trkpt lat="47.454822" lon="10.790128">
        <ele>979.2</ele>
        <time>2026-09-27T11:09:11.857000Z</time>
      </trkpt>
      <trkpt lat="47.454476" lon="10.789914">
        <ele>980.6</ele>
        <time>2026-09-27T11:09:54.647000Z</time>
      </trkpt>
      <trkpt lat="47.45385" lon="10.788915">
        <ele>982.9</ele>
        <time>2026-09-27T11:11:34.724000Z</time>
      </trkpt>
      <trkpt lat="47.453761" lon="10.78865">
        <ele>982.9</ele>
        <time>2026-09-27T11:11:54.916000Z</time>
      </trkpt>
      <trkpt lat="47.453607" lon="10.787702">
        <ele>982.2</ele>
        <time>2026-09-27T11:13:02.435000Z</time>
      </trkpt>
      <trkpt lat="47.453557" lon="10.787006">
        <ele>981.1</ele>
        <time>2026-09-27T11:13:51.970000Z</time>
      </trkpt>
      <trkpt lat="47.453573" lon="10.786813">
        <ele>980.9</ele>
        <time>2026-09-27T11:14:05.684000Z</time>
      </trkpt>
      <trkpt lat="47.453841" lon="10.785877">
        <ele>979.8</ele>
        <time>2026-09-27T11:15:16.737000Z</time>
      </trkpt>
      <trkpt lat="47.453859" lon="10.785731">
        <ele>979.6</ele>
        <time>2026-09-27T11:15:27.076000Z</time>
      </trkpt>
      <trkpt lat="47.453746" lon="10.785347">
        <ele>979.3</ele>
        <time>2026-09-27T11:15:56.169000Z</time>
      </trkpt>
      <trkpt lat="47.453679" lon="10.784611">
        <ele>978.9</ele>
        <time>2026-09-27T11:16:47.235000Z</time>
      </trkpt>
      <trkpt lat="47.453678" lon="10.78429">
        <ele>978.9</ele>
        <time>2026-09-27T11:17:08.902000Z</time>
      </trkpt>
      <trkpt lat="47.453729" lon="10.783569">
        <ele>979.3</ele>
        <time>2026-09-27T11:17:59.507000Z</time>
      </trkpt>
      <trkpt lat="47.453688" lon="10.783189">
        <ele>979.7</ele>
        <time>2026-09-27T11:18:26.857000Z</time>
      </trkpt>
      <trkpt lat="47.453593" lon="10.782934">
        <ele>980</ele>
        <time>2026-09-27T11:18:47.805000Z</time>
      </trkpt>
      <trkpt lat="47.453112" lon="10.782162">
        <ele>982</ele>
        <time>2026-09-27T11:20:05.919000Z</time>
      </trkpt>
      <trkpt lat="47.453032" lon="10.781444">
        <ele>983.9</ele>
        <time>2026-09-27T11:21:01.672000Z</time>
      </trkpt>
      <trkpt lat="47.453154" lon="10.780792">
        <ele>985.5</ele>
        <time>2026-09-27T11:21:52.961000Z</time>
      </trkpt>
      <trkpt lat="47.453395" lon="10.77992">
        <ele>987.3</ele>
        <time>2026-09-27T11:23:03.056000Z</time>
      </trkpt>
      <trkpt lat="47.453484" lon="10.778958">
        <ele>988.7</ele>
        <time>2026-09-27T11:24:13.724000Z</time>
      </trkpt>
      <trkpt lat="47.453465" lon="10.778703">
        <ele>988.8</ele>
        <time>2026-09-27T11:24:31.645000Z</time>
      </trkpt>
      <trkpt lat="47.453331" lon="10.778143">
        <ele>988.8</ele>
        <time>2026-09-27T11:25:11.998000Z</time>
      </trkpt>
      <trkpt lat="47.453294" lon="10.777781">
        <ele>988.5</ele>
        <time>2026-09-27T11:25:37.329000Z</time>
      </trkpt>
      <trkpt lat="47.45331" lon="10.777428">
        <ele>988.1</ele>
        <time>2026-09-27T11:26:02.110000Z</time>
      </trkpt>
      <trkpt lat="47.453284" lon="10.776514">
        <ele>986.5</ele>
        <time>2026-09-27T11:27:07.290000Z</time>
      </trkpt>
      <trkpt lat="47.4531" lon="10.775502">
        <ele>984.1</ele>
        <time>2026-09-27T11:28:23.121000Z</time>
      </trkpt>
      <trkpt lat="47.452908" lon="10.774882">
        <ele>982.9</ele>
        <time>2026-09-27T11:29:11.874000Z</time>
      </trkpt>
      <trkpt lat="47.452893" lon="10.774144">
        <ele>981.9</ele>
        <time>2026-09-27T11:30:03.885000Z</time>
      </trkpt>
      <trkpt lat="47.453098" lon="10.773352">
        <ele>981.2</ele>
        <time>2026-09-27T11:31:02.752000Z</time>
      </trkpt>
      <trkpt lat="47.453098" lon="10.773187">
        <ele>981.1</ele>
        <time>2026-09-27T11:31:14.107000Z</time>
      </trkpt>
      <trkpt lat="47.453045" lon="10.772939">
        <ele>981</ele>
        <time>2026-09-27T11:31:31.968000Z</time>
      </trkpt>
      <trkpt lat="47.452881" lon="10.772506">
        <ele>980.9</ele>
        <time>2026-09-27T11:32:05.688000Z</time>
      </trkpt>
      <trkpt lat="47.452898" lon="10.771715">
        <ele>981.2</ele>
        <time>2026-09-27T11:33:00.401000Z</time>
      </trkpt>
      <trkpt lat="47.452793" lon="10.771325">
        <ele>981.5</ele>
        <time>2026-09-27T11:33:29.710000Z</time>
      </trkpt>
      <trkpt lat="47.452669" lon="10.771112">
        <ele>981.6</ele>
        <time>2026-09-27T11:33:49.296000Z</time>
      </trkpt>
      <trkpt lat="47.452656" lon="10.771025">
        <ele>981.7</ele>
        <time>2026-09-27T11:33:55.539000Z</time>
      </trkpt>
      <trkpt lat="47.452677" lon="10.770618">
        <ele>981.8</ele>
        <time>2026-09-27T11:34:23.723000Z</time>
      </trkpt>
      <trkpt lat="47.452606" lon="10.770355">
        <ele>981.9</ele>
        <time>2026-09-27T11:34:43.066000Z</time>
      </trkpt>
      <trkpt lat="47.452603" lon="10.770084">
        <ele>982</ele>
        <time>2026-09-27T11:35:01.709000Z</time>
      </trkpt>
      <trkpt lat="47.452672" lon="10.769903">
        <ele>982</ele>
        <time>2026-09-27T11:35:15.938000Z</time>
      </trkpt>
      <trkpt lat="47.452709" lon="10.76905">
        <ele>981.2</ele>
        <time>2026-09-27T11:36:15.442000Z</time>
      </trkpt>
      <trkpt lat="47.452714" lon="10.768971">
        <ele>981</ele>
        <time>2026-09-27T11:36:21.196000Z</time>
      </trkpt>
      <trkpt lat="47.452556" lon="10.768225">
        <ele>979.4</ele>
        <time>2026-09-27T11:37:17.455000Z</time>
      </trkpt>
      <trkpt lat="47.452721" lon="10.768468">
        <ele>978.7</ele>
        <time>2026-09-27T11:37:42.171000Z</time>
      </trkpt>
      <trkpt lat="47.452823" lon="10.768514">
        <ele>978.5</ele>
        <time>2026-09-27T11:37:53.356000Z</time>
      </trkpt>
      <trkpt lat="47.45288" lon="10.768496">
        <ele>978.3</ele>
        <time>2026-09-27T11:37:59.510000Z</time>
      </trkpt>
      <trkpt lat="47.453068" lon="10.768095">
        <ele>977.7</ele>
        <time>2026-09-27T11:38:33.912000Z</time>
      </trkpt>
      <trkpt lat="47.453211" lon="10.767869">
        <ele>977.3</ele>
        <time>2026-09-27T11:38:55.670000Z</time>
      </trkpt>
      <trkpt lat="47.453304" lon="10.76762">
        <ele>976.8</ele>
        <time>2026-09-27T11:39:15.931000Z</time>
      </trkpt>
      <trkpt lat="47.453356" lon="10.767561">
        <ele>976.6</ele>
        <time>2026-09-27T11:39:22.812000Z</time>
      </trkpt>
      <trkpt lat="47.453377" lon="10.767464">
        <ele>976.5</ele>
        <time>2026-09-27T11:39:29.931000Z</time>
      </trkpt>
      <trkpt lat="47.453334" lon="10.766977">
        <ele>976.2</ele>
        <time>2026-09-27T11:40:03.790000Z</time>
      </trkpt>
      <trkpt lat="47.453422" lon="10.766721">
        <ele>976.2</ele>
        <time>2026-09-27T11:40:23.225000Z</time>
      </trkpt>
      <trkpt lat="47.453598" lon="10.766341">
        <ele>976.2</ele>
        <time>2026-09-27T11:40:54.543000Z</time>
      </trkpt>
      <trkpt lat="47.453682" lon="10.766253">
        <ele>976.2</ele>
        <time>2026-09-27T11:41:04.868000Z</time>
      </trkpt>
      <trkpt lat="47.454172" lon="10.765421">
        <ele>976.2</ele>
        <time>2026-09-27T11:42:19.582000Z</time>
      </trkpt>
      <trkpt lat="47.454458" lon="10.765063">
        <ele>976.2</ele>
        <time>2026-09-27T11:42:57.125000Z</time>
      </trkpt>
      <trkpt lat="47.454536" lon="10.76484">
        <ele>976.2</ele>
        <time>2026-09-27T11:43:14.150000Z</time>
      </trkpt>
      <trkpt lat="47.454637" lon="10.764735">
        <ele>976.2</ele>
        <time>2026-09-27T11:43:26.595000Z</time>
      </trkpt>
      <trkpt lat="47.454653" lon="10.764373">
        <ele>976.3</ele>
        <time>2026-09-27T11:43:51.460000Z</time>
      </trkpt>
      <trkpt lat="47.454794" lon="10.763619">
        <ele>976.6</ele>
        <time>2026-09-27T11:44:45.272000Z</time>
      </trkpt>
      <trkpt lat="47.454833" lon="10.76329">
        <ele>976.7</ele>
        <time>2026-09-27T11:45:08.344000Z</time>
      </trkpt>
      <trkpt lat="47.454976" lon="10.763159">
        <ele>976.8</ele>
        <time>2026-09-27T11:45:25.497000Z</time>
      </trkpt>
      <trkpt lat="47.45501" lon="10.763075">
        <ele>976.8</ele>
        <time>2026-09-27T11:45:32.256000Z</time>
      </trkpt>
      <trkpt lat="47.454986" lon="10.76227">
        <ele>977.1</ele>
        <time>2026-09-27T11:46:27.862000Z</time>
      </trkpt>
      <trkpt lat="47.455107" lon="10.76204">
        <ele>977.2</ele>
        <time>2026-09-27T11:46:47.872000Z</time>
      </trkpt>
      <trkpt lat="47.455275" lon="10.761407">
        <ele>977.3</ele>
        <time>2026-09-27T11:47:34.087000Z</time>
      </trkpt>
      <trkpt lat="47.455413" lon="10.761029">
        <ele>977.3</ele>
        <time>2026-09-27T11:48:03.256000Z</time>
      </trkpt>
      <trkpt lat="47.455456" lon="10.760707">
        <ele>977.3</ele>
        <time>2026-09-27T11:48:25.474000Z</time>
      </trkpt>
      <trkpt lat="47.455464" lon="10.760413">
        <ele>977.3</ele>
        <time>2026-09-27T11:48:45.430000Z</time>
      </trkpt>
      <trkpt lat="47.455544" lon="10.760133">
        <ele>977.3</ele>
        <time>2026-09-27T11:49:06.030000Z</time>
      </trkpt>
      <trkpt lat="47.455537" lon="10.760048">
        <ele>977.3</ele>
        <time>2026-09-27T11:49:11.864000Z</time>
      </trkpt>
      <trkpt lat="47.455541" lon="10.759792">
        <ele>977.3</ele>
        <time>2026-09-27T11:49:29.186000Z</time>
      </trkpt>
      <trkpt lat="47.455535" lon="10.759669">
        <ele>977.3</ele>
        <time>2026-09-27T11:49:37.528000Z</time>
      </trkpt>
      <trkpt lat="47.455571" lon="10.75955">
        <ele>977.3</ele>
        <time>2026-09-27T11:49:46.426000Z</time>
      </trkpt>
      <trkpt lat="47.455614" lon="10.759567">
        <ele>977.3</ele>
        <time>2026-09-27T11:49:50.868000Z</time>
      </trkpt>
    </trkseg>
  </trk>
</gpx>