<?xml version="1.0" encoding="UTF-8"?>
<gpx xmlns="http://www.topografix.com/GPX/1/1" xmlns:xsi="http://www.w3.org/2001/XMLSchema-instance" xsi:schemaLocation="http://www.topografix.com/GPX/1/1 http://www.topografix.com/GPX/1/1/gpx.xsd" version="1.1" creator="Robert Kampf">
  <metadata>
    <name>Holzskulptur am Römerweg – Holz-Gladiatoren-Skulptur Runde von Mertingen</name>
    <desc>Distance: 5.087km, Estimated duration: 1.32h, Elevation up: 32.60149576523429m, Elevation down: 32.60149576523429m, Grade: easy</desc>
    <author>
      <name>Robert Kampf</name>
      <link href="https://www.komoot.de/user/4125295338453">
        <text>View Robert Kampf's Profile on Komoot</text>
      </link>
    </author>
    <link href="https://www.komoot.de/tour/2995687372">
      <text>View tour on Komoot</text>
    </link>
  </metadata>
  <wpt lat="48.64352" lon="10.798341">
    <name>Parking</name>
    <cmt></cmt>
    <desc>Free</desc>
    <src>Komoot</src>
    <type>POI</type>
  </wpt>
  <wpt lat="48.644333" lon="10.798255">
    <ele>458.9</ele>
    <name>End of the Trail in Naturpark Augsburg – Westliche Wälder</name>
    <cmt>https://d2exd72xrrp1s7.cloudfront.net/www/000/1k9/w5/w593fja9n6ihhnuagta569ev5jcl3prp-uhi94786621/0</cmt>
    <desc>Matthias: Ein Highlight wenn man die geplante Wanderung erfolgreich abschließt.</desc>
    <src>Komoot</src>
    <link href="https://www.komoot.de/highlight/2949174">
      <text>View POI on Komoot</text>
    </link>
    <type>Highlight</type>
  </wpt>
  <wpt lat="48.641556" lon="10.794752">
    <ele>477</ele>
    <name>Forest path in Naturpark Augsburg – Westliche Wälder</name>
    <cmt>https://d2exd72xrrp1s7.cloudfront.net/www/000/1k5/1o/1or46s5gsnmxl13ckfhpcorp7v3nvj5sa2-uhi28543853/0</cmt>
    <desc>Matthias: Sehr schöner Waldweg in Mertingen. Verlaufen unmöglich da es eine runde ist</desc>
    <src>Komoot</src>
    <link href="https://www.komoot.de/highlight/2949175">
      <text>View POI on Komoot</text>
    </link>
    <type>Highlight</type>
  </wpt>
  <wpt lat="48.63254" lon="10.782305">
    <ele>507.4</ele>
    <name>Wooden Sculpture on Römerweg</name>
    <cmt>https://d2exd72xrrp1s7.cloudfront.net/www/000/1k5/cd/cd379bwgy91g18as14mpxgelz3quhnn8j-uhi31900568/0</cmt>
    <desc></desc>
    <src>Komoot</src>
    <link href="https://www.komoot.de/highlight/3125522">
      <text>View POI on Komoot</text>
    </link>
    <type>Highlight</type>
  </wpt>
  <wpt lat="48.632412" lon="10.79192">
    <ele>482.4</ele>
    <name>Wooden Gladiator Sculpture</name>
    <cmt>https://d2exd72xrrp1s7.cloudfront.net/www/000/1k5/1l/1lqeiktvac7ec76unrgji5p53oh8gxfq-uhi29005197/0</cmt>
    <desc>Matthias: Sehr leicht zu erkennen, nette Holzkunst auf dem Hauptweg
――――――――――
Lenaaaa: Netter Ritter aus Holz der Abwechslung auf einem schönen Waldweg bietet
――――――――――
hans peter: Wo sind meine Legionen?</desc>
    <src>Komoot</src>
    <link href="https://www.komoot.de/highlight/2970599">
      <text>View POI on Komoot</text>
    </link>
    <type>Highlight</type>
  </wpt>
  <wpt lat="48.636528" lon="10.795514">
    <ele>500.6</ele>
    <name>St. Anna Chapel (Mertinger Forest)</name>
    <cmt>https://d2exd72xrrp1s7.cloudfront.net/www/000/1k3/5c/5c6629qrmxhk7rb7hu3h9xpc2whwasct-uhi5080428/0</cmt>
    <desc>Siggi: Schöne Wanderrouten mit unterschiedlichen Längen.
――――――――――
Wiewaldo: Im Mertinger Wald gibt es einen Kreuzweg. Den Kreuzweg gibt es seit 1878. Er führt zur Waldkapelle Sankt Anna und umfasst 14 Stationen.
――――――――――
Manu70: Sehr schöne Wanderung </desc>
    <src>Komoot</src>
    <link href="https://www.komoot.de/highlight/686438">
      <text>View POI on Komoot</text>
    </link>
    <type>Highlight</type>
  </wpt>
  <wpt lat="48.639139" lon="10.797632">
    <ele>481.3</ele>
    <name>Stations of the Cross Trail (Passion Trail), Naturpark Augsburg – Westliche Wälder</name>
    <cmt>https://d2exd72xrrp1s7.cloudfront.net/www/000/1k5/1s/1spc7l891cgkj16wsjzn93emp33nvj5sqo-uhi28543854/0</cmt>
    <desc>Matthias: Gibt alle paar Meter so einen Stein, der einem die Geschichte Jesus erzählt.</desc>
    <src>Komoot</src>
    <link href="https://www.komoot.de/highlight/2949176">
      <text>View POI on Komoot</text>
    </link>
    <type>Highlight</type>
  </wpt>
  <trk>
    <name>Holzskulptur am Römerweg – Holz-Gladiatoren-Skulptur Runde von Mertingen</name>
    <desc>Distance: 5.087km, Estimated duration: 1.32h, Elevation up: 32.60149576523429m, Elevation down: 32.60149576523429m, Grade: easy</desc>
    <link href="https://www.komoot.de/tour/2995687372">
      <text>View tour on Komoot</text>
    </link>
    <trkseg>
      <trkpt lat="48.643531" lon="10.798419">
        <ele>415.1</ele>
        <time>2026-05-29T12:51:47.806000Z</time>
      </trkpt>
      <trkpt lat="48.643209" lon="10.798524">
        <ele>415.1</ele>
        <time>2026-05-29T12:52:20.942000Z</time>
      </trkpt>
      <trkpt lat="48.643163" lon="10.798449">
        <ele>415.1</ele>
        <time>2026-05-29T12:52:27.661000Z</time>
      </trkpt>
      <trkpt lat="48.643126" lon="10.798394">
        <ele>415.1</ele>
        <time>2026-05-29T12:52:32.945000Z</time>
      </trkpt>
      <trkpt lat="48.642865" lon="10.797867">
        <ele>415.1</ele>
        <time>2026-05-29T12:53:16.529000Z</time>
      </trkpt>
      <trkpt lat="48.643144" lon="10.797989">
        <ele>415</ele>
        <time>2026-05-29T12:53:45.912000Z</time>
      </trkpt>
      <trkpt lat="48.643605" lon="10.79807">
        <ele>414.8</ele>
        <time>2026-05-29T12:54:32.832000Z</time>
      </trkpt>
      <trkpt lat="48.643788" lon="10.798158">
        <ele>414.7</ele>
        <time>2026-05-29T12:54:52.150000Z</time>
      </trkpt>
      <trkpt lat="48.643848" lon="10.798341">
        <ele>414.6</ele>
        <time>2026-05-29T12:55:05.739000Z</time>
      </trkpt>
      <trkpt lat="48.644272" lon="10.798287">
        <ele>414.6</ele>
        <time>2026-05-29T12:55:48.332000Z</time>
      </trkpt>
      <trkpt lat="48.644333" lon="10.798286">
        <ele>414.6</ele>
        <time>2026-05-29T12:55:54.467000Z</time>
      </trkpt>
      <trkpt lat="48.644272" lon="10.798287">
        <ele>414.6</ele>
        <time>2026-05-29T12:56:00.631000Z</time>
      </trkpt>
      <trkpt lat="48.643848" lon="10.798341">
        <ele>414.7</ele>
        <time>2026-05-29T12:56:43.453000Z</time>
      </trkpt>
      <trkpt lat="48.643134" lon="10.798591">
        <ele>415.3</ele>
        <time>2026-05-29T12:57:59.095000Z</time>
      </trkpt>
      <trkpt lat="48.642535" lon="10.798819">
        <ele>416</ele>
        <time>2026-05-29T12:59:03.131000Z</time>
      </trkpt>
      <trkpt lat="48.642053" lon="10.798955">
        <ele>416.4</ele>
        <time>2026-05-29T12:59:53.766000Z</time>
      </trkpt>
      <trkpt lat="48.641816" lon="10.798942">
        <ele>416.6</ele>
        <time>2026-05-29T13:00:18.190000Z</time>
      </trkpt>
      <trkpt lat="48.641506" lon="10.79882">
        <ele>416.8</ele>
        <time>2026-05-29T13:00:51.192000Z</time>
      </trkpt>
      <trkpt lat="48.641197" lon="10.798698">
        <ele>417.1</ele>
        <time>2026-05-29T13:01:24.181000Z</time>
      </trkpt>
      <trkpt lat="48.640944" lon="10.798564">
        <ele>417.4</ele>
        <time>2026-05-29T13:01:51.954000Z</time>
      </trkpt>
      <trkpt lat="48.640828" lon="10.798465">
        <ele>417.5</ele>
        <time>2026-05-29T13:02:05.861000Z</time>
      </trkpt>
      <trkpt lat="48.640443" lon="10.798005">
        <ele>418.3</ele>
        <time>2026-05-29T13:02:57.489000Z</time>
      </trkpt>
      <trkpt lat="48.640271" lon="10.797856">
        <ele>418.4</ele>
        <time>2026-05-29T13:03:17.896000Z</time>
      </trkpt>
      <trkpt lat="48.640086" lon="10.797761">
        <ele>418.5</ele>
        <time>2026-05-29T13:03:37.668000Z</time>
      </trkpt>
      <trkpt lat="48.639582" lon="10.797646">
        <ele>418.4</ele>
        <time>2026-05-29T13:04:28.960000Z</time>
      </trkpt>
      <trkpt lat="48.639498" lon="10.797374">
        <ele>418.2</ele>
        <time>2026-05-29T13:04:49.068000Z</time>
      </trkpt>
      <trkpt lat="48.639495" lon="10.797113">
        <ele>418.1</ele>
        <time>2026-05-29T13:05:06.540000Z</time>
      </trkpt>
      <trkpt lat="48.639532" lon="10.796968">
        <ele>418.1</ele>
        <time>2026-05-29T13:05:16.916000Z</time>
      </trkpt>
      <trkpt lat="48.639819" lon="10.796391">
        <ele>417.8</ele>
        <time>2026-05-29T13:06:05.228000Z</time>
      </trkpt>
      <trkpt lat="48.639907" lon="10.795974">
        <ele>417.6</ele>
        <time>2026-05-29T13:06:34.634000Z</time>
      </trkpt>
      <trkpt lat="48.640018" lon="10.795676">
        <ele>417.5</ele>
        <time>2026-05-29T13:06:57.385000Z</time>
      </trkpt>
      <trkpt lat="48.641134" lon="10.793869">
        <ele>419.1</ele>
        <time>2026-05-29T13:09:46.508000Z</time>
      </trkpt>
      <trkpt lat="48.641178" lon="10.793904">
        <ele>419.1</ele>
        <time>2026-05-29T13:09:51.589000Z</time>
      </trkpt>
      <trkpt lat="48.641549" lon="10.794759">
        <ele>419.8</ele>
        <time>2026-05-29T13:11:01.481000Z</time>
      </trkpt>
      <trkpt lat="48.641178" lon="10.793904">
        <ele>421.5</ele>
        <time>2026-05-29T13:12:15.151000Z</time>
      </trkpt>
      <trkpt lat="48.641134" lon="10.793869">
        <ele>421.7</ele>
        <time>2026-05-29T13:12:20.776000Z</time>
      </trkpt>
      <trkpt lat="48.64114" lon="10.793857">
        <ele>421.7</ele>
        <time>2026-05-29T13:12:21.870000Z</time>
      </trkpt>
      <trkpt lat="48.640862" lon="10.793355">
        <ele>423.8</ele>
        <time>2026-05-29T13:13:12.521000Z</time>
      </trkpt>
      <trkpt lat="48.640699" lon="10.793192">
        <ele>425</ele>
        <time>2026-05-29T13:13:36.220000Z</time>
      </trkpt>
      <trkpt lat="48.640496" lon="10.79275">
        <ele>427.4</ele>
        <time>2026-05-29T13:14:19.975000Z</time>
      </trkpt>
      <trkpt lat="48.640435" lon="10.792194">
        <ele>430.1</ele>
        <time>2026-05-29T13:15:06.363000Z</time>
      </trkpt>
      <trkpt lat="48.640283" lon="10.791706">
        <ele>432.4</ele>
        <time>2026-05-29T13:15:49.946000Z</time>
      </trkpt>
      <trkpt lat="48.639945" lon="10.791202">
        <ele>434.8</ele>
        <time>2026-05-29T13:16:45.773000Z</time>
      </trkpt>
      <trkpt lat="48.639372" lon="10.790504">
        <ele>436.9</ele>
        <time>2026-05-29T13:18:06.920000Z</time>
      </trkpt>
      <trkpt lat="48.63899" lon="10.789922">
        <ele>437.6</ele>
        <time>2026-05-29T13:19:03.637000Z</time>
      </trkpt>
      <trkpt lat="48.638514" lon="10.78861">
        <ele>437.8</ele>
        <time>2026-05-29T13:20:43.214000Z</time>
      </trkpt>
      <trkpt lat="48.638492" lon="10.788426">
        <ele>437.7</ele>
        <time>2026-05-29T13:20:55.709000Z</time>
      </trkpt>
      <trkpt lat="48.638366" lon="10.788265">
        <ele>437.6</ele>
        <time>2026-05-29T13:21:12.392000Z</time>
      </trkpt>
      <trkpt lat="48.638178" lon="10.787932">
        <ele>437.4</ele>
        <time>2026-05-29T13:21:41.768000Z</time>
      </trkpt>
      <trkpt lat="48.637996" lon="10.787488">
        <ele>437.2</ele>
        <time>2026-05-29T13:22:16.653000Z</time>
      </trkpt>
      <trkpt lat="48.637552" lon="10.786878">
        <ele>437.4</ele>
        <time>2026-05-29T13:23:17.280000Z</time>
      </trkpt>
      <trkpt lat="48.637431" lon="10.786721">
        <ele>437.6</ele>
        <time>2026-05-29T13:23:33.762000Z</time>
      </trkpt>
      <trkpt lat="48.637234" lon="10.786614">
        <ele>437.8</ele>
        <time>2026-05-29T13:23:55.728000Z</time>
      </trkpt>
      <trkpt lat="48.637063" lon="10.786594">
        <ele>438.1</ele>
        <time>2026-05-29T13:24:13.934000Z</time>
      </trkpt>
      <trkpt lat="48.636826" lon="10.786566">
        <ele>438.6</ele>
        <time>2026-05-29T13:24:39.398000Z</time>
      </trkpt>
      <trkpt lat="48.636399" lon="10.786398">
        <ele>439.5</ele>
        <time>2026-05-29T13:25:26.802000Z</time>
      </trkpt>
      <trkpt lat="48.636046" lon="10.786198">
        <ele>440.2</ele>
        <time>2026-05-29T13:26:06.994000Z</time>
      </trkpt>
      <trkpt lat="48.63523" lon="10.785566">
        <ele>440.7</ele>
        <time>2026-05-29T13:27:40.377000Z</time>
      </trkpt>
      <trkpt lat="48.634874" lon="10.784587">
        <ele>440.5</ele>
        <time>2026-05-29T13:28:54.678000Z</time>
      </trkpt>
      <trkpt lat="48.634512" lon="10.783962">
        <ele>440.4</ele>
        <time>2026-05-29T13:29:49.871000Z</time>
      </trkpt>
      <trkpt lat="48.634036" lon="10.783212">
        <ele>440.4</ele>
        <time>2026-05-29T13:30:58.777000Z</time>
      </trkpt>
      <trkpt lat="48.633782" lon="10.782601">
        <ele>440.4</ele>
        <time>2026-05-29T13:31:46.574000Z</time>
      </trkpt>
      <trkpt lat="48.633392" lon="10.782223">
        <ele>440.4</ele>
        <time>2026-05-29T13:32:33.035000Z</time>
      </trkpt>
      <trkpt lat="48.633031" lon="10.78206">
        <ele>440.4</ele>
        <time>2026-05-29T13:33:10.794000Z</time>
      </trkpt>
      <trkpt lat="48.632823" lon="10.781966">
        <ele>440.4</ele>
        <time>2026-05-29T13:33:32.586000Z</time>
      </trkpt>
      <trkpt lat="48.632535" lon="10.781963">
        <ele>440.4</ele>
        <time>2026-05-29T13:34:01.586000Z</time>
      </trkpt>
      <trkpt lat="48.632548" lon="10.782304">
        <ele>440.5</ele>
        <time>2026-05-29T13:34:24.325000Z</time>
      </trkpt>
      <trkpt lat="48.632602" lon="10.783754">
        <ele>440.5</ele>
        <time>2026-05-29T13:36:00.447000Z</time>
      </trkpt>
      <trkpt lat="48.632576" lon="10.785213">
        <ele>439.8</ele>
        <time>2026-05-29T13:37:38.271000Z</time>
      </trkpt>
      <trkpt lat="48.632622" lon="10.788553">
        <ele>438.3</ele>
        <time>2026-05-29T13:41:22.401000Z</time>
      </trkpt>
      <trkpt lat="48.632636" lon="10.789771">
        <ele>438.9</ele>
        <time>2026-05-29T13:42:44.945000Z</time>
      </trkpt>
      <trkpt lat="48.632593" lon="10.790909">
        <ele>439</ele>
        <time>2026-05-29T13:44:00.690000Z</time>
      </trkpt>
      <trkpt lat="48.632472" lon="10.791404">
        <ele>438.5</ele>
        <time>2026-05-29T13:44:36.600000Z</time>
      </trkpt>
      <trkpt lat="48.632456" lon="10.791915">
        <ele>437.8</ele>
        <time>2026-05-29T13:45:11.863000Z</time>
      </trkpt>
      <trkpt lat="48.632415" lon="10.791902">
        <ele>437.8</ele>
        <time>2026-05-29T13:45:16.211000Z</time>
      </trkpt>
      <trkpt lat="48.632456" lon="10.791915">
        <ele>437.7</ele>
        <time>2026-05-29T13:45:20.596000Z</time>
      </trkpt>
      <trkpt lat="48.632645" lon="10.792029">
        <ele>437.3</ele>
        <time>2026-05-29T13:45:41.698000Z</time>
      </trkpt>
      <trkpt lat="48.633149" lon="10.792529">
        <ele>436.5</ele>
        <time>2026-05-29T13:46:43.684000Z</time>
      </trkpt>
      <trkpt lat="48.633843" lon="10.792692">
        <ele>436.8</ele>
        <time>2026-05-29T13:47:54.923000Z</time>
      </trkpt>
      <trkpt lat="48.634469" lon="10.793123">
        <ele>438.4</ele>
        <time>2026-05-29T13:49:09.551000Z</time>
      </trkpt>
      <trkpt lat="48.635238" lon="10.793714">
        <ele>440.3</ele>
        <time>2026-05-29T13:50:42.428000Z</time>
      </trkpt>
      <trkpt lat="48.635604" lon="10.794132">
        <ele>440.6</ele>
        <time>2026-05-29T13:51:29.504000Z</time>
      </trkpt>
      <trkpt lat="48.636067" lon="10.794779">
        <ele>440.1</ele>
        <time>2026-05-29T13:52:33.642000Z</time>
      </trkpt>
      <trkpt lat="48.636388" lon="10.795402">
        <ele>438.9</ele>
        <time>2026-05-29T13:53:28.478000Z</time>
      </trkpt>
      <trkpt lat="48.636519" lon="10.795526">
        <ele>438.5</ele>
        <time>2026-05-29T13:53:44.818000Z</time>
      </trkpt>
      <trkpt lat="48.636524" lon="10.795529">
        <ele>438.4</ele>
        <time>2026-05-29T13:53:45.402000Z</time>
      </trkpt>
      <trkpt lat="48.636826" lon="10.795726">
        <ele>437.3</ele>
        <time>2026-05-29T13:54:20.545000Z</time>
      </trkpt>
      <trkpt lat="48.63726" lon="10.795815">
        <ele>435.4</ele>
        <time>2026-05-29T13:55:08.369000Z</time>
      </trkpt>
      <trkpt lat="48.637711" lon="10.796242">
        <ele>432.2</ele>
        <time>2026-05-29T13:56:07.987000Z</time>
      </trkpt>
      <trkpt lat="48.638336" lon="10.796739">
        <ele>427.7</ele>
        <time>2026-05-29T13:57:27.907000Z</time>
      </trkpt>
      <trkpt lat="48.63864" lon="10.79712">
        <ele>425.2</ele>
        <time>2026-05-29T13:58:12.247000Z</time>
      </trkpt>
      <trkpt lat="48.63881" lon="10.797391">
        <ele>423.8</ele>
        <time>2026-05-29T13:58:39.845000Z</time>
      </trkpt>
      <trkpt lat="48.638949" lon="10.797524">
        <ele>423</ele>
        <time>2026-05-29T13:58:58.057000Z</time>
      </trkpt>
      <trkpt lat="48.639126" lon="10.7976">
        <ele>422.1</ele>
        <time>2026-05-29T13:59:18.189000Z</time>
      </trkpt>
      <trkpt lat="48.63914" lon="10.797602">
        <ele>422</ele>
        <time>2026-05-29T13:59:19.743000Z</time>
      </trkpt>
      <trkpt lat="48.639582" lon="10.797646">
        <ele>420.4</ele>
        <time>2026-05-29T14:00:07.343000Z</time>
      </trkpt>
      <trkpt lat="48.640086" lon="10.797761">
        <ele>419.1</ele>
        <time>2026-05-29T14:01:01.044000Z</time>
      </trkpt>
      <trkpt lat="48.640271" lon="10.797856">
        <ele>418.7</ele>
        <time>2026-05-29T14:01:21.427000Z</time>
      </trkpt>
      <trkpt lat="48.640443" lon="10.798005">
        <ele>418.3</ele>
        <time>2026-05-29T14:01:42.040000Z</time>
      </trkpt>
      <trkpt lat="48.640828" lon="10.798465">
        <ele>417.5</ele>
        <time>2026-05-29T14:02:32.747000Z</time>
      </trkpt>
      <trkpt lat="48.640944" lon="10.798564">
        <ele>417.4</ele>
        <time>2026-05-29T14:02:46.416000Z</time>
      </trkpt>
      <trkpt lat="48.641197" lon="10.798698">
        <ele>417.1</ele>
        <time>2026-05-29T14:03:13.798000Z</time>
      </trkpt>
      <trkpt lat="48.641506" lon="10.79882">
        <ele>416.8</ele>
        <time>2026-05-29T14:03:46.365000Z</time>
      </trkpt>
      <trkpt lat="48.641816" lon="10.798942">
        <ele>416.6</ele>
        <time>2026-05-29T14:04:18.967000Z</time>
      </trkpt>
      <trkpt lat="48.642053" lon="10.798955">
        <ele>416.4</ele>
        <time>2026-05-29T14:04:43.101000Z</time>
      </trkpt>
      <trkpt lat="48.642535" lon="10.798819">
        <ele>416</ele>
        <time>2026-05-29T14:05:33.099000Z</time>
      </trkpt>
      <trkpt lat="48.643134" lon="10.798591">
        <ele>415.5</ele>
        <time>2026-05-29T14:06:35.872000Z</time>
      </trkpt>
      <trkpt lat="48.643848" lon="10.798341">
        <ele>415.1</ele>
        <time>2026-05-29T14:07:49.957000Z</time>
      </trkpt>
      <trkpt lat="48.643788" lon="10.798158">
        <ele>415.1</ele>
        <time>2026-05-29T14:08:03.546000Z</time>
      </trkpt>
      <trkpt lat="48.643605" lon="10.79807">
        <ele>415.1</ele>
        <time>2026-05-29T14:08:22.782000Z</time>
      </trkpt>
      <trkpt lat="48.643144" lon="10.797989">
        <ele>415.1</ele>
        <time>2026-05-29T14:09:09.208000Z</time>
      </trkpt>
      <trkpt lat="48.642865" lon="10.797867">
        <ele>415.1</ele>
        <time>2026-05-29T14:09:38.520000Z</time>
      </trkpt>
      <trkpt lat="48.643126" lon="10.798394">
        <ele>415.1</ele>
        <time>2026-05-29T14:10:22.134000Z</time>
      </trkpt>
      <trkpt lat="48.643163" lon="10.798449">
        <ele>415.1</ele>
        <time>2026-05-29T14:10:27.410000Z</time>
      </trkpt>
      <trkpt lat="48.643209" lon="10.798524">
        <ele>415.1</ele>
        <time>2026-05-29T14:10:34.116000Z</time>
      </trkpt>
      <trkpt lat="48.643531" lon="10.798419">
        <ele>415.1</ele>
        <time>2026-05-29T14:11:07.202000Z</time>
      </trkpt>
    </trkseg>
  </trk>
</gpx>