<?xml version="1.0" encoding="UTF-8"?>
<gpx xmlns="http://www.topografix.com/GPX/1/1" xmlns:xsi="http://www.w3.org/2001/XMLSchema-instance" xsi:schemaLocation="http://www.topografix.com/GPX/1/1 http://www.topografix.com/GPX/1/1/gpx.xsd" version="1.1" creator="Robert Kampf">
  <metadata>
    <name>Huber Kapelle – Wildgehege Runde von Emersacker</name>
    <desc>Distance: 4.841km, Estimated duration: 1.3h, Elevation up: 62.05482523066598m, Elevation down: 62.05482523066604m, Grade: easy</desc>
    <author>
      <name>Robert Kampf</name>
      <link href="https://www.komoot.de/user/4125295338453">
        <text>View Robert Kampf's Profile on Komoot</text>
      </link>
    </author>
    <link href="https://www.komoot.de/tour/2790839758">
      <text>View tour on Komoot</text>
    </link>
  </metadata>
  <wpt lat="48.485681" lon="10.665858">
    <name>Emersacker Sägewerk</name>
    <cmt></cmt>
    <desc>Not accessible</desc>
    <src>Komoot</src>
    <type>POI</type>
  </wpt>
  <wpt lat="48.480845" lon="10.655447">
    <ele>459.4</ele>
    <name>Emersacker Chapel by Wilhelm Huber</name>
    <cmt>https://d2exd72xrrp1s7.cloudfront.net/www/000/1k4/1i/1i1obh7au7vh0fjmcoau66pkc3dsspa1o-uhi13683473/0</cmt>
    <desc>🇪🇺Raubach🇺🇦: Sehr schöne Idee 👍😊
――――――――――
Siggi: Diese Kapelle ist wirklich spartanisch eingerichtet, nur ein Kreuz und Licht fällt nur durch ein bläuliches Dachfenster ein.
――――――――――
🇪🇺Raubach🇺🇦: Da war ich auch schon paar mal. Sehr schöne einfache Kapelle 💒. Der Gedanke dahinter ist sehr interessant.
――――――――――
Siggi: Diese schlichte "Huber Kapelle" mit ihrer spartanischen Einrichtung und dem bläulichen Deckenfenster ist schon etwas besonderes.
――――――――――
Armin: Sehenswerte Kapelle mit interessanter Architektur aus dem Projekt Sieben Kapellen der Siegfried und Elfriede Denzel Stiftung. Jede Kapelle wartet mit einer einzigartigen Architektur auf.
――――――――――
🇪🇺Raubach🇺🇦: Wegkapelle von Wilhelm Huber. Die Kapelle ist geprägt vom sakralen, abgeschlossenen Innenraum, der eine Gegenwelt zur Natur aufbaut.
――――――――――
HorstAP: Bei Emersacker taucht am Radweg die Kapelle Emersacker von Wilhelm Huber auf. Sie ist eine von sieben Radwegkapellen, die von der Siegfried und Elfriede Denzel Stiftung in der Umgebung von Dillingen bis 2020 errichtet wurde. Das Projekt der 7 Kapellen verbindet auf eindrucksvolle Weise die Vielfalt der Kunst, die Schönheit der Natur und die Tiefe des Glaubens. Quelle: https://7kapellen.de
――――――――――
🇪🇺Raubach🇺🇦: Sehr schöne Kapelle 😊 da war ich auch schon paar Mal 
――――――――――
☀️🏔Uli🥾🚴‍♀️: Wegkapelle von Architekt Wilhelm Huber errichtet im Auftrag der Siegfried und Elfriede Denzel Stiftung, direkt am Radweg von Welden nach Emersacker. Wunderbare Atmosphäre. Wenn man die Eingangstür schließt, ist alles in blaues Licht getaucht. 
――――――――――
Gerd H.: Eine von 7 Kapellen der "Denzel-Stiftung" .
Die letzte noch ausstehende Kapelle soll im Frühjahr 2021 unterhalb von Oberthürheim im Donauried entstehen. 
――――――――――
Didier: Ein spiritueller Ort im schönen Laugnatal. Bank für eine Pause ebenfalls vorhanden.
――――――――――
Ralf Kistner: Immer ein Besuch wert.
――――――――――
Carsten 🏍🚲: Im Dach Blaues Glas 

――――――――――
Claudia von Eppisburg: Ein inspirierender Ort um in Ruhe innezuhalten. Das blaue Licht im Inneren der Kapelle ist wunderbar ☺️
――――――――――
Hüttenberger ⛺️: Die einzigartige Architektur dieser 7 Kapellen der Denzelstiftung
――――――――――
JMulti: Kapelle Emersacker von Wilhelm Huber der Siegfried und Elfriede Denzel Stiftung:
Das längliche Tal der Laugna zwischen Welden und Emersacker sowie der hochgewachsene Fichtenbestand des Fuggerschen Waldes, ist der Schlüssel für den „besonderen Ort“. Die Kapelle antwortet als hölzener, 12 m hoher Turmbau, der wie ein großer Baumstumpf sich im Laufe der Jahre mit dem Wald verbinden wird.
――――――――――
breddy: Sehr modern und wiederum schlicht, aber dafür wieder etwas ganz besonderes, so zeigt sich mir diese Kapelle
――――――――――
Angelika Blitzer: eine unglaublich beeindruckende Akustik. Ich bin begeistert!
――――――――――
E. A.: Sehr schöne Kapelle am Waldrand
――――――――――
JMulti: Kapelle Emeracker von Wilhelm Huber
――――――――――
Karl-Heinz: Schließe mich den Eindrücken von Uli an. Es ist ein Ort, an dem man nach kurzer Zeit zur Ruhe kommt, im Tun und Denken.
――――――――――
Gudrun Schüpferling: Ich finde die Idee toll, die Tradition der Wegkapellen wieder aufleben zu lassen.
Ein Material, nämlich Holz, individuelle Umsetzung durch die Architekten, man spürt das Handwerk in der Verarbeitung. Man kann im geschaffenen Raum zur Ruhe, zu Gott finden. Jeder kann sich seine Atmosphäre selber schaffen, indem er anwesend ist, im Hier und Jetzt, sich auf den Ort einlässt. Die Pause mit Stille füllt und aufnimmt, was sich zeigt.
Den Wechsel von Innen und Außen spüren, erleben, wie vielfältig man eine Tür gestalten kann bzw. den Mechanismus des Öffnens und Schließens umsetzen kann. 
Ich öffne ein normales Schloss und drücke die Tür nach innen, mich erwartet Dunkelheit, ich schiebe die Tür beiseite und trete ein oder ich ziehe die Tür auf mich zu, merke, wie sie am Dreh- und Angelpunkt fest ist und doch den Blick ins Innere freigibt. Langsam fällt sie hinter mir zu.
――――――――――
Alnobbi: Von außen wenig spektakulär, aber die Lichtstimmung von innen ist großartig, besonders später am Tag, in goldenem Sonnenlicht...
――――――――――
Marcus: Unbedingt von innen mal anschauen</desc>
    <src>Komoot</src>
    <link href="https://www.komoot.de/highlight/731088">
      <text>View POI on Komoot</text>
    </link>
    <type>Highlight</type>
  </wpt>
  <wpt lat="48.475248" lon="10.65274">
    <ele>512.8</ele>
    <name>Art Installation at the Oak</name>
    <cmt>https://d2exd72xrrp1s7.cloudfront.net/www/000/1k8/1o/1ojdd37opmh4p15cj1fsvp75n44usajiqy-uhi68439669/0</cmt>
    <desc></desc>
    <src>Komoot</src>
    <link href="https://www.komoot.de/highlight/6377582">
      <text>View POI on Komoot</text>
    </link>
    <type>Highlight</type>
  </wpt>
  <wpt lat="48.484777" lon="10.646708">
    <ele>546.9</ele>
    <name>Royal Air Force Memorial Plaque (17 December 1942)</name>
    <cmt>https://d2exd72xrrp1s7.cloudfront.net/www/000/1k8/18/18xqe7aup7f7w7inmuvfokikf4usajhgf-uhi68439665/0</cmt>
    <desc></desc>
    <src>Komoot</src>
    <link href="https://www.komoot.de/highlight/6377581">
      <text>View POI on Komoot</text>
    </link>
    <type>Highlight</type>
  </wpt>
  <wpt lat="48.486581" lon="10.662287">
    <ele>498</ele>
    <name>Deer Enclosure</name>
    <cmt></cmt>
    <desc></desc>
    <src>Komoot</src>
    <link href="https://www.komoot.de/highlight/7020111">
      <text>View POI on Komoot</text>
    </link>
    <type>Highlight</type>
  </wpt>
  <trk>
    <name>Huber Kapelle – Wildgehege Runde von Emersacker</name>
    <desc>Distance: 4.841km, Estimated duration: 1.3h, Elevation up: 62.05482523066598m, Elevation down: 62.05482523066604m, Grade: easy</desc>
    <link href="https://www.komoot.de/tour/2790839758">
      <text>View tour on Komoot</text>
    </link>
    <trkseg>
      <trkpt lat="48.485709" lon="10.665869">
        <ele>446.1</ele>
        <time>2026-02-19T21:08:49.803000Z</time>
      </trkpt>
      <trkpt lat="48.485721" lon="10.665797">
        <ele>446.1</ele>
        <time>2026-02-19T21:08:54.867000Z</time>
      </trkpt>
      <trkpt lat="48.485713" lon="10.6654">
        <ele>445.8</ele>
        <time>2026-02-19T21:09:21.667000Z</time>
      </trkpt>
      <trkpt lat="48.485721" lon="10.665242">
        <ele>445.7</ele>
        <time>2026-02-19T21:09:32.413000Z</time>
      </trkpt>
      <trkpt lat="48.485769" lon="10.665069">
        <ele>445.6</ele>
        <time>2026-02-19T21:09:45.053000Z</time>
      </trkpt>
      <trkpt lat="48.485813" lon="10.664936">
        <ele>445.5</ele>
        <time>2026-02-19T21:09:55.188000Z</time>
      </trkpt>
      <trkpt lat="48.486148" lon="10.663841">
        <ele>444.7</ele>
        <time>2026-02-19T21:11:16.839000Z</time>
      </trkpt>
      <trkpt lat="48.485655" lon="10.663134">
        <ele>444.5</ele>
        <time>2026-02-19T21:12:25.329000Z</time>
      </trkpt>
      <trkpt lat="48.48427" lon="10.661263">
        <ele>445</ele>
        <time>2026-02-19T21:15:33.103000Z</time>
      </trkpt>
      <trkpt lat="48.483893" lon="10.660696">
        <ele>445.3</ele>
        <time>2026-02-19T21:16:27.416000Z</time>
      </trkpt>
      <trkpt lat="48.483859" lon="10.660604">
        <ele>445.3</ele>
        <time>2026-02-19T21:16:34.553000Z</time>
      </trkpt>
      <trkpt lat="48.483872" lon="10.660492">
        <ele>445.3</ele>
        <time>2026-02-19T21:16:42.212000Z</time>
      </trkpt>
      <trkpt lat="48.484086" lon="10.660255">
        <ele>445.5</ele>
        <time>2026-02-19T21:17:09.255000Z</time>
      </trkpt>
      <trkpt lat="48.483792" lon="10.659762">
        <ele>445.8</ele>
        <time>2026-02-19T21:17:54.373000Z</time>
      </trkpt>
      <trkpt lat="48.483396" lon="10.659285">
        <ele>446.3</ele>
        <time>2026-02-19T21:18:46.696000Z</time>
      </trkpt>
      <trkpt lat="48.481963" lon="10.657965">
        <ele>447.9</ele>
        <time>2026-02-19T21:21:40.492000Z</time>
      </trkpt>
      <trkpt lat="48.481517" lon="10.657454">
        <ele>448.5</ele>
        <time>2026-02-19T21:22:38.975000Z</time>
      </trkpt>
      <trkpt lat="48.481355" lon="10.657143">
        <ele>449</ele>
        <time>2026-02-19T21:23:06.705000Z</time>
      </trkpt>
      <trkpt lat="48.481209" lon="10.656571">
        <ele>449.6</ele>
        <time>2026-02-19T21:23:49.564000Z</time>
      </trkpt>
      <trkpt lat="48.480915" lon="10.655582">
        <ele>450.5</ele>
        <time>2026-02-19T21:25:04.916000Z</time>
      </trkpt>
      <trkpt lat="48.480823" lon="10.65551">
        <ele>450.7</ele>
        <time>2026-02-19T21:25:15.631000Z</time>
      </trkpt>
      <trkpt lat="48.480624" lon="10.655354">
        <ele>450.8</ele>
        <time>2026-02-19T21:25:38.729000Z</time>
      </trkpt>
      <trkpt lat="48.480604" lon="10.655338">
        <ele>450.8</ele>
        <time>2026-02-19T21:25:41.008000Z</time>
      </trkpt>
      <trkpt lat="48.480017" lon="10.654975">
        <ele>450.8</ele>
        <time>2026-02-19T21:26:44.545000Z</time>
      </trkpt>
      <trkpt lat="48.479143" lon="10.654554">
        <ele>450.4</ele>
        <time>2026-02-19T21:28:17.286000Z</time>
      </trkpt>
      <trkpt lat="48.478919" lon="10.654403">
        <ele>450.5</ele>
        <time>2026-02-19T21:28:42.164000Z</time>
      </trkpt>
      <trkpt lat="48.478771" lon="10.654242">
        <ele>450.5</ele>
        <time>2026-02-19T21:29:00.616000Z</time>
      </trkpt>
      <trkpt lat="48.478632" lon="10.654032">
        <ele>450.6</ele>
        <time>2026-02-19T21:29:20.651000Z</time>
      </trkpt>
      <trkpt lat="48.478386" lon="10.653526">
        <ele>450.9</ele>
        <time>2026-02-19T21:30:03.165000Z</time>
      </trkpt>
      <trkpt lat="48.478259" lon="10.653433">
        <ele>451</ele>
        <time>2026-02-19T21:30:17.679000Z</time>
      </trkpt>
      <trkpt lat="48.475256" lon="10.652671">
        <ele>453.1</ele>
        <time>2026-02-19T21:35:30.165000Z</time>
      </trkpt>
      <trkpt lat="48.475216" lon="10.65266">
        <ele>453.3</ele>
        <time>2026-02-19T21:35:34.829000Z</time>
      </trkpt>
      <trkpt lat="48.475333" lon="10.652283">
        <ele>454.6</ele>
        <time>2026-02-19T21:36:07.187000Z</time>
      </trkpt>
      <trkpt lat="48.475817" lon="10.651698">
        <ele>458.8</ele>
        <time>2026-02-19T21:37:23.559000Z</time>
      </trkpt>
      <trkpt lat="48.478142" lon="10.650591">
        <ele>480.1</ele>
        <time>2026-02-19T21:42:39.471000Z</time>
      </trkpt>
      <trkpt lat="48.478365" lon="10.650392">
        <ele>482.1</ele>
        <time>2026-02-19T21:43:12.279000Z</time>
      </trkpt>
      <trkpt lat="48.479256" lon="10.648864">
        <ele>489.5</ele>
        <time>2026-02-19T21:45:53.096000Z</time>
      </trkpt>
      <trkpt lat="48.479299" lon="10.648753">
        <ele>489.8</ele>
        <time>2026-02-19T21:46:02.410000Z</time>
      </trkpt>
      <trkpt lat="48.480168" lon="10.6466">
        <ele>489.1</ele>
        <time>2026-02-19T21:48:51.044000Z</time>
      </trkpt>
      <trkpt lat="48.48108" lon="10.644868">
        <ele>487.7</ele>
        <time>2026-02-19T21:51:20.656000Z</time>
      </trkpt>
      <trkpt lat="48.48176" lon="10.643691">
        <ele>489.8</ele>
        <time>2026-02-19T21:53:11.661000Z</time>
      </trkpt>
      <trkpt lat="48.482073" lon="10.64322">
        <ele>491.7</ele>
        <time>2026-02-19T21:54:02.572000Z</time>
      </trkpt>
      <trkpt lat="48.482385" lon="10.642952">
        <ele>493.6</ele>
        <time>2026-02-19T21:54:44.925000Z</time>
      </trkpt>
      <trkpt lat="48.482843" lon="10.642818">
        <ele>496.1</ele>
        <time>2026-02-19T21:55:40.459000Z</time>
      </trkpt>
      <trkpt lat="48.483543" lon="10.642744">
        <ele>499.8</ele>
        <time>2026-02-19T21:57:03.355000Z</time>
      </trkpt>
      <trkpt lat="48.48417" lon="10.642507">
        <ele>502.5</ele>
        <time>2026-02-19T21:58:17.511000Z</time>
      </trkpt>
      <trkpt lat="48.484271" lon="10.642692">
        <ele>502.9</ele>
        <time>2026-02-19T21:58:34.957000Z</time>
      </trkpt>
      <trkpt lat="48.484248" lon="10.643195">
        <ele>503.4</ele>
        <time>2026-02-19T21:59:10.231000Z</time>
      </trkpt>
      <trkpt lat="48.484264" lon="10.644053">
        <ele>503.1</ele>
        <time>2026-02-19T22:00:07.784000Z</time>
      </trkpt>
      <trkpt lat="48.484428" lon="10.644652">
        <ele>502.3</ele>
        <time>2026-02-19T22:00:52.548000Z</time>
      </trkpt>
      <trkpt lat="48.484591" lon="10.645712">
        <ele>500.1</ele>
        <time>2026-02-19T22:02:09.087000Z</time>
      </trkpt>
      <trkpt lat="48.484765" lon="10.646713">
        <ele>497.8</ele>
        <time>2026-02-19T22:03:22.477000Z</time>
      </trkpt>
      <trkpt lat="48.485103" lon="10.648662">
        <ele>493.8</ele>
        <time>2026-02-19T22:05:44.414000Z</time>
      </trkpt>
      <trkpt lat="48.485412" lon="10.649954">
        <ele>490</ele>
        <time>2026-02-19T22:07:23.223000Z</time>
      </trkpt>
      <trkpt lat="48.485629" lon="10.651798">
        <ele>484.4</ele>
        <time>2026-02-19T22:09:38.932000Z</time>
      </trkpt>
      <trkpt lat="48.48575" lon="10.652632">
        <ele>481.8</ele>
        <time>2026-02-19T22:10:40.768000Z</time>
      </trkpt>
      <trkpt lat="48.486124" lon="10.654682">
        <ele>475.1</ele>
        <time>2026-02-19T22:13:15.605000Z</time>
      </trkpt>
      <trkpt lat="48.486101" lon="10.654848">
        <ele>474.5</ele>
        <time>2026-02-19T22:13:28.050000Z</time>
      </trkpt>
      <trkpt lat="48.486093" lon="10.655364">
        <ele>472.6</ele>
        <time>2026-02-19T22:14:06.126000Z</time>
      </trkpt>
      <trkpt lat="48.48612" lon="10.655853">
        <ele>470.7</ele>
        <time>2026-02-19T22:14:42.517000Z</time>
      </trkpt>
      <trkpt lat="48.486296" lon="10.656462">
        <ele>468</ele>
        <time>2026-02-19T22:15:32.040000Z</time>
      </trkpt>
      <trkpt lat="48.486365" lon="10.656808">
        <ele>466.4</ele>
        <time>2026-02-19T22:15:59.165000Z</time>
      </trkpt>
      <trkpt lat="48.486383" lon="10.657092">
        <ele>465.1</ele>
        <time>2026-02-19T22:16:20.648000Z</time>
      </trkpt>
      <trkpt lat="48.486356" lon="10.659838">
        <ele>454</ele>
        <time>2026-02-19T22:19:45.274000Z</time>
      </trkpt>
      <trkpt lat="48.486404" lon="10.66023">
        <ele>452.7</ele>
        <time>2026-02-19T22:20:14.377000Z</time>
      </trkpt>
      <trkpt lat="48.486569" lon="10.661053">
        <ele>450.2</ele>
        <time>2026-02-19T22:21:16.523000Z</time>
      </trkpt>
      <trkpt lat="48.486589" lon="10.661244">
        <ele>449.7</ele>
        <time>2026-02-19T22:21:30.341000Z</time>
      </trkpt>
      <trkpt lat="48.48659" lon="10.661719">
        <ele>448.7</ele>
        <time>2026-02-19T22:22:03.945000Z</time>
      </trkpt>
      <trkpt lat="48.486546" lon="10.662281">
        <ele>447.6</ele>
        <time>2026-02-19T22:22:43.764000Z</time>
      </trkpt>
      <trkpt lat="48.486526" lon="10.662531">
        <ele>447.1</ele>
        <time>2026-02-19T22:23:01.411000Z</time>
      </trkpt>
      <trkpt lat="48.486302" lon="10.663455">
        <ele>445.8</ele>
        <time>2026-02-19T22:24:09.443000Z</time>
      </trkpt>
      <trkpt lat="48.486211" lon="10.663692">
        <ele>445.6</ele>
        <time>2026-02-19T22:24:27.966000Z</time>
      </trkpt>
      <trkpt lat="48.486148" lon="10.663841">
        <ele>445.6</ele>
        <time>2026-02-19T22:24:39.817000Z</time>
      </trkpt>
      <trkpt lat="48.485813" lon="10.664936">
        <ele>445.7</ele>
        <time>2026-02-19T22:26:00.241000Z</time>
      </trkpt>
      <trkpt lat="48.485769" lon="10.665069">
        <ele>445.7</ele>
        <time>2026-02-19T22:26:10.262000Z</time>
      </trkpt>
      <trkpt lat="48.485721" lon="10.665242">
        <ele>445.8</ele>
        <time>2026-02-19T22:26:22.876000Z</time>
      </trkpt>
      <trkpt lat="48.485713" lon="10.6654">
        <ele>445.8</ele>
        <time>2026-02-19T22:26:33.677000Z</time>
      </trkpt>
      <trkpt lat="48.485721" lon="10.665797">
        <ele>446.1</ele>
        <time>2026-02-19T22:27:00.827000Z</time>
      </trkpt>
      <trkpt lat="48.485709" lon="10.665869">
        <ele>446.1</ele>
        <time>2026-02-19T22:27:05.972000Z</time>
      </trkpt>
    </trkseg>
  </trk>
</gpx>