<?xml version="1.0" encoding="UTF-8"?>
<gpx xmlns="http://www.topografix.com/GPX/1/1" xmlns:xsi="http://www.w3.org/2001/XMLSchema-instance" xsi:schemaLocation="http://www.topografix.com/GPX/1/1 http://www.topografix.com/GPX/1/1/gpx.xsd" version="1.1" creator="Robert Kampf">
  <metadata>
    <name>Kneipp-Wassertretbecken – Wertachbrücke bei Guggenberg Runde von Großaitingen</name>
    <desc>Distance: 8.22km, Estimated duration: 2.08h, Elevation up: 15.742085989403222m, Elevation down: 15.742085989403108m, Grade: moderate</desc>
    <author>
      <name>Robert Kampf</name>
      <link href="https://www.komoot.de/user/4125295338453">
        <text>View Robert Kampf's Profile on Komoot</text>
      </link>
    </author>
    <link href="https://www.komoot.de/tour/2840719129">
      <text>View tour on Komoot</text>
    </link>
  </metadata>
  <wpt lat="48.221783" lon="10.777256">
    <name>Großaitingen Süd</name>
    <cmt></cmt>
    <desc></desc>
    <src>Komoot</src>
    <type>POI</type>
  </wpt>
  <wpt lat="48.221669" lon="10.775458">
    <ele>578.5</ele>
    <name>Kneipp Water Treading Pool</name>
    <cmt>https://d2exd72xrrp1s7.cloudfront.net/www/000/1k9/1a/1amp1f9zzuzwy1alk6dykmxfho5awayy9v-uhi83830997/0</cmt>
    <desc></desc>
    <src>Komoot</src>
    <link href="https://www.komoot.de/highlight/7301118">
      <text>View POI on Komoot</text>
    </link>
    <type>Highlight</type>
  </wpt>
  <wpt lat="48.210045" lon="10.767122">
    <ele>578</ele>
    <name>Waterfall in the Singold</name>
    <cmt>https://d2exd72xrrp1s7.cloudfront.net/www/000/1k7/19/19b7iq4vuw6i4bx13ddfed2bn4r96gli0-uhi66703695/0</cmt>
    <desc>Didier: Ein kleiner, toller Wasserfall in der Singold</desc>
    <src>Komoot</src>
    <link href="https://www.komoot.de/highlight/6247210">
      <text>View POI on Komoot</text>
    </link>
    <type>Highlight</type>
  </wpt>
  <wpt lat="48.214337" lon="10.742554">
    <ele>580.6</ele>
    <name>Wertach Bridge near Guggenberg</name>
    <cmt>https://d2exd72xrrp1s7.cloudfront.net/www/000/1k6/1g/1g5pkat02ne171xbx16hsedphw4dmufgtx-uhi56356197/0</cmt>
    <desc>Joerg: Alte Brücke mit dicken Holzbalken auf der Verbindungsstrecke von Mittelstetten nach Guggenberg.</desc>
    <src>Komoot</src>
    <link href="https://www.komoot.de/highlight/2874446">
      <text>View POI on Komoot</text>
    </link>
    <type>Highlight</type>
  </wpt>
  <wpt lat="48.214589" lon="10.742353">
    <ele>593.3</ele>
    <name>View of the Wertach River from Wertach Bridge</name>
    <cmt>https://d2exd72xrrp1s7.cloudfront.net/www/000/1k4/1x/1x31754qdwm4k1umt59jne4lcg3bhef67z-uhi11111821/0</cmt>
    <desc>Heiko: Schöner Blick auf die fließende Wertach.
――――――――――
Elmar: Schöner Ausblick auf die Wertach. In der nähe (rechts Flussabwärts) befindet sich eine Sitzbank die zur Rast einlädt.
――――――――――
Ronny F 3333 🚵‍♀️🧗‍♂️: Ein kurzer Stop für schöne Fotos
――――――――――
Carsten 🏍🚲: Wechselmöglichkeit wegen dem abgerutschten Uferbereich!</desc>
    <src>Komoot</src>
    <link href="https://www.komoot.de/highlight/4443174">
      <text>View POI on Komoot</text>
    </link>
    <type>Highlight</type>
  </wpt>
  <wpt lat="48.228022" lon="10.761761">
    <ele>580</ele>
    <name>Statue and bench by the Wertach River bridge</name>
    <cmt>https://d2exd72xrrp1s7.cloudfront.net/www/000/1k5/s9/s9dy3oltk1lxpep52h7f2wxn3tr9b4rj-uhi36518709/0</cmt>
    <desc>Heiko: Schöner Blick auf den Heiligen, der die Brücke beschützt.
――――――――――
HP: Zu jeder Jahreszeit eine abwechslungsreiche Wanderung gemütlich über die Felder, vorbei an kleinen Teichen und entlang der schönen Wertach.</desc>
    <src>Komoot</src>
    <link href="https://www.komoot.de/highlight/2724720">
      <text>View POI on Komoot</text>
    </link>
    <type>Highlight</type>
  </wpt>
  <trk>
    <name>Kneipp-Wassertretbecken – Wertachbrücke bei Guggenberg Runde von Großaitingen</name>
    <desc>Distance: 8.22km, Estimated duration: 2.08h, Elevation up: 15.742085989403222m, Elevation down: 15.742085989403108m, Grade: moderate</desc>
    <link href="https://www.komoot.de/tour/2840719129">
      <text>View tour on Komoot</text>
    </link>
    <trkseg>
      <trkpt lat="48.221743" lon="10.777392">
        <ele>533.1</ele>
        <time>2026-03-22T12:57:51.234000Z</time>
      </trkpt>
      <trkpt lat="48.221658" lon="10.777336">
        <ele>533.1</ele>
        <time>2026-03-22T12:58:00.508000Z</time>
      </trkpt>
      <trkpt lat="48.221479" lon="10.777256">
        <ele>533</ele>
        <time>2026-03-22T12:58:19.202000Z</time>
      </trkpt>
      <trkpt lat="48.221412" lon="10.777226">
        <ele>533</ele>
        <time>2026-03-22T12:58:26.267000Z</time>
      </trkpt>
      <trkpt lat="48.221338" lon="10.777187">
        <ele>533</ele>
        <time>2026-03-22T12:58:34.113000Z</time>
      </trkpt>
      <trkpt lat="48.221066" lon="10.777056">
        <ele>533</ele>
        <time>2026-03-22T12:59:02.842000Z</time>
      </trkpt>
      <trkpt lat="48.221027" lon="10.777037">
        <ele>532.9</ele>
        <time>2026-03-22T12:59:06.971000Z</time>
      </trkpt>
      <trkpt lat="48.220886" lon="10.776969">
        <ele>532.8</ele>
        <time>2026-03-22T12:59:22.023000Z</time>
      </trkpt>
      <trkpt lat="48.221016" lon="10.776499">
        <ele>532.5</ele>
        <time>2026-03-22T12:59:56.616000Z</time>
      </trkpt>
      <trkpt lat="48.221169" lon="10.775882">
        <ele>532</ele>
        <time>2026-03-22T13:00:41.527000Z</time>
      </trkpt>
      <trkpt lat="48.221221" lon="10.775633">
        <ele>531.8</ele>
        <time>2026-03-22T13:00:59.431000Z</time>
      </trkpt>
      <trkpt lat="48.221263" lon="10.775471">
        <ele>531.7</ele>
        <time>2026-03-22T13:01:11.304000Z</time>
      </trkpt>
      <trkpt lat="48.221359" lon="10.775349">
        <ele>531.5</ele>
        <time>2026-03-22T13:01:24.137000Z</time>
      </trkpt>
      <trkpt lat="48.221672" lon="10.775437">
        <ele>531.3</ele>
        <time>2026-03-22T13:01:56.550000Z</time>
      </trkpt>
      <trkpt lat="48.221359" lon="10.775349">
        <ele>531.1</ele>
        <time>2026-03-22T13:02:28.757000Z</time>
      </trkpt>
      <trkpt lat="48.221217" lon="10.775091">
        <ele>531.1</ele>
        <time>2026-03-22T13:02:51.225000Z</time>
      </trkpt>
      <trkpt lat="48.221099" lon="10.775291">
        <ele>531.1</ele>
        <time>2026-03-22T13:03:09.068000Z</time>
      </trkpt>
      <trkpt lat="48.22096" lon="10.775335">
        <ele>531.1</ele>
        <time>2026-03-22T13:03:23.478000Z</time>
      </trkpt>
      <trkpt lat="48.220866" lon="10.775311">
        <ele>531.2</ele>
        <time>2026-03-22T13:03:33.197000Z</time>
      </trkpt>
      <trkpt lat="48.220415" lon="10.774931">
        <ele>531.4</ele>
        <time>2026-03-22T13:04:25.913000Z</time>
      </trkpt>
      <trkpt lat="48.220085" lon="10.774811">
        <ele>531.6</ele>
        <time>2026-03-22T13:05:00.525000Z</time>
      </trkpt>
      <trkpt lat="48.219311" lon="10.774796">
        <ele>531.8</ele>
        <time>2026-03-22T13:06:18.809000Z</time>
      </trkpt>
      <trkpt lat="48.218963" lon="10.774727">
        <ele>531.9</ele>
        <time>2026-03-22T13:06:54.205000Z</time>
      </trkpt>
      <trkpt lat="48.218767" lon="10.774628">
        <ele>532</ele>
        <time>2026-03-22T13:07:15.120000Z</time>
      </trkpt>
      <trkpt lat="48.217885" lon="10.773987">
        <ele>532.3</ele>
        <time>2026-03-22T13:08:54.358000Z</time>
      </trkpt>
      <trkpt lat="48.216963" lon="10.77353">
        <ele>532.7</ele>
        <time>2026-03-22T13:10:32.787000Z</time>
      </trkpt>
      <trkpt lat="48.216709" lon="10.773344">
        <ele>532.8</ele>
        <time>2026-03-22T13:11:01.480000Z</time>
      </trkpt>
      <trkpt lat="48.216384" lon="10.772925">
        <ele>532.9</ele>
        <time>2026-03-22T13:11:44.804000Z</time>
      </trkpt>
      <trkpt lat="48.215443" lon="10.771266">
        <ele>533.4</ele>
        <time>2026-03-22T13:14:11.697000Z</time>
      </trkpt>
      <trkpt lat="48.214551" lon="10.769216">
        <ele>534.1</ele>
        <time>2026-03-22T13:16:57.708000Z</time>
      </trkpt>
      <trkpt lat="48.21445" lon="10.769037">
        <ele>534.2</ele>
        <time>2026-03-22T13:17:13.611000Z</time>
      </trkpt>
      <trkpt lat="48.214305" lon="10.768906">
        <ele>534.3</ele>
        <time>2026-03-22T13:17:30.812000Z</time>
      </trkpt>
      <trkpt lat="48.213312" lon="10.768484">
        <ele>534.7</ele>
        <time>2026-03-22T13:19:15.669000Z</time>
      </trkpt>
      <trkpt lat="48.21315" lon="10.768506">
        <ele>534.8</ele>
        <time>2026-03-22T13:19:32.227000Z</time>
      </trkpt>
      <trkpt lat="48.212943" lon="10.768606">
        <ele>534.8</ele>
        <time>2026-03-22T13:19:54.227000Z</time>
      </trkpt>
      <trkpt lat="48.212248" lon="10.768269">
        <ele>535</ele>
        <time>2026-03-22T13:21:07.820000Z</time>
      </trkpt>
      <trkpt lat="48.211627" lon="10.768125">
        <ele>535.1</ele>
        <time>2026-03-22T13:22:11.008000Z</time>
      </trkpt>
      <trkpt lat="48.211124" lon="10.767948">
        <ele>535.2</ele>
        <time>2026-03-22T13:23:02.991000Z</time>
      </trkpt>
      <trkpt lat="48.210633" lon="10.767638">
        <ele>535.3</ele>
        <time>2026-03-22T13:23:56.879000Z</time>
      </trkpt>
      <trkpt lat="48.210028" lon="10.767154">
        <ele>535.6</ele>
        <time>2026-03-22T13:25:06.650000Z</time>
      </trkpt>
      <trkpt lat="48.209806" lon="10.766977">
        <ele>535.8</ele>
        <time>2026-03-22T13:25:32.355000Z</time>
      </trkpt>
      <trkpt lat="48.209407" lon="10.766523">
        <ele>536.1</ele>
        <time>2026-03-22T13:26:23.591000Z</time>
      </trkpt>
      <trkpt lat="48.208575" lon="10.765705">
        <ele>536.8</ele>
        <time>2026-03-22T13:28:05.621000Z</time>
      </trkpt>
      <trkpt lat="48.2084" lon="10.765594">
        <ele>537</ele>
        <time>2026-03-22T13:28:25.157000Z</time>
      </trkpt>
      <trkpt lat="48.207865" lon="10.765482">
        <ele>537.3</ele>
        <time>2026-03-22T13:29:20.294000Z</time>
      </trkpt>
      <trkpt lat="48.207588" lon="10.765274">
        <ele>537.3</ele>
        <time>2026-03-22T13:29:51.552000Z</time>
      </trkpt>
      <trkpt lat="48.207326" lon="10.76495">
        <ele>537.3</ele>
        <time>2026-03-22T13:30:25.586000Z</time>
      </trkpt>
      <trkpt lat="48.207393" lon="10.764854">
        <ele>537.3</ele>
        <time>2026-03-22T13:30:34.940000Z</time>
      </trkpt>
      <trkpt lat="48.208052" lon="10.763794">
        <ele>537</ele>
        <time>2026-03-22T13:32:12.268000Z</time>
      </trkpt>
      <trkpt lat="48.208137" lon="10.763633">
        <ele>536.9</ele>
        <time>2026-03-22T13:32:26.129000Z</time>
      </trkpt>
      <trkpt lat="48.208225" lon="10.763385">
        <ele>536.9</ele>
        <time>2026-03-22T13:32:44.977000Z</time>
      </trkpt>
      <trkpt lat="48.208264" lon="10.763224">
        <ele>536.8</ele>
        <time>2026-03-22T13:32:56.443000Z</time>
      </trkpt>
      <trkpt lat="48.208287" lon="10.762976">
        <ele>536.8</ele>
        <time>2026-03-22T13:33:13.231000Z</time>
      </trkpt>
      <trkpt lat="48.208218" lon="10.761489">
        <ele>536.7</ele>
        <time>2026-03-22T13:34:52.855000Z</time>
      </trkpt>
      <trkpt lat="48.208208" lon="10.761047">
        <ele>536.7</ele>
        <time>2026-03-22T13:35:22.450000Z</time>
      </trkpt>
      <trkpt lat="48.208237" lon="10.760791">
        <ele>536.6</ele>
        <time>2026-03-22T13:35:39.904000Z</time>
      </trkpt>
      <trkpt lat="48.208293" lon="10.760583">
        <ele>536.6</ele>
        <time>2026-03-22T13:35:54.940000Z</time>
      </trkpt>
      <trkpt lat="48.209529" lon="10.758031">
        <ele>535.5</ele>
        <time>2026-03-22T13:39:27.518000Z</time>
      </trkpt>
      <trkpt lat="48.210533" lon="10.755944">
        <ele>534.8</ele>
        <time>2026-03-22T13:42:20.770000Z</time>
      </trkpt>
      <trkpt lat="48.210792" lon="10.755381">
        <ele>534.6</ele>
        <time>2026-03-22T13:43:06.728000Z</time>
      </trkpt>
      <trkpt lat="48.211123" lon="10.75475">
        <ele>534.4</ele>
        <time>2026-03-22T13:44:00.612000Z</time>
      </trkpt>
      <trkpt lat="48.211257" lon="10.754524">
        <ele>534.4</ele>
        <time>2026-03-22T13:44:20.922000Z</time>
      </trkpt>
      <trkpt lat="48.211479" lon="10.754239">
        <ele>534.3</ele>
        <time>2026-03-22T13:44:50.342000Z</time>
      </trkpt>
      <trkpt lat="48.211818" lon="10.753786">
        <ele>534.2</ele>
        <time>2026-03-22T13:45:36.060000Z</time>
      </trkpt>
      <trkpt lat="48.212204" lon="10.752949">
        <ele>533.9</ele>
        <time>2026-03-22T13:46:44.412000Z</time>
      </trkpt>
      <trkpt lat="48.212563" lon="10.752046">
        <ele>533.7</ele>
        <time>2026-03-22T13:47:54.956000Z</time>
      </trkpt>
      <trkpt lat="48.213069" lon="10.749079">
        <ele>533.5</ele>
        <time>2026-03-22T13:51:19.737000Z</time>
      </trkpt>
      <trkpt lat="48.213186" lon="10.748386">
        <ele>533.4</ele>
        <time>2026-03-22T13:52:07.522000Z</time>
      </trkpt>
      <trkpt lat="48.213583" lon="10.745954">
        <ele>532.8</ele>
        <time>2026-03-22T13:54:55.825000Z</time>
      </trkpt>
      <trkpt lat="48.213927" lon="10.744082">
        <ele>531</ele>
        <time>2026-03-22T13:57:08.957000Z</time>
      </trkpt>
      <trkpt lat="48.213943" lon="10.743996">
        <ele>530.9</ele>
        <time>2026-03-22T13:57:15.182000Z</time>
      </trkpt>
      <trkpt lat="48.214164" lon="10.742827">
        <ele>529.3</ele>
        <time>2026-03-22T13:58:39.508000Z</time>
      </trkpt>
      <trkpt lat="48.214217" lon="10.742704">
        <ele>529.1</ele>
        <time>2026-03-22T13:58:49.733000Z</time>
      </trkpt>
      <trkpt lat="48.214274" lon="10.74265">
        <ele>529</ele>
        <time>2026-03-22T13:58:56.717000Z</time>
      </trkpt>
      <trkpt lat="48.214348" lon="10.742581">
        <ele>528.8</ele>
        <time>2026-03-22T13:59:05.781000Z</time>
      </trkpt>
      <trkpt lat="48.214382" lon="10.742549">
        <ele>528.8</ele>
        <time>2026-03-22T13:59:09.951000Z</time>
      </trkpt>
      <trkpt lat="48.2146" lon="10.742386">
        <ele>528.3</ele>
        <time>2026-03-22T13:59:35.203000Z</time>
      </trkpt>
      <trkpt lat="48.214743" lon="10.74228">
        <ele>528.1</ele>
        <time>2026-03-22T13:59:51.646000Z</time>
      </trkpt>
      <trkpt lat="48.214848" lon="10.742178">
        <ele>527.9</ele>
        <time>2026-03-22T14:00:04.544000Z</time>
      </trkpt>
      <trkpt lat="48.21489" lon="10.74208">
        <ele>527.8</ele>
        <time>2026-03-22T14:00:12.517000Z</time>
      </trkpt>
      <trkpt lat="48.214915" lon="10.742191">
        <ele>527.7</ele>
        <time>2026-03-22T14:00:20.542000Z</time>
      </trkpt>
      <trkpt lat="48.214922" lon="10.74243">
        <ele>527.5</ele>
        <time>2026-03-22T14:00:36.844000Z</time>
      </trkpt>
      <trkpt lat="48.214987" lon="10.742679">
        <ele>527.4</ele>
        <time>2026-03-22T14:00:54.986000Z</time>
      </trkpt>
      <trkpt lat="48.215338" lon="10.743525">
        <ele>526.9</ele>
        <time>2026-03-22T14:02:02.518000Z</time>
      </trkpt>
      <trkpt lat="48.215663" lon="10.744163">
        <ele>526.5</ele>
        <time>2026-03-22T14:02:56.974000Z</time>
      </trkpt>
      <trkpt lat="48.216228" lon="10.745076">
        <ele>526</ele>
        <time>2026-03-22T14:04:21.148000Z</time>
      </trkpt>
      <trkpt lat="48.218967" lon="10.748585">
        <ele>525.8</ele>
        <time>2026-03-22T14:10:21.789000Z</time>
      </trkpt>
      <trkpt lat="48.219444" lon="10.749241">
        <ele>526</ele>
        <time>2026-03-22T14:11:27.267000Z</time>
      </trkpt>
      <trkpt lat="48.220008" lon="10.749939">
        <ele>526.6</ele>
        <time>2026-03-22T14:12:42.513000Z</time>
      </trkpt>
      <trkpt lat="48.220369" lon="10.750247">
        <ele>527.1</ele>
        <time>2026-03-22T14:13:25.859000Z</time>
      </trkpt>
      <trkpt lat="48.221021" lon="10.751053">
        <ele>528.2</ele>
        <time>2026-03-22T14:14:54.290000Z</time>
      </trkpt>
      <trkpt lat="48.221389" lon="10.751513">
        <ele>528.6</ele>
        <time>2026-03-22T14:15:43.805000Z</time>
      </trkpt>
      <trkpt lat="48.221957" lon="10.752315">
        <ele>528.8</ele>
        <time>2026-03-22T14:17:02.518000Z</time>
      </trkpt>
      <trkpt lat="48.223727" lon="10.754566">
        <ele>528.1</ele>
        <time>2026-03-22T14:20:56.253000Z</time>
      </trkpt>
      <trkpt lat="48.224142" lon="10.755113">
        <ele>527.8</ele>
        <time>2026-03-22T14:21:51.939000Z</time>
      </trkpt>
      <trkpt lat="48.224294" lon="10.755448">
        <ele>527.8</ele>
        <time>2026-03-22T14:22:19.181000Z</time>
      </trkpt>
      <trkpt lat="48.224417" lon="10.755634">
        <ele>527.7</ele>
        <time>2026-03-22T14:22:36.788000Z</time>
      </trkpt>
      <trkpt lat="48.225469" lon="10.757006">
        <ele>527.6</ele>
        <time>2026-03-22T14:24:56.502000Z</time>
      </trkpt>
      <trkpt lat="48.225742" lon="10.757151">
        <ele>527.6</ele>
        <time>2026-03-22T14:25:25.481000Z</time>
      </trkpt>
      <trkpt lat="48.228609" lon="10.760794">
        <ele>527.4</ele>
        <time>2026-03-22T14:31:41.733000Z</time>
      </trkpt>
      <trkpt lat="48.228666" lon="10.760843">
        <ele>527.5</ele>
        <time>2026-03-22T14:31:48.391000Z</time>
      </trkpt>
      <trkpt lat="48.228619" lon="10.760891">
        <ele>527.5</ele>
        <time>2026-03-22T14:31:54.049000Z</time>
      </trkpt>
      <trkpt lat="48.228106" lon="10.761602">
        <ele>527.8</ele>
        <time>2026-03-22T14:33:04.992000Z</time>
      </trkpt>
      <trkpt lat="48.228076" lon="10.761651">
        <ele>527.8</ele>
        <time>2026-03-22T14:33:09.441000Z</time>
      </trkpt>
      <trkpt lat="48.228012" lon="10.761747">
        <ele>527.8</ele>
        <time>2026-03-22T14:33:18.564000Z</time>
      </trkpt>
      <trkpt lat="48.227517" lon="10.762502">
        <ele>527.8</ele>
        <time>2026-03-22T14:34:29.301000Z</time>
      </trkpt>
      <trkpt lat="48.227455" lon="10.762494">
        <ele>527.8</ele>
        <time>2026-03-22T14:34:35.551000Z</time>
      </trkpt>
      <trkpt lat="48.227276" lon="10.762771">
        <ele>527.7</ele>
        <time>2026-03-22T14:35:01.524000Z</time>
      </trkpt>
      <trkpt lat="48.226525" lon="10.761931">
        <ele>527.2</ele>
        <time>2026-03-22T14:36:36.350000Z</time>
      </trkpt>
      <trkpt lat="48.226412" lon="10.761983">
        <ele>527.1</ele>
        <time>2026-03-22T14:36:48.260000Z</time>
      </trkpt>
      <trkpt lat="48.226298" lon="10.762446">
        <ele>527</ele>
        <time>2026-03-22T14:37:21.462000Z</time>
      </trkpt>
      <trkpt lat="48.225906" lon="10.763785">
        <ele>527</ele>
        <time>2026-03-22T14:38:59.197000Z</time>
      </trkpt>
      <trkpt lat="48.225834" lon="10.764082">
        <ele>527.1</ele>
        <time>2026-03-22T14:39:20.604000Z</time>
      </trkpt>
      <trkpt lat="48.225693" lon="10.764895">
        <ele>527.4</ele>
        <time>2026-03-22T14:40:17.663000Z</time>
      </trkpt>
      <trkpt lat="48.225691" lon="10.765234">
        <ele>527.6</ele>
        <time>2026-03-22T14:40:40.836000Z</time>
      </trkpt>
      <trkpt lat="48.22424" lon="10.764561">
        <ele>528.6</ele>
        <time>2026-03-22T14:43:16.463000Z</time>
      </trkpt>
      <trkpt lat="48.222759" lon="10.763953">
        <ele>529.1</ele>
        <time>2026-03-22T14:45:51.977000Z</time>
      </trkpt>
      <trkpt lat="48.222146" lon="10.767876">
        <ele>529.5</ele>
        <time>2026-03-22T14:50:22.046000Z</time>
      </trkpt>
      <trkpt lat="48.221694" lon="10.770824">
        <ele>529.8</ele>
        <time>2026-03-22T14:53:44.861000Z</time>
      </trkpt>
      <trkpt lat="48.221458" lon="10.772555">
        <ele>529.9</ele>
        <time>2026-03-22T14:55:42.865000Z</time>
      </trkpt>
      <trkpt lat="48.221163" lon="10.774717">
        <ele>530.7</ele>
        <time>2026-03-22T14:58:12.986000Z</time>
      </trkpt>
      <trkpt lat="48.221217" lon="10.775091">
        <ele>531</ele>
        <time>2026-03-22T14:58:39.590000Z</time>
      </trkpt>
      <trkpt lat="48.221359" lon="10.775349">
        <ele>531.3</ele>
        <time>2026-03-22T14:59:03.065000Z</time>
      </trkpt>
      <trkpt lat="48.221263" lon="10.775471">
        <ele>531.5</ele>
        <time>2026-03-22T14:59:16.336000Z</time>
      </trkpt>
      <trkpt lat="48.221221" lon="10.775633">
        <ele>531.7</ele>
        <time>2026-03-22T14:59:28.546000Z</time>
      </trkpt>
      <trkpt lat="48.221169" lon="10.775882">
        <ele>532</ele>
        <time>2026-03-22T14:59:46.876000Z</time>
      </trkpt>
      <trkpt lat="48.221016" lon="10.776499">
        <ele>532.5</ele>
        <time>2026-03-22T15:00:32.686000Z</time>
      </trkpt>
      <trkpt lat="48.220886" lon="10.776969">
        <ele>532.8</ele>
        <time>2026-03-22T15:01:07.791000Z</time>
      </trkpt>
      <trkpt lat="48.221027" lon="10.777037">
        <ele>532.9</ele>
        <time>2026-03-22T15:01:23.011000Z</time>
      </trkpt>
      <trkpt lat="48.221066" lon="10.777056">
        <ele>533</ele>
        <time>2026-03-22T15:01:27.167000Z</time>
      </trkpt>
      <trkpt lat="48.221338" lon="10.777187">
        <ele>533</ele>
        <time>2026-03-22T15:01:56.004000Z</time>
      </trkpt>
      <trkpt lat="48.221412" lon="10.777226">
        <ele>533</ele>
        <time>2026-03-22T15:02:03.856000Z</time>
      </trkpt>
      <trkpt lat="48.221479" lon="10.777256">
        <ele>533</ele>
        <time>2026-03-22T15:02:10.935000Z</time>
      </trkpt>
      <trkpt lat="48.221658" lon="10.777336">
        <ele>533.1</ele>
        <time>2026-03-22T15:02:29.639000Z</time>
      </trkpt>
      <trkpt lat="48.221743" lon="10.777392">
        <ele>533.1</ele>
        <time>2026-03-22T15:02:38.908000Z</time>
      </trkpt>
    </trkseg>
  </trk>
</gpx>