<?xml version="1.0" encoding="UTF-8"?>
<gpx xmlns="http://www.topografix.com/GPX/1/1" xmlns:xsi="http://www.w3.org/2001/XMLSchema-instance" xsi:schemaLocation="http://www.topografix.com/GPX/1/1 http://www.topografix.com/GPX/1/1/gpx.xsd" version="1.1" creator="Robert Kampf">
  <metadata>
    <name>Lange Fischtreppe – Blick auf den Irsinger Stausee Runde von Irsingen</name>
    <desc>Distance: 11.122km, Estimated duration: 2.82h, Elevation up: 26.308372165965466m, Elevation down: 26.754169290983782m, Grade: moderate</desc>
    <author>
      <name>Robert Kampf</name>
      <link href="https://www.komoot.de/user/4125295338453">
        <text>View Robert Kampf's Profile on Komoot</text>
      </link>
    </author>
    <link href="https://www.komoot.de/tour/2878795239">
      <text>View tour on Komoot</text>
    </link>
  </metadata>
  <wpt lat="48.0233" lon="10.65093">
    <name>Parking</name>
    <cmt></cmt>
    <desc>Free</desc>
    <src>Komoot</src>
    <type>POI</type>
  </wpt>
  <wpt lat="48.024513" lon="10.654405">
    <ele>613</ele>
    <name>Long Fish Ladder</name>
    <cmt>https://d2exd72xrrp1s7.cloudfront.net/www/000/1k6/1c/1c2177nikb3071n5mn7ju6zg1543sudeqf-uhi47566790/0</cmt>
    <desc>Werner Wimmer: erstaunliches "Bauwerk", sehr markant
――――――――――
Johannes: Entlang der Fischtreppe führt ein schnuggliger etwas versteckter Weg zur Wertach runter. Zum Schluss eine kleine Kraxelei über Felsen. Auch nett für Kinder</desc>
    <src>Komoot</src>
    <link href="https://www.komoot.de/highlight/4202913">
      <text>View POI on Komoot</text>
    </link>
    <type>Highlight</type>
  </wpt>
  <wpt lat="47.99953" lon="10.647664">
    <ele>669.8</ele>
    <name>Balance Beam on the 48th Parallel North</name>
    <cmt>https://d2exd72xrrp1s7.cloudfront.net/www/000/1k4/1u/1u9uvb42bgcwettj8tblbkgr53cdherch-uhi11746781/0</cmt>
    <desc>Karlheinz: An dieser Stelle ist der Breitengrad ein ziemlich schmaler Grat
――――――――――
Holger: bis zum Robinson Bay (Längengrad: -88.6267938 / Breitengrad: 48.137953) reicht der Balken dann aber doch nicht ;-)
――――――――――
Carsten (📍FFB): Der 48. Breitengrad auf der Nordhalbkugel hat einiges zu bieten: Von -22,2 Grad Celsius bis +21,8 Grad Celsius ist hier im Frühling alles dabei. Während im kanadischen Saguenay die Höchsttemperatur der vergangenen 24 Stunden höchstens -9 Grad erreichte, erlebte die slowakische Stadt Lucenec bereits 21,8 Grad Celsius warm. Das ist ein Unterschied von 30 Grad und das obwohl beide Städte auf dem gleichen Breitenkreis liegen.

Quelle: https://weather.com/de-DE/wetter/ausland/news/wetter-extrem-auf-dem-48-breitengrad-herrschen-40-grad-temperaturunterschied
――――――――――
Hermann: Liegt auf dem Weg und ist ja selten, einmal auf dem Breitengrad spazieren zu gehen...
――――――――――
Otti Vpunkt: Runde ist echt Super
――――――――――
Otti Vpunkt: Kleine witzige Einlage um auf dem Breitengrad zu balancieren.
――――――――――
sigrid: 👍
――――――――――
Michael: Auf dem 48. Breitengrad balancieren
――――――――――
Michael: 4280km lang</desc>
    <src>Komoot</src>
    <link href="https://www.komoot.de/highlight/571290">
      <text>View POI on Komoot</text>
    </link>
    <type>Highlight</type>
  </wpt>
  <wpt lat="47.98246" lon="10.644401">
    <ele>686.7</ele>
    <name>Old Steel Bridge Over the Wertach</name>
    <cmt>https://d2exd72xrrp1s7.cloudfront.net/www/000/1k4/1a/1aaerlhds1ybv1tp17iwnl0ykd3cdhb03d-uhi11746669/0</cmt>
    <desc>msateam: Gut für einen Seitenwechsel an der Wertach.
――――――――――
Loockes: Alte Stahlbrücke über die Wertach
――――――――――
AS: Schön über die alte Brücke zu fahren
――――――――――
Sanson Charles: Solide Konstruktion. Kurze Verschnaufpause wert.
――――――――――
Michael: ÖPNV im 21. Jahrhundert 
DIY 🚴‍♀️
――――――――――
Mike Fox: Schöne Stahlbogenbrücke über die Wertach
――――――――――
Jörg: Schöne, alte Stahlbrücke mit Wintersonne</desc>
    <src>Komoot</src>
    <link href="https://www.komoot.de/highlight/1256789">
      <text>View POI on Komoot</text>
    </link>
    <type>Highlight</type>
  </wpt>
  <wpt lat="47.982995" lon="10.645886">
    <ele>676.8</ele>
    <name>Bench with a view of the Wertach River</name>
    <cmt>https://d2exd72xrrp1s7.cloudfront.net/www/000/1k6/1e/1ezh5mt86mab2ci3ga5hlo3la41hk38fn-uhi45908365/0</cmt>
    <desc>Loockes: Hier finden Sie im Sommer sehr viele Wasservögel
――――――――――
Heike: Sehr schöne Tour an der Wertach entlang
――――――――――
Mike Fox: Auf dieser Bank kann man die Ruhe und die Aussicht genießen, ideal zum entspannen.
――――――――――
SpeedyRosi🫶: An der Wertach entlang lässt es sich wunderbar radeln.</desc>
    <src>Komoot</src>
    <link href="https://www.komoot.de/highlight/4953116">
      <text>View POI on Komoot</text>
    </link>
    <type>Highlight</type>
  </wpt>
  <wpt lat="47.987937" lon="10.64778">
    <name>Bingstetter See</name>
    <cmt></cmt>
    <desc></desc>
    <src>Komoot</src>
    <type>POI</type>
  </wpt>
  <wpt lat="48.004054" lon="10.648777">
    <ele>669.9</ele>
    <name>Wertach Nature Trail Information Board</name>
    <cmt>https://d2exd72xrrp1s7.cloudfront.net/www/000/1k7/14/145lp4uh708es1qgrg11tmq1hj4l28bnp4-uhi60315860/0</cmt>
    <desc></desc>
    <src>Komoot</src>
    <link href="https://www.komoot.de/highlight/4056024">
      <text>View POI on Komoot</text>
    </link>
    <type>Highlight</type>
  </wpt>
  <wpt lat="48.008041" lon="10.649583">
    <ele>621.7</ele>
    <name>Old channel of the Wertach near the Irsinger Reservoir</name>
    <cmt>https://d2exd72xrrp1s7.cloudfront.net/www/000/1k6/i1/i1ki2u5kskmh7vbq71b94kjx48fiyr3d-uhi51800551/0</cmt>
    <desc>Annette: Der Altarm hat bei Hochwasser eine wichtige Funktion. </desc>
    <src>Komoot</src>
    <link href="https://www.komoot.de/highlight/4635345">
      <text>View POI on Komoot</text>
    </link>
    <type>Highlight</type>
  </wpt>
  <wpt lat="48.017497" lon="10.650747">
    <ele>670.9</ele>
    <name>Eco Island Bad Wörishofen</name>
    <cmt>https://d2exd72xrrp1s7.cloudfront.net/www/000/1k6/po/po3u1981e5wp13x90qu1rxb0u41hmhc8c-uhi45909415/0</cmt>
    <desc></desc>
    <src>Komoot</src>
    <link href="https://www.komoot.de/highlight/4056045">
      <text>View POI on Komoot</text>
    </link>
    <type>Highlight</type>
  </wpt>
  <wpt lat="48.018969" lon="10.649225">
    <ele>613.3</ele>
    <name>View of Irsinger Reservoir</name>
    <cmt>https://d2exd72xrrp1s7.cloudfront.net/www/000/1k6/pa/pacaq7p7v0z18awsllzx6zzy48fireyb-uhi51800374/0</cmt>
    <desc>Annette: Zu jeder Jahreszeit schön den Stausee zu umrunden. Ca. 5km. Zu Fuß 🦶, wie mit dem Fahrrad 🚲. Am Rand des Stausees, wie am Rand der Wertach blühen viele Blumen jetzt im Juli.</desc>
    <src>Komoot</src>
    <link href="https://www.komoot.de/highlight/4635292">
      <text>View POI on Komoot</text>
    </link>
    <type>Highlight</type>
  </wpt>
  <trk>
    <name>Lange Fischtreppe – Blick auf den Irsinger Stausee Runde von Irsingen</name>
    <desc>Distance: 11.122km, Estimated duration: 2.82h, Elevation up: 26.308372165965466m, Elevation down: 26.754169290983782m, Grade: moderate</desc>
    <link href="https://www.komoot.de/tour/2878795239">
      <text>View tour on Komoot</text>
    </link>
    <trkseg>
      <trkpt lat="48.023318" lon="10.650856">
        <ele>611.9</ele>
        <time>2026-04-11T12:01:33.554000Z</time>
      </trkpt>
      <trkpt lat="48.023361" lon="10.65088">
        <ele>612</ele>
        <time>2026-04-11T12:01:38.343000Z</time>
      </trkpt>
      <trkpt lat="48.023415" lon="10.651077">
        <ele>612.1</ele>
        <time>2026-04-11T12:01:53.152000Z</time>
      </trkpt>
      <trkpt lat="48.023492" lon="10.651207">
        <ele>612.3</ele>
        <time>2026-04-11T12:02:05.288000Z</time>
      </trkpt>
      <trkpt lat="48.024774" lon="10.652888">
        <ele>613.1</ele>
        <time>2026-04-11T12:04:58.888000Z</time>
      </trkpt>
      <trkpt lat="48.024859" lon="10.652963">
        <ele>613</ele>
        <time>2026-04-11T12:05:08.960000Z</time>
      </trkpt>
      <trkpt lat="48.025082" lon="10.65307">
        <ele>612.9</ele>
        <time>2026-04-11T12:05:32.671000Z</time>
      </trkpt>
      <trkpt lat="48.025156" lon="10.653166">
        <ele>612.9</ele>
        <time>2026-04-11T12:05:42.586000Z</time>
      </trkpt>
      <trkpt lat="48.025121" lon="10.653375">
        <ele>612.8</ele>
        <time>2026-04-11T12:05:57.168000Z</time>
      </trkpt>
      <trkpt lat="48.025077" lon="10.653821">
        <ele>612.7</ele>
        <time>2026-04-11T12:06:27.482000Z</time>
      </trkpt>
      <trkpt lat="48.025064" lon="10.653919">
        <ele>612.7</ele>
        <time>2026-04-11T12:06:34.260000Z</time>
      </trkpt>
      <trkpt lat="48.02499" lon="10.653985">
        <ele>612.7</ele>
        <time>2026-04-11T12:06:42.916000Z</time>
      </trkpt>
      <trkpt lat="48.024927" lon="10.654033">
        <ele>612.6</ele>
        <time>2026-04-11T12:06:50.101000Z</time>
      </trkpt>
      <trkpt lat="48.024849" lon="10.654093">
        <ele>612.6</ele>
        <time>2026-04-11T12:06:58.896000Z</time>
      </trkpt>
      <trkpt lat="48.02451" lon="10.654397">
        <ele>612.5</ele>
        <time>2026-04-11T12:07:38.617000Z</time>
      </trkpt>
      <trkpt lat="48.024346" lon="10.654545">
        <ele>612.6</ele>
        <time>2026-04-11T12:07:58.061000Z</time>
      </trkpt>
      <trkpt lat="48.024247" lon="10.654566">
        <ele>612.7</ele>
        <time>2026-04-11T12:08:08.321000Z</time>
      </trkpt>
      <trkpt lat="48.023488" lon="10.655094">
        <ele>613.3</ele>
        <time>2026-04-11T12:09:34.398000Z</time>
      </trkpt>
      <trkpt lat="48.022849" lon="10.655354">
        <ele>613.5</ele>
        <time>2026-04-11T12:10:41.303000Z</time>
      </trkpt>
      <trkpt lat="48.020443" lon="10.6559">
        <ele>613.8</ele>
        <time>2026-04-11T12:14:45.808000Z</time>
      </trkpt>
      <trkpt lat="48.020133" lon="10.65588">
        <ele>613.9</ele>
        <time>2026-04-11T12:15:17.425000Z</time>
      </trkpt>
      <trkpt lat="48.019498" lon="10.655706">
        <ele>614.3</ele>
        <time>2026-04-11T12:16:23.377000Z</time>
      </trkpt>
      <trkpt lat="48.01877" lon="10.655437">
        <ele>614.7</ele>
        <time>2026-04-11T12:17:39.767000Z</time>
      </trkpt>
      <trkpt lat="48.018544" lon="10.655272">
        <ele>614.7</ele>
        <time>2026-04-11T12:18:05.079000Z</time>
      </trkpt>
      <trkpt lat="48.018172" lon="10.654921">
        <ele>614.7</ele>
        <time>2026-04-11T12:18:49.172000Z</time>
      </trkpt>
      <trkpt lat="48.017224" lon="10.653941">
        <ele>614.7</ele>
        <time>2026-04-11T12:20:44.532000Z</time>
      </trkpt>
      <trkpt lat="48.017038" lon="10.653787">
        <ele>614.8</ele>
        <time>2026-04-11T12:21:05.921000Z</time>
      </trkpt>
      <trkpt lat="48.016648" lon="10.653591">
        <ele>614.9</ele>
        <time>2026-04-11T12:21:47.411000Z</time>
      </trkpt>
      <trkpt lat="48.016168" lon="10.653405">
        <ele>615</ele>
        <time>2026-04-11T12:22:37.692000Z</time>
      </trkpt>
      <trkpt lat="48.015651" lon="10.653213">
        <ele>615.4</ele>
        <time>2026-04-11T12:23:32.352000Z</time>
      </trkpt>
      <trkpt lat="48.014926" lon="10.653076">
        <ele>616.1</ele>
        <time>2026-04-11T12:24:48.045000Z</time>
      </trkpt>
      <trkpt lat="48.014295" lon="10.652939">
        <ele>616.6</ele>
        <time>2026-04-11T12:25:53.525000Z</time>
      </trkpt>
      <trkpt lat="48.014161" lon="10.652944">
        <ele>616.7</ele>
        <time>2026-04-11T12:26:07.209000Z</time>
      </trkpt>
      <trkpt lat="48.013644" lon="10.652878">
        <ele>616.9</ele>
        <time>2026-04-11T12:26:59.798000Z</time>
      </trkpt>
      <trkpt lat="48.013251" lon="10.65299">
        <ele>616.8</ele>
        <time>2026-04-11T12:27:40Z</time>
      </trkpt>
      <trkpt lat="48.013022" lon="10.653022">
        <ele>616.7</ele>
        <time>2026-04-11T12:28:03.192000Z</time>
      </trkpt>
      <trkpt lat="48.01283" lon="10.653145">
        <ele>616.6</ele>
        <time>2026-04-11T12:28:24.255000Z</time>
      </trkpt>
      <trkpt lat="48.012346" lon="10.653824">
        <ele>616.5</ele>
        <time>2026-04-11T12:29:30.994000Z</time>
      </trkpt>
      <trkpt lat="48.012094" lon="10.65396">
        <ele>616.5</ele>
        <time>2026-04-11T12:29:57.851000Z</time>
      </trkpt>
      <trkpt lat="48.011452" lon="10.653943">
        <ele>616.5</ele>
        <time>2026-04-11T12:31:02.088000Z</time>
      </trkpt>
      <trkpt lat="48.011094" lon="10.653881">
        <ele>616.5</ele>
        <time>2026-04-11T12:31:38.265000Z</time>
      </trkpt>
      <trkpt lat="48.010554" lon="10.653627">
        <ele>616.6</ele>
        <time>2026-04-11T12:32:35.274000Z</time>
      </trkpt>
      <trkpt lat="48.010307" lon="10.653402">
        <ele>616.7</ele>
        <time>2026-04-11T12:33:04.516000Z</time>
      </trkpt>
      <trkpt lat="48.009968" lon="10.652978">
        <ele>616.8</ele>
        <time>2026-04-11T12:33:49.369000Z</time>
      </trkpt>
      <trkpt lat="48.00973" lon="10.652742">
        <ele>617</ele>
        <time>2026-04-11T12:34:18.551000Z</time>
      </trkpt>
      <trkpt lat="48.008826" lon="10.651944">
        <ele>617.8</ele>
        <time>2026-04-11T12:36:06.523000Z</time>
      </trkpt>
      <trkpt lat="48.008733" lon="10.651862">
        <ele>617.9</ele>
        <time>2026-04-11T12:36:17.608000Z</time>
      </trkpt>
      <trkpt lat="48.00775" lon="10.651888">
        <ele>618.3</ele>
        <time>2026-04-11T12:37:57.561000Z</time>
      </trkpt>
      <trkpt lat="48.007632" lon="10.651793">
        <ele>618.4</ele>
        <time>2026-04-11T12:38:11.146000Z</time>
      </trkpt>
      <trkpt lat="48.007477" lon="10.651558">
        <ele>618.4</ele>
        <time>2026-04-11T12:38:33.390000Z</time>
      </trkpt>
      <trkpt lat="48.006399" lon="10.650262">
        <ele>617.9</ele>
        <time>2026-04-11T12:40:52.834000Z</time>
      </trkpt>
      <trkpt lat="48.00607" lon="10.650067">
        <ele>617.6</ele>
        <time>2026-04-11T12:41:28.987000Z</time>
      </trkpt>
      <trkpt lat="48.005238" lon="10.649919">
        <ele>616.9</ele>
        <time>2026-04-11T12:42:54.294000Z</time>
      </trkpt>
      <trkpt lat="48.004291" lon="10.649684">
        <ele>616.9</ele>
        <time>2026-04-11T12:44:30.353000Z</time>
      </trkpt>
      <trkpt lat="48.003738" lon="10.649688">
        <ele>617.6</ele>
        <time>2026-04-11T12:45:28.079000Z</time>
      </trkpt>
      <trkpt lat="48.003683" lon="10.649688">
        <ele>617.6</ele>
        <time>2026-04-11T12:45:33.815000Z</time>
      </trkpt>
      <trkpt lat="48.003688" lon="10.649619">
        <ele>617.7</ele>
        <time>2026-04-11T12:45:38.707000Z</time>
      </trkpt>
      <trkpt lat="48.003727" lon="10.648669">
        <ele>618.4</ele>
        <time>2026-04-11T12:46:45.020000Z</time>
      </trkpt>
      <trkpt lat="48.003735" lon="10.648495">
        <ele>618.5</ele>
        <time>2026-04-11T12:46:56.998000Z</time>
      </trkpt>
      <trkpt lat="48.003441" lon="10.648329">
        <ele>618.7</ele>
        <time>2026-04-11T12:47:29.039000Z</time>
      </trkpt>
      <trkpt lat="48.003433" lon="10.648324">
        <ele>618.7</ele>
        <time>2026-04-11T12:47:29.932000Z</time>
      </trkpt>
      <trkpt lat="48.003334" lon="10.648524">
        <ele>618.8</ele>
        <time>2026-04-11T12:47:46.823000Z</time>
      </trkpt>
      <trkpt lat="48.003176" lon="10.648545">
        <ele>618.8</ele>
        <time>2026-04-11T12:48:02.809000Z</time>
      </trkpt>
      <trkpt lat="48.002975" lon="10.648518">
        <ele>618.8</ele>
        <time>2026-04-11T12:48:23.079000Z</time>
      </trkpt>
      <trkpt lat="48.002394" lon="10.648359">
        <ele>618.4</ele>
        <time>2026-04-11T12:49:22.901000Z</time>
      </trkpt>
      <trkpt lat="48.001315" lon="10.648146">
        <ele>617.5</ele>
        <time>2026-04-11T12:51:13.827000Z</time>
      </trkpt>
      <trkpt lat="48.001113" lon="10.648058">
        <ele>617.3</ele>
        <time>2026-04-11T12:51:35.289000Z</time>
      </trkpt>
      <trkpt lat="48.000912" lon="10.647818">
        <ele>617.1</ele>
        <time>2026-04-11T12:52:01.403000Z</time>
      </trkpt>
      <trkpt lat="48.000758" lon="10.648049">
        <ele>616.9</ele>
        <time>2026-04-11T12:52:23.542000Z</time>
      </trkpt>
      <trkpt lat="48.000367" lon="10.647925">
        <ele>616.8</ele>
        <time>2026-04-11T12:53:03.881000Z</time>
      </trkpt>
      <trkpt lat="47.999522" lon="10.647752">
        <ele>616.6</ele>
        <time>2026-04-11T12:54:29.638000Z</time>
      </trkpt>
      <trkpt lat="47.999069" lon="10.647659">
        <ele>616.6</ele>
        <time>2026-04-11T12:55:15.760000Z</time>
      </trkpt>
      <trkpt lat="47.994852" lon="10.64672">
        <ele>616.7</ele>
        <time>2026-04-11T13:02:22.535000Z</time>
      </trkpt>
      <trkpt lat="47.991906" lon="10.646076">
        <ele>620.7</ele>
        <time>2026-04-11T13:07:34.860000Z</time>
      </trkpt>
      <trkpt lat="47.991549" lon="10.645845">
        <ele>621.3</ele>
        <time>2026-04-11T13:08:15.842000Z</time>
      </trkpt>
      <trkpt lat="47.991105" lon="10.645696">
        <ele>621.8</ele>
        <time>2026-04-11T13:09:03.162000Z</time>
      </trkpt>
      <trkpt lat="47.991066" lon="10.645836">
        <ele>621.9</ele>
        <time>2026-04-11T13:09:13.676000Z</time>
      </trkpt>
      <trkpt lat="47.988423" lon="10.645207">
        <ele>621.7</ele>
        <time>2026-04-11T13:13:41.967000Z</time>
      </trkpt>
      <trkpt lat="47.988232" lon="10.645048">
        <ele>621.7</ele>
        <time>2026-04-11T13:14:03.909000Z</time>
      </trkpt>
      <trkpt lat="47.98812" lon="10.644745">
        <ele>621.7</ele>
        <time>2026-04-11T13:14:27.345000Z</time>
      </trkpt>
      <trkpt lat="47.988132" lon="10.644383">
        <ele>621.8</ele>
        <time>2026-04-11T13:14:52.006000Z</time>
      </trkpt>
      <trkpt lat="47.98819" lon="10.644129">
        <ele>622</ele>
        <time>2026-04-11T13:15:10.324000Z</time>
      </trkpt>
      <trkpt lat="47.988193" lon="10.643781">
        <ele>622.1</ele>
        <time>2026-04-11T13:15:34.197000Z</time>
      </trkpt>
      <trkpt lat="47.988117" lon="10.643427">
        <ele>622.2</ele>
        <time>2026-04-11T13:15:59.333000Z</time>
      </trkpt>
      <trkpt lat="47.987941" lon="10.643101">
        <ele>622.2</ele>
        <time>2026-04-11T13:16:27.403000Z</time>
      </trkpt>
      <trkpt lat="47.987758" lon="10.642911">
        <ele>622.1</ele>
        <time>2026-04-11T13:16:49.807000Z</time>
      </trkpt>
      <trkpt lat="47.987587" lon="10.642844">
        <ele>622.1</ele>
        <time>2026-04-11T13:17:07.674000Z</time>
      </trkpt>
      <trkpt lat="47.987681" lon="10.643804">
        <ele>621.7</ele>
        <time>2026-04-11T13:18:13.454000Z</time>
      </trkpt>
      <trkpt lat="47.987681" lon="10.644054">
        <ele>621.6</ele>
        <time>2026-04-11T13:18:30.417000Z</time>
      </trkpt>
      <trkpt lat="47.987627" lon="10.64429">
        <ele>621.5</ele>
        <time>2026-04-11T13:18:47.362000Z</time>
      </trkpt>
      <trkpt lat="47.987547" lon="10.644416">
        <ele>621.4</ele>
        <time>2026-04-11T13:18:59.133000Z</time>
      </trkpt>
      <trkpt lat="47.987452" lon="10.644478">
        <ele>621.4</ele>
        <time>2026-04-11T13:19:09.592000Z</time>
      </trkpt>
      <trkpt lat="47.987348" lon="10.644484">
        <ele>621.4</ele>
        <time>2026-04-11T13:19:20.121000Z</time>
      </trkpt>
      <trkpt lat="47.986807" lon="10.644357">
        <ele>621.6</ele>
        <time>2026-04-11T13:20:15.849000Z</time>
      </trkpt>
      <trkpt lat="47.986542" lon="10.644354">
        <ele>621.9</ele>
        <time>2026-04-11T13:20:43.495000Z</time>
      </trkpt>
      <trkpt lat="47.986386" lon="10.644385">
        <ele>622.2</ele>
        <time>2026-04-11T13:21:00.090000Z</time>
      </trkpt>
      <trkpt lat="47.986179" lon="10.644473">
        <ele>622.5</ele>
        <time>2026-04-11T13:21:22.811000Z</time>
      </trkpt>
      <trkpt lat="47.986001" lon="10.64459">
        <ele>622.8</ele>
        <time>2026-04-11T13:21:43.397000Z</time>
      </trkpt>
      <trkpt lat="47.985409" lon="10.645082">
        <ele>623.8</ele>
        <time>2026-04-11T13:22:54.568000Z</time>
      </trkpt>
      <trkpt lat="47.985021" lon="10.645363">
        <ele>624.2</ele>
        <time>2026-04-11T13:23:39.103000Z</time>
      </trkpt>
      <trkpt lat="47.984455" lon="10.645588">
        <ele>624.5</ele>
        <time>2026-04-11T13:24:38.934000Z</time>
      </trkpt>
      <trkpt lat="47.983992" lon="10.645647">
        <ele>624.7</ele>
        <time>2026-04-11T13:25:26.131000Z</time>
      </trkpt>
      <trkpt lat="47.983737" lon="10.645561">
        <ele>624.8</ele>
        <time>2026-04-11T13:25:52.645000Z</time>
      </trkpt>
      <trkpt lat="47.983513" lon="10.645319">
        <ele>624.8</ele>
        <time>2026-04-11T13:26:20.534000Z</time>
      </trkpt>
      <trkpt lat="47.983076" lon="10.644981">
        <ele>625</ele>
        <time>2026-04-11T13:27:10.347000Z</time>
      </trkpt>
      <trkpt lat="47.982885" lon="10.644778">
        <ele>625.2</ele>
        <time>2026-04-11T13:27:34.615000Z</time>
      </trkpt>
      <trkpt lat="47.982731" lon="10.644568">
        <ele>625.5</ele>
        <time>2026-04-11T13:27:56.448000Z</time>
      </trkpt>
      <trkpt lat="47.982567" lon="10.644237">
        <ele>625.8</ele>
        <time>2026-04-11T13:28:25.075000Z</time>
      </trkpt>
      <trkpt lat="47.982515" lon="10.644314">
        <ele>625.9</ele>
        <time>2026-04-11T13:28:32.572000Z</time>
      </trkpt>
      <trkpt lat="47.982451" lon="10.644383">
        <ele>625.9</ele>
        <time>2026-04-11T13:28:40.695000Z</time>
      </trkpt>
      <trkpt lat="47.982232" lon="10.644619">
        <ele>626.1</ele>
        <time>2026-04-11T13:29:08.284000Z</time>
      </trkpt>
      <trkpt lat="47.982162" lon="10.644689">
        <ele>626.1</ele>
        <time>2026-04-11T13:29:16.841000Z</time>
      </trkpt>
      <trkpt lat="47.982137" lon="10.644765">
        <ele>626.1</ele>
        <time>2026-04-11T13:29:22.585000Z</time>
      </trkpt>
      <trkpt lat="47.982124" lon="10.644828">
        <ele>626.2</ele>
        <time>2026-04-11T13:29:27.079000Z</time>
      </trkpt>
      <trkpt lat="47.982151" lon="10.644967">
        <ele>626.2</ele>
        <time>2026-04-11T13:29:36.846000Z</time>
      </trkpt>
      <trkpt lat="47.98221" lon="10.645073">
        <ele>626.2</ele>
        <time>2026-04-11T13:29:46.221000Z</time>
      </trkpt>
      <trkpt lat="47.982913" lon="10.645777">
        <ele>626.9</ele>
        <time>2026-04-11T13:31:13.299000Z</time>
      </trkpt>
      <trkpt lat="47.982991" lon="10.645892">
        <ele>626.9</ele>
        <time>2026-04-11T13:31:24.272000Z</time>
      </trkpt>
      <trkpt lat="47.983039" lon="10.645962">
        <ele>626.9</ele>
        <time>2026-04-11T13:31:31.004000Z</time>
      </trkpt>
      <trkpt lat="47.983124" lon="10.646229">
        <ele>626.8</ele>
        <time>2026-04-11T13:31:50.967000Z</time>
      </trkpt>
      <trkpt lat="47.98317" lon="10.646231">
        <ele>626.8</ele>
        <time>2026-04-11T13:31:55.574000Z</time>
      </trkpt>
      <trkpt lat="47.983453" lon="10.646459">
        <ele>626.8</ele>
        <time>2026-04-11T13:32:27.845000Z</time>
      </trkpt>
      <trkpt lat="47.983527" lon="10.646478">
        <ele>626.8</ele>
        <time>2026-04-11T13:32:35.415000Z</time>
      </trkpt>
      <trkpt lat="47.983699" lon="10.646431">
        <ele>626.8</ele>
        <time>2026-04-11T13:32:52.985000Z</time>
      </trkpt>
      <trkpt lat="47.984248" lon="10.646392">
        <ele>627.1</ele>
        <time>2026-04-11T13:33:49.005000Z</time>
      </trkpt>
      <trkpt lat="47.984481" lon="10.646589">
        <ele>627.2</ele>
        <time>2026-04-11T13:34:16.239000Z</time>
      </trkpt>
      <trkpt lat="47.984905" lon="10.64677">
        <ele>627.3</ele>
        <time>2026-04-11T13:35:00.783000Z</time>
      </trkpt>
      <trkpt lat="47.985337" lon="10.647241">
        <ele>627.4</ele>
        <time>2026-04-11T13:35:54.456000Z</time>
      </trkpt>
      <trkpt lat="47.985482" lon="10.647485">
        <ele>627.4</ele>
        <time>2026-04-11T13:36:16.446000Z</time>
      </trkpt>
      <trkpt lat="47.986214" lon="10.648079">
        <ele>627.3</ele>
        <time>2026-04-11T13:37:39.993000Z</time>
      </trkpt>
      <trkpt lat="47.986264" lon="10.648188">
        <ele>627.3</ele>
        <time>2026-04-11T13:37:48.831000Z</time>
      </trkpt>
      <trkpt lat="47.986278" lon="10.648288">
        <ele>627.3</ele>
        <time>2026-04-11T13:37:55.719000Z</time>
      </trkpt>
      <trkpt lat="47.986354" lon="10.648846">
        <ele>627.2</ele>
        <time>2026-04-11T13:38:33.992000Z</time>
      </trkpt>
      <trkpt lat="47.98649" lon="10.64944">
        <ele>627.3</ele>
        <time>2026-04-11T13:39:16.229000Z</time>
      </trkpt>
      <trkpt lat="47.986467" lon="10.649788">
        <ele>627.4</ele>
        <time>2026-04-11T13:39:39.929000Z</time>
      </trkpt>
      <trkpt lat="47.986478" lon="10.649985">
        <ele>627.4</ele>
        <time>2026-04-11T13:39:53.403000Z</time>
      </trkpt>
      <trkpt lat="47.986595" lon="10.650583">
        <ele>627.6</ele>
        <time>2026-04-11T13:40:35.896000Z</time>
      </trkpt>
      <trkpt lat="47.986606" lon="10.650799">
        <ele>627.7</ele>
        <time>2026-04-11T13:40:50.561000Z</time>
      </trkpt>
      <trkpt lat="47.986599" lon="10.652029">
        <ele>627.6</ele>
        <time>2026-04-11T13:42:13.112000Z</time>
      </trkpt>
      <trkpt lat="47.987623" lon="10.652362">
        <ele>627.1</ele>
        <time>2026-04-11T13:43:59.146000Z</time>
      </trkpt>
      <trkpt lat="47.988458" lon="10.652629">
        <ele>626.7</ele>
        <time>2026-04-11T13:45:25.407000Z</time>
      </trkpt>
      <trkpt lat="47.988792" lon="10.652615">
        <ele>626.7</ele>
        <time>2026-04-11T13:45:58.927000Z</time>
      </trkpt>
      <trkpt lat="47.989396" lon="10.652509">
        <ele>626.6</ele>
        <time>2026-04-11T13:46:59.731000Z</time>
      </trkpt>
      <trkpt lat="47.989553" lon="10.652015">
        <ele>626.6</ele>
        <time>2026-04-11T13:47:36.343000Z</time>
      </trkpt>
      <trkpt lat="47.990775" lon="10.648583">
        <ele>626.2</ele>
        <time>2026-04-11T13:51:57.728000Z</time>
      </trkpt>
      <trkpt lat="47.990873" lon="10.648328">
        <ele>626.1</ele>
        <time>2026-04-11T13:52:17.614000Z</time>
      </trkpt>
      <trkpt lat="47.990996" lon="10.648205">
        <ele>626</ele>
        <time>2026-04-11T13:52:32.624000Z</time>
      </trkpt>
      <trkpt lat="47.991543" lon="10.647812">
        <ele>625.4</ele>
        <time>2026-04-11T13:53:34.500000Z</time>
      </trkpt>
      <trkpt lat="47.992567" lon="10.647242">
        <ele>623.7</ele>
        <time>2026-04-11T13:55:27.463000Z</time>
      </trkpt>
      <trkpt lat="47.992672" lon="10.647218">
        <ele>623.5</ele>
        <time>2026-04-11T13:55:38.444000Z</time>
      </trkpt>
      <trkpt lat="47.992796" lon="10.647218">
        <ele>623.3</ele>
        <time>2026-04-11T13:55:51.403000Z</time>
      </trkpt>
      <trkpt lat="47.994698" lon="10.647623">
        <ele>619.7</ele>
        <time>2026-04-11T13:59:11.114000Z</time>
      </trkpt>
      <trkpt lat="47.994854" lon="10.647513">
        <ele>619.4</ele>
        <time>2026-04-11T13:59:28.874000Z</time>
      </trkpt>
      <trkpt lat="47.994986" lon="10.647496">
        <ele>619.2</ele>
        <time>2026-04-11T13:59:42.564000Z</time>
      </trkpt>
      <trkpt lat="48.000333" lon="10.648672">
        <ele>615.6</ele>
        <time>2026-04-11T14:08:50.998000Z</time>
      </trkpt>
      <trkpt lat="48.003319" lon="10.649281">
        <ele>616.6</ele>
        <time>2026-04-11T14:13:56.374000Z</time>
      </trkpt>
      <trkpt lat="48.003451" lon="10.64941">
        <ele>616.8</ele>
        <time>2026-04-11T14:14:12.768000Z</time>
      </trkpt>
      <trkpt lat="48.003503" lon="10.649547">
        <ele>616.9</ele>
        <time>2026-04-11T14:14:23.774000Z</time>
      </trkpt>
      <trkpt lat="48.003504" lon="10.649743">
        <ele>617.1</ele>
        <time>2026-04-11T14:14:37.425000Z</time>
      </trkpt>
      <trkpt lat="48.003617" lon="10.649738">
        <ele>617.2</ele>
        <time>2026-04-11T14:14:49.196000Z</time>
      </trkpt>
      <trkpt lat="48.003679" lon="10.649735">
        <ele>617.3</ele>
        <time>2026-04-11T14:14:55.670000Z</time>
      </trkpt>
      <trkpt lat="48.003683" lon="10.649688">
        <ele>617.3</ele>
        <time>2026-04-11T14:14:58.926000Z</time>
      </trkpt>
      <trkpt lat="48.003738" lon="10.649688">
        <ele>617.4</ele>
        <time>2026-04-11T14:15:04.663000Z</time>
      </trkpt>
      <trkpt lat="48.003725" lon="10.649622">
        <ele>617.4</ele>
        <time>2026-04-11T14:15:09.402000Z</time>
      </trkpt>
      <trkpt lat="48.003768" lon="10.648677">
        <ele>617.9</ele>
        <time>2026-04-11T14:16:14.619000Z</time>
      </trkpt>
      <trkpt lat="48.003793" lon="10.648616">
        <ele>618</ele>
        <time>2026-04-11T14:16:19.482000Z</time>
      </trkpt>
      <trkpt lat="48.003906" lon="10.648625">
        <ele>618</ele>
        <time>2026-04-11T14:16:31.051000Z</time>
      </trkpt>
      <trkpt lat="48.003975" lon="10.648733">
        <ele>618.1</ele>
        <time>2026-04-11T14:16:41.208000Z</time>
      </trkpt>
      <trkpt lat="48.004053" lon="10.648784">
        <ele>618.1</ele>
        <time>2026-04-11T14:16:49.781000Z</time>
      </trkpt>
      <trkpt lat="48.004071" lon="10.648795">
        <ele>618.1</ele>
        <time>2026-04-11T14:16:51.803000Z</time>
      </trkpt>
      <trkpt lat="48.008037" lon="10.649625">
        <ele>614.7</ele>
        <time>2026-04-11T14:23:39.675000Z</time>
      </trkpt>
      <trkpt lat="48.008508" lon="10.649723">
        <ele>614.4</ele>
        <time>2026-04-11T14:24:27.815000Z</time>
      </trkpt>
      <trkpt lat="48.010673" lon="10.650176">
        <ele>614</ele>
        <time>2026-04-11T14:28:07.377000Z</time>
      </trkpt>
      <trkpt lat="48.016526" lon="10.651405">
        <ele>612.7</ele>
        <time>2026-04-11T14:38:01.642000Z</time>
      </trkpt>
      <trkpt lat="48.016605" lon="10.65141">
        <ele>612.8</ele>
        <time>2026-04-11T14:38:09.817000Z</time>
      </trkpt>
      <trkpt lat="48.016853" lon="10.651367">
        <ele>613</ele>
        <time>2026-04-11T14:38:35.523000Z</time>
      </trkpt>
      <trkpt lat="48.017091" lon="10.651164">
        <ele>613.2</ele>
        <time>2026-04-11T14:39:03.911000Z</time>
      </trkpt>
      <trkpt lat="48.017476" lon="10.650708">
        <ele>613.8</ele>
        <time>2026-04-11T14:39:55.023000Z</time>
      </trkpt>
      <trkpt lat="48.017863" lon="10.650251">
        <ele>614.3</ele>
        <time>2026-04-11T14:40:46.195000Z</time>
      </trkpt>
      <trkpt lat="48.01852" lon="10.649561">
        <ele>614.7</ele>
        <time>2026-04-11T14:42:07.864000Z</time>
      </trkpt>
      <trkpt lat="48.018975" lon="10.649244">
        <ele>614.6</ele>
        <time>2026-04-11T14:42:58.151000Z</time>
      </trkpt>
      <trkpt lat="48.01902" lon="10.649213">
        <ele>614.6</ele>
        <time>2026-04-11T14:43:03.119000Z</time>
      </trkpt>
      <trkpt lat="48.019685" lon="10.648961">
        <ele>614.3</ele>
        <time>2026-04-11T14:44:12.328000Z</time>
      </trkpt>
      <trkpt lat="48.019966" lon="10.648921">
        <ele>614.1</ele>
        <time>2026-04-11T14:44:41.046000Z</time>
      </trkpt>
      <trkpt lat="48.020335" lon="10.648926">
        <ele>613.8</ele>
        <time>2026-04-11T14:45:18.681000Z</time>
      </trkpt>
      <trkpt lat="48.020723" lon="10.648986">
        <ele>613.4</ele>
        <time>2026-04-11T14:45:58.643000Z</time>
      </trkpt>
      <trkpt lat="48.021245" lon="10.649199">
        <ele>612.8</ele>
        <time>2026-04-11T14:46:53.980000Z</time>
      </trkpt>
      <trkpt lat="48.021702" lon="10.649472">
        <ele>612.4</ele>
        <time>2026-04-11T14:47:44Z</time>
      </trkpt>
      <trkpt lat="48.022353" lon="10.65005">
        <ele>611.9</ele>
        <time>2026-04-11T14:49:00.775000Z</time>
      </trkpt>
      <trkpt lat="48.022563" lon="10.650305">
        <ele>611.8</ele>
        <time>2026-04-11T14:49:28.179000Z</time>
      </trkpt>
      <trkpt lat="48.022678" lon="10.650424">
        <ele>611.7</ele>
        <time>2026-04-11T14:49:42.218000Z</time>
      </trkpt>
      <trkpt lat="48.023211" lon="10.650798">
        <ele>611.5</ele>
        <time>2026-04-11T14:50:41.670000Z</time>
      </trkpt>
      <trkpt lat="48.023318" lon="10.650856">
        <ele>611.5</ele>
        <time>2026-04-11T14:50:53.103000Z</time>
      </trkpt>
    </trkseg>
  </trk>
</gpx>