<?xml version="1.0" encoding="UTF-8"?>
<gpx xmlns="http://www.topografix.com/GPX/1/1" xmlns:xsi="http://www.w3.org/2001/XMLSchema-instance" xsi:schemaLocation="http://www.topografix.com/GPX/1/1 http://www.topografix.com/GPX/1/1/gpx.xsd" version="1.1" creator="Robert Kampf">
  <metadata>
    <name>Lange Fischtreppe – Blick auf den Oberrieder Weiher Runde von Irsingen</name>
    <desc>Distance: 9.296km, Estimated duration: 2.42h, Elevation up: 65.03982141349525m, Elevation down: 65.03982141349513m, Grade: moderate</desc>
    <author>
      <name>Robert Kampf</name>
      <link href="https://www.komoot.de/user/4125295338453">
        <text>View Robert Kampf's Profile on Komoot</text>
      </link>
    </author>
    <link href="https://www.komoot.de/tour/2878794776">
      <text>View tour on Komoot</text>
    </link>
  </metadata>
  <wpt lat="48.0233" lon="10.65093">
    <name>Parking</name>
    <cmt></cmt>
    <desc>Free</desc>
    <src>Komoot</src>
    <type>POI</type>
  </wpt>
  <wpt lat="48.025175" lon="10.654011">
    <ele>660.2</ele>
    <name>Wertachstausee Dam</name>
    <cmt>https://d2exd72xrrp1s7.cloudfront.net/www/000/1k8/aq/aqw19sae57jwquh5tz08gj6752u413t0-uhi76554498/0</cmt>
    <desc>Johannes: Stauwehr des Wertachstausees. Rechts daneben gibt es einen kleinen Bach als Umgehung für die Fische. Daneben führt ein Fußweg zur Landzunge. Kleine Kletterpartie um da hinzukommen.</desc>
    <src>Komoot</src>
    <link href="https://www.komoot.de/highlight/6884597">
      <text>View POI on Komoot</text>
    </link>
    <type>Highlight</type>
  </wpt>
  <wpt lat="48.024513" lon="10.654405">
    <ele>613</ele>
    <name>Long Fish Ladder</name>
    <cmt>https://d2exd72xrrp1s7.cloudfront.net/www/000/1k6/1c/1c2177nikb3071n5mn7ju6zg1543sudeqf-uhi47566790/0</cmt>
    <desc>Werner Wimmer: erstaunliches "Bauwerk", sehr markant
――――――――――
Johannes: Entlang der Fischtreppe führt ein schnuggliger etwas versteckter Weg zur Wertach runter. Zum Schluss eine kleine Kraxelei über Felsen. Auch nett für Kinder</desc>
    <src>Komoot</src>
    <link href="https://www.komoot.de/highlight/4202913">
      <text>View POI on Komoot</text>
    </link>
    <type>Highlight</type>
  </wpt>
  <wpt lat="48.023756" lon="10.666852">
    <ele>651</ele>
    <name>Cabin in the Forest</name>
    <cmt>https://d2exd72xrrp1s7.cloudfront.net/www/000/1k6/rt/rtwr5kg5mi6jteh02rysoc3842em2i85-uhi46484753/0</cmt>
    <desc></desc>
    <src>Komoot</src>
    <link href="https://www.komoot.de/highlight/3536703">
      <text>View POI on Komoot</text>
    </link>
    <type>Highlight</type>
  </wpt>
  <wpt lat="47.997723" lon="10.658021">
    <ele>683.2</ele>
    <name>Wanderer's Rest</name>
    <cmt>https://d2exd72xrrp1s7.cloudfront.net/www/000/1k4/r1/r1ulktsbn9fi134py96zf40rc3m0ee3xg-uhi26925104/0</cmt>
    <desc></desc>
    <src>Komoot</src>
    <link href="https://www.komoot.de/highlight/2871251">
      <text>View POI on Komoot</text>
    </link>
    <type>Highlight</type>
  </wpt>
  <wpt lat="48.009387" lon="10.650748">
    <ele>665.4</ele>
    <name>Stockheim Reservoir</name>
    <cmt>https://d2exd72xrrp1s7.cloudfront.net/www/000/1k5/1b/1bmftahc0iczo9dp1rib3nhk3vhpaxcy-uhi39208092/0</cmt>
    <desc>Otti Vpunkt: Eine entspannte rund oder zwei (10km) ist echt sehr angenehm.
――――――――――
Armin: Netter Spaziergang um den See, am Schluss gibt es in Stockheim die Möglichkeit sich im kneippbecken zu erfrischen
――――――――――
Loockes: Die Umwanderung dauert ca 1 Stunde und was Biber anrichten sieht man auch sehr gut</desc>
    <src>Komoot</src>
    <link href="https://www.komoot.de/highlight/3008638">
      <text>View POI on Komoot</text>
    </link>
    <type>Highlight</type>
  </wpt>
  <wpt lat="48.020105" lon="10.652458">
    <name>Irsingener See</name>
    <cmt></cmt>
    <desc></desc>
    <src>Komoot</src>
    <type>POI</type>
  </wpt>
  <wpt lat="48.024488" lon="10.654057">
    <ele>616.4</ele>
    <name>Irsingener Lake</name>
    <cmt>https://d2exd72xrrp1s7.cloudfront.net/www/000/1k7/1i/1ig4n350cb7xhwyztfos9bsov4jiehfhs-uhi59006001/0</cmt>
    <desc>HPT: Der Irsingener oder Wörishofener See ist ein 50 Hektar großer und acht Meter tiefer Wertach-Stausee. Der See kann auf einem fünfeinhalb Kilometer langen Naturlehrpfad in etwa drei Stunden umwandert werden.
――――――――――
Loockes: Der Irsinger Stausee läßt sich gut mit dem Rad oder zu Fuß umwandern
――――――――――
SpeedyRosi🫶: Toller Radweg um den See. Eine große Vielfalt an Wasservögeln.</desc>
    <src>Komoot</src>
    <link href="https://www.komoot.de/highlight/2555663">
      <text>View POI on Komoot</text>
    </link>
    <type>Highlight</type>
  </wpt>
  <wpt lat="48.024586" lon="10.65405">
    <ele>613</ele>
    <name>View of Oberrieder Weiher</name>
    <cmt>https://d2exd72xrrp1s7.cloudfront.net/www/000/1k4/1p/1p8q71iye6ono1rvxhosq00evi3bryr36p-uhi11248620/0</cmt>
    <desc>Loockes: Der Steeg und die Fischtreppe schon Mal ein Highlight
――――――――――
Armin: Toller Spaziergang rund um den See
――――――――――
Loockes: der Raucher geht lange Wege zum Zigaretten abhohlen und kurze zur Entsorgung
――――――――――
Carmen: Achtung--es gibt keine Brücke über den See!Man muss den Kanal entlang Richtung Süden und dort kommt man am.Ortseingang Stockheim.an.Dort links und zurück am Kanal entlang zum See und Parkplatz..Zeit insgesamt 2.5 Stunden..Jedoch herrlich zu laufen
――――――――――
Werner Wimmer: eine sehr schöne Runde und absolut nicht überlaufen.
Es geht immer am Wasser entlang</desc>
    <src>Komoot</src>
    <link href="https://www.komoot.de/highlight/1181757">
      <text>View POI on Komoot</text>
    </link>
    <type>Highlight</type>
  </wpt>
  <trk>
    <name>Lange Fischtreppe – Blick auf den Oberrieder Weiher Runde von Irsingen</name>
    <desc>Distance: 9.296km, Estimated duration: 2.42h, Elevation up: 65.03982141349525m, Elevation down: 65.03982141349513m, Grade: moderate</desc>
    <link href="https://www.komoot.de/tour/2878794776">
      <text>View tour on Komoot</text>
    </link>
    <trkseg>
      <trkpt lat="48.023318" lon="10.650856">
        <ele>611.9</ele>
        <time>2026-04-11T12:01:24.819000Z</time>
      </trkpt>
      <trkpt lat="48.023361" lon="10.65088">
        <ele>612</ele>
        <time>2026-04-11T12:01:29.608000Z</time>
      </trkpt>
      <trkpt lat="48.023415" lon="10.651077">
        <ele>612.1</ele>
        <time>2026-04-11T12:01:44.417000Z</time>
      </trkpt>
      <trkpt lat="48.023492" lon="10.651207">
        <ele>612.3</ele>
        <time>2026-04-11T12:01:56.553000Z</time>
      </trkpt>
      <trkpt lat="48.024774" lon="10.652888">
        <ele>613.1</ele>
        <time>2026-04-11T12:04:50.087000Z</time>
      </trkpt>
      <trkpt lat="48.024859" lon="10.652963">
        <ele>613</ele>
        <time>2026-04-11T12:05:00.234000Z</time>
      </trkpt>
      <trkpt lat="48.025082" lon="10.65307">
        <ele>612.7</ele>
        <time>2026-04-11T12:05:24.189000Z</time>
      </trkpt>
      <trkpt lat="48.025156" lon="10.653166">
        <ele>612.7</ele>
        <time>2026-04-11T12:05:34.175000Z</time>
      </trkpt>
      <trkpt lat="48.025121" lon="10.653375">
        <ele>612.6</ele>
        <time>2026-04-11T12:05:48.870000Z</time>
      </trkpt>
      <trkpt lat="48.025077" lon="10.653821">
        <ele>612.4</ele>
        <time>2026-04-11T12:06:19.394000Z</time>
      </trkpt>
      <trkpt lat="48.025064" lon="10.653919">
        <ele>612.3</ele>
        <time>2026-04-11T12:06:26.225000Z</time>
      </trkpt>
      <trkpt lat="48.02499" lon="10.653985">
        <ele>612.3</ele>
        <time>2026-04-11T12:06:34.889000Z</time>
      </trkpt>
      <trkpt lat="48.025049" lon="10.654063">
        <ele>612.2</ele>
        <time>2026-04-11T12:06:42.854000Z</time>
      </trkpt>
      <trkpt lat="48.025075" lon="10.654079">
        <ele>612.2</ele>
        <time>2026-04-11T12:06:45.744000Z</time>
      </trkpt>
      <trkpt lat="48.025115" lon="10.653988">
        <ele>612.2</ele>
        <time>2026-04-11T12:06:53.032000Z</time>
      </trkpt>
      <trkpt lat="48.025155" lon="10.653955">
        <ele>612.1</ele>
        <time>2026-04-11T12:06:57.701000Z</time>
      </trkpt>
      <trkpt lat="48.025115" lon="10.653988">
        <ele>612.1</ele>
        <time>2026-04-11T12:07:02.366000Z</time>
      </trkpt>
      <trkpt lat="48.025075" lon="10.654079">
        <ele>612.1</ele>
        <time>2026-04-11T12:07:09.662000Z</time>
      </trkpt>
      <trkpt lat="48.025049" lon="10.654063">
        <ele>612.1</ele>
        <time>2026-04-11T12:07:12.539000Z</time>
      </trkpt>
      <trkpt lat="48.02499" lon="10.653985">
        <ele>612</ele>
        <time>2026-04-11T12:07:20.472000Z</time>
      </trkpt>
      <trkpt lat="48.024927" lon="10.654033">
        <ele>612</ele>
        <time>2026-04-11T12:07:27.687000Z</time>
      </trkpt>
      <trkpt lat="48.024849" lon="10.654093">
        <ele>612</ele>
        <time>2026-04-11T12:07:36.409000Z</time>
      </trkpt>
      <trkpt lat="48.02451" lon="10.654397">
        <ele>612.1</ele>
        <time>2026-04-11T12:08:16.353000Z</time>
      </trkpt>
      <trkpt lat="48.024346" lon="10.654545">
        <ele>612.2</ele>
        <time>2026-04-11T12:08:35.881000Z</time>
      </trkpt>
      <trkpt lat="48.024348" lon="10.654792">
        <ele>612.3</ele>
        <time>2026-04-11T12:08:52.833000Z</time>
      </trkpt>
      <trkpt lat="48.024395" lon="10.65673">
        <ele>612.6</ele>
        <time>2026-04-11T12:11:03.515000Z</time>
      </trkpt>
      <trkpt lat="48.024445" lon="10.658152">
        <ele>612.6</ele>
        <time>2026-04-11T12:12:38.965000Z</time>
      </trkpt>
      <trkpt lat="48.024457" lon="10.658641">
        <ele>612.7</ele>
        <time>2026-04-11T12:13:11.978000Z</time>
      </trkpt>
      <trkpt lat="48.024495" lon="10.660062">
        <ele>613.5</ele>
        <time>2026-04-11T12:14:50.128000Z</time>
      </trkpt>
      <trkpt lat="48.024543" lon="10.661829">
        <ele>615.5</ele>
        <time>2026-04-11T12:16:55.691000Z</time>
      </trkpt>
      <trkpt lat="48.024446" lon="10.66191">
        <ele>615.8</ele>
        <time>2026-04-11T12:17:07.636000Z</time>
      </trkpt>
      <trkpt lat="48.024387" lon="10.662087">
        <ele>616.1</ele>
        <time>2026-04-11T12:17:21.998000Z</time>
      </trkpt>
      <trkpt lat="48.024329" lon="10.662753">
        <ele>617.3</ele>
        <time>2026-04-11T12:18:11.110000Z</time>
      </trkpt>
      <trkpt lat="48.024245" lon="10.663145">
        <ele>618.1</ele>
        <time>2026-04-11T12:18:41.533000Z</time>
      </trkpt>
      <trkpt lat="48.024055" lon="10.664811">
        <ele>621.7</ele>
        <time>2026-04-11T12:20:47.446000Z</time>
      </trkpt>
      <trkpt lat="48.023467" lon="10.666864">
        <ele>625.5</ele>
        <time>2026-04-11T12:23:30.212000Z</time>
      </trkpt>
      <trkpt lat="48.023755" lon="10.66683">
        <ele>626.3</ele>
        <time>2026-04-11T12:24:02.121000Z</time>
      </trkpt>
      <trkpt lat="48.023467" lon="10.666864">
        <ele>627.4</ele>
        <time>2026-04-11T12:24:34.654000Z</time>
      </trkpt>
      <trkpt lat="48.023256" lon="10.666787">
        <ele>628.3</ele>
        <time>2026-04-11T12:24:59.546000Z</time>
      </trkpt>
      <trkpt lat="48.022472" lon="10.666818">
        <ele>632.3</ele>
        <time>2026-04-11T12:26:31.930000Z</time>
      </trkpt>
      <trkpt lat="48.021798" lon="10.666725">
        <ele>635.8</ele>
        <time>2026-04-11T12:27:51.897000Z</time>
      </trkpt>
      <trkpt lat="48.021352" lon="10.666593">
        <ele>636.9</ele>
        <time>2026-04-11T12:28:41.111000Z</time>
      </trkpt>
      <trkpt lat="48.021056" lon="10.666613">
        <ele>636.9</ele>
        <time>2026-04-11T12:29:10.894000Z</time>
      </trkpt>
      <trkpt lat="48.020646" lon="10.666625">
        <ele>636.3</ele>
        <time>2026-04-11T12:29:53.206000Z</time>
      </trkpt>
      <trkpt lat="48.020422" lon="10.666681">
        <ele>635.8</ele>
        <time>2026-04-11T12:30:17.102000Z</time>
      </trkpt>
      <trkpt lat="48.020136" lon="10.666856">
        <ele>634.8</ele>
        <time>2026-04-11T12:30:50.019000Z</time>
      </trkpt>
      <trkpt lat="48.019806" lon="10.667005">
        <ele>633.7</ele>
        <time>2026-04-11T12:31:26.804000Z</time>
      </trkpt>
      <trkpt lat="48.019133" lon="10.667254">
        <ele>632.4</ele>
        <time>2026-04-11T12:32:38.859000Z</time>
      </trkpt>
      <trkpt lat="48.018352" lon="10.667464">
        <ele>632.2</ele>
        <time>2026-04-11T12:33:58.693000Z</time>
      </trkpt>
      <trkpt lat="48.017701" lon="10.667612">
        <ele>632.5</ele>
        <time>2026-04-11T12:35:05.546000Z</time>
      </trkpt>
      <trkpt lat="48.017016" lon="10.667617">
        <ele>632.7</ele>
        <time>2026-04-11T12:36:14.977000Z</time>
      </trkpt>
      <trkpt lat="48.015349" lon="10.668603">
        <ele>633.1</ele>
        <time>2026-04-11T12:39:16.015000Z</time>
      </trkpt>
      <trkpt lat="48.015323" lon="10.668618">
        <ele>633.2</ele>
        <time>2026-04-11T12:39:18.866000Z</time>
      </trkpt>
      <trkpt lat="48.01518" lon="10.668668">
        <ele>633.3</ele>
        <time>2026-04-11T12:39:33.940000Z</time>
      </trkpt>
      <trkpt lat="48.015043" lon="10.66868">
        <ele>633.4</ele>
        <time>2026-04-11T12:39:48.063000Z</time>
      </trkpt>
      <trkpt lat="48.0149" lon="10.668649">
        <ele>633.5</ele>
        <time>2026-04-11T12:40:03.009000Z</time>
      </trkpt>
      <trkpt lat="48.014788" lon="10.668587">
        <ele>633.6</ele>
        <time>2026-04-11T12:40:15.380000Z</time>
      </trkpt>
      <trkpt lat="48.014544" lon="10.668311">
        <ele>634</ele>
        <time>2026-04-11T12:40:47.214000Z</time>
      </trkpt>
      <trkpt lat="48.014281" lon="10.66811">
        <ele>634.4</ele>
        <time>2026-04-11T12:41:18.245000Z</time>
      </trkpt>
      <trkpt lat="48.014022" lon="10.668022">
        <ele>634.9</ele>
        <time>2026-04-11T12:41:46.606000Z</time>
      </trkpt>
      <trkpt lat="48.013452" lon="10.667789">
        <ele>636.5</ele>
        <time>2026-04-11T12:42:51.339000Z</time>
      </trkpt>
      <trkpt lat="48.013117" lon="10.667732">
        <ele>637.5</ele>
        <time>2026-04-11T12:43:28.658000Z</time>
      </trkpt>
      <trkpt lat="48.011815" lon="10.667763">
        <ele>640.9</ele>
        <time>2026-04-11T12:45:51.143000Z</time>
      </trkpt>
      <trkpt lat="48.011217" lon="10.667871">
        <ele>641.5</ele>
        <time>2026-04-11T12:46:53.298000Z</time>
      </trkpt>
      <trkpt lat="48.010597" lon="10.667919">
        <ele>641.3</ele>
        <time>2026-04-11T12:47:55.807000Z</time>
      </trkpt>
      <trkpt lat="48.009978" lon="10.667828">
        <ele>640.7</ele>
        <time>2026-04-11T12:48:59.284000Z</time>
      </trkpt>
      <trkpt lat="48.010064" lon="10.667484">
        <ele>640.5</ele>
        <time>2026-04-11T12:49:24.392000Z</time>
      </trkpt>
      <trkpt lat="48.010217" lon="10.666401">
        <ele>639.7</ele>
        <time>2026-04-11T12:50:40.005000Z</time>
      </trkpt>
      <trkpt lat="48.009915" lon="10.666124">
        <ele>639.4</ele>
        <time>2026-04-11T12:51:16.185000Z</time>
      </trkpt>
      <trkpt lat="48.00957" lon="10.665942">
        <ele>639.1</ele>
        <time>2026-04-11T12:51:53.411000Z</time>
      </trkpt>
      <trkpt lat="48.0092" lon="10.665819">
        <ele>639.1</ele>
        <time>2026-04-11T12:52:31.498000Z</time>
      </trkpt>
      <trkpt lat="48.008779" lon="10.665783">
        <ele>639.8</ele>
        <time>2026-04-11T12:53:16.006000Z</time>
      </trkpt>
      <trkpt lat="48.008359" lon="10.665804">
        <ele>641.1</ele>
        <time>2026-04-11T12:54:02.807000Z</time>
      </trkpt>
      <trkpt lat="48.007157" lon="10.665959">
        <ele>647</ele>
        <time>2026-04-11T12:56:23.977000Z</time>
      </trkpt>
      <trkpt lat="48.006665" lon="10.666058">
        <ele>648.7</ele>
        <time>2026-04-11T12:57:19.459000Z</time>
      </trkpt>
      <trkpt lat="48.005105" lon="10.666626">
        <ele>650.3</ele>
        <time>2026-04-11T13:00:06.006000Z</time>
      </trkpt>
      <trkpt lat="48.003992" lon="10.666544">
        <ele>654.2</ele>
        <time>2026-04-11T13:02:11.184000Z</time>
      </trkpt>
      <trkpt lat="48.003757" lon="10.666479">
        <ele>655.3</ele>
        <time>2026-04-11T13:02:39.082000Z</time>
      </trkpt>
      <trkpt lat="48.002832" lon="10.666506">
        <ele>658.9</ele>
        <time>2026-04-11T13:04:24.223000Z</time>
      </trkpt>
      <trkpt lat="48.002426" lon="10.666435">
        <ele>660</ele>
        <time>2026-04-11T13:05:08.848000Z</time>
      </trkpt>
      <trkpt lat="48.002097" lon="10.666439">
        <ele>660.6</ele>
        <time>2026-04-11T13:05:43.752000Z</time>
      </trkpt>
      <trkpt lat="48.001685" lon="10.666571">
        <ele>660.9</ele>
        <time>2026-04-11T13:06:27.263000Z</time>
      </trkpt>
      <trkpt lat="48.000726" lon="10.666686">
        <ele>660.4</ele>
        <time>2026-04-11T13:08:04.513000Z</time>
      </trkpt>
      <trkpt lat="48.000504" lon="10.666711">
        <ele>659.7</ele>
        <time>2026-04-11T13:08:28.321000Z</time>
      </trkpt>
      <trkpt lat="48.000242" lon="10.666795">
        <ele>658.4</ele>
        <time>2026-04-11T13:08:57.848000Z</time>
      </trkpt>
      <trkpt lat="48.000417" lon="10.666193">
        <ele>655.5</ele>
        <time>2026-04-11T13:09:47.698000Z</time>
      </trkpt>
      <trkpt lat="48.000523" lon="10.66557">
        <ele>652.5</ele>
        <time>2026-04-11T13:10:36.714000Z</time>
      </trkpt>
      <trkpt lat="48.000574" lon="10.664838">
        <ele>649</ele>
        <time>2026-04-11T13:11:33.094000Z</time>
      </trkpt>
      <trkpt lat="47.999831" lon="10.664791">
        <ele>646.4</ele>
        <time>2026-04-11T13:12:52.732000Z</time>
      </trkpt>
      <trkpt lat="47.999534" lon="10.664857">
        <ele>647.3</ele>
        <time>2026-04-11T13:13:25.743000Z</time>
      </trkpt>
      <trkpt lat="47.999266" lon="10.665236">
        <ele>649.3</ele>
        <time>2026-04-11T13:14:09.844000Z</time>
      </trkpt>
      <trkpt lat="47.998418" lon="10.665406">
        <ele>651.3</ele>
        <time>2026-04-11T13:15:42.563000Z</time>
      </trkpt>
      <trkpt lat="47.998432" lon="10.665281">
        <ele>651.2</ele>
        <time>2026-04-11T13:15:51.284000Z</time>
      </trkpt>
      <trkpt lat="47.998398" lon="10.665098">
        <ele>650.9</ele>
        <time>2026-04-11T13:16:04.635000Z</time>
      </trkpt>
      <trkpt lat="47.997999" lon="10.663969">
        <ele>645</ele>
        <time>2026-04-11T13:17:42.028000Z</time>
      </trkpt>
      <trkpt lat="47.997587" lon="10.663683">
        <ele>640.2</ele>
        <time>2026-04-11T13:18:36.865000Z</time>
      </trkpt>
      <trkpt lat="47.997319" lon="10.66362">
        <ele>637.6</ele>
        <time>2026-04-11T13:19:09.267000Z</time>
      </trkpt>
      <trkpt lat="47.997264" lon="10.663308">
        <ele>635.7</ele>
        <time>2026-04-11T13:19:34.632000Z</time>
      </trkpt>
      <trkpt lat="47.997099" lon="10.663203">
        <ele>634.3</ele>
        <time>2026-04-11T13:19:55.314000Z</time>
      </trkpt>
      <trkpt lat="47.997025" lon="10.662958">
        <ele>633.1</ele>
        <time>2026-04-11T13:20:15.815000Z</time>
      </trkpt>
      <trkpt lat="47.997017" lon="10.662739">
        <ele>632.3</ele>
        <time>2026-04-11T13:20:32.221000Z</time>
      </trkpt>
      <trkpt lat="47.99714" lon="10.661936">
        <ele>629.7</ele>
        <time>2026-04-11T13:21:32.453000Z</time>
      </trkpt>
      <trkpt lat="47.997255" lon="10.660907">
        <ele>626.7</ele>
        <time>2026-04-11T13:22:48.547000Z</time>
      </trkpt>
      <trkpt lat="47.997501" lon="10.659245">
        <ele>624.3</ele>
        <time>2026-04-11T13:24:47.505000Z</time>
      </trkpt>
      <trkpt lat="47.997696" lon="10.658011">
        <ele>623.6</ele>
        <time>2026-04-11T13:26:13.902000Z</time>
      </trkpt>
      <trkpt lat="47.997747" lon="10.65769">
        <ele>623.5</ele>
        <time>2026-04-11T13:26:36.251000Z</time>
      </trkpt>
      <trkpt lat="47.997841" lon="10.657366">
        <ele>623.4</ele>
        <time>2026-04-11T13:27:00.147000Z</time>
      </trkpt>
      <trkpt lat="47.997951" lon="10.657099">
        <ele>623.3</ele>
        <time>2026-04-11T13:27:21.362000Z</time>
      </trkpt>
      <trkpt lat="47.998018" lon="10.65683">
        <ele>623.2</ele>
        <time>2026-04-11T13:27:40.781000Z</time>
      </trkpt>
      <trkpt lat="47.998117" lon="10.656233">
        <ele>622.9</ele>
        <time>2026-04-11T13:28:22.403000Z</time>
      </trkpt>
      <trkpt lat="47.998576" lon="10.653604">
        <ele>621.5</ele>
        <time>2026-04-11T13:31:27.403000Z</time>
      </trkpt>
      <trkpt lat="48.000618" lon="10.650228">
        <ele>617.3</ele>
        <time>2026-04-11T13:36:40.932000Z</time>
      </trkpt>
      <trkpt lat="48.003504" lon="10.649743">
        <ele>616.7</ele>
        <time>2026-04-11T13:41:32.749000Z</time>
      </trkpt>
      <trkpt lat="48.003617" lon="10.649738">
        <ele>616.7</ele>
        <time>2026-04-11T13:41:44.016000Z</time>
      </trkpt>
      <trkpt lat="48.003679" lon="10.649735">
        <ele>616.7</ele>
        <time>2026-04-11T13:41:50.280000Z</time>
      </trkpt>
      <trkpt lat="48.003683" lon="10.649688">
        <ele>616.7</ele>
        <time>2026-04-11T13:41:53.451000Z</time>
      </trkpt>
      <trkpt lat="48.003738" lon="10.649688">
        <ele>616.7</ele>
        <time>2026-04-11T13:41:58.980000Z</time>
      </trkpt>
      <trkpt lat="48.004291" lon="10.649684">
        <ele>616.6</ele>
        <time>2026-04-11T13:42:54.455000Z</time>
      </trkpt>
      <trkpt lat="48.005238" lon="10.649919">
        <ele>616.8</ele>
        <time>2026-04-11T13:44:31.289000Z</time>
      </trkpt>
      <trkpt lat="48.00607" lon="10.650067">
        <ele>617.2</ele>
        <time>2026-04-11T13:45:56.350000Z</time>
      </trkpt>
      <trkpt lat="48.006174" lon="10.650029">
        <ele>617.2</ele>
        <time>2026-04-11T13:46:07.172000Z</time>
      </trkpt>
      <trkpt lat="48.009389" lon="10.650723">
        <ele>615.8</ele>
        <time>2026-04-11T13:51:35.165000Z</time>
      </trkpt>
      <trkpt lat="48.014279" lon="10.65178">
        <ele>613.6</ele>
        <time>2026-04-11T13:59:54.331000Z</time>
      </trkpt>
      <trkpt lat="48.014443" lon="10.651873">
        <ele>613.7</ele>
        <time>2026-04-11T14:00:12.396000Z</time>
      </trkpt>
      <trkpt lat="48.014594" lon="10.652011">
        <ele>613.9</ele>
        <time>2026-04-11T14:00:30.600000Z</time>
      </trkpt>
      <trkpt lat="48.015242" lon="10.65273">
        <ele>614.5</ele>
        <time>2026-04-11T14:01:53.645000Z</time>
      </trkpt>
      <trkpt lat="48.015508" lon="10.652952">
        <ele>614.7</ele>
        <time>2026-04-11T14:02:24.910000Z</time>
      </trkpt>
      <trkpt lat="48.015723" lon="10.653082">
        <ele>614.8</ele>
        <time>2026-04-11T14:02:48.461000Z</time>
      </trkpt>
      <trkpt lat="48.01702" lon="10.653611">
        <ele>614.7</ele>
        <time>2026-04-11T14:05:03.240000Z</time>
      </trkpt>
      <trkpt lat="48.017236" lon="10.653755">
        <ele>614.7</ele>
        <time>2026-04-11T14:05:26.940000Z</time>
      </trkpt>
      <trkpt lat="48.018404" lon="10.654996">
        <ele>614.7</ele>
        <time>2026-04-11T14:07:50.548000Z</time>
      </trkpt>
      <trkpt lat="48.018937" lon="10.655341">
        <ele>614.6</ele>
        <time>2026-04-11T14:08:48.947000Z</time>
      </trkpt>
      <trkpt lat="48.019635" lon="10.655577">
        <ele>614.4</ele>
        <time>2026-04-11T14:10:01.035000Z</time>
      </trkpt>
      <trkpt lat="48.019847" lon="10.655648">
        <ele>614.3</ele>
        <time>2026-04-11T14:10:22.892000Z</time>
      </trkpt>
      <trkpt lat="48.020315" lon="10.655694">
        <ele>614.2</ele>
        <time>2026-04-11T14:11:10.206000Z</time>
      </trkpt>
      <trkpt lat="48.022302" lon="10.655271">
        <ele>614.1</ele>
        <time>2026-04-11T14:14:31.054000Z</time>
      </trkpt>
      <trkpt lat="48.023185" lon="10.65505">
        <ele>614</ele>
        <time>2026-04-11T14:16:00.831000Z</time>
      </trkpt>
      <trkpt lat="48.023651" lon="10.654774">
        <ele>613.8</ele>
        <time>2026-04-11T14:16:51.508000Z</time>
      </trkpt>
      <trkpt lat="48.024408" lon="10.654218">
        <ele>613.3</ele>
        <time>2026-04-11T14:18:16.993000Z</time>
      </trkpt>
      <trkpt lat="48.024519" lon="10.65411">
        <ele>613.2</ele>
        <time>2026-04-11T14:18:30.534000Z</time>
      </trkpt>
      <trkpt lat="48.024585" lon="10.654046">
        <ele>613.1</ele>
        <time>2026-04-11T14:18:38.573000Z</time>
      </trkpt>
      <trkpt lat="48.024624" lon="10.654008">
        <ele>613</ele>
        <time>2026-04-11T14:18:43.374000Z</time>
      </trkpt>
      <trkpt lat="48.02436" lon="10.65445">
        <ele>612.6</ele>
        <time>2026-04-11T14:19:23.946000Z</time>
      </trkpt>
      <trkpt lat="48.024346" lon="10.654545">
        <ele>612.5</ele>
        <time>2026-04-11T14:19:30.595000Z</time>
      </trkpt>
      <trkpt lat="48.02451" lon="10.654397">
        <ele>612.4</ele>
        <time>2026-04-11T14:19:50.119000Z</time>
      </trkpt>
      <trkpt lat="48.024849" lon="10.654093">
        <ele>612.1</ele>
        <time>2026-04-11T14:20:30.235000Z</time>
      </trkpt>
      <trkpt lat="48.024927" lon="10.654033">
        <ele>612.1</ele>
        <time>2026-04-11T14:20:39.014000Z</time>
      </trkpt>
      <trkpt lat="48.02495" lon="10.654104">
        <ele>612.1</ele>
        <time>2026-04-11T14:20:44.323000Z</time>
      </trkpt>
      <trkpt lat="48.024938" lon="10.654168">
        <ele>612.1</ele>
        <time>2026-04-11T14:20:48.783000Z</time>
      </trkpt>
      <trkpt lat="48.024961" lon="10.654217">
        <ele>612.1</ele>
        <time>2026-04-11T14:20:52.823000Z</time>
      </trkpt>
      <trkpt lat="48.024944" lon="10.65434">
        <ele>612.1</ele>
        <time>2026-04-11T14:21:01.435000Z</time>
      </trkpt>
      <trkpt lat="48.024979" lon="10.654369">
        <ele>612.1</ele>
        <time>2026-04-11T14:21:05.426000Z</time>
      </trkpt>
      <trkpt lat="48.024988" lon="10.654367">
        <ele>612.1</ele>
        <time>2026-04-11T14:21:06.386000Z</time>
      </trkpt>
      <trkpt lat="48.024979" lon="10.654369">
        <ele>612.1</ele>
        <time>2026-04-11T14:21:07.359000Z</time>
      </trkpt>
      <trkpt lat="48.024944" lon="10.65434">
        <ele>612.2</ele>
        <time>2026-04-11T14:21:11.442000Z</time>
      </trkpt>
      <trkpt lat="48.024961" lon="10.654217">
        <ele>612.2</ele>
        <time>2026-04-11T14:21:20.006000Z</time>
      </trkpt>
      <trkpt lat="48.024938" lon="10.654168">
        <ele>612.2</ele>
        <time>2026-04-11T14:21:24.076000Z</time>
      </trkpt>
      <trkpt lat="48.02495" lon="10.654104">
        <ele>612.2</ele>
        <time>2026-04-11T14:21:28.647000Z</time>
      </trkpt>
      <trkpt lat="48.024927" lon="10.654033">
        <ele>612.3</ele>
        <time>2026-04-11T14:21:34.051000Z</time>
      </trkpt>
      <trkpt lat="48.02499" lon="10.653985">
        <ele>612.3</ele>
        <time>2026-04-11T14:21:41.294000Z</time>
      </trkpt>
      <trkpt lat="48.025064" lon="10.653919">
        <ele>612.4</ele>
        <time>2026-04-11T14:21:50.096000Z</time>
      </trkpt>
      <trkpt lat="48.025077" lon="10.653821">
        <ele>612.4</ele>
        <time>2026-04-11T14:21:56.958000Z</time>
      </trkpt>
      <trkpt lat="48.025121" lon="10.653375">
        <ele>612.6</ele>
        <time>2026-04-11T14:22:27.864000Z</time>
      </trkpt>
      <trkpt lat="48.025156" lon="10.653166">
        <ele>612.7</ele>
        <time>2026-04-11T14:22:42.774000Z</time>
      </trkpt>
      <trkpt lat="48.025082" lon="10.65307">
        <ele>612.9</ele>
        <time>2026-04-11T14:22:52.987000Z</time>
      </trkpt>
      <trkpt lat="48.024859" lon="10.652963">
        <ele>613</ele>
        <time>2026-04-11T14:23:17.025000Z</time>
      </trkpt>
      <trkpt lat="48.024774" lon="10.652888">
        <ele>613.1</ele>
        <time>2026-04-11T14:23:27.292000Z</time>
      </trkpt>
      <trkpt lat="48.023492" lon="10.651207">
        <ele>612.3</ele>
        <time>2026-04-11T14:26:19.621000Z</time>
      </trkpt>
      <trkpt lat="48.023415" lon="10.651077">
        <ele>612.1</ele>
        <time>2026-04-11T14:26:31.563000Z</time>
      </trkpt>
      <trkpt lat="48.023361" lon="10.65088">
        <ele>612</ele>
        <time>2026-04-11T14:26:46.138000Z</time>
      </trkpt>
      <trkpt lat="48.023318" lon="10.650856">
        <ele>611.9</ele>
        <time>2026-04-11T14:26:50.861000Z</time>
      </trkpt>
    </trkseg>
  </trk>
</gpx>