<?xml version="1.0" encoding="UTF-8"?>
<gpx xmlns="http://www.topografix.com/GPX/1/1" xmlns:xsi="http://www.w3.org/2001/XMLSchema-instance" xsi:schemaLocation="http://www.topografix.com/GPX/1/1 http://www.topografix.com/GPX/1/1/gpx.xsd" version="1.1" creator="Robert Kampf">
  <metadata>
    <name>Lechflößer-Denkmal – Lechstaustufe 12 – Lechmühlen Runde von Seestall</name>
    <desc>Distance: 7.471km, Estimated duration: 1.95h, Elevation up: 51.82372466828997m, Elevation down: 51.82372466828974m, Grade: easy</desc>
    <author>
      <name>Robert Kampf</name>
      <link href="https://www.komoot.de/user/4125295338453">
        <text>View Robert Kampf's Profile on Komoot</text>
      </link>
    </author>
    <link href="https://www.komoot.de/tour/2853531202">
      <text>View tour on Komoot</text>
    </link>
  </metadata>
  <wpt lat="47.964603" lon="10.864931">
    <name>Seestall Gh. Flößerstuben</name>
    <cmt></cmt>
    <desc>Not accessible</desc>
    <src>Komoot</src>
    <type>POI</type>
  </wpt>
  <wpt lat="47.957074" lon="10.862395">
    <ele>679</ele>
    <name>Gasthof Römerfeld</name>
    <cmt>https://d2exd72xrrp1s7.cloudfront.net/www/000/1k5/10/10jqnbhx9ahbl10vgy6ccis57v3t05p768-uhi35468025/0</cmt>
    <desc></desc>
    <src>Komoot</src>
    <link href="https://www.komoot.de/highlight/3353321">
      <text>View POI on Komoot</text>
    </link>
    <type>Highlight</type>
  </wpt>
  <wpt lat="47.95592" lon="10.869931">
    <ele>678</ele>
    <name>Lechflößer Monument</name>
    <cmt>https://d2exd72xrrp1s7.cloudfront.net/www/000/1k5/1j/1j6b73jts8aq2ugcyzyutar1t3t05oufk-uhi35467964/0</cmt>
    <desc>Mike Fox: Ein Denkmal für die Lechflöser</desc>
    <src>Komoot</src>
    <link href="https://www.komoot.de/highlight/3353315">
      <text>View POI on Komoot</text>
    </link>
    <type>Highlight</type>
  </wpt>
  <wpt lat="47.952495" lon="10.875808">
    <ele>616.6</ele>
    <name>Lech Dam 12 – Lechmühlen</name>
    <cmt>https://d2exd72xrrp1s7.cloudfront.net/www/000/1k5/1s/1si0vuzzjoogfxnx3aj1pr6i73pzlt1ax-uhi30703440/0</cmt>
    <desc>Mike Fox: Von hier aus immer am Lech entlang, Auftakt für eine schöne Wanderung, mit vielen tollen Aussichtspunkten auf den Lech.</desc>
    <src>Komoot</src>
    <link href="https://www.komoot.de/highlight/3052665">
      <text>View POI on Komoot</text>
    </link>
    <type>Highlight</type>
  </wpt>
  <wpt lat="47.95004" lon="10.880591">
    <ele>663.3</ele>
    <name>Swimming spot on the calm Lech</name>
    <cmt>https://d2exd72xrrp1s7.cloudfront.net/www/000/1k5/yq/yq2282h3ehwy198igq1lqmizj3sk71n7a-uhi34703781/0</cmt>
    <desc>Schmiddy: Hier kann man unbesorgt die Hunde ins Wasser lassen. Erst ein ganzes Stück flusseinwärts wird die Strömung stärker.</desc>
    <src>Komoot</src>
    <link href="https://www.komoot.de/highlight/3312519">
      <text>View POI on Komoot</text>
    </link>
    <type>Highlight</type>
  </wpt>
  <wpt lat="47.952145" lon="10.869088">
    <ele>661</ele>
    <name>Lech River and Grasmühle</name>
    <cmt>https://d2exd72xrrp1s7.cloudfront.net/www/000/1k5/ah/ahmkbjs079r412c2hnqsrf1kr3t05ovad-uhi35467976/0</cmt>
    <desc></desc>
    <src>Komoot</src>
    <link href="https://www.komoot.de/highlight/3353316">
      <text>View POI on Komoot</text>
    </link>
    <type>Highlight</type>
  </wpt>
  <wpt lat="47.956286" lon="10.863659">
    <ele>620.8</ele>
    <name>Römerkessel Inn</name>
    <cmt>https://d2exd72xrrp1s7.cloudfront.net/www/000/1k2/2x/2xwpq854oja21qctv90nbk0kl2l3hcfe6-uhi2680915/0</cmt>
    <desc>uhartge: Schöne Aussicht auf den Lech und gute Küche
――――――――――
Mike Fox: Sieht gut aus, liegt gut mit Blick über den Lech. Ich war nur leider zu früh dran.</desc>
    <src>Komoot</src>
    <link href="https://www.komoot.de/highlight/445106">
      <text>View POI on Komoot</text>
    </link>
    <type>Highlight</type>
  </wpt>
  <trk>
    <name>Lechflößer-Denkmal – Lechstaustufe 12 – Lechmühlen Runde von Seestall</name>
    <desc>Distance: 7.471km, Estimated duration: 1.95h, Elevation up: 51.82372466828997m, Elevation down: 51.82372466828974m, Grade: easy</desc>
    <link href="https://www.komoot.de/tour/2853531202">
      <text>View tour on Komoot</text>
    </link>
    <trkseg>
      <trkpt lat="47.964608" lon="10.864943">
        <ele>620.3</ele>
        <time>2026-03-30T12:12:38.447000Z</time>
      </trkpt>
      <trkpt lat="47.964565" lon="10.864984">
        <ele>620.3</ele>
        <time>2026-03-30T12:12:43.535000Z</time>
      </trkpt>
      <trkpt lat="47.964439" lon="10.865135">
        <ele>620.3</ele>
        <time>2026-03-30T12:12:59.760000Z</time>
      </trkpt>
      <trkpt lat="47.964388" lon="10.865243">
        <ele>620.3</ele>
        <time>2026-03-30T12:13:08.601000Z</time>
      </trkpt>
      <trkpt lat="47.964288" lon="10.865374">
        <ele>620.3</ele>
        <time>2026-03-30T12:13:22.069000Z</time>
      </trkpt>
      <trkpt lat="47.964056" lon="10.865509">
        <ele>620.4</ele>
        <time>2026-03-30T12:13:47.329000Z</time>
      </trkpt>
      <trkpt lat="47.963952" lon="10.865566">
        <ele>620.5</ele>
        <time>2026-03-30T12:13:58.695000Z</time>
      </trkpt>
      <trkpt lat="47.963724" lon="10.86572">
        <ele>620.7</ele>
        <time>2026-03-30T12:14:24.443000Z</time>
      </trkpt>
      <trkpt lat="47.963622" lon="10.865789">
        <ele>620.8</ele>
        <time>2026-03-30T12:14:36.018000Z</time>
      </trkpt>
      <trkpt lat="47.96352" lon="10.86587">
        <ele>620.9</ele>
        <time>2026-03-30T12:14:47.982000Z</time>
      </trkpt>
      <trkpt lat="47.96346" lon="10.865918">
        <ele>620.9</ele>
        <time>2026-03-30T12:14:55.027000Z</time>
      </trkpt>
      <trkpt lat="47.963339" lon="10.866004">
        <ele>621.1</ele>
        <time>2026-03-30T12:15:08.831000Z</time>
      </trkpt>
      <trkpt lat="47.963242" lon="10.866034">
        <ele>621.2</ele>
        <time>2026-03-30T12:15:19.115000Z</time>
      </trkpt>
      <trkpt lat="47.963085" lon="10.866007">
        <ele>621.4</ele>
        <time>2026-03-30T12:15:35.663000Z</time>
      </trkpt>
      <trkpt lat="47.962885" lon="10.865881">
        <ele>621.7</ele>
        <time>2026-03-30T12:15:58.393000Z</time>
      </trkpt>
      <trkpt lat="47.962831" lon="10.865855">
        <ele>621.7</ele>
        <time>2026-03-30T12:16:04.374000Z</time>
      </trkpt>
      <trkpt lat="47.962684" lon="10.865782">
        <ele>622</ele>
        <time>2026-03-30T12:16:20.686000Z</time>
      </trkpt>
      <trkpt lat="47.9625" lon="10.865682">
        <ele>622.3</ele>
        <time>2026-03-30T12:16:41.381000Z</time>
      </trkpt>
      <trkpt lat="47.962376" lon="10.865614">
        <ele>622.5</ele>
        <time>2026-03-30T12:16:55.305000Z</time>
      </trkpt>
      <trkpt lat="47.96214" lon="10.865408">
        <ele>622.8</ele>
        <time>2026-03-30T12:17:23.822000Z</time>
      </trkpt>
      <trkpt lat="47.961934" lon="10.865048">
        <ele>623</ele>
        <time>2026-03-30T12:17:56.279000Z</time>
      </trkpt>
      <trkpt lat="47.961791" lon="10.864893">
        <ele>623</ele>
        <time>2026-03-30T12:18:14.063000Z</time>
      </trkpt>
      <trkpt lat="47.961713" lon="10.864816">
        <ele>622.9</ele>
        <time>2026-03-30T12:18:23.462000Z</time>
      </trkpt>
      <trkpt lat="47.96107" lon="10.864664">
        <ele>622.2</ele>
        <time>2026-03-30T12:19:30.035000Z</time>
      </trkpt>
      <trkpt lat="47.960859" lon="10.864689">
        <ele>621.9</ele>
        <time>2026-03-30T12:19:51.909000Z</time>
      </trkpt>
      <trkpt lat="47.960491" lon="10.864808">
        <ele>621.4</ele>
        <time>2026-03-30T12:20:30.612000Z</time>
      </trkpt>
      <trkpt lat="47.960286" lon="10.864806">
        <ele>621.2</ele>
        <time>2026-03-30T12:20:51.600000Z</time>
      </trkpt>
      <trkpt lat="47.959762" lon="10.864442">
        <ele>621.1</ele>
        <time>2026-03-30T12:21:49.581000Z</time>
      </trkpt>
      <trkpt lat="47.959373" lon="10.864081">
        <ele>621.8</ele>
        <time>2026-03-30T12:22:38.032000Z</time>
      </trkpt>
      <trkpt lat="47.958788" lon="10.86375">
        <ele>623.7</ele>
        <time>2026-03-30T12:23:47.028000Z</time>
      </trkpt>
      <trkpt lat="47.958269" lon="10.863349">
        <ele>625.7</ele>
        <time>2026-03-30T12:24:52.574000Z</time>
      </trkpt>
      <trkpt lat="47.95818" lon="10.863318">
        <ele>626</ele>
        <time>2026-03-30T12:25:02.897000Z</time>
      </trkpt>
      <trkpt lat="47.957956" lon="10.863331">
        <ele>627</ele>
        <time>2026-03-30T12:25:28.826000Z</time>
      </trkpt>
      <trkpt lat="47.957651" lon="10.863425">
        <ele>628.5</ele>
        <time>2026-03-30T12:26:05.045000Z</time>
      </trkpt>
      <trkpt lat="47.957446" lon="10.863419">
        <ele>629.3</ele>
        <time>2026-03-30T12:26:28.474000Z</time>
      </trkpt>
      <trkpt lat="47.95728" lon="10.863299">
        <ele>629.9</ele>
        <time>2026-03-30T12:26:48.962000Z</time>
      </trkpt>
      <trkpt lat="47.95719" lon="10.863186">
        <ele>630.2</ele>
        <time>2026-03-30T12:27:01.716000Z</time>
      </trkpt>
      <trkpt lat="47.957113" lon="10.862993">
        <ele>630.5</ele>
        <time>2026-03-30T12:27:18.041000Z</time>
      </trkpt>
      <trkpt lat="47.957086" lon="10.862904">
        <ele>630.7</ele>
        <time>2026-03-30T12:27:25.210000Z</time>
      </trkpt>
      <trkpt lat="47.956988" lon="10.862476">
        <ele>631.3</ele>
        <time>2026-03-30T12:27:57.693000Z</time>
      </trkpt>
      <trkpt lat="47.957039" lon="10.86251">
        <ele>631.3</ele>
        <time>2026-03-30T12:28:03.464000Z</time>
      </trkpt>
      <trkpt lat="47.956988" lon="10.862476">
        <ele>631.4</ele>
        <time>2026-03-30T12:28:09.365000Z</time>
      </trkpt>
      <trkpt lat="47.957086" lon="10.862904">
        <ele>631.7</ele>
        <time>2026-03-30T12:28:40.568000Z</time>
      </trkpt>
      <trkpt lat="47.956965" lon="10.862949">
        <ele>631.6</ele>
        <time>2026-03-30T12:28:53.274000Z</time>
      </trkpt>
      <trkpt lat="47.956864" lon="10.862933">
        <ele>631.4</ele>
        <time>2026-03-30T12:29:03.835000Z</time>
      </trkpt>
      <trkpt lat="47.956648" lon="10.862739">
        <ele>630.4</ele>
        <time>2026-03-30T12:29:31.133000Z</time>
      </trkpt>
      <trkpt lat="47.956481" lon="10.862712">
        <ele>629.5</ele>
        <time>2026-03-30T12:29:49.640000Z</time>
      </trkpt>
      <trkpt lat="47.95641" lon="10.86274">
        <ele>629.1</ele>
        <time>2026-03-30T12:29:57.812000Z</time>
      </trkpt>
      <trkpt lat="47.95635" lon="10.862786">
        <ele>628.8</ele>
        <time>2026-03-30T12:30:05.162000Z</time>
      </trkpt>
      <trkpt lat="47.95625" lon="10.862961">
        <ele>628</ele>
        <time>2026-03-30T12:30:22.254000Z</time>
      </trkpt>
      <trkpt lat="47.956195" lon="10.86322">
        <ele>627.1</ele>
        <time>2026-03-30T12:30:42.221000Z</time>
      </trkpt>
      <trkpt lat="47.956206" lon="10.863364">
        <ele>626.7</ele>
        <time>2026-03-30T12:30:52.748000Z</time>
      </trkpt>
      <trkpt lat="47.956253" lon="10.863538">
        <ele>626.2</ele>
        <time>2026-03-30T12:31:06.390000Z</time>
      </trkpt>
      <trkpt lat="47.95628" lon="10.863631">
        <ele>625.9</ele>
        <time>2026-03-30T12:31:13.781000Z</time>
      </trkpt>
      <trkpt lat="47.956269" lon="10.863717">
        <ele>625.7</ele>
        <time>2026-03-30T12:31:20.170000Z</time>
      </trkpt>
      <trkpt lat="47.956206" lon="10.863774">
        <ele>625.4</ele>
        <time>2026-03-30T12:31:28.110000Z</time>
      </trkpt>
      <trkpt lat="47.955805" lon="10.864017">
        <ele>623.6</ele>
        <time>2026-03-30T12:32:14.961000Z</time>
      </trkpt>
      <trkpt lat="47.954368" lon="10.865057">
        <ele>621.9</ele>
        <time>2026-03-30T12:34:58.417000Z</time>
      </trkpt>
      <trkpt lat="47.953632" lon="10.865508">
        <ele>622.5</ele>
        <time>2026-03-30T12:36:20.260000Z</time>
      </trkpt>
      <trkpt lat="47.952581" lon="10.865889">
        <ele>625.1</ele>
        <time>2026-03-30T12:38:17.461000Z</time>
      </trkpt>
      <trkpt lat="47.95232" lon="10.866048">
        <ele>625.4</ele>
        <time>2026-03-30T12:38:46.922000Z</time>
      </trkpt>
      <trkpt lat="47.952149" lon="10.866677">
        <ele>625.2</ele>
        <time>2026-03-30T12:39:32.988000Z</time>
      </trkpt>
      <trkpt lat="47.952117" lon="10.866864">
        <ele>624.9</ele>
        <time>2026-03-30T12:39:46.445000Z</time>
      </trkpt>
      <trkpt lat="47.952002" lon="10.868034">
        <ele>621.5</ele>
        <time>2026-03-30T12:41:12.568000Z</time>
      </trkpt>
      <trkpt lat="47.952162" lon="10.869082">
        <ele>616.7</ele>
        <time>2026-03-30T12:42:34.379000Z</time>
      </trkpt>
      <trkpt lat="47.95217" lon="10.86914">
        <ele>616.5</ele>
        <time>2026-03-30T12:42:38.851000Z</time>
      </trkpt>
      <trkpt lat="47.952788" lon="10.869033">
        <ele>613.7</ele>
        <time>2026-03-30T12:43:46.593000Z</time>
      </trkpt>
      <trkpt lat="47.952841" lon="10.868964">
        <ele>613.6</ele>
        <time>2026-03-30T12:43:54.063000Z</time>
      </trkpt>
      <trkpt lat="47.952921" lon="10.868945">
        <ele>613.4</ele>
        <time>2026-03-30T12:44:02.563000Z</time>
      </trkpt>
      <trkpt lat="47.953636" lon="10.868939">
        <ele>613</ele>
        <time>2026-03-30T12:45:14.859000Z</time>
      </trkpt>
      <trkpt lat="47.954312" lon="10.869074">
        <ele>613.6</ele>
        <time>2026-03-30T12:46:25.202000Z</time>
      </trkpt>
      <trkpt lat="47.954704" lon="10.869192">
        <ele>613.8</ele>
        <time>2026-03-30T12:47:06.149000Z</time>
      </trkpt>
      <trkpt lat="47.954899" lon="10.869282">
        <ele>614</ele>
        <time>2026-03-30T12:47:27.323000Z</time>
      </trkpt>
      <trkpt lat="47.955411" lon="10.869575">
        <ele>614.6</ele>
        <time>2026-03-30T12:48:24.231000Z</time>
      </trkpt>
      <trkpt lat="47.955646" lon="10.869753">
        <ele>614.9</ele>
        <time>2026-03-30T12:48:51.475000Z</time>
      </trkpt>
      <trkpt lat="47.955903" lon="10.869975">
        <ele>615.2</ele>
        <time>2026-03-30T12:49:22.548000Z</time>
      </trkpt>
      <trkpt lat="47.956169" lon="10.870204">
        <ele>615.6</ele>
        <time>2026-03-30T12:49:54.503000Z</time>
      </trkpt>
      <trkpt lat="47.956199" lon="10.870179">
        <ele>615.6</ele>
        <time>2026-03-30T12:49:57.996000Z</time>
      </trkpt>
      <trkpt lat="47.956263" lon="10.870143">
        <ele>615.7</ele>
        <time>2026-03-30T12:50:05.065000Z</time>
      </trkpt>
      <trkpt lat="47.956642" lon="10.87054">
        <ele>615.7</ele>
        <time>2026-03-30T12:50:51.678000Z</time>
      </trkpt>
      <trkpt lat="47.956696" lon="10.869912">
        <ele>615.2</ele>
        <time>2026-03-30T12:51:35.306000Z</time>
      </trkpt>
      <trkpt lat="47.956755" lon="10.86983">
        <ele>615</ele>
        <time>2026-03-30T12:51:43.685000Z</time>
      </trkpt>
      <trkpt lat="47.956955" lon="10.869744">
        <ele>614.6</ele>
        <time>2026-03-30T12:52:05.428000Z</time>
      </trkpt>
      <trkpt lat="47.957013" lon="10.869643">
        <ele>614.4</ele>
        <time>2026-03-30T12:52:14.866000Z</time>
      </trkpt>
      <trkpt lat="47.957018" lon="10.869491">
        <ele>614.1</ele>
        <time>2026-03-30T12:52:25.488000Z</time>
      </trkpt>
      <trkpt lat="47.956982" lon="10.869327">
        <ele>613.9</ele>
        <time>2026-03-30T12:52:37.639000Z</time>
      </trkpt>
      <trkpt lat="47.956906" lon="10.869184">
        <ele>613.5</ele>
        <time>2026-03-30T12:52:50.523000Z</time>
      </trkpt>
      <trkpt lat="47.956699" lon="10.86916">
        <ele>613.1</ele>
        <time>2026-03-30T12:53:12.293000Z</time>
      </trkpt>
      <trkpt lat="47.956458" lon="10.869057">
        <ele>612.4</ele>
        <time>2026-03-30T12:53:38.707000Z</time>
      </trkpt>
      <trkpt lat="47.956201" lon="10.869013">
        <ele>611.9</ele>
        <time>2026-03-30T12:54:05.598000Z</time>
      </trkpt>
      <trkpt lat="47.955911" lon="10.869068">
        <ele>611.5</ele>
        <time>2026-03-30T12:54:35.691000Z</time>
      </trkpt>
      <trkpt lat="47.955749" lon="10.869209">
        <ele>611.5</ele>
        <time>2026-03-30T12:54:54.591000Z</time>
      </trkpt>
      <trkpt lat="47.955023" lon="10.870336">
        <ele>611.1</ele>
        <time>2026-03-30T12:56:40.205000Z</time>
      </trkpt>
      <trkpt lat="47.954621" lon="10.871974">
        <ele>610.5</ele>
        <time>2026-03-30T12:58:38.364000Z</time>
      </trkpt>
      <trkpt lat="47.953995" lon="10.873397">
        <ele>610.1</ele>
        <time>2026-03-30T13:00:33.427000Z</time>
      </trkpt>
      <trkpt lat="47.952982" lon="10.87512">
        <ele>610.1</ele>
        <time>2026-03-30T13:03:07.103000Z</time>
      </trkpt>
      <trkpt lat="47.952578" lon="10.875904">
        <ele>610.2</ele>
        <time>2026-03-30T13:04:13.921000Z</time>
      </trkpt>
      <trkpt lat="47.952486" lon="10.876081">
        <ele>610.3</ele>
        <time>2026-03-30T13:04:29.149000Z</time>
      </trkpt>
      <trkpt lat="47.952285" lon="10.876558">
        <ele>610.5</ele>
        <time>2026-03-30T13:05:07.700000Z</time>
      </trkpt>
      <trkpt lat="47.952002" lon="10.876672">
        <ele>610.8</ele>
        <time>2026-03-30T13:05:38.149000Z</time>
      </trkpt>
      <trkpt lat="47.951542" lon="10.876724">
        <ele>611.4</ele>
        <time>2026-03-30T13:06:26.511000Z</time>
      </trkpt>
      <trkpt lat="47.95145" lon="10.876775">
        <ele>611.5</ele>
        <time>2026-03-30T13:06:36.815000Z</time>
      </trkpt>
      <trkpt lat="47.951142" lon="10.877515">
        <ele>612.4</ele>
        <time>2026-03-30T13:07:38.387000Z</time>
      </trkpt>
      <trkpt lat="47.951" lon="10.877769">
        <ele>612.8</ele>
        <time>2026-03-30T13:08:01.820000Z</time>
      </trkpt>
      <trkpt lat="47.950847" lon="10.878181">
        <ele>613.3</ele>
        <time>2026-03-30T13:08:35.140000Z</time>
      </trkpt>
      <trkpt lat="47.950289" lon="10.880183">
        <ele>614.4</ele>
        <time>2026-03-30T13:11:04.470000Z</time>
      </trkpt>
      <trkpt lat="47.950066" lon="10.880588">
        <ele>614.5</ele>
        <time>2026-03-30T13:11:39.793000Z</time>
      </trkpt>
      <trkpt lat="47.950046" lon="10.880605">
        <ele>614.5</ele>
        <time>2026-03-30T13:11:42.116000Z</time>
      </trkpt>
      <trkpt lat="47.950066" lon="10.880588">
        <ele>614.5</ele>
        <time>2026-03-30T13:11:44.442000Z</time>
      </trkpt>
      <trkpt lat="47.950289" lon="10.880183">
        <ele>614.4</ele>
        <time>2026-03-30T13:12:19.697000Z</time>
      </trkpt>
      <trkpt lat="47.950847" lon="10.878181">
        <ele>613.3</ele>
        <time>2026-03-30T13:14:47.367000Z</time>
      </trkpt>
      <trkpt lat="47.951" lon="10.877769">
        <ele>612.8</ele>
        <time>2026-03-30T13:15:19.957000Z</time>
      </trkpt>
      <trkpt lat="47.951142" lon="10.877515">
        <ele>612.4</ele>
        <time>2026-03-30T13:15:42.862000Z</time>
      </trkpt>
      <trkpt lat="47.95145" lon="10.876775">
        <ele>611.5</ele>
        <time>2026-03-30T13:16:43.109000Z</time>
      </trkpt>
      <trkpt lat="47.951542" lon="10.876724">
        <ele>611.4</ele>
        <time>2026-03-30T13:16:53.208000Z</time>
      </trkpt>
      <trkpt lat="47.952002" lon="10.876672">
        <ele>610.8</ele>
        <time>2026-03-30T13:17:40.668000Z</time>
      </trkpt>
      <trkpt lat="47.952285" lon="10.876558">
        <ele>610.5</ele>
        <time>2026-03-30T13:18:10.673000Z</time>
      </trkpt>
      <trkpt lat="47.952486" lon="10.876081">
        <ele>610.3</ele>
        <time>2026-03-30T13:18:48.881000Z</time>
      </trkpt>
      <trkpt lat="47.952578" lon="10.875904">
        <ele>610.2</ele>
        <time>2026-03-30T13:19:04.027000Z</time>
      </trkpt>
      <trkpt lat="47.952982" lon="10.87512">
        <ele>610.1</ele>
        <time>2026-03-30T13:20:10.634000Z</time>
      </trkpt>
      <trkpt lat="47.953995" lon="10.873397">
        <ele>610.1</ele>
        <time>2026-03-30T13:22:44.284000Z</time>
      </trkpt>
      <trkpt lat="47.954621" lon="10.871974">
        <ele>610.5</ele>
        <time>2026-03-30T13:24:40Z</time>
      </trkpt>
      <trkpt lat="47.955023" lon="10.870336">
        <ele>611.1</ele>
        <time>2026-03-30T13:26:39.060000Z</time>
      </trkpt>
      <trkpt lat="47.955749" lon="10.869209">
        <ele>611.5</ele>
        <time>2026-03-30T13:28:25.228000Z</time>
      </trkpt>
      <trkpt lat="47.955911" lon="10.869068">
        <ele>611.5</ele>
        <time>2026-03-30T13:28:44.202000Z</time>
      </trkpt>
      <trkpt lat="47.956201" lon="10.869013">
        <ele>611.9</ele>
        <time>2026-03-30T13:29:14.918000Z</time>
      </trkpt>
      <trkpt lat="47.956458" lon="10.869057">
        <ele>612.4</ele>
        <time>2026-03-30T13:29:42.553000Z</time>
      </trkpt>
      <trkpt lat="47.956699" lon="10.86916">
        <ele>613.1</ele>
        <time>2026-03-30T13:30:09.874000Z</time>
      </trkpt>
      <trkpt lat="47.956906" lon="10.869184">
        <ele>613.5</ele>
        <time>2026-03-30T13:30:32.330000Z</time>
      </trkpt>
      <trkpt lat="47.956982" lon="10.869327">
        <ele>613.9</ele>
        <time>2026-03-30T13:30:45.694000Z</time>
      </trkpt>
      <trkpt lat="47.957018" lon="10.869491">
        <ele>614.1</ele>
        <time>2026-03-30T13:30:58.255000Z</time>
      </trkpt>
      <trkpt lat="47.957013" lon="10.869643">
        <ele>614.4</ele>
        <time>2026-03-30T13:31:09.193000Z</time>
      </trkpt>
      <trkpt lat="47.956955" lon="10.869744">
        <ele>614.6</ele>
        <time>2026-03-30T13:31:18.962000Z</time>
      </trkpt>
      <trkpt lat="47.956755" lon="10.86983">
        <ele>615</ele>
        <time>2026-03-30T13:31:41.337000Z</time>
      </trkpt>
      <trkpt lat="47.956696" lon="10.869912">
        <ele>615.2</ele>
        <time>2026-03-30T13:31:49.948000Z</time>
      </trkpt>
      <trkpt lat="47.956642" lon="10.87054">
        <ele>615.7</ele>
        <time>2026-03-30T13:32:34.419000Z</time>
      </trkpt>
      <trkpt lat="47.956263" lon="10.870143">
        <ele>615.7</ele>
        <time>2026-03-30T13:33:20.916000Z</time>
      </trkpt>
      <trkpt lat="47.956199" lon="10.870179">
        <ele>615.6</ele>
        <time>2026-03-30T13:33:27.888000Z</time>
      </trkpt>
      <trkpt lat="47.956169" lon="10.870204">
        <ele>615.6</ele>
        <time>2026-03-30T13:33:31.336000Z</time>
      </trkpt>
      <trkpt lat="47.955903" lon="10.869975">
        <ele>615.2</ele>
        <time>2026-03-30T13:34:02.783000Z</time>
      </trkpt>
      <trkpt lat="47.955646" lon="10.869753">
        <ele>614.9</ele>
        <time>2026-03-30T13:34:33.315000Z</time>
      </trkpt>
      <trkpt lat="47.955411" lon="10.869575">
        <ele>614.6</ele>
        <time>2026-03-30T13:35:00.165000Z</time>
      </trkpt>
      <trkpt lat="47.954899" lon="10.869282">
        <ele>614</ele>
        <time>2026-03-30T13:35:56.227000Z</time>
      </trkpt>
      <trkpt lat="47.954704" lon="10.869192">
        <ele>613.8</ele>
        <time>2026-03-30T13:36:17.085000Z</time>
      </trkpt>
      <trkpt lat="47.954312" lon="10.869074">
        <ele>613.6</ele>
        <time>2026-03-30T13:36:57.666000Z</time>
      </trkpt>
      <trkpt lat="47.953636" lon="10.868939">
        <ele>613</ele>
        <time>2026-03-30T13:38:07.141000Z</time>
      </trkpt>
      <trkpt lat="47.952921" lon="10.868945">
        <ele>613.4</ele>
        <time>2026-03-30T13:39:20.007000Z</time>
      </trkpt>
      <trkpt lat="47.952841" lon="10.868964">
        <ele>613.6</ele>
        <time>2026-03-30T13:39:28.790000Z</time>
      </trkpt>
      <trkpt lat="47.952788" lon="10.869033">
        <ele>613.7</ele>
        <time>2026-03-30T13:39:36.521000Z</time>
      </trkpt>
      <trkpt lat="47.95217" lon="10.86914">
        <ele>616.5</ele>
        <time>2026-03-30T13:40:48.200000Z</time>
      </trkpt>
      <trkpt lat="47.952162" lon="10.869082">
        <ele>616.7</ele>
        <time>2026-03-30T13:40:53.013000Z</time>
      </trkpt>
      <trkpt lat="47.952002" lon="10.868034">
        <ele>621.5</ele>
        <time>2026-03-30T13:42:21.697000Z</time>
      </trkpt>
      <trkpt lat="47.952117" lon="10.866864">
        <ele>624.9</ele>
        <time>2026-03-30T13:43:52.686000Z</time>
      </trkpt>
      <trkpt lat="47.952149" lon="10.866677">
        <ele>625.2</ele>
        <time>2026-03-30T13:44:06.513000Z</time>
      </trkpt>
      <trkpt lat="47.95232" lon="10.866048">
        <ele>625.4</ele>
        <time>2026-03-30T13:44:53.001000Z</time>
      </trkpt>
      <trkpt lat="47.952581" lon="10.865889">
        <ele>625.1</ele>
        <time>2026-03-30T13:45:21.929000Z</time>
      </trkpt>
      <trkpt lat="47.953632" lon="10.865508">
        <ele>622.5</ele>
        <time>2026-03-30T13:47:15.395000Z</time>
      </trkpt>
      <trkpt lat="47.954368" lon="10.865057">
        <ele>621.9</ele>
        <time>2026-03-30T13:48:36.311000Z</time>
      </trkpt>
      <trkpt lat="47.955805" lon="10.864017">
        <ele>623.6</ele>
        <time>2026-03-30T13:51:22.325000Z</time>
      </trkpt>
      <trkpt lat="47.956206" lon="10.863774">
        <ele>625.4</ele>
        <time>2026-03-30T13:52:11.721000Z</time>
      </trkpt>
      <trkpt lat="47.956269" lon="10.863717">
        <ele>625.7</ele>
        <time>2026-03-30T13:52:20.076000Z</time>
      </trkpt>
      <trkpt lat="47.95628" lon="10.863631">
        <ele>625.9</ele>
        <time>2026-03-30T13:52:26.820000Z</time>
      </trkpt>
      <trkpt lat="47.956253" lon="10.863538">
        <ele>626.2</ele>
        <time>2026-03-30T13:52:34.617000Z</time>
      </trkpt>
      <trkpt lat="47.956206" lon="10.863364">
        <ele>626.7</ele>
        <time>2026-03-30T13:52:49.011000Z</time>
      </trkpt>
      <trkpt lat="47.956195" lon="10.86322">
        <ele>627.1</ele>
        <time>2026-03-30T13:53:00.119000Z</time>
      </trkpt>
      <trkpt lat="47.95625" lon="10.862961">
        <ele>627.8</ele>
        <time>2026-03-30T13:53:20.755000Z</time>
      </trkpt>
      <trkpt lat="47.95635" lon="10.862786">
        <ele>628.3</ele>
        <time>2026-03-30T13:53:37.719000Z</time>
      </trkpt>
      <trkpt lat="47.95641" lon="10.86274">
        <ele>628.4</ele>
        <time>2026-03-30T13:53:44.867000Z</time>
      </trkpt>
      <trkpt lat="47.956481" lon="10.862712">
        <ele>628.6</ele>
        <time>2026-03-30T13:53:52.920000Z</time>
      </trkpt>
      <trkpt lat="47.956648" lon="10.862739">
        <ele>629</ele>
        <time>2026-03-30T13:54:11.234000Z</time>
      </trkpt>
      <trkpt lat="47.956864" lon="10.862933">
        <ele>629.6</ele>
        <time>2026-03-30T13:54:38.476000Z</time>
      </trkpt>
      <trkpt lat="47.956965" lon="10.862949">
        <ele>629.7</ele>
        <time>2026-03-30T13:54:49.027000Z</time>
      </trkpt>
      <trkpt lat="47.957086" lon="10.862904">
        <ele>629.7</ele>
        <time>2026-03-30T13:55:01.624000Z</time>
      </trkpt>
      <trkpt lat="47.957113" lon="10.862993">
        <ele>629.6</ele>
        <time>2026-03-30T13:55:08.366000Z</time>
      </trkpt>
      <trkpt lat="47.95719" lon="10.863186">
        <ele>629.4</ele>
        <time>2026-03-30T13:55:23.890000Z</time>
      </trkpt>
      <trkpt lat="47.95728" lon="10.863299">
        <ele>629.2</ele>
        <time>2026-03-30T13:55:36.155000Z</time>
      </trkpt>
      <trkpt lat="47.957446" lon="10.863419">
        <ele>628.7</ele>
        <time>2026-03-30T13:55:55.547000Z</time>
      </trkpt>
      <trkpt lat="47.957651" lon="10.863425">
        <ele>628.1</ele>
        <time>2026-03-30T13:56:17.365000Z</time>
      </trkpt>
      <trkpt lat="47.957956" lon="10.863331">
        <ele>627</ele>
        <time>2026-03-30T13:56:50.783000Z</time>
      </trkpt>
      <trkpt lat="47.95818" lon="10.863318">
        <ele>626</ele>
        <time>2026-03-30T13:57:15.199000Z</time>
      </trkpt>
      <trkpt lat="47.958269" lon="10.863349">
        <ele>625.7</ele>
        <time>2026-03-30T13:57:25.029000Z</time>
      </trkpt>
      <trkpt lat="47.958788" lon="10.86375">
        <ele>623.7</ele>
        <time>2026-03-30T13:58:27.674000Z</time>
      </trkpt>
      <trkpt lat="47.959373" lon="10.864081">
        <ele>621.8</ele>
        <time>2026-03-30T13:59:33.979000Z</time>
      </trkpt>
      <trkpt lat="47.959762" lon="10.864442">
        <ele>621.1</ele>
        <time>2026-03-30T14:00:21.371000Z</time>
      </trkpt>
      <trkpt lat="47.960286" lon="10.864806">
        <ele>621.2</ele>
        <time>2026-03-30T14:01:19.463000Z</time>
      </trkpt>
      <trkpt lat="47.960491" lon="10.864808">
        <ele>621.4</ele>
        <time>2026-03-30T14:01:40.794000Z</time>
      </trkpt>
      <trkpt lat="47.960859" lon="10.864689">
        <ele>621.9</ele>
        <time>2026-03-30T14:02:20.258000Z</time>
      </trkpt>
      <trkpt lat="47.96107" lon="10.864664">
        <ele>622.2</ele>
        <time>2026-03-30T14:02:42.582000Z</time>
      </trkpt>
      <trkpt lat="47.961713" lon="10.864816">
        <ele>622.9</ele>
        <time>2026-03-30T14:03:50.206000Z</time>
      </trkpt>
      <trkpt lat="47.961791" lon="10.864893">
        <ele>623</ele>
        <time>2026-03-30T14:03:59.628000Z</time>
      </trkpt>
      <trkpt lat="47.961934" lon="10.865048">
        <ele>623</ele>
        <time>2026-03-30T14:04:17.473000Z</time>
      </trkpt>
      <trkpt lat="47.96214" lon="10.865408">
        <ele>622.8</ele>
        <time>2026-03-30T14:04:49.649000Z</time>
      </trkpt>
      <trkpt lat="47.962376" lon="10.865614">
        <ele>622.5</ele>
        <time>2026-03-30T14:05:17.671000Z</time>
      </trkpt>
      <trkpt lat="47.9625" lon="10.865682">
        <ele>622.3</ele>
        <time>2026-03-30T14:05:31.304000Z</time>
      </trkpt>
      <trkpt lat="47.962684" lon="10.865782">
        <ele>622</ele>
        <time>2026-03-30T14:05:51.524000Z</time>
      </trkpt>
      <trkpt lat="47.962831" lon="10.865855">
        <ele>621.7</ele>
        <time>2026-03-30T14:06:07.514000Z</time>
      </trkpt>
      <trkpt lat="47.962885" lon="10.865881">
        <ele>621.7</ele>
        <time>2026-03-30T14:06:13.373000Z</time>
      </trkpt>
      <trkpt lat="47.963085" lon="10.866007">
        <ele>621.4</ele>
        <time>2026-03-30T14:06:35.661000Z</time>
      </trkpt>
      <trkpt lat="47.963242" lon="10.866034">
        <ele>621.2</ele>
        <time>2026-03-30T14:06:51.929000Z</time>
      </trkpt>
      <trkpt lat="47.963339" lon="10.866004">
        <ele>621.1</ele>
        <time>2026-03-30T14:07:02.059000Z</time>
      </trkpt>
      <trkpt lat="47.96346" lon="10.865918">
        <ele>620.9</ele>
        <time>2026-03-30T14:07:15.671000Z</time>
      </trkpt>
      <trkpt lat="47.96352" lon="10.86587">
        <ele>620.9</ele>
        <time>2026-03-30T14:07:22.617000Z</time>
      </trkpt>
      <trkpt lat="47.963622" lon="10.865789">
        <ele>620.8</ele>
        <time>2026-03-30T14:07:34.425000Z</time>
      </trkpt>
      <trkpt lat="47.963724" lon="10.86572">
        <ele>620.7</ele>
        <time>2026-03-30T14:07:45.854000Z</time>
      </trkpt>
      <trkpt lat="47.963952" lon="10.865566">
        <ele>620.5</ele>
        <time>2026-03-30T14:08:11.288000Z</time>
      </trkpt>
      <trkpt lat="47.964056" lon="10.865509">
        <ele>620.4</ele>
        <time>2026-03-30T14:08:22.545000Z</time>
      </trkpt>
      <trkpt lat="47.964288" lon="10.865374">
        <ele>620.3</ele>
        <time>2026-03-30T14:08:47.664000Z</time>
      </trkpt>
      <trkpt lat="47.964388" lon="10.865243">
        <ele>620.3</ele>
        <time>2026-03-30T14:09:01.092000Z</time>
      </trkpt>
      <trkpt lat="47.964439" lon="10.865135">
        <ele>620.3</ele>
        <time>2026-03-30T14:09:09.925000Z</time>
      </trkpt>
      <trkpt lat="47.964565" lon="10.864984">
        <ele>620.3</ele>
        <time>2026-03-30T14:09:26.171000Z</time>
      </trkpt>
      <trkpt lat="47.964608" lon="10.864943">
        <ele>620.3</ele>
        <time>2026-03-30T14:09:31.272000Z</time>
      </trkpt>
    </trkseg>
  </trk>
</gpx>