<?xml version="1.0" encoding="UTF-8"?>
<gpx xmlns="http://www.topografix.com/GPX/1/1" xmlns:xsi="http://www.w3.org/2001/XMLSchema-instance" xsi:schemaLocation="http://www.topografix.com/GPX/1/1 http://www.topografix.com/GPX/1/1/gpx.xsd" version="1.1" creator="Robert Kampf">
  <metadata>
    <name>Leipheimer Festplatz – Radweg entlang der Donau Runde von Leipheim</name>
    <desc>Distance: 5.348km, Estimated duration: 1.36h, Elevation up: 11.629376727056808m, Elevation down: 12.005696898505335m, Grade: easy</desc>
    <author>
      <name>Robert Kampf</name>
      <link href="https://www.komoot.de/user/4125295338453">
        <text>View Robert Kampf's Profile on Komoot</text>
      </link>
    </author>
    <link href="https://www.komoot.de/tour/3276212247">
      <text>View tour on Komoot</text>
    </link>
  </metadata>
  <wpt lat="48.452358" lon="10.215893">
    <name>Parkplatz Kinderfestplatz</name>
    <cmt></cmt>
    <desc>Free</desc>
    <src>Komoot</src>
    <type>POI</type>
  </wpt>
  <wpt lat="48.452619" lon="10.215437">
    <ele>450.4</ele>
    <name>Leipheim Festival Grounds</name>
    <cmt>https://d2exd72xrrp1s7.cloudfront.net/www/000/1k6/9i/9ipoqm0x6pmcyuitfwbcl9pm48ldxdsi-uhi51955907/0</cmt>
    <desc>HorstAP: Traditionsgemäß wird auf dem bewirteten Festplatz unter freiem Himmel im ausgelichteten Wald bei der Leipheimer Donaubrücke gefeiert.
――――――――――
! Achim🇩🇪🚵🥾🤿🇭🇷: Schöne Tour rund um Leipheim
――――――――――
Christian: Auf dem Festplatz Leipheim findet jährlich das Kinderfest statt. Der Festplatz liegt direkt neben der Donau und bietet einen schönen Baumbestand.
――――――――――
HorstAP: Das Leipheimer Kinderfest findet in der Regel jedes Jahr am 2. Juliwochenende statt.
Traditionsgemäß wird auf dem bewirteten Festplatz unter freiem Himmel im ausgelichteten Wald bei der Leipheimer Donaubrücke gefeiert.
――――――――――
Günther🦎: Da ist was los
――――――――――
Sanson Charles: guter Ausgangspunkt für eine Donautour.
――――――――――
Roland H: Das diesjährige Leipheimer Kinderfest findet von 12.07 bis 14.07.2025 statt.</desc>
    <src>Komoot</src>
    <link href="https://www.komoot.de/highlight/4654283">
      <text>View POI on Komoot</text>
    </link>
    <type>Highlight</type>
  </wpt>
  <wpt lat="48.4525" lon="10.216885">
    <ele>488.7</ele>
    <name>Riverside Path through the Leipheim Floodplain Forest</name>
    <cmt>https://d2exd72xrrp1s7.cloudfront.net/www/000/1k4/im/im1epm88lqghx6u0h6tu7pib39k6au7e-uhi10398373/0</cmt>
    <desc></desc>
    <src>Komoot</src>
    <link href="https://www.komoot.de/highlight/1103906">
      <text>View POI on Komoot</text>
    </link>
    <type>Highlight</type>
  </wpt>
  <wpt lat="48.454252" lon="10.219904">
    <ele>452.8</ele>
    <name>Leipheim Schützenhaus</name>
    <cmt>https://d2exd72xrrp1s7.cloudfront.net/www/000/1k3/1u/1us5xgf4n0k0spzu5lknwrz2k2wrm939c-uhi5133939/0</cmt>
    <desc>Wolfe72: Hervorragende Speisen und als Rastplatz genau das richtige
――――――――――
Udo E-Biker: E-bike Ladestation vorhanden. Zum Einkehren empfiehlt sich Grossen Hunger mitzubringen
――――――――――
Elke und Matthias: Tolle Einkehrmöglichkeit. Im Sommer auch mit Biergarten
――――――――――
Wolfe72: Hervorragende Küche. Immer gut für eine Einkehr 
――――――――――
Günther🦎: Schöner Gasthof 
――――――――――
leher: Das  Schützenhaus ist seit längerer Zeit geschlossen</desc>
    <src>Komoot</src>
    <link href="https://www.komoot.de/highlight/691987">
      <text>View POI on Komoot</text>
    </link>
    <type>Highlight</type>
  </wpt>
  <wpt lat="48.453964" lon="10.219983">
    <ele>522</ele>
    <name>Schützenhaus Bissen Restaurant &amp; Beer Garden</name>
    <cmt>https://d2exd72xrrp1s7.cloudfront.net/www/000/1k5/aa/aarsdzq3f81c1uy64fbxarc5t3wp4gjk7-uhi41298252/0</cmt>
    <desc>Christine: Sehr netter Biergarten. Personal sehr freundlich. 
――――――――――
Hans Wurst: Schützenhaus mit kleinem Biergarten läd hier zum Verweilen ein. Es gibt hier reichlich leckeres Essen und nebenbei kann, falls nötig, noch das E-Bike aufgeladen werden.
――――――――――
p.xcam: Wem der Stoff ausgeht dem wird hier geholfen - entweder für sich selbst oder sein Bike. Immer hilfreich wenn Ladestationen angeboten werden.
――――――――――
Günther🦎: Ein schöner Biergarten </desc>
    <src>Komoot</src>
    <link href="https://www.komoot.de/highlight/2913177">
      <text>View POI on Komoot</text>
    </link>
    <type>Highlight</type>
  </wpt>
  <wpt lat="48.456284" lon="10.227836">
    <ele>489.8</ele>
    <name>Bench at Marker 2565.6 by the River</name>
    <cmt>https://d2exd72xrrp1s7.cloudfront.net/www/000/1k4/b0/b08syacstcvwzdvxe9wcpf0339k6bia4-uhi10398383/0</cmt>
    <desc></desc>
    <src>Komoot</src>
    <link href="https://www.komoot.de/highlight/1103908">
      <text>View POI on Komoot</text>
    </link>
    <type>Highlight</type>
  </wpt>
  <wpt lat="48.456514" lon="10.228452">
    <ele>447.7</ele>
    <name>Bike Path Along the Danube</name>
    <cmt>https://d2exd72xrrp1s7.cloudfront.net/www/000/1k8/1q/1qn4wu403nvvq1hkbcdkzetowi50yos0i3-uhi74285468/0</cmt>
    <desc>Günther🦎: Ein sehr schöner Radweg 
――――――――――
🚲 Klaus 🛶 🥾: Schotter bedeutet... Reifenverschleiss und mögliche Defekte also vorbereiten und Material mitnehmen
――――――――――
Stefan von Volt: Tierwelt entspannt bei Verdunstungskälte</desc>
    <src>Komoot</src>
    <link href="https://www.komoot.de/highlight/6744243">
      <text>View POI on Komoot</text>
    </link>
    <type>Highlight</type>
  </wpt>
  <trk>
    <name>Leipheimer Festplatz – Radweg entlang der Donau Runde von Leipheim</name>
    <desc>Distance: 5.348km, Estimated duration: 1.36h, Elevation up: 11.629376727056808m, Elevation down: 12.005696898505335m, Grade: easy</desc>
    <link href="https://www.komoot.de/tour/3276212247">
      <text>View tour on Komoot</text>
    </link>
    <trkseg>
      <trkpt lat="48.452363" lon="10.215887">
        <ele>450.7</ele>
        <time>2026-09-12T09:08:27.329000Z</time>
      </trkpt>
      <trkpt lat="48.452465" lon="10.216038">
        <ele>450.8</ele>
        <time>2026-09-12T09:08:41.840000Z</time>
      </trkpt>
      <trkpt lat="48.452524" lon="10.216193">
        <ele>450.7</ele>
        <time>2026-09-12T09:08:53.801000Z</time>
      </trkpt>
      <trkpt lat="48.452595" lon="10.216137">
        <ele>450.7</ele>
        <time>2026-09-12T09:09:01.883000Z</time>
      </trkpt>
      <trkpt lat="48.452666" lon="10.21607">
        <ele>450.6</ele>
        <time>2026-09-12T09:09:10.385000Z</time>
      </trkpt>
      <trkpt lat="48.452439" lon="10.215667">
        <ele>450.4</ele>
        <time>2026-09-12T09:09:45.776000Z</time>
      </trkpt>
      <trkpt lat="48.452666" lon="10.21607">
        <ele>450.2</ele>
        <time>2026-09-12T09:10:21.231000Z</time>
      </trkpt>
      <trkpt lat="48.452595" lon="10.216137">
        <ele>450.1</ele>
        <time>2026-09-12T09:10:29.745000Z</time>
      </trkpt>
      <trkpt lat="48.452524" lon="10.216193">
        <ele>450.1</ele>
        <time>2026-09-12T09:10:37.798000Z</time>
      </trkpt>
      <trkpt lat="48.452402" lon="10.216199">
        <ele>450.1</ele>
        <time>2026-09-12T09:10:50.064000Z</time>
      </trkpt>
      <trkpt lat="48.452378" lon="10.216309">
        <ele>450.2</ele>
        <time>2026-09-12T09:10:57.868000Z</time>
      </trkpt>
      <trkpt lat="48.452416" lon="10.216501">
        <ele>450.2</ele>
        <time>2026-09-12T09:11:11.189000Z</time>
      </trkpt>
      <trkpt lat="48.452454" lon="10.216694">
        <ele>450.1</ele>
        <time>2026-09-12T09:11:24.606000Z</time>
      </trkpt>
      <trkpt lat="48.45253" lon="10.216853">
        <ele>450.1</ele>
        <time>2026-09-12T09:11:37.754000Z</time>
      </trkpt>
      <trkpt lat="48.452454" lon="10.216694">
        <ele>450</ele>
        <time>2026-09-12T09:11:50.980000Z</time>
      </trkpt>
      <trkpt lat="48.452416" lon="10.216501">
        <ele>449.9</ele>
        <time>2026-09-12T09:12:04.560000Z</time>
      </trkpt>
      <trkpt lat="48.452378" lon="10.216309">
        <ele>449.7</ele>
        <time>2026-09-12T09:12:18.127000Z</time>
      </trkpt>
      <trkpt lat="48.452402" lon="10.216199">
        <ele>449.7</ele>
        <time>2026-09-12T09:12:25.944000Z</time>
      </trkpt>
      <trkpt lat="48.452524" lon="10.216193">
        <ele>449.6</ele>
        <time>2026-09-12T09:12:38.249000Z</time>
      </trkpt>
      <trkpt lat="48.452595" lon="10.216137">
        <ele>449.6</ele>
        <time>2026-09-12T09:12:46.232000Z</time>
      </trkpt>
      <trkpt lat="48.452666" lon="10.21607">
        <ele>449.7</ele>
        <time>2026-09-12T09:12:54.731000Z</time>
      </trkpt>
      <trkpt lat="48.453038" lon="10.216714">
        <ele>449.5</ele>
        <time>2026-09-12T09:13:51.847000Z</time>
      </trkpt>
      <trkpt lat="48.45379" lon="10.218189">
        <ele>448.5</ele>
        <time>2026-09-12T09:15:57.329000Z</time>
      </trkpt>
      <trkpt lat="48.454285" lon="10.21942">
        <ele>449.4</ele>
        <time>2026-09-12T09:17:35.906000Z</time>
      </trkpt>
      <trkpt lat="48.454457" lon="10.219778">
        <ele>449.7</ele>
        <time>2026-09-12T09:18:06.449000Z</time>
      </trkpt>
      <trkpt lat="48.45431" lon="10.219935">
        <ele>449.9</ele>
        <time>2026-09-12T09:18:25.197000Z</time>
      </trkpt>
      <trkpt lat="48.454289" lon="10.219875">
        <ele>449.9</ele>
        <time>2026-09-12T09:18:29.760000Z</time>
      </trkpt>
      <trkpt lat="48.45431" lon="10.219935">
        <ele>450</ele>
        <time>2026-09-12T09:18:34.428000Z</time>
      </trkpt>
      <trkpt lat="48.454245" lon="10.220003">
        <ele>450.1</ele>
        <time>2026-09-12T09:18:42.624000Z</time>
      </trkpt>
      <trkpt lat="48.454167" lon="10.220087">
        <ele>450.2</ele>
        <time>2026-09-12T09:18:52.556000Z</time>
      </trkpt>
      <trkpt lat="48.454082" lon="10.220363">
        <ele>450.3</ele>
        <time>2026-09-12T09:19:13.271000Z</time>
      </trkpt>
      <trkpt lat="48.453944" lon="10.220542">
        <ele>450.4</ele>
        <time>2026-09-12T09:19:31.768000Z</time>
      </trkpt>
      <trkpt lat="48.4538" lon="10.220106">
        <ele>450.4</ele>
        <time>2026-09-12T09:20:04.223000Z</time>
      </trkpt>
      <trkpt lat="48.453944" lon="10.220542">
        <ele>450.3</ele>
        <time>2026-09-12T09:20:36.801000Z</time>
      </trkpt>
      <trkpt lat="48.456308" lon="10.227819">
        <ele>447.6</ele>
        <time>2026-09-12T09:29:40.299000Z</time>
      </trkpt>
      <trkpt lat="48.456511" lon="10.228445">
        <ele>447.4</ele>
        <time>2026-09-12T09:30:27.057000Z</time>
      </trkpt>
      <trkpt lat="48.456515" lon="10.228451">
        <ele>447.4</ele>
        <time>2026-09-12T09:30:27.628000Z</time>
      </trkpt>
      <trkpt lat="48.456576" lon="10.228555">
        <ele>447.3</ele>
        <time>2026-09-12T09:30:36.995000Z</time>
      </trkpt>
      <trkpt lat="48.456685" lon="10.228656">
        <ele>447.2</ele>
        <time>2026-09-12T09:30:49.972000Z</time>
      </trkpt>
      <trkpt lat="48.456756" lon="10.228793">
        <ele>447.1</ele>
        <time>2026-09-12T09:31:01.701000Z</time>
      </trkpt>
      <trkpt lat="48.456912" lon="10.229054">
        <ele>446.9</ele>
        <time>2026-09-12T09:31:25.387000Z</time>
      </trkpt>
      <trkpt lat="48.457072" lon="10.229248">
        <ele>446.7</ele>
        <time>2026-09-12T09:31:46.358000Z</time>
      </trkpt>
      <trkpt lat="48.457221" lon="10.229277">
        <ele>446.6</ele>
        <time>2026-09-12T09:32:01.665000Z</time>
      </trkpt>
      <trkpt lat="48.457321" lon="10.229383">
        <ele>446.5</ele>
        <time>2026-09-12T09:32:14.185000Z</time>
      </trkpt>
      <trkpt lat="48.457329" lon="10.22953">
        <ele>446.4</ele>
        <time>2026-09-12T09:32:24.215000Z</time>
      </trkpt>
      <trkpt lat="48.457144" lon="10.230085">
        <ele>445.9</ele>
        <time>2026-09-12T09:33:06.356000Z</time>
      </trkpt>
      <trkpt lat="48.457164" lon="10.230249">
        <ele>445.8</ele>
        <time>2026-09-12T09:33:17.743000Z</time>
      </trkpt>
      <trkpt lat="48.457946" lon="10.232662">
        <ele>443.7</ele>
        <time>2026-09-12T09:36:20.352000Z</time>
      </trkpt>
      <trkpt lat="48.45923" lon="10.236051">
        <ele>443.2</ele>
        <time>2026-09-12T09:40:40.333000Z</time>
      </trkpt>
      <trkpt lat="48.45999" lon="10.238395">
        <ele>444.1</ele>
        <time>2026-09-12T09:43:36.908000Z</time>
      </trkpt>
      <trkpt lat="48.460222" lon="10.239193">
        <ele>444.1</ele>
        <time>2026-09-12T09:44:34.827000Z</time>
      </trkpt>
      <trkpt lat="48.460354" lon="10.239664">
        <ele>444</ele>
        <time>2026-09-12T09:45:08.962000Z</time>
      </trkpt>
      <trkpt lat="48.460507" lon="10.240342">
        <ele>443.8</ele>
        <time>2026-09-12T09:45:56.858000Z</time>
      </trkpt>
      <trkpt lat="48.460809" lon="10.241863">
        <ele>443.6</ele>
        <time>2026-09-12T09:47:42.614000Z</time>
      </trkpt>
      <trkpt lat="48.46084" lon="10.242101">
        <ele>443.6</ele>
        <time>2026-09-12T09:47:58.752000Z</time>
      </trkpt>
      <trkpt lat="48.461099" lon="10.244065">
        <ele>443.6</ele>
        <time>2026-09-12T09:50:11.648000Z</time>
      </trkpt>
      <trkpt lat="48.461332" lon="10.243983">
        <ele>443.6</ele>
        <time>2026-09-12T09:50:35.585000Z</time>
      </trkpt>
      <trkpt lat="48.461588" lon="10.243959">
        <ele>443.6</ele>
        <time>2026-09-12T09:51:01.290000Z</time>
      </trkpt>
      <trkpt lat="48.461643" lon="10.243652">
        <ele>443.7</ele>
        <time>2026-09-12T09:51:22.557000Z</time>
      </trkpt>
      <trkpt lat="48.461652" lon="10.243324">
        <ele>443.8</ele>
        <time>2026-09-12T09:51:44.618000Z</time>
      </trkpt>
      <trkpt lat="48.461558" lon="10.243121">
        <ele>443.8</ele>
        <time>2026-09-12T09:52:01.359000Z</time>
      </trkpt>
      <trkpt lat="48.461411" lon="10.242971">
        <ele>443.9</ele>
        <time>2026-09-12T09:52:19.426000Z</time>
      </trkpt>
      <trkpt lat="48.461314" lon="10.242776">
        <ele>444</ele>
        <time>2026-09-12T09:52:35.808000Z</time>
      </trkpt>
      <trkpt lat="48.461133" lon="10.242134">
        <ele>444</ele>
        <time>2026-09-12T09:53:22.139000Z</time>
      </trkpt>
      <trkpt lat="48.461031" lon="10.241567">
        <ele>444</ele>
        <time>2026-09-12T09:54:01.186000Z</time>
      </trkpt>
      <trkpt lat="48.461017" lon="10.241319">
        <ele>444</ele>
        <time>2026-09-12T09:54:17.696000Z</time>
      </trkpt>
      <trkpt lat="48.461111" lon="10.241141">
        <ele>444</ele>
        <time>2026-09-12T09:54:32.776000Z</time>
      </trkpt>
      <trkpt lat="48.461287" lon="10.240953">
        <ele>443.9</ele>
        <time>2026-09-12T09:54:54.421000Z</time>
      </trkpt>
      <trkpt lat="48.461553" lon="10.240805">
        <ele>443.8</ele>
        <time>2026-09-12T09:55:22.997000Z</time>
      </trkpt>
      <trkpt lat="48.461664" lon="10.240586">
        <ele>443.8</ele>
        <time>2026-09-12T09:55:41.412000Z</time>
      </trkpt>
      <trkpt lat="48.461635" lon="10.240239">
        <ele>443.7</ele>
        <time>2026-09-12T09:56:04.794000Z</time>
      </trkpt>
      <trkpt lat="48.461705" lon="10.239891">
        <ele>443.6</ele>
        <time>2026-09-12T09:56:29.062000Z</time>
      </trkpt>
      <trkpt lat="48.461734" lon="10.239571">
        <ele>443.6</ele>
        <time>2026-09-12T09:56:50.503000Z</time>
      </trkpt>
      <trkpt lat="48.461665" lon="10.239195">
        <ele>443.7</ele>
        <time>2026-09-12T09:57:16.660000Z</time>
      </trkpt>
      <trkpt lat="48.461481" lon="10.238732">
        <ele>444</ele>
        <time>2026-09-12T09:57:53.505000Z</time>
      </trkpt>
      <trkpt lat="48.461529" lon="10.238397">
        <ele>444.3</ele>
        <time>2026-09-12T09:58:17.148000Z</time>
      </trkpt>
      <trkpt lat="48.461511" lon="10.238202">
        <ele>444.4</ele>
        <time>2026-09-12T09:58:30.801000Z</time>
      </trkpt>
      <trkpt lat="48.46105" lon="10.236824">
        <ele>445.6</ele>
        <time>2026-09-12T10:00:17.439000Z</time>
      </trkpt>
      <trkpt lat="48.459197" lon="10.229859">
        <ele>445.6</ele>
        <time>2026-09-12T10:08:35.541000Z</time>
      </trkpt>
      <trkpt lat="48.458974" lon="10.229386">
        <ele>445.6</ele>
        <time>2026-09-12T10:09:14.243000Z</time>
      </trkpt>
      <trkpt lat="48.458911" lon="10.229117">
        <ele>445.7</ele>
        <time>2026-09-12T10:09:33.338000Z</time>
      </trkpt>
      <trkpt lat="48.458883" lon="10.228759">
        <ele>445.7</ele>
        <time>2026-09-12T10:09:57.532000Z</time>
      </trkpt>
      <trkpt lat="48.457393" lon="10.223579">
        <ele>446.8</ele>
        <time>2026-09-12T10:16:16.172000Z</time>
      </trkpt>
      <trkpt lat="48.457334" lon="10.223371">
        <ele>446.9</ele>
        <time>2026-09-12T10:16:31.480000Z</time>
      </trkpt>
      <trkpt lat="48.457313" lon="10.223128">
        <ele>447</ele>
        <time>2026-09-12T10:16:47.968000Z</time>
      </trkpt>
      <trkpt lat="48.456683" lon="10.223356">
        <ele>447.2</ele>
        <time>2026-09-12T10:17:53.554000Z</time>
      </trkpt>
      <trkpt lat="48.456485" lon="10.223361">
        <ele>447.3</ele>
        <time>2026-09-12T10:18:13.811000Z</time>
      </trkpt>
      <trkpt lat="48.456341" lon="10.223239">
        <ele>447.4</ele>
        <time>2026-09-12T10:18:30.823000Z</time>
      </trkpt>
      <trkpt lat="48.456055" lon="10.222748">
        <ele>447.9</ele>
        <time>2026-09-12T10:19:15.840000Z</time>
      </trkpt>
      <trkpt lat="48.455931" lon="10.222461">
        <ele>448.2</ele>
        <time>2026-09-12T10:19:39.572000Z</time>
      </trkpt>
      <trkpt lat="48.45571" lon="10.221628">
        <ele>448.9</ele>
        <time>2026-09-12T10:20:41.884000Z</time>
      </trkpt>
      <trkpt lat="48.455574" lon="10.22096">
        <ele>449.6</ele>
        <time>2026-09-12T10:21:30.653000Z</time>
      </trkpt>
      <trkpt lat="48.45529" lon="10.22061">
        <ele>450.1</ele>
        <time>2026-09-12T10:22:08.900000Z</time>
      </trkpt>
      <trkpt lat="48.454744" lon="10.220177">
        <ele>450</ele>
        <time>2026-09-12T10:23:10.711000Z</time>
      </trkpt>
      <trkpt lat="48.454506" lon="10.219879">
        <ele>449.8</ele>
        <time>2026-09-12T10:23:42.312000Z</time>
      </trkpt>
      <trkpt lat="48.454457" lon="10.219778">
        <ele>449.7</ele>
        <time>2026-09-12T10:23:50.804000Z</time>
      </trkpt>
      <trkpt lat="48.454285" lon="10.21942">
        <ele>449.3</ele>
        <time>2026-09-12T10:24:20.933000Z</time>
      </trkpt>
      <trkpt lat="48.45379" lon="10.218189">
        <ele>448.5</ele>
        <time>2026-09-12T10:25:57.995000Z</time>
      </trkpt>
      <trkpt lat="48.453038" lon="10.216714">
        <ele>449.7</ele>
        <time>2026-09-12T10:28:05.759000Z</time>
      </trkpt>
      <trkpt lat="48.452666" lon="10.21607">
        <ele>450.2</ele>
        <time>2026-09-12T10:29:04.173000Z</time>
      </trkpt>
      <trkpt lat="48.452595" lon="10.216137">
        <ele>450.2</ele>
        <time>2026-09-12T10:29:12.684000Z</time>
      </trkpt>
      <trkpt lat="48.452524" lon="10.216193">
        <ele>450.3</ele>
        <time>2026-09-12T10:29:20.740000Z</time>
      </trkpt>
      <trkpt lat="48.452465" lon="10.216038">
        <ele>450.3</ele>
        <time>2026-09-12T10:29:32.750000Z</time>
      </trkpt>
      <trkpt lat="48.452363" lon="10.215887">
        <ele>450.3</ele>
        <time>2026-09-12T10:29:47.176000Z</time>
      </trkpt>
    </trkseg>
  </trk>
</gpx>