<?xml version="1.0" encoding="UTF-8"?>
<gpx xmlns="http://www.topografix.com/GPX/1/1" xmlns:xsi="http://www.w3.org/2001/XMLSchema-instance" xsi:schemaLocation="http://www.topografix.com/GPX/1/1 http://www.topografix.com/GPX/1/1/gpx.xsd" version="1.1" creator="Robert Kampf">
  <metadata>
    <name>Rundwanderung Bergmahderweg von Niederthai – Naturpark Ötztal</name>
    <desc>Distance: 7.747km, Estimated duration: 2.32h, Elevation up: 251.36940381885415m, Elevation down: 248.318672732737m, Grade: moderate</desc>
    <author>
      <name>Robert Kampf</name>
      <link href="https://www.komoot.de/user/4125295338453">
        <text>View Robert Kampf's Profile on Komoot</text>
      </link>
    </author>
    <link href="https://www.komoot.de/tour/3301157540">
      <text>View tour on Komoot</text>
    </link>
  </metadata>
  <wpt lat="47.128331" lon="10.967822">
    <name>Niederthai Informationsbüro</name>
    <cmt></cmt>
    <desc></desc>
    <src>Komoot</src>
    <type>POI</type>
  </wpt>
  <wpt lat="47.130395" lon="10.96695">
    <ele>1572</ele>
    <name>View of Niederthai from the Bergmahderweg</name>
    <cmt>https://d2exd72xrrp1s7.cloudfront.net/www/000/1k4/ui/ui3989kgl0wopliczwsqljbr3id106ue-uhi22368191/0</cmt>
    <desc>JR on Tour: Schöner Weg am Waldrand entlang
――――――――――
Sascha: Sehr schöner Höhenweg abseits der Straße.
――――――――――
Andi mit i: Ein schöner Blick ins Tal nach Niederthai</desc>
    <src>Komoot</src>
    <link href="https://www.komoot.de/highlight/2546641">
      <text>View POI on Komoot</text>
    </link>
    <type>Highlight</type>
  </wpt>
  <wpt lat="47.131949" lon="10.97084">
    <ele>1598.5</ele>
    <name>View of Niederthai</name>
    <cmt>https://d2exd72xrrp1s7.cloudfront.net/www/000/1k5/1r/1rtimsk96ndx014buzb1rt9f273usooyej-uhi38079903/0</cmt>
    <desc>Matthi 🧗🏻: Super Blick auf Niederthai.
――――――――――
Marc: Rastplatz mit Blick auf Niederthai
――――――――――
Sascha: Von hier aus hat man einen guten Blick auf Niederthai.</desc>
    <src>Komoot</src>
    <link href="https://www.komoot.de/highlight/817854">
      <text>View POI on Komoot</text>
    </link>
    <type>Highlight</type>
  </wpt>
  <wpt lat="47.143356" lon="11.00074">
    <ele>1795</ele>
    <name>Larstig Alm</name>
    <cmt>https://d2exd72xrrp1s7.cloudfront.net/www/000/1k5/1q/1q392n9inkh9z1k1ha6xvw0tqe3usokejn-uhi38079646/0</cmt>
    <desc>Sascha: Die Larstigalm ist sehr schön gelegen und lädt zum Rasten ein.
――――――――――
Matthi 🧗🏻: Bequem von Niederthai auf Fahrweg auch mit Kinderwagen gut erreichbar.
――――――――――
JR on Tour: Ideal gelegen zum Verstärken
――――――――――
Christian: Gemütlicher Spaziergang von Niederthai.
――――――――――
Axel 🥾🐕🚴 OUTDOORSEITE: Hausmannskost und Streichel-Zoo - hier kommen jung und alt auf ihre Kosten!
――――――――――
Peter Lascych: Auf jeden Fall einen Besuch wert, sehr freundlich und sehr leckere regionale Küche.
――――――――――
JoGue: Gaststube und Biergarten geöffnet von Mitte Juni bis Oktober
――――――――――
Manfred: Schöne gemüthliche Wanderung. Ideal auch für Kinder oder Kinderwagen
――――――――――
Manfred: Tolle gemüthliche Wanderung zur Alm.
Auch für Kinder gut geeignet
――――――――――
Jörg T: Der Weg am Fluss bietet auf dem Hinweg zeitweise Schatten. Der nördliche höher gelegene Weg eher nicht.
――――――――――
Sascha: Toll gelegene Alm. Bitte Öffnungszeiten beachten.
――――――――――
Marco SMG: Es handelt sich um die Larstigalm 1777m
――――――――――
JR on Tour: Ideal gelegen für eine Stärkung nach einer Wanderung
――――――――――
Andrea🐦: https://www.oetztal.com/de/sommer/wandern-bergsteigen/almen-huetten.html?viewType=detail&amp;itemId=1882
――――――――――
Fritz 🌲🌳: Immer Dienstags gibt es ein Hüttentaxi. Man muss sich aber anmelden.
Fährt hoch bis zur Schweinfurter Hütte. 👍
Top Service wenn man höher hinauf will
――――――――――
blackrat: Die Alpakas hab ich jedoch am Bergmähderweg gesehen.</desc>
    <src>Komoot</src>
    <link href="https://www.komoot.de/highlight/110576">
      <text>View POI on Komoot</text>
    </link>
    <type>Highlight</type>
  </wpt>
  <wpt lat="47.12817" lon="10.973024">
    <ele>1574.1</ele>
    <name>View of Niederthai</name>
    <cmt>https://d2exd72xrrp1s7.cloudfront.net/www/000/1k6/f9/f9u206netunqpnhb25o5xpfo42lyual8-uhi46624348/0</cmt>
    <desc>Jörg T: Auch auf dem gepflasterten Weg nach Ennebach schön anzusehen. Hier kann man zwischen zwei Hügeln hindurchschauen.
――――――――――
Helmut Fußach: Tolles Schneeschuh Highlight im Ötztal. Auf jeden Fall einen Besuch wert 😉.
――――――――――
Marc: Schöner Ort für eine kurze Rast.
――――――――――
JR on Tour: Schöner Blick auf die Landschaft um Niederthai
――――――――――
Sascha: Die Hügerlformation ist schon recht witzig anzusehen.
――――――――――
Sascha: Von hier aus hat man einen tollen Blick.
――――――――――
Sascha: Kein besonderes Können erforderlich.
――――――――――
Sascha: Von hier aus hat man einen guten Blick über Niederthai.</desc>
    <src>Komoot</src>
    <link href="https://www.komoot.de/highlight/817849">
      <text>View POI on Komoot</text>
    </link>
    <type>Highlight</type>
  </wpt>
  <trk>
    <name>Rundwanderung Bergmahderweg von Niederthai – Naturpark Ötztal</name>
    <desc>Distance: 7.747km, Estimated duration: 2.32h, Elevation up: 251.36940381885415m, Elevation down: 248.318672732737m, Grade: moderate</desc>
    <link href="https://www.komoot.de/tour/3301157540">
      <text>View tour on Komoot</text>
    </link>
    <trkseg>
      <trkpt lat="47.128277" lon="10.967812">
        <ele>1540</ele>
        <time>2026-09-22T15:45:29.157000Z</time>
      </trkpt>
      <trkpt lat="47.128287" lon="10.967685">
        <ele>1540.1</ele>
        <time>2026-09-22T15:45:38.004000Z</time>
      </trkpt>
      <trkpt lat="47.128353" lon="10.967616">
        <ele>1540.2</ele>
        <time>2026-09-22T15:45:46.451000Z</time>
      </trkpt>
      <trkpt lat="47.128381" lon="10.967585">
        <ele>1540.2</ele>
        <time>2026-09-22T15:45:50.225000Z</time>
      </trkpt>
      <trkpt lat="47.128484" lon="10.967488">
        <ele>1540.5</ele>
        <time>2026-09-22T15:46:03.307000Z</time>
      </trkpt>
      <trkpt lat="47.128639" lon="10.967325">
        <ele>1540.8</ele>
        <time>2026-09-22T15:46:23.384000Z</time>
      </trkpt>
      <trkpt lat="47.128723" lon="10.967235">
        <ele>1541</ele>
        <time>2026-09-22T15:46:34.557000Z</time>
      </trkpt>
      <trkpt lat="47.128791" lon="10.967156">
        <ele>1541.2</ele>
        <time>2026-09-22T15:46:43.918000Z</time>
      </trkpt>
      <trkpt lat="47.128817" lon="10.967069">
        <ele>1541.3</ele>
        <time>2026-09-22T15:46:50.712000Z</time>
      </trkpt>
      <trkpt lat="47.128828" lon="10.966615">
        <ele>1541.9</ele>
        <time>2026-09-22T15:47:24.057000Z</time>
      </trkpt>
      <trkpt lat="47.12883" lon="10.966545">
        <ele>1542</ele>
        <time>2026-09-22T15:47:29.106000Z</time>
      </trkpt>
      <trkpt lat="47.128845" lon="10.965948">
        <ele>1543.1</ele>
        <time>2026-09-22T15:48:13.439000Z</time>
      </trkpt>
      <trkpt lat="47.128833" lon="10.965575">
        <ele>1544.2</ele>
        <time>2026-09-22T15:48:42.755000Z</time>
      </trkpt>
      <trkpt lat="47.128744" lon="10.965283">
        <ele>1545.4</ele>
        <time>2026-09-22T15:49:08.834000Z</time>
      </trkpt>
      <trkpt lat="47.128556" lon="10.964882">
        <ele>1547.2</ele>
        <time>2026-09-22T15:49:48.156000Z</time>
      </trkpt>
      <trkpt lat="47.128349" lon="10.964545">
        <ele>1548.9</ele>
        <time>2026-09-22T15:50:24.878000Z</time>
      </trkpt>
      <trkpt lat="47.128216" lon="10.964265">
        <ele>1550.1</ele>
        <time>2026-09-22T15:50:52.300000Z</time>
      </trkpt>
      <trkpt lat="47.128083" lon="10.963807">
        <ele>1552</ele>
        <time>2026-09-22T15:51:32.919000Z</time>
      </trkpt>
      <trkpt lat="47.128017" lon="10.963582">
        <ele>1553</ele>
        <time>2026-09-22T15:51:52.985000Z</time>
      </trkpt>
      <trkpt lat="47.128143" lon="10.963623">
        <ele>1553.5</ele>
        <time>2026-09-22T15:52:07.394000Z</time>
      </trkpt>
      <trkpt lat="47.128512" lon="10.964189">
        <ele>1555.9</ele>
        <time>2026-09-22T15:53:09.148000Z</time>
      </trkpt>
      <trkpt lat="47.128523" lon="10.964206">
        <ele>1556</ele>
        <time>2026-09-22T15:53:11.131000Z</time>
      </trkpt>
      <trkpt lat="47.128723" lon="10.964659">
        <ele>1558.1</ele>
        <time>2026-09-22T15:53:55.141000Z</time>
      </trkpt>
      <trkpt lat="47.128826" lon="10.964798">
        <ele>1558.9</ele>
        <time>2026-09-22T15:54:11.997000Z</time>
      </trkpt>
      <trkpt lat="47.129106" lon="10.965304">
        <ele>1561.7</ele>
        <time>2026-09-22T15:55:05.859000Z</time>
      </trkpt>
      <trkpt lat="47.12943" lon="10.965719">
        <ele>1564.4</ele>
        <time>2026-09-22T15:55:58.329000Z</time>
      </trkpt>
      <trkpt lat="47.129592" lon="10.96587">
        <ele>1565.9</ele>
        <time>2026-09-22T15:56:22.384000Z</time>
      </trkpt>
      <trkpt lat="47.130236" lon="10.966736">
        <ele>1573.1</ele>
        <time>2026-09-22T15:58:14.171000Z</time>
      </trkpt>
      <trkpt lat="47.130351" lon="10.966926">
        <ele>1574.7</ele>
        <time>2026-09-22T15:58:37.095000Z</time>
      </trkpt>
      <trkpt lat="47.130374" lon="10.966973">
        <ele>1575.2</ele>
        <time>2026-09-22T15:58:42.410000Z</time>
      </trkpt>
      <trkpt lat="47.130524" lon="10.967268">
        <ele>1577.8</ele>
        <time>2026-09-22T15:59:16.233000Z</time>
      </trkpt>
      <trkpt lat="47.130589" lon="10.967502">
        <ele>1579.8</ele>
        <time>2026-09-22T15:59:40.531000Z</time>
      </trkpt>
      <trkpt lat="47.13074" lon="10.967752">
        <ele>1582.4</ele>
        <time>2026-09-22T16:00:12.400000Z</time>
      </trkpt>
      <trkpt lat="47.130758" lon="10.968075">
        <ele>1585.2</ele>
        <time>2026-09-22T16:00:44.987000Z</time>
      </trkpt>
      <trkpt lat="47.130845" lon="10.968304">
        <ele>1587.4</ele>
        <time>2026-09-22T16:01:10.838000Z</time>
      </trkpt>
      <trkpt lat="47.13089" lon="10.968573">
        <ele>1590</ele>
        <time>2026-09-22T16:01:39.801000Z</time>
      </trkpt>
      <trkpt lat="47.131223" lon="10.969138">
        <ele>1595.5</ele>
        <time>2026-09-22T16:02:49.010000Z</time>
      </trkpt>
      <trkpt lat="47.131444" lon="10.969569">
        <ele>1598.6</ele>
        <time>2026-09-22T16:03:36.151000Z</time>
      </trkpt>
      <trkpt lat="47.13182" lon="10.969996">
        <ele>1602.4</ele>
        <time>2026-09-22T16:04:36.538000Z</time>
      </trkpt>
      <trkpt lat="47.131949" lon="10.970077">
        <ele>1603.5</ele>
        <time>2026-09-22T16:04:54.341000Z</time>
      </trkpt>
      <trkpt lat="47.131976" lon="10.970177">
        <ele>1604.1</ele>
        <time>2026-09-22T16:05:03.973000Z</time>
      </trkpt>
      <trkpt lat="47.131927" lon="10.970424">
        <ele>1605.7</ele>
        <time>2026-09-22T16:05:26.585000Z</time>
      </trkpt>
      <trkpt lat="47.131979" lon="10.970573">
        <ele>1606.6</ele>
        <time>2026-09-22T16:05:41.243000Z</time>
      </trkpt>
      <trkpt lat="47.132017" lon="10.970817">
        <ele>1608.2</ele>
        <time>2026-09-22T16:06:03.507000Z</time>
      </trkpt>
      <trkpt lat="47.132061" lon="10.971106">
        <ele>1610</ele>
        <time>2026-09-22T16:06:29.636000Z</time>
      </trkpt>
      <trkpt lat="47.132312" lon="10.971606">
        <ele>1613.8</ele>
        <time>2026-09-22T16:07:24.825000Z</time>
      </trkpt>
      <trkpt lat="47.132291" lon="10.971915">
        <ele>1615.6</ele>
        <time>2026-09-22T16:07:52.064000Z</time>
      </trkpt>
      <trkpt lat="47.132351" lon="10.972119">
        <ele>1616.9</ele>
        <time>2026-09-22T16:08:11.597000Z</time>
      </trkpt>
      <trkpt lat="47.132472" lon="10.972236">
        <ele>1618.1</ele>
        <time>2026-09-22T16:08:30.100000Z</time>
      </trkpt>
      <trkpt lat="47.132946" lon="10.972894">
        <ele>1625</ele>
        <time>2026-09-22T16:09:58.347000Z</time>
      </trkpt>
      <trkpt lat="47.133316" lon="10.973251">
        <ele>1631.2</ele>
        <time>2026-09-22T16:11:07.528000Z</time>
      </trkpt>
      <trkpt lat="47.133762" lon="10.973734">
        <ele>1639.1</ele>
        <time>2026-09-22T16:12:35.341000Z</time>
      </trkpt>
      <trkpt lat="47.133961" lon="10.974093">
        <ele>1643.5</ele>
        <time>2026-09-22T16:13:25.123000Z</time>
      </trkpt>
      <trkpt lat="47.134127" lon="10.974139">
        <ele>1645.9</ele>
        <time>2026-09-22T16:13:51.383000Z</time>
      </trkpt>
      <trkpt lat="47.134302" lon="10.974377">
        <ele>1649.1</ele>
        <time>2026-09-22T16:14:28.190000Z</time>
      </trkpt>
      <trkpt lat="47.13453" lon="10.974566">
        <ele>1652.6</ele>
        <time>2026-09-22T16:15:08.381000Z</time>
      </trkpt>
      <trkpt lat="47.134696" lon="10.974934">
        <ele>1656.5</ele>
        <time>2026-09-22T16:15:53.359000Z</time>
      </trkpt>
      <trkpt lat="47.135317" lon="10.975924">
        <ele>1668.3</ele>
        <time>2026-09-22T16:18:10.013000Z</time>
      </trkpt>
      <trkpt lat="47.135441" lon="10.976052">
        <ele>1670.3</ele>
        <time>2026-09-22T16:18:32.778000Z</time>
      </trkpt>
      <trkpt lat="47.135658" lon="10.97659">
        <ele>1675.8</ele>
        <time>2026-09-22T16:19:36.184000Z</time>
      </trkpt>
      <trkpt lat="47.13593" lon="10.976942">
        <ele>1680.5</ele>
        <time>2026-09-22T16:20:30.581000Z</time>
      </trkpt>
      <trkpt lat="47.136106" lon="10.977067">
        <ele>1683</ele>
        <time>2026-09-22T16:20:59.704000Z</time>
      </trkpt>
      <trkpt lat="47.136738" lon="10.978103">
        <ele>1695.8</ele>
        <time>2026-09-22T16:23:25.066000Z</time>
      </trkpt>
      <trkpt lat="47.137027" lon="10.978797">
        <ele>1703</ele>
        <time>2026-09-22T16:24:47.651000Z</time>
      </trkpt>
      <trkpt lat="47.137194" lon="10.97894">
        <ele>1705.4</ele>
        <time>2026-09-22T16:25:16.076000Z</time>
      </trkpt>
      <trkpt lat="47.137311" lon="10.979186">
        <ele>1707.8</ele>
        <time>2026-09-22T16:25:44.650000Z</time>
      </trkpt>
      <trkpt lat="47.137394" lon="10.979292">
        <ele>1709</ele>
        <time>2026-09-22T16:26:00.118000Z</time>
      </trkpt>
      <trkpt lat="47.137992" lon="10.979806">
        <ele>1716.5</ele>
        <time>2026-09-22T16:27:34.268000Z</time>
      </trkpt>
      <trkpt lat="47.138028" lon="10.980007">
        <ele>1718.1</ele>
        <time>2026-09-22T16:27:53.614000Z</time>
      </trkpt>
      <trkpt lat="47.137974" lon="10.980295">
        <ele>1720.3</ele>
        <time>2026-09-22T16:28:21.357000Z</time>
      </trkpt>
      <trkpt lat="47.138035" lon="10.98063">
        <ele>1723.1</ele>
        <time>2026-09-22T16:28:54.733000Z</time>
      </trkpt>
      <trkpt lat="47.138398" lon="10.981028">
        <ele>1728.5</ele>
        <time>2026-09-22T16:29:59.731000Z</time>
      </trkpt>
      <trkpt lat="47.138439" lon="10.981151">
        <ele>1729.8</ele>
        <time>2026-09-22T16:30:13.658000Z</time>
      </trkpt>
      <trkpt lat="47.138439" lon="10.981359">
        <ele>1731.7</ele>
        <time>2026-09-22T16:30:35.314000Z</time>
      </trkpt>
      <trkpt lat="47.138377" lon="10.981592">
        <ele>1733.8</ele>
        <time>2026-09-22T16:31:00.655000Z</time>
      </trkpt>
      <trkpt lat="47.138383" lon="10.981673">
        <ele>1734.6</ele>
        <time>2026-09-22T16:31:09.171000Z</time>
      </trkpt>
      <trkpt lat="47.138555" lon="10.981899">
        <ele>1737.7</ele>
        <time>2026-09-22T16:31:44.860000Z</time>
      </trkpt>
      <trkpt lat="47.138614" lon="10.982024">
        <ele>1739.1</ele>
        <time>2026-09-22T16:32:00.516000Z</time>
      </trkpt>
      <trkpt lat="47.138637" lon="10.982457">
        <ele>1743.1</ele>
        <time>2026-09-22T16:32:45.816000Z</time>
      </trkpt>
      <trkpt lat="47.138779" lon="10.982658">
        <ele>1745.7</ele>
        <time>2026-09-22T16:33:15.781000Z</time>
      </trkpt>
      <trkpt lat="47.139049" lon="10.983278">
        <ele>1751.5</ele>
        <time>2026-09-22T16:34:25.916000Z</time>
      </trkpt>
      <trkpt lat="47.139178" lon="10.983515">
        <ele>1753.9</ele>
        <time>2026-09-22T16:34:55.026000Z</time>
      </trkpt>
      <trkpt lat="47.139228" lon="10.983773">
        <ele>1755.7</ele>
        <time>2026-09-22T16:35:19.302000Z</time>
      </trkpt>
      <trkpt lat="47.139315" lon="10.984">
        <ele>1757.8</ele>
        <time>2026-09-22T16:35:44.012000Z</time>
      </trkpt>
      <trkpt lat="47.139365" lon="10.984404">
        <ele>1760.5</ele>
        <time>2026-09-22T16:36:21.096000Z</time>
      </trkpt>
      <trkpt lat="47.139382" lon="10.98454">
        <ele>1761.4</ele>
        <time>2026-09-22T16:36:33.497000Z</time>
      </trkpt>
      <trkpt lat="47.139362" lon="10.9847">
        <ele>1762.1</ele>
        <time>2026-09-22T16:36:47.034000Z</time>
      </trkpt>
      <trkpt lat="47.139346" lon="10.984792">
        <ele>1762.5</ele>
        <time>2026-09-22T16:36:54.879000Z</time>
      </trkpt>
      <trkpt lat="47.139356" lon="10.984901">
        <ele>1763</ele>
        <time>2026-09-22T16:37:04.116000Z</time>
      </trkpt>
      <trkpt lat="47.139524" lon="10.985754">
        <ele>1764.9</ele>
        <time>2026-09-22T16:38:11.028000Z</time>
      </trkpt>
      <trkpt lat="47.139576" lon="10.985965">
        <ele>1764.9</ele>
        <time>2026-09-22T16:38:26.402000Z</time>
      </trkpt>
      <trkpt lat="47.139723" lon="10.986278">
        <ele>1764.4</ele>
        <time>2026-09-22T16:38:53.402000Z</time>
      </trkpt>
      <trkpt lat="47.139771" lon="10.986481">
        <ele>1764.1</ele>
        <time>2026-09-22T16:39:08.621000Z</time>
      </trkpt>
      <trkpt lat="47.139802" lon="10.986617">
        <ele>1763.7</ele>
        <time>2026-09-22T16:39:19.159000Z</time>
      </trkpt>
      <trkpt lat="47.140031" lon="10.987261">
        <ele>1762</ele>
        <time>2026-09-22T16:40:12.145000Z</time>
      </trkpt>
      <trkpt lat="47.140196" lon="10.987491">
        <ele>1760.9</ele>
        <time>2026-09-22T16:40:37.009000Z</time>
      </trkpt>
      <trkpt lat="47.140384" lon="10.987871">
        <ele>1759.1</ele>
        <time>2026-09-22T16:41:12.646000Z</time>
      </trkpt>
      <trkpt lat="47.140581" lon="10.988415">
        <ele>1755.9</ele>
        <time>2026-09-22T16:42:01.051000Z</time>
      </trkpt>
      <trkpt lat="47.140591" lon="10.988583">
        <ele>1754.9</ele>
        <time>2026-09-22T16:42:14.465000Z</time>
      </trkpt>
      <trkpt lat="47.140645" lon="10.98881">
        <ele>1753.5</ele>
        <time>2026-09-22T16:42:33.604000Z</time>
      </trkpt>
      <trkpt lat="47.140883" lon="10.989216">
        <ele>1751.2</ele>
        <time>2026-09-22T16:43:14.880000Z</time>
      </trkpt>
      <trkpt lat="47.140982" lon="10.989631">
        <ele>1749.9</ele>
        <time>2026-09-22T16:43:47.272000Z</time>
      </trkpt>
      <trkpt lat="47.141042" lon="10.990214">
        <ele>1748.5</ele>
        <time>2026-09-22T16:44:30.308000Z</time>
      </trkpt>
      <trkpt lat="47.141115" lon="10.99045">
        <ele>1748.4</ele>
        <time>2026-09-22T16:44:48.099000Z</time>
      </trkpt>
      <trkpt lat="47.14107" lon="10.990801">
        <ele>1748.2</ele>
        <time>2026-09-22T16:45:12.846000Z</time>
      </trkpt>
      <trkpt lat="47.141084" lon="10.990928">
        <ele>1748.3</ele>
        <time>2026-09-22T16:45:21.944000Z</time>
      </trkpt>
      <trkpt lat="47.141149" lon="10.991129">
        <ele>1748.6</ele>
        <time>2026-09-22T16:45:38.292000Z</time>
      </trkpt>
      <trkpt lat="47.141347" lon="10.991518">
        <ele>1749.1</ele>
        <time>2026-09-22T16:46:13.049000Z</time>
      </trkpt>
      <trkpt lat="47.141424" lon="10.991741">
        <ele>1749.1</ele>
        <time>2026-09-22T16:46:30.216000Z</time>
      </trkpt>
      <trkpt lat="47.141423" lon="10.9921">
        <ele>1750</ele>
        <time>2026-09-22T16:46:57.891000Z</time>
      </trkpt>
      <trkpt lat="47.141469" lon="10.992261">
        <ele>1750.1</ele>
        <time>2026-09-22T16:47:10.004000Z</time>
      </trkpt>
      <trkpt lat="47.141626" lon="10.992335">
        <ele>1751.1</ele>
        <time>2026-09-22T16:47:29.984000Z</time>
      </trkpt>
      <trkpt lat="47.141678" lon="10.992435">
        <ele>1751.3</ele>
        <time>2026-09-22T16:47:39.259000Z</time>
      </trkpt>
      <trkpt lat="47.141651" lon="10.992716">
        <ele>1752</ele>
        <time>2026-09-22T16:48:01.220000Z</time>
      </trkpt>
      <trkpt lat="47.141931" lon="10.993296">
        <ele>1754.4</ele>
        <time>2026-09-22T16:48:57.894000Z</time>
      </trkpt>
      <trkpt lat="47.142081" lon="10.993697">
        <ele>1755.6</ele>
        <time>2026-09-22T16:49:33.428000Z</time>
      </trkpt>
      <trkpt lat="47.142128" lon="10.993904">
        <ele>1755.9</ele>
        <time>2026-09-22T16:49:49.218000Z</time>
      </trkpt>
      <trkpt lat="47.142269" lon="10.994129">
        <ele>1757.1</ele>
        <time>2026-09-22T16:50:14.298000Z</time>
      </trkpt>
      <trkpt lat="47.142274" lon="10.994202">
        <ele>1757.4</ele>
        <time>2026-09-22T16:50:19.973000Z</time>
      </trkpt>
      <trkpt lat="47.142179" lon="10.99437">
        <ele>1757.8</ele>
        <time>2026-09-22T16:50:36.370000Z</time>
      </trkpt>
      <trkpt lat="47.142171" lon="10.994447">
        <ele>1757.9</ele>
        <time>2026-09-22T16:50:42.173000Z</time>
      </trkpt>
      <trkpt lat="47.142343" lon="10.994886">
        <ele>1759.2</ele>
        <time>2026-09-22T16:51:20.992000Z</time>
      </trkpt>
      <trkpt lat="47.142378" lon="10.995064">
        <ele>1759.6</ele>
        <time>2026-09-22T16:51:35.335000Z</time>
      </trkpt>
      <trkpt lat="47.142464" lon="10.995253">
        <ele>1760.2</ele>
        <time>2026-09-22T16:51:52.878000Z</time>
      </trkpt>
      <trkpt lat="47.142626" lon="10.99581">
        <ele>1761.8</ele>
        <time>2026-09-22T16:52:39.733000Z</time>
      </trkpt>
      <trkpt lat="47.142656" lon="10.996713">
        <ele>1764.6</ele>
        <time>2026-09-22T16:53:50.996000Z</time>
      </trkpt>
      <trkpt lat="47.142742" lon="10.997117">
        <ele>1765.9</ele>
        <time>2026-09-22T16:54:24.184000Z</time>
      </trkpt>
      <trkpt lat="47.143013" lon="10.997673">
        <ele>1767.5</ele>
        <time>2026-09-22T16:55:16.493000Z</time>
      </trkpt>
      <trkpt lat="47.143224" lon="10.998104">
        <ele>1768.6</ele>
        <time>2026-09-22T16:55:56.325000Z</time>
      </trkpt>
      <trkpt lat="47.14333" lon="10.998414">
        <ele>1769.2</ele>
        <time>2026-09-22T16:56:22.182000Z</time>
      </trkpt>
      <trkpt lat="47.143325" lon="10.998479">
        <ele>1769.3</ele>
        <time>2026-09-22T16:56:26.804000Z</time>
      </trkpt>
      <trkpt lat="47.143473" lon="10.998921">
        <ele>1770.1</ele>
        <time>2026-09-22T16:57:03.125000Z</time>
      </trkpt>
      <trkpt lat="47.143747" lon="10.99958">
        <ele>1771.4</ele>
        <time>2026-09-22T16:58:00.424000Z</time>
      </trkpt>
      <trkpt lat="47.14381" lon="10.9998">
        <ele>1771.9</ele>
        <time>2026-09-22T16:58:18.302000Z</time>
      </trkpt>
      <trkpt lat="47.143835" lon="11.000009">
        <ele>1771.8</ele>
        <time>2026-09-22T16:58:32.962000Z</time>
      </trkpt>
      <trkpt lat="47.143783" lon="11.000194">
        <ele>1772</ele>
        <time>2026-09-22T16:58:47.189000Z</time>
      </trkpt>
      <trkpt lat="47.143728" lon="11.000271">
        <ele>1772.2</ele>
        <time>2026-09-22T16:58:55.497000Z</time>
      </trkpt>
      <trkpt lat="47.143702" lon="11.000316">
        <ele>1772.2</ele>
        <time>2026-09-22T16:58:59.575000Z</time>
      </trkpt>
      <trkpt lat="47.143793" lon="11.000539">
        <ele>1772.1</ele>
        <time>2026-09-22T16:59:17.476000Z</time>
      </trkpt>
      <trkpt lat="47.143816" lon="11.00069">
        <ele>1772.2</ele>
        <time>2026-09-22T16:59:28.566000Z</time>
      </trkpt>
      <trkpt lat="47.143774" lon="11.000741">
        <ele>1772.4</ele>
        <time>2026-09-22T16:59:34.471000Z</time>
      </trkpt>
      <trkpt lat="47.143585" lon="11.000787">
        <ele>1772.4</ele>
        <time>2026-09-22T16:59:53.834000Z</time>
      </trkpt>
      <trkpt lat="47.143453" lon="11.000925">
        <ele>1772.8</ele>
        <time>2026-09-22T17:00:11.265000Z</time>
      </trkpt>
      <trkpt lat="47.143585" lon="11.000787">
        <ele>1772.8</ele>
        <time>2026-09-22T17:00:27.424000Z</time>
      </trkpt>
      <trkpt lat="47.143774" lon="11.000741">
        <ele>1773.1</ele>
        <time>2026-09-22T17:00:47.631000Z</time>
      </trkpt>
      <trkpt lat="47.143816" lon="11.00069">
        <ele>1773.1</ele>
        <time>2026-09-22T17:00:53.225000Z</time>
      </trkpt>
      <trkpt lat="47.143793" lon="11.000539">
        <ele>1773</ele>
        <time>2026-09-22T17:01:03.933000Z</time>
      </trkpt>
      <trkpt lat="47.143702" lon="11.000316">
        <ele>1773.1</ele>
        <time>2026-09-22T17:01:22.026000Z</time>
      </trkpt>
      <trkpt lat="47.143288" lon="10.999951">
        <ele>1772.8</ele>
        <time>2026-09-22T17:02:10.952000Z</time>
      </trkpt>
      <trkpt lat="47.143074" lon="10.999683">
        <ele>1772.3</ele>
        <time>2026-09-22T17:02:40.110000Z</time>
      </trkpt>
      <trkpt lat="47.142851" lon="10.999286">
        <ele>1770.8</ele>
        <time>2026-09-22T17:03:18.205000Z</time>
      </trkpt>
      <trkpt lat="47.14274" lon="10.99906">
        <ele>1770.2</ele>
        <time>2026-09-22T17:03:38.443000Z</time>
      </trkpt>
      <trkpt lat="47.142665" lon="10.998598">
        <ele>1769.1</ele>
        <time>2026-09-22T17:04:13.071000Z</time>
      </trkpt>
      <trkpt lat="47.142445" lon="10.997905">
        <ele>1766.8</ele>
        <time>2026-09-22T17:05:09.844000Z</time>
      </trkpt>
      <trkpt lat="47.142434" lon="10.997731">
        <ele>1766</ele>
        <time>2026-09-22T17:05:23.338000Z</time>
      </trkpt>
      <trkpt lat="47.142431" lon="10.997685">
        <ele>1765.8</ele>
        <time>2026-09-22T17:05:26.897000Z</time>
      </trkpt>
      <trkpt lat="47.142146" lon="10.997307">
        <ele>1763.4</ele>
        <time>2026-09-22T17:06:10.081000Z</time>
      </trkpt>
      <trkpt lat="47.141932" lon="10.996796">
        <ele>1760.8</ele>
        <time>2026-09-22T17:06:56.154000Z</time>
      </trkpt>
      <trkpt lat="47.141813" lon="10.99644">
        <ele>1758.8</ele>
        <time>2026-09-22T17:07:27.201000Z</time>
      </trkpt>
      <trkpt lat="47.141601" lon="10.995499">
        <ele>1755.8</ele>
        <time>2026-09-22T17:08:40.728000Z</time>
      </trkpt>
      <trkpt lat="47.141513" lon="10.995219">
        <ele>1755.5</ele>
        <time>2026-09-22T17:09:02.300000Z</time>
      </trkpt>
      <trkpt lat="47.141446" lon="10.995024">
        <ele>1755.3</ele>
        <time>2026-09-22T17:09:17.672000Z</time>
      </trkpt>
      <trkpt lat="47.141368" lon="10.994476">
        <ele>1755.3</ele>
        <time>2026-09-22T17:09:56.027000Z</time>
      </trkpt>
      <trkpt lat="47.141215" lon="10.99422">
        <ele>1755.7</ele>
        <time>2026-09-22T17:10:20.488000Z</time>
      </trkpt>
      <trkpt lat="47.140308" lon="10.99323">
        <ele>1756.4</ele>
        <time>2026-09-22T17:12:16.228000Z</time>
      </trkpt>
      <trkpt lat="47.140006" lon="10.99304">
        <ele>1756.6</ele>
        <time>2026-09-22T17:12:49.656000Z</time>
      </trkpt>
      <trkpt lat="47.139801" lon="10.992736">
        <ele>1756.4</ele>
        <time>2026-09-22T17:13:19.194000Z</time>
      </trkpt>
      <trkpt lat="47.139328" lon="10.990887">
        <ele>1749.9</ele>
        <time>2026-09-22T17:15:46.857000Z</time>
      </trkpt>
      <trkpt lat="47.139147" lon="10.990385">
        <ele>1747.3</ele>
        <time>2026-09-22T17:16:30.835000Z</time>
      </trkpt>
      <trkpt lat="47.13813" lon="10.989974">
        <ele>1740.6</ele>
        <time>2026-09-22T17:18:29.769000Z</time>
      </trkpt>
      <trkpt lat="47.13792" lon="10.989779">
        <ele>1739.1</ele>
        <time>2026-09-22T17:18:57.744000Z</time>
      </trkpt>
      <trkpt lat="47.137596" lon="10.98963">
        <ele>1736.8</ele>
        <time>2026-09-22T17:19:36.221000Z</time>
      </trkpt>
      <trkpt lat="47.137544" lon="10.989577">
        <ele>1736.4</ele>
        <time>2026-09-22T17:19:43.334000Z</time>
      </trkpt>
      <trkpt lat="47.137493" lon="10.989423">
        <ele>1735.5</ele>
        <time>2026-09-22T17:19:56.869000Z</time>
      </trkpt>
      <trkpt lat="47.136988" lon="10.988841">
        <ele>1731.1</ele>
        <time>2026-09-22T17:21:09.820000Z</time>
      </trkpt>
      <trkpt lat="47.136806" lon="10.988441">
        <ele>1728.8</ele>
        <time>2026-09-22T17:21:47.198000Z</time>
      </trkpt>
      <trkpt lat="47.1368" lon="10.988035">
        <ele>1726.8</ele>
        <time>2026-09-22T17:22:18.887000Z</time>
      </trkpt>
      <trkpt lat="47.136608" lon="10.987648">
        <ele>1724.4</ele>
        <time>2026-09-22T17:22:56.318000Z</time>
      </trkpt>
      <trkpt lat="47.136309" lon="10.98728">
        <ele>1721.8</ele>
        <time>2026-09-22T17:23:40.461000Z</time>
      </trkpt>
      <trkpt lat="47.136081" lon="10.987137">
        <ele>1720.4</ele>
        <time>2026-09-22T17:24:08.244000Z</time>
      </trkpt>
      <trkpt lat="47.136038" lon="10.987068">
        <ele>1719.8</ele>
        <time>2026-09-22T17:24:15.777000Z</time>
      </trkpt>
      <trkpt lat="47.135716" lon="10.986376">
        <ele>1716.3</ele>
        <time>2026-09-22T17:25:19.928000Z</time>
      </trkpt>
      <trkpt lat="47.135708" lon="10.986043">
        <ele>1714.9</ele>
        <time>2026-09-22T17:25:45.460000Z</time>
      </trkpt>
      <trkpt lat="47.135589" lon="10.985592">
        <ele>1713</ele>
        <time>2026-09-22T17:26:22.220000Z</time>
      </trkpt>
      <trkpt lat="47.135619" lon="10.985345">
        <ele>1712.1</ele>
        <time>2026-09-22T17:26:41.133000Z</time>
      </trkpt>
      <trkpt lat="47.135518" lon="10.984842">
        <ele>1709.7</ele>
        <time>2026-09-22T17:27:21.510000Z</time>
      </trkpt>
      <trkpt lat="47.13554" lon="10.984295">
        <ele>1707.1</ele>
        <time>2026-09-22T17:28:04.142000Z</time>
      </trkpt>
      <trkpt lat="47.135498" lon="10.983881">
        <ele>1704.7</ele>
        <time>2026-09-22T17:28:37.267000Z</time>
      </trkpt>
      <trkpt lat="47.13541" lon="10.983367">
        <ele>1701.6</ele>
        <time>2026-09-22T17:29:19.640000Z</time>
      </trkpt>
      <trkpt lat="47.135159" lon="10.982634">
        <ele>1696.5</ele>
        <time>2026-09-22T17:30:25.520000Z</time>
      </trkpt>
      <trkpt lat="47.134976" lon="10.982176">
        <ele>1693.6</ele>
        <time>2026-09-22T17:31:07.513000Z</time>
      </trkpt>
      <trkpt lat="47.134833" lon="10.981987">
        <ele>1692.2</ele>
        <time>2026-09-22T17:31:29.578000Z</time>
      </trkpt>
      <trkpt lat="47.134422" lon="10.981624">
        <ele>1689.1</ele>
        <time>2026-09-22T17:32:23.637000Z</time>
      </trkpt>
      <trkpt lat="47.134126" lon="10.981515">
        <ele>1686.9</ele>
        <time>2026-09-22T17:32:58.767000Z</time>
      </trkpt>
      <trkpt lat="47.133938" lon="10.981246">
        <ele>1684.9</ele>
        <time>2026-09-22T17:33:29.001000Z</time>
      </trkpt>
      <trkpt lat="47.13364" lon="10.981007">
        <ele>1682.2</ele>
        <time>2026-09-22T17:34:08.339000Z</time>
      </trkpt>
      <trkpt lat="47.133405" lon="10.98082">
        <ele>1680.1</ele>
        <time>2026-09-22T17:34:39.191000Z</time>
      </trkpt>
      <trkpt lat="47.13329" lon="10.980664">
        <ele>1678.7</ele>
        <time>2026-09-22T17:34:57.577000Z</time>
      </trkpt>
      <trkpt lat="47.133167" lon="10.980592">
        <ele>1677.7</ele>
        <time>2026-09-22T17:35:12.937000Z</time>
      </trkpt>
      <trkpt lat="47.133097" lon="10.980468">
        <ele>1676.8</ele>
        <time>2026-09-22T17:35:25.628000Z</time>
      </trkpt>
      <trkpt lat="47.133058" lon="10.980199">
        <ele>1675.2</ele>
        <time>2026-09-22T17:35:47.527000Z</time>
      </trkpt>
      <trkpt lat="47.13283" lon="10.979763">
        <ele>1672</ele>
        <time>2026-09-22T17:36:31.235000Z</time>
      </trkpt>
      <trkpt lat="47.132464" lon="10.979145">
        <ele>1666.9</ele>
        <time>2026-09-22T17:37:37.111000Z</time>
      </trkpt>
      <trkpt lat="47.131925" lon="10.978557">
        <ele>1659.7</ele>
        <time>2026-09-22T17:38:58.525000Z</time>
      </trkpt>
      <trkpt lat="47.131648" lon="10.978179">
        <ele>1655.5</ele>
        <time>2026-09-22T17:39:44.429000Z</time>
      </trkpt>
      <trkpt lat="47.131604" lon="10.978055">
        <ele>1654.5</ele>
        <time>2026-09-22T17:39:55.908000Z</time>
      </trkpt>
      <trkpt lat="47.131287" lon="10.977655">
        <ele>1649.9</ele>
        <time>2026-09-22T17:40:46.771000Z</time>
      </trkpt>
      <trkpt lat="47.131179" lon="10.977421">
        <ele>1647.7</ele>
        <time>2026-09-22T17:41:10.266000Z</time>
      </trkpt>
      <trkpt lat="47.131113" lon="10.977281">
        <ele>1646.5</ele>
        <time>2026-09-22T17:41:24.186000Z</time>
      </trkpt>
      <trkpt lat="47.130936" lon="10.976712">
        <ele>1642.3</ele>
        <time>2026-09-22T17:42:15.044000Z</time>
      </trkpt>
      <trkpt lat="47.130927" lon="10.976471">
        <ele>1640.8</ele>
        <time>2026-09-22T17:42:34.575000Z</time>
      </trkpt>
      <trkpt lat="47.130699" lon="10.975715">
        <ele>1634.9</ele>
        <time>2026-09-22T17:43:42.343000Z</time>
      </trkpt>
      <trkpt lat="47.13062" lon="10.975337">
        <ele>1631.3</ele>
        <time>2026-09-22T17:44:16.250000Z</time>
      </trkpt>
      <trkpt lat="47.130128" lon="10.974357">
        <ele>1618.5</ele>
        <time>2026-09-22T17:46:03.581000Z</time>
      </trkpt>
      <trkpt lat="47.129512" lon="10.973106">
        <ele>1599.7</ele>
        <time>2026-09-22T17:48:27.023000Z</time>
      </trkpt>
      <trkpt lat="47.129365" lon="10.972159">
        <ele>1588.8</ele>
        <time>2026-09-22T17:49:53.700000Z</time>
      </trkpt>
      <trkpt lat="47.129319" lon="10.971866">
        <ele>1585.9</ele>
        <time>2026-09-22T17:50:19.809000Z</time>
      </trkpt>
      <trkpt lat="47.12929" lon="10.971674">
        <ele>1584.2</ele>
        <time>2026-09-22T17:50:36.558000Z</time>
      </trkpt>
      <trkpt lat="47.12924" lon="10.971516">
        <ele>1582.9</ele>
        <time>2026-09-22T17:50:50.984000Z</time>
      </trkpt>
      <trkpt lat="47.12919" lon="10.971509">
        <ele>1582.3</ele>
        <time>2026-09-22T17:50:57.166000Z</time>
      </trkpt>
      <trkpt lat="47.129134" lon="10.97156">
        <ele>1581.3</ele>
        <time>2026-09-22T17:51:05.595000Z</time>
      </trkpt>
      <trkpt lat="47.12901" lon="10.971795">
        <ele>1579.2</ele>
        <time>2026-09-22T17:51:30.100000Z</time>
      </trkpt>
      <trkpt lat="47.128805" lon="10.972242">
        <ele>1575.5</ele>
        <time>2026-09-22T17:52:14.011000Z</time>
      </trkpt>
      <trkpt lat="47.128392" lon="10.972984">
        <ele>1571.3</ele>
        <time>2026-09-22T17:53:27.758000Z</time>
      </trkpt>
      <trkpt lat="47.128332" lon="10.973046">
        <ele>1571.2</ele>
        <time>2026-09-22T17:53:35.338000Z</time>
      </trkpt>
      <trkpt lat="47.128247" lon="10.973066">
        <ele>1570.9</ele>
        <time>2026-09-22T17:53:44.525000Z</time>
      </trkpt>
      <trkpt lat="47.12817" lon="10.973032">
        <ele>1570.6</ele>
        <time>2026-09-22T17:53:53.186000Z</time>
      </trkpt>
      <trkpt lat="47.12797" lon="10.972814">
        <ele>1570.1</ele>
        <time>2026-09-22T17:54:19.098000Z</time>
      </trkpt>
      <trkpt lat="47.127801" lon="10.972473">
        <ele>1569.1</ele>
        <time>2026-09-22T17:54:49.864000Z</time>
      </trkpt>
      <trkpt lat="47.127647" lon="10.97239">
        <ele>1568.5</ele>
        <time>2026-09-22T17:55:07.571000Z</time>
      </trkpt>
      <trkpt lat="47.127544" lon="10.972286">
        <ele>1568</ele>
        <time>2026-09-22T17:55:21.040000Z</time>
      </trkpt>
      <trkpt lat="47.126784" lon="10.970923">
        <ele>1563.9</ele>
        <time>2026-09-22T17:57:29.511000Z</time>
      </trkpt>
      <trkpt lat="47.126553" lon="10.970272">
        <ele>1562.6</ele>
        <time>2026-09-22T17:58:22.105000Z</time>
      </trkpt>
      <trkpt lat="47.126476" lon="10.970072">
        <ele>1562.1</ele>
        <time>2026-09-22T17:58:38.716000Z</time>
      </trkpt>
      <trkpt lat="47.126349" lon="10.969675">
        <ele>1561.2</ele>
        <time>2026-09-22T17:59:10.447000Z</time>
      </trkpt>
      <trkpt lat="47.126252" lon="10.969447">
        <ele>1560.5</ele>
        <time>2026-09-22T17:59:30.161000Z</time>
      </trkpt>
      <trkpt lat="47.126153" lon="10.969216">
        <ele>1559.7</ele>
        <time>2026-09-22T17:59:50.386000Z</time>
      </trkpt>
      <trkpt lat="47.126212" lon="10.96912">
        <ele>1559.4</ele>
        <time>2026-09-22T18:00:00.002000Z</time>
      </trkpt>
      <trkpt lat="47.12646" lon="10.968447">
        <ele>1556.3</ele>
        <time>2026-09-22T18:00:58.237000Z</time>
      </trkpt>
      <trkpt lat="47.126544" lon="10.968331">
        <ele>1555.5</ele>
        <time>2026-09-22T18:01:11.312000Z</time>
      </trkpt>
      <trkpt lat="47.126734" lon="10.968244">
        <ele>1554.1</ele>
        <time>2026-09-22T18:01:34.096000Z</time>
      </trkpt>
      <trkpt lat="47.126946" lon="10.968207">
        <ele>1552.6</ele>
        <time>2026-09-22T18:01:58.530000Z</time>
      </trkpt>
      <trkpt lat="47.127791" lon="10.968122">
        <ele>1546.7</ele>
        <time>2026-09-22T18:03:35.125000Z</time>
      </trkpt>
      <trkpt lat="47.128071" lon="10.967918">
        <ele>1544.9</ele>
        <time>2026-09-22T18:04:10.116000Z</time>
      </trkpt>
      <trkpt lat="47.128209" lon="10.967769">
        <ele>1544</ele>
        <time>2026-09-22T18:04:29.016000Z</time>
      </trkpt>
      <trkpt lat="47.128287" lon="10.967685">
        <ele>1543.5</ele>
        <time>2026-09-22T18:04:39.706000Z</time>
      </trkpt>
      <trkpt lat="47.128277" lon="10.967812">
        <ele>1543.1</ele>
        <time>2026-09-22T18:04:49.291000Z</time>
      </trkpt>
    </trkseg>
  </trk>
</gpx>