<?xml version="1.0" encoding="UTF-8"?>
<gpx xmlns="http://www.topografix.com/GPX/1/1" xmlns:xsi="http://www.w3.org/2001/XMLSchema-instance" xsi:schemaLocation="http://www.topografix.com/GPX/1/1 http://www.topografix.com/GPX/1/1/gpx.xsd" version="1.1" creator="Robert Kampf">
  <metadata>
    <name>Rund ums Kloster Holzen – Lauschtouren in Bayerisch-Schwaben</name>
    <desc>Distance: 4.764km, Estimated duration: 0.66h, Elevation up: 48.98725474098501m, Elevation down: 53.79923376688197m, Grade: easy</desc>
    <author>
      <name>Robert Kampf</name>
      <link href="https://www.komoot.de/user/4125295338453">
        <text>View Robert Kampf's Profile on Komoot</text>
      </link>
    </author>
    <link href="https://www.komoot.de/tour/2995686013">
      <text>View tour on Komoot</text>
    </link>
  </metadata>
  <wpt lat="48.604339" lon="10.814852">
    <ele>446.1</ele>
    <name>Holzen Abbey and the Abbey Church of St. John the Baptist</name>
    <cmt>https://d2exd72xrrp1s7.cloudfront.net/www/000/1k4/a0/a0xgoktqgzm1y9kfdox27b1g3h9d7n43-uhi19955442/0</cmt>
    <desc>Rolf Schiffner: Neben der Besichtigung der schönen Kirche des Klosters kann man im Klosterrestaurant auch sehr gut essen.
――――――――――
Siggi: Wer die Möglichkeit hat, das Kloster auch innen zu besuchen, sollte sich auf jeden Fall die Bibliothek ansehen, sie ist beeindruckend.
――――――――――
Martin: Nun hab ich's endlich auch geschafft, nach Kloster Holzen zu fahren: Ein ehemaliges Benediktinerkloster (bis zur Säkularisation). Später von Franziskanerinnen geführt, mittlerweile sind die auch weg und hier ist ein Hotel. Die Barockkirche ist sehenswert. 
Der Biergarten war leider heute geschlossen wegen Vorbereitung auf eine geschlossene Veranstaltung. Da war ich bei der heutigen Hitze ziemlich enttäuscht 🤔
――――――――――
Siggi: Dieser Garten strahlt einfach Ruhe aus.
――――――――――
Siggi: Die ganze Anlage ist sehenswert, es gibt daneben sogar einen kleinen Streichelzoo und einen Waldlehrpfad.
――――――――――
Gerd H.: Beeindruckender Ort, bemerkenswerte Kirche und gepflegte Gastronomie.
――――――――――
Ronny F 3333 🚵‍♀️🧗‍♂️: Das Kloster und die Umgebung lohnt sich immer wieder. Alle 4 Jahreszeiten.
――――――――――
Astrid: Klosterkirche sehenswert! Und der Küchenmesser Restaurant auch 😎
――――――――――
Thomas: Schöne Rastmöglichkeit am Kloster Holzen für Radfahrer oder Wanderer. Im Klosterhof oder Klostergarten gibt es zahlreiche Sitzgelegenheiten. Einkehr mit guten Speisen und günstigen Preisen ist im Klostergasthof möglich. Der Klostergasthof ist Samstags und Sonntags ab 11:30 geöffnet, Montag bis Freitag ab 15 Uhr
――――――――――
Martin: Schöner Klostergarten mit Kräutergarten
――――――――――
Margret: der nette Biergarten vor dem Hotel ist einladend, es gibt eine ebike-Auflandestation der LEW. Haben wir aber nicht gebraucht; die ganze Strecke hin und zurück hat uns nicht mal einen Strich von 5 auf dem ebike gekostet!
eine Barockkirche mit dem Park drumherum, der Johannimarkt und der Weihnachtsmarkt hier ziehen viele Leute aus nah und fern an. und nicht zuletzt gibt es auch eine kleine Aussicht ins Schmutter- und Lechtal.
――――――――――
FranziM97: schöne Einkehrmöglichkeit im Klosterhof
――――――――――
Jens: Wer kurz zeit hat, kann hier auch heiraten. In der historischen bibliothek 😉
――――――――――
breddy: Kloster Holzen ist eine ehemalige Benediktinerinnen-Abtei und heute eine Einrichtung des Dominikus-Ringeisen-Werkes. Die Einrichtung mit dem Sitz in Ursberg bietet dort Wohn- und Arbeitsmöglichkeiten für Menschen mit Behinderung. Die Klosterkirche St. Johannes der Täufer stammt aus dem Jahr 1704 und ist geprägt durch die üppige Barockausstattung mit reichen Stuckaturen. Am Kloster ist ein Tagungshotel untergebracht.
――――――――――
Didier: Imponierendes Kloster mit Kräuter-Klostergarten und herrlichem Ambiente.
――――――――――
🚲 Heiner der Radl-Opa 🚲: Sehr schön gepflegte Anlage mit Hotel und Restaurant.
Naja, Mönche gibt es hier auch noch )
――――――――――
Magic Harry: Koster Anlage, heute Hotel und Restaurant
――――――――――
Ronny F 3333 🚵‍♀️🧗‍♂️: Nicht nur das Kloster ist sehenswert sondern auch die gesamte Umgebung. Mit dem Rad aber auch zu Fuss.
――――――――――
Rolf Schiffner: Schöne Parkanalge - zum relaxen nach dem guten Mittagessen
――――――――――
Didada: Auf dem festen Fundament des Karlbergs, zwischen Himmel und Erde, hat sie ihren Platz: die Klosterkirche St. Johannes der Täufer. Von dort reckt sie ihre Türme in die Höhe und blickt weit über Schmutter- und Lechtal. Im Inneren mit einzigartigem Stuckarbeiten, Deckenfresken und Reliquienaltären spiegelt sie die barocke Hochkultur wieder – und das im reizvollem Kontrast zur klösterlichen Strenge.

Das großformatige Deckengemälde zeigt die Erdkugel mit der Holzener Klosterkirche. Darüber spannt sich das Himmelszelt. Kloster Holzen – zwischen Himmel und Erde! Dieses Werk verbildlicht das selbstverständliche Miteinander von Spirituellem und Weltlichem, das das Leben im Kloster Holzen damals wie heute prägt.
――――――――――
breddy: Ein wunderschöne Klosteranlage mit einem besonderen Klostergarten
――――――――――
Christian: Schöne Anlage mit Restaurant, Hotel und Biergarten
――――――――――
Walter Fa.: Beeindruckende Klosteranlage mit Kirche, Klosterladen, Klostergarten und Loreto-Kapelle.
――――――――――
Martin: Schönes Kloster, aber vergesst den Biergarten. Er ist immer wegen geschlossener Veranstaltung geschlossen.
War jetzt 2x dort und konnte nicht einkehren.</desc>
    <src>Komoot</src>
    <link href="https://www.komoot.de/highlight/100711">
      <text>View POI on Komoot</text>
    </link>
    <type>Highlight</type>
  </wpt>
  <wpt lat="48.604237" lon="10.815628">
    <ele>484</ele>
    <name>Marian Grotto at Holzen Abbey</name>
    <cmt>https://d2exd72xrrp1s7.cloudfront.net/www/000/1k4/3l/3lzhk4w15mv21kzn671oywdtn3cbrz8k5-uhi11680335/0</cmt>
    <desc>Siggi: Hinter der Klosterkirche, etwas versteckt, liegt diese kleine Mariengrotte, an der man vorbei kommt, wenn man den Waldlehrpfad entlang geht.
――――――――――
Matthias: Von unten sieht man die riesige Grotte. Schöner Blick mit weg zum Fluss unten
――――――――――
MoniS 🚶🏼‍♀️⛷️🚴🏼‍♀️🎒: schöne Wanderwege rund um Kloster Holzen
――――――――――
DeVo: schöner Klostergarten</desc>
    <src>Komoot</src>
    <link href="https://www.komoot.de/highlight/1252743">
      <text>View POI on Komoot</text>
    </link>
    <type>Highlight</type>
  </wpt>
  <wpt lat="48.603608" lon="10.814419">
    <ele>446.5</ele>
    <name>Cloister Garden at Holzen Abbey</name>
    <cmt>https://d2exd72xrrp1s7.cloudfront.net/www/000/1ka/18/181p3ssnfi4kvgpd30nojybg65q0fi2lz-uhi99058276/0</cmt>
    <desc>Marius: Der Kreuzgarten von Kloster Holzen war kein Ziergarten, sondern ein Ort für Gebet und Meditation. Im Innenhof lässt sich seine frühere Form noch immer am kreuzförmigen Verlauf der Wege ablesen. Seine Achsen stehen für die vier Dimensionen eines erfüllten Lebens – Beten, Arbeiten, Ruhe und leibliches Wohl. Die Benediktinerinnen ließen den Garten Ende des 17. Jahrhunderts hinter hohen Klostermauern anlegen, damit niemand von außen hineinsehen konnte.</desc>
    <src>Komoot</src>
    <link href="https://www.komoot.de/highlight/8273952">
      <text>View POI on Komoot</text>
    </link>
    <type>Highlight</type>
  </wpt>
  <wpt lat="48.609882" lon="10.815199">
    <ele>422.4</ele>
    <name>Wonderful paths along the Schmutter</name>
    <cmt>https://d2exd72xrrp1s7.cloudfront.net/www/000/1ka/8k/8kdkc5i2a58u76lpq7fv8jgx5q0e4n0k-uhi99057914/0</cmt>
    <desc>Marius: Rund um das Kloster Holzen führen schöne Wege entlang der Schmutter. Das erste Kloster lag um 1150 im Tal. Hier befand sich auch die frühere Klosterkirche. Die Lage am Fluss erwies sich jedoch als problematisch, da der Untergrund zu nass und sumpfig war. Nach mehrfachen Zerstörungen hat man sich deshalb dazu entschieden, das Kloster weiter oben auf dem Berg aufzubauen. Die Schmutter blieb dennoch wichtig. Entlang des Flusses verlief der Weg zur klostereigenen Mühle, die noch bis in die 1960er in Betrieb war.
――――――――――
Lenaaaa: Unter anderem sind hier Hühner, Enten, Kühe und Pferde zu sehen. Viel Spaß bei deiner Safari an der Schmutter.</desc>
    <src>Komoot</src>
    <link href="https://www.komoot.de/highlight/3024565">
      <text>View POI on Komoot</text>
    </link>
    <type>Highlight</type>
  </wpt>
  <trk>
    <name>Rund ums Kloster Holzen – Lauschtouren in Bayerisch-Schwaben</name>
    <desc>Distance: 4.764km, Estimated duration: 0.66h, Elevation up: 48.98725474098501m, Elevation down: 53.79923376688197m, Grade: easy</desc>
    <link href="https://www.komoot.de/tour/2995686013">
      <text>View tour on Komoot</text>
    </link>
    <trkseg>
      <trkpt lat="48.604309" lon="10.813669">
        <ele>449.4</ele>
        <time>2026-05-29T12:51:13.442000Z</time>
      </trkpt>
      <trkpt lat="48.604302" lon="10.813869">
        <ele>449.3</ele>
        <time>2026-05-29T12:51:21.440000Z</time>
      </trkpt>
      <trkpt lat="48.604446" lon="10.813924">
        <ele>449.3</ele>
        <time>2026-05-29T12:51:30.409000Z</time>
      </trkpt>
      <trkpt lat="48.604492" lon="10.81393">
        <ele>449.3</ele>
        <time>2026-05-29T12:51:33.212000Z</time>
      </trkpt>
      <trkpt lat="48.604482" lon="10.814408">
        <ele>449.2</ele>
        <time>2026-05-29T12:51:52.219000Z</time>
      </trkpt>
      <trkpt lat="48.604467" lon="10.814898">
        <ele>449</ele>
        <time>2026-05-29T12:52:11.935000Z</time>
      </trkpt>
      <trkpt lat="48.604326" lon="10.814896">
        <ele>448.9</ele>
        <time>2026-05-29T12:52:20.566000Z</time>
      </trkpt>
      <trkpt lat="48.604467" lon="10.814898">
        <ele>448.7</ele>
        <time>2026-05-29T12:52:29.239000Z</time>
      </trkpt>
      <trkpt lat="48.604482" lon="10.814408">
        <ele>448.2</ele>
        <time>2026-05-29T12:52:49.352000Z</time>
      </trkpt>
      <trkpt lat="48.604574" lon="10.814408">
        <ele>448</ele>
        <time>2026-05-29T12:52:55.127000Z</time>
      </trkpt>
      <trkpt lat="48.604575" lon="10.814337">
        <ele>447.9</ele>
        <time>2026-05-29T12:52:58.069000Z</time>
      </trkpt>
      <trkpt lat="48.604883" lon="10.814343">
        <ele>447.1</ele>
        <time>2026-05-29T12:53:17.492000Z</time>
      </trkpt>
      <trkpt lat="48.604932" lon="10.814338">
        <ele>447</ele>
        <time>2026-05-29T12:53:20.582000Z</time>
      </trkpt>
      <trkpt lat="48.604929" lon="10.814422">
        <ele>446.9</ele>
        <time>2026-05-29T12:53:24.091000Z</time>
      </trkpt>
      <trkpt lat="48.604915" lon="10.814829">
        <ele>446.2</ele>
        <time>2026-05-29T12:53:41.104000Z</time>
      </trkpt>
      <trkpt lat="48.604878" lon="10.815024">
        <ele>445.8</ele>
        <time>2026-05-29T12:53:49.626000Z</time>
      </trkpt>
      <trkpt lat="48.604779" lon="10.815325">
        <ele>445.2</ele>
        <time>2026-05-29T12:54:03.780000Z</time>
      </trkpt>
      <trkpt lat="48.604707" lon="10.815503">
        <ele>444.7</ele>
        <time>2026-05-29T12:54:12.616000Z</time>
      </trkpt>
      <trkpt lat="48.60463" lon="10.815614">
        <ele>444.4</ele>
        <time>2026-05-29T12:54:19.384000Z</time>
      </trkpt>
      <trkpt lat="48.604437" lon="10.815732">
        <ele>443.8</ele>
        <time>2026-05-29T12:54:32.673000Z</time>
      </trkpt>
      <trkpt lat="48.604236" lon="10.815728">
        <ele>443.4</ele>
        <time>2026-05-29T12:54:45.201000Z</time>
      </trkpt>
      <trkpt lat="48.603936" lon="10.815722">
        <ele>443.2</ele>
        <time>2026-05-29T12:55:03.559000Z</time>
      </trkpt>
      <trkpt lat="48.603684" lon="10.815794">
        <ele>443.3</ele>
        <time>2026-05-29T12:55:19.219000Z</time>
      </trkpt>
      <trkpt lat="48.603509" lon="10.815767">
        <ele>443.5</ele>
        <time>2026-05-29T12:55:30.216000Z</time>
      </trkpt>
      <trkpt lat="48.603465" lon="10.815691">
        <ele>443.5</ele>
        <time>2026-05-29T12:55:34.348000Z</time>
      </trkpt>
      <trkpt lat="48.603444" lon="10.815544">
        <ele>443.6</ele>
        <time>2026-05-29T12:55:40.441000Z</time>
      </trkpt>
      <trkpt lat="48.603478" lon="10.815468">
        <ele>443.6</ele>
        <time>2026-05-29T12:55:44.067000Z</time>
      </trkpt>
      <trkpt lat="48.603604" lon="10.815442">
        <ele>443.6</ele>
        <time>2026-05-29T12:55:51.808000Z</time>
      </trkpt>
      <trkpt lat="48.603604" lon="10.815323">
        <ele>443.7</ele>
        <time>2026-05-29T12:55:56.619000Z</time>
      </trkpt>
      <trkpt lat="48.603604" lon="10.814778">
        <ele>444.2</ele>
        <time>2026-05-29T12:56:19.402000Z</time>
      </trkpt>
      <trkpt lat="48.603609" lon="10.814408">
        <ele>444.8</ele>
        <time>2026-05-29T12:56:35.272000Z</time>
      </trkpt>
      <trkpt lat="48.603591" lon="10.814393">
        <ele>444.9</ele>
        <time>2026-05-29T12:56:36.651000Z</time>
      </trkpt>
      <trkpt lat="48.603581" lon="10.814357">
        <ele>444.9</ele>
        <time>2026-05-29T12:56:38.353000Z</time>
      </trkpt>
      <trkpt lat="48.603335" lon="10.814354">
        <ele>445.7</ele>
        <time>2026-05-29T12:56:54.809000Z</time>
      </trkpt>
      <trkpt lat="48.603335" lon="10.814081">
        <ele>446.2</ele>
        <time>2026-05-29T12:57:06.786000Z</time>
      </trkpt>
      <trkpt lat="48.603336" lon="10.81394">
        <ele>446.5</ele>
        <time>2026-05-29T12:57:12.860000Z</time>
      </trkpt>
      <trkpt lat="48.603609" lon="10.813953">
        <ele>447</ele>
        <time>2026-05-29T12:57:30.458000Z</time>
      </trkpt>
      <trkpt lat="48.603904" lon="10.813951">
        <ele>447.4</ele>
        <time>2026-05-29T12:57:49.041000Z</time>
      </trkpt>
      <trkpt lat="48.603922" lon="10.813863">
        <ele>447.5</ele>
        <time>2026-05-29T12:57:52.814000Z</time>
      </trkpt>
      <trkpt lat="48.604094" lon="10.813865">
        <ele>447.8</ele>
        <time>2026-05-29T12:58:03.751000Z</time>
      </trkpt>
      <trkpt lat="48.604148" lon="10.81385">
        <ele>447.9</ele>
        <time>2026-05-29T12:58:07.372000Z</time>
      </trkpt>
      <trkpt lat="48.604146" lon="10.813583">
        <ele>448.3</ele>
        <time>2026-05-29T12:58:18.825000Z</time>
      </trkpt>
      <trkpt lat="48.604164" lon="10.81351">
        <ele>448.4</ele>
        <time>2026-05-29T12:58:22.160000Z</time>
      </trkpt>
      <trkpt lat="48.604227" lon="10.813473">
        <ele>448.6</ele>
        <time>2026-05-29T12:58:26.556000Z</time>
      </trkpt>
      <trkpt lat="48.604227" lon="10.813375">
        <ele>448.7</ele>
        <time>2026-05-29T12:58:30.713000Z</time>
      </trkpt>
      <trkpt lat="48.604226" lon="10.813246">
        <ele>448.9</ele>
        <time>2026-05-29T12:58:36.140000Z</time>
      </trkpt>
      <trkpt lat="48.604157" lon="10.813255">
        <ele>448.9</ele>
        <time>2026-05-29T12:58:40.524000Z</time>
      </trkpt>
      <trkpt lat="48.604115" lon="10.81326">
        <ele>449</ele>
        <time>2026-05-29T12:58:43.195000Z</time>
      </trkpt>
      <trkpt lat="48.604105" lon="10.813213">
        <ele>449</ele>
        <time>2026-05-29T12:58:45.224000Z</time>
      </trkpt>
      <trkpt lat="48.604104" lon="10.81294">
        <ele>449.2</ele>
        <time>2026-05-29T12:58:56.450000Z</time>
      </trkpt>
      <trkpt lat="48.604071" lon="10.81278">
        <ele>449.3</ele>
        <time>2026-05-29T12:59:03.269000Z</time>
      </trkpt>
      <trkpt lat="48.604013" lon="10.812676">
        <ele>449.3</ele>
        <time>2026-05-29T12:59:08.766000Z</time>
      </trkpt>
      <trkpt lat="48.604036" lon="10.812035">
        <ele>449.4</ele>
        <time>2026-05-29T12:59:34.469000Z</time>
      </trkpt>
      <trkpt lat="48.604084" lon="10.811494">
        <ele>449.4</ele>
        <time>2026-05-29T12:59:56.118000Z</time>
      </trkpt>
      <trkpt lat="48.604092" lon="10.811373">
        <ele>449.4</ele>
        <time>2026-05-29T13:00:00.985000Z</time>
      </trkpt>
      <trkpt lat="48.604084" lon="10.811494">
        <ele>449.4</ele>
        <time>2026-05-29T13:00:05.846000Z</time>
      </trkpt>
      <trkpt lat="48.604036" lon="10.812035">
        <ele>449.4</ele>
        <time>2026-05-29T13:00:27.518000Z</time>
      </trkpt>
      <trkpt lat="48.604013" lon="10.812676">
        <ele>449.2</ele>
        <time>2026-05-29T13:00:53.241000Z</time>
      </trkpt>
      <trkpt lat="48.604071" lon="10.81278">
        <ele>449.2</ele>
        <time>2026-05-29T13:00:58.694000Z</time>
      </trkpt>
      <trkpt lat="48.604104" lon="10.81294">
        <ele>449.1</ele>
        <time>2026-05-29T13:01:05.419000Z</time>
      </trkpt>
      <trkpt lat="48.604105" lon="10.813213">
        <ele>449</ele>
        <time>2026-05-29T13:01:16.405000Z</time>
      </trkpt>
      <trkpt lat="48.604115" lon="10.81326">
        <ele>449</ele>
        <time>2026-05-29T13:01:18.377000Z</time>
      </trkpt>
      <trkpt lat="48.604157" lon="10.813255">
        <ele>449</ele>
        <time>2026-05-29T13:01:20.970000Z</time>
      </trkpt>
      <trkpt lat="48.604226" lon="10.813246">
        <ele>448.9</ele>
        <time>2026-05-29T13:01:25.226000Z</time>
      </trkpt>
      <trkpt lat="48.604332" lon="10.81324">
        <ele>448.8</ele>
        <time>2026-05-29T13:01:31.706000Z</time>
      </trkpt>
      <trkpt lat="48.604524" lon="10.813229">
        <ele>448.6</ele>
        <time>2026-05-29T13:01:43.546000Z</time>
      </trkpt>
      <trkpt lat="48.604737" lon="10.813241">
        <ele>448.2</ele>
        <time>2026-05-29T13:01:56.839000Z</time>
      </trkpt>
      <trkpt lat="48.60487" lon="10.813708">
        <ele>446.4</ele>
        <time>2026-05-29T13:02:19.139000Z</time>
      </trkpt>
      <trkpt lat="48.604948" lon="10.814189">
        <ele>444.2</ele>
        <time>2026-05-29T13:02:41.464000Z</time>
      </trkpt>
      <trkpt lat="48.604976" lon="10.81422">
        <ele>443.9</ele>
        <time>2026-05-29T13:02:43.907000Z</time>
      </trkpt>
      <trkpt lat="48.604966" lon="10.814284">
        <ele>443.7</ele>
        <time>2026-05-29T13:02:46.843000Z</time>
      </trkpt>
      <trkpt lat="48.604963" lon="10.814297">
        <ele>443.6</ele>
        <time>2026-05-29T13:02:47.476000Z</time>
      </trkpt>
      <trkpt lat="48.604932" lon="10.814338">
        <ele>443.3</ele>
        <time>2026-05-29T13:02:50.348000Z</time>
      </trkpt>
      <trkpt lat="48.605019" lon="10.814362">
        <ele>442.5</ele>
        <time>2026-05-29T13:02:56.591000Z</time>
      </trkpt>
      <trkpt lat="48.605058" lon="10.814409">
        <ele>442.1</ele>
        <time>2026-05-29T13:03:00.047000Z</time>
      </trkpt>
      <trkpt lat="48.605173" lon="10.81441">
        <ele>441.2</ele>
        <time>2026-05-29T13:03:08.084000Z</time>
      </trkpt>
      <trkpt lat="48.605439" lon="10.814419">
        <ele>438.8</ele>
        <time>2026-05-29T13:03:26.947000Z</time>
      </trkpt>
      <trkpt lat="48.60546" lon="10.81443">
        <ele>438.6</ele>
        <time>2026-05-29T13:03:28.495000Z</time>
      </trkpt>
      <trkpt lat="48.605592" lon="10.814498">
        <ele>437.3</ele>
        <time>2026-05-29T13:03:38.379000Z</time>
      </trkpt>
      <trkpt lat="48.60561" lon="10.814778">
        <ele>435.6</ele>
        <time>2026-05-29T13:03:51.559000Z</time>
      </trkpt>
      <trkpt lat="48.605626" lon="10.815139">
        <ele>433.3</ele>
        <time>2026-05-29T13:04:08.670000Z</time>
      </trkpt>
      <trkpt lat="48.605745" lon="10.815333">
        <ele>431.6</ele>
        <time>2026-05-29T13:04:21.189000Z</time>
      </trkpt>
      <trkpt lat="48.605782" lon="10.815542">
        <ele>430.2</ele>
        <time>2026-05-29T13:04:31.343000Z</time>
      </trkpt>
      <trkpt lat="48.605823" lon="10.815437">
        <ele>429.6</ele>
        <time>2026-05-29T13:04:36.945000Z</time>
      </trkpt>
      <trkpt lat="48.605934" lon="10.815308">
        <ele>428.6</ele>
        <time>2026-05-29T13:04:46.516000Z</time>
      </trkpt>
      <trkpt lat="48.606028" lon="10.815369">
        <ele>428</ele>
        <time>2026-05-29T13:04:53.409000Z</time>
      </trkpt>
      <trkpt lat="48.606092" lon="10.815411">
        <ele>427.6</ele>
        <time>2026-05-29T13:04:58.082000Z</time>
      </trkpt>
      <trkpt lat="48.606786" lon="10.815659">
        <ele>424.6</ele>
        <time>2026-05-29T13:05:44.603000Z</time>
      </trkpt>
      <trkpt lat="48.606922" lon="10.815722">
        <ele>424.2</ele>
        <time>2026-05-29T13:05:53.613000Z</time>
      </trkpt>
      <trkpt lat="48.607114" lon="10.815829">
        <ele>423.7</ele>
        <time>2026-05-29T13:06:06.552000Z</time>
      </trkpt>
      <trkpt lat="48.607149" lon="10.815835">
        <ele>423.6</ele>
        <time>2026-05-29T13:06:08.766000Z</time>
      </trkpt>
      <trkpt lat="48.607497" lon="10.815898">
        <ele>422.9</ele>
        <time>2026-05-29T13:06:30.713000Z</time>
      </trkpt>
      <trkpt lat="48.608444" lon="10.815754">
        <ele>421.4</ele>
        <time>2026-05-29T13:07:29.665000Z</time>
      </trkpt>
      <trkpt lat="48.608849" lon="10.815683">
        <ele>421.3</ele>
        <time>2026-05-29T13:07:54.341000Z</time>
      </trkpt>
      <trkpt lat="48.609088" lon="10.815564">
        <ele>421.4</ele>
        <time>2026-05-29T13:08:09.696000Z</time>
      </trkpt>
      <trkpt lat="48.609302" lon="10.815499">
        <ele>421.7</ele>
        <time>2026-05-29T13:08:23.333000Z</time>
      </trkpt>
      <trkpt lat="48.609689" lon="10.815208">
        <ele>422.4</ele>
        <time>2026-05-29T13:08:50.755000Z</time>
      </trkpt>
      <trkpt lat="48.609861" lon="10.815113">
        <ele>422.8</ele>
        <time>2026-05-29T13:09:02.597000Z</time>
      </trkpt>
      <trkpt lat="48.610263" lon="10.814892">
        <ele>423.9</ele>
        <time>2026-05-29T13:09:30.730000Z</time>
      </trkpt>
      <trkpt lat="48.611021" lon="10.814699">
        <ele>425.1</ele>
        <time>2026-05-29T13:10:19.386000Z</time>
      </trkpt>
      <trkpt lat="48.611093" lon="10.814657">
        <ele>425.1</ele>
        <time>2026-05-29T13:10:24.055000Z</time>
      </trkpt>
      <trkpt lat="48.611159" lon="10.814584">
        <ele>425.1</ele>
        <time>2026-05-29T13:10:29.028000Z</time>
      </trkpt>
      <trkpt lat="48.611234" lon="10.814503">
        <ele>425.1</ele>
        <time>2026-05-29T13:10:34.566000Z</time>
      </trkpt>
      <trkpt lat="48.611294" lon="10.814392">
        <ele>425.1</ele>
        <time>2026-05-29T13:10:40.278000Z</time>
      </trkpt>
      <trkpt lat="48.611675" lon="10.814316">
        <ele>425.3</ele>
        <time>2026-05-29T13:11:03.844000Z</time>
      </trkpt>
      <trkpt lat="48.61171" lon="10.814426">
        <ele>425.5</ele>
        <time>2026-05-29T13:11:08.948000Z</time>
      </trkpt>
      <trkpt lat="48.611885" lon="10.814405">
        <ele>425.8</ele>
        <time>2026-05-29T13:11:20.206000Z</time>
      </trkpt>
      <trkpt lat="48.612147" lon="10.814778">
        <ele>426.8</ele>
        <time>2026-05-29T13:11:43.980000Z</time>
      </trkpt>
      <trkpt lat="48.612076" lon="10.814512">
        <ele>427.7</ele>
        <time>2026-05-29T13:11:57.092000Z</time>
      </trkpt>
      <trkpt lat="48.612398" lon="10.814598">
        <ele>429.2</ele>
        <time>2026-05-29T13:12:19.911000Z</time>
      </trkpt>
      <trkpt lat="48.612501" lon="10.814588">
        <ele>429.6</ele>
        <time>2026-05-29T13:12:27.123000Z</time>
      </trkpt>
      <trkpt lat="48.612538" lon="10.814515">
        <ele>430</ele>
        <time>2026-05-29T13:12:31.426000Z</time>
      </trkpt>
      <trkpt lat="48.612594" lon="10.814238">
        <ele>430.8</ele>
        <time>2026-05-29T13:12:44.715000Z</time>
      </trkpt>
      <trkpt lat="48.612739" lon="10.814206">
        <ele>431.5</ele>
        <time>2026-05-29T13:12:54.960000Z</time>
      </trkpt>
      <trkpt lat="48.612782" lon="10.814138">
        <ele>431.8</ele>
        <time>2026-05-29T13:12:59.325000Z</time>
      </trkpt>
      <trkpt lat="48.6128" lon="10.814027">
        <ele>432.2</ele>
        <time>2026-05-29T13:13:04.650000Z</time>
      </trkpt>
      <trkpt lat="48.612776" lon="10.813909">
        <ele>432.5</ele>
        <time>2026-05-29T13:13:10.283000Z</time>
      </trkpt>
      <trkpt lat="48.612666" lon="10.813374">
        <ele>434</ele>
        <time>2026-05-29T13:13:35.573000Z</time>
      </trkpt>
      <trkpt lat="48.612595" lon="10.812524">
        <ele>435.9</ele>
        <time>2026-05-29T13:14:13.590000Z</time>
      </trkpt>
      <trkpt lat="48.612618" lon="10.811738">
        <ele>436.3</ele>
        <time>2026-05-29T13:14:45.761000Z</time>
      </trkpt>
      <trkpt lat="48.612726" lon="10.811475">
        <ele>436.4</ele>
        <time>2026-05-29T13:14:58.265000Z</time>
      </trkpt>
      <trkpt lat="48.612841" lon="10.811474">
        <ele>436.5</ele>
        <time>2026-05-29T13:15:05.265000Z</time>
      </trkpt>
      <trkpt lat="48.612908" lon="10.811473">
        <ele>436.5</ele>
        <time>2026-05-29T13:15:09.446000Z</time>
      </trkpt>
      <trkpt lat="48.612842" lon="10.81133">
        <ele>436.5</ele>
        <time>2026-05-29T13:15:16.415000Z</time>
      </trkpt>
      <trkpt lat="48.612842" lon="10.81126">
        <ele>436.6</ele>
        <time>2026-05-29T13:15:19.287000Z</time>
      </trkpt>
      <trkpt lat="48.612856" lon="10.811022">
        <ele>436.6</ele>
        <time>2026-05-29T13:15:28.795000Z</time>
      </trkpt>
      <trkpt lat="48.612843" lon="10.810719">
        <ele>436.5</ele>
        <time>2026-05-29T13:15:40.937000Z</time>
      </trkpt>
      <trkpt lat="48.612827" lon="10.810409">
        <ele>436.4</ele>
        <time>2026-05-29T13:15:53.378000Z</time>
      </trkpt>
      <trkpt lat="48.612796" lon="10.810327">
        <ele>436.4</ele>
        <time>2026-05-29T13:15:57.122000Z</time>
      </trkpt>
      <trkpt lat="48.612718" lon="10.810407">
        <ele>436.3</ele>
        <time>2026-05-29T13:16:02.928000Z</time>
      </trkpt>
      <trkpt lat="48.612706" lon="10.810498">
        <ele>436.2</ele>
        <time>2026-05-29T13:16:06.665000Z</time>
      </trkpt>
      <trkpt lat="48.612622" lon="10.811142">
        <ele>435.2</ele>
        <time>2026-05-29T13:16:33.975000Z</time>
      </trkpt>
      <trkpt lat="48.612562" lon="10.811266">
        <ele>435.1</ele>
        <time>2026-05-29T13:16:40.190000Z</time>
      </trkpt>
      <trkpt lat="48.612484" lon="10.811336">
        <ele>435.1</ele>
        <time>2026-05-29T13:16:45.728000Z</time>
      </trkpt>
      <trkpt lat="48.612387" lon="10.811372">
        <ele>435</ele>
        <time>2026-05-29T13:16:51.828000Z</time>
      </trkpt>
      <trkpt lat="48.612158" lon="10.811292">
        <ele>435</ele>
        <time>2026-05-29T13:17:05.902000Z</time>
      </trkpt>
      <trkpt lat="48.612107" lon="10.811637">
        <ele>435.2</ele>
        <time>2026-05-29T13:17:20.336000Z</time>
      </trkpt>
      <trkpt lat="48.611691" lon="10.811518">
        <ele>436.2</ele>
        <time>2026-05-29T13:17:47.917000Z</time>
      </trkpt>
      <trkpt lat="48.611698" lon="10.811356">
        <ele>436.6</ele>
        <time>2026-05-29T13:17:55.286000Z</time>
      </trkpt>
      <trkpt lat="48.611456" lon="10.811359">
        <ele>437.8</ele>
        <time>2026-05-29T13:18:12.112000Z</time>
      </trkpt>
      <trkpt lat="48.611457" lon="10.810735">
        <ele>440.1</ele>
        <time>2026-05-29T13:18:41.781000Z</time>
      </trkpt>
      <trkpt lat="48.611335" lon="10.810756">
        <ele>440.9</ele>
        <time>2026-05-29T13:18:50.632000Z</time>
      </trkpt>
      <trkpt lat="48.61107" lon="10.810778">
        <ele>442.2</ele>
        <time>2026-05-29T13:19:09.291000Z</time>
      </trkpt>
      <trkpt lat="48.610553" lon="10.810818">
        <ele>443.6</ele>
        <time>2026-05-29T13:19:43.371000Z</time>
      </trkpt>
      <trkpt lat="48.610468" lon="10.810799">
        <ele>443.6</ele>
        <time>2026-05-29T13:19:48.643000Z</time>
      </trkpt>
      <trkpt lat="48.610263" lon="10.810853">
        <ele>443.5</ele>
        <time>2026-05-29T13:20:01.265000Z</time>
      </trkpt>
      <trkpt lat="48.610165" lon="10.811391">
        <ele>442.5</ele>
        <time>2026-05-29T13:20:24.689000Z</time>
      </trkpt>
      <trkpt lat="48.610047" lon="10.81167">
        <ele>441.4</ele>
        <time>2026-05-29T13:20:39.142000Z</time>
      </trkpt>
      <trkpt lat="48.609899" lon="10.811833">
        <ele>440.4</ele>
        <time>2026-05-29T13:20:51.317000Z</time>
      </trkpt>
      <trkpt lat="48.609189" lon="10.812335">
        <ele>436.2</ele>
        <time>2026-05-29T13:21:43.458000Z</time>
      </trkpt>
      <trkpt lat="48.609153" lon="10.812333">
        <ele>436.1</ele>
        <time>2026-05-29T13:21:45.834000Z</time>
      </trkpt>
      <trkpt lat="48.609105" lon="10.812278">
        <ele>435.8</ele>
        <time>2026-05-29T13:21:49.763000Z</time>
      </trkpt>
      <trkpt lat="48.609096" lon="10.812082">
        <ele>435.3</ele>
        <time>2026-05-29T13:21:58.202000Z</time>
      </trkpt>
      <trkpt lat="48.609037" lon="10.811806">
        <ele>434.8</ele>
        <time>2026-05-29T13:22:10.301000Z</time>
      </trkpt>
      <trkpt lat="48.60889" lon="10.810949">
        <ele>434.9</ele>
        <time>2026-05-29T13:22:45.569000Z</time>
      </trkpt>
      <trkpt lat="48.608865" lon="10.810443">
        <ele>435.8</ele>
        <time>2026-05-29T13:23:07.561000Z</time>
      </trkpt>
      <trkpt lat="48.608882" lon="10.810108">
        <ele>436.4</ele>
        <time>2026-05-29T13:23:22.252000Z</time>
      </trkpt>
      <trkpt lat="48.608919" lon="10.809849">
        <ele>436.9</ele>
        <time>2026-05-29T13:23:33.914000Z</time>
      </trkpt>
      <trkpt lat="48.608985" lon="10.809553">
        <ele>437.6</ele>
        <time>2026-05-29T13:23:47.732000Z</time>
      </trkpt>
      <trkpt lat="48.608985" lon="10.809551">
        <ele>437.6</ele>
        <time>2026-05-29T13:23:47.811000Z</time>
      </trkpt>
      <trkpt lat="48.609292" lon="10.808516">
        <ele>440.4</ele>
        <time>2026-05-29T13:24:38.665000Z</time>
      </trkpt>
      <trkpt lat="48.609378" lon="10.808127">
        <ele>441.4</ele>
        <time>2026-05-29T13:24:56.993000Z</time>
      </trkpt>
      <trkpt lat="48.607421" lon="10.807891">
        <ele>447.8</ele>
        <time>2026-05-29T13:27:08.341000Z</time>
      </trkpt>
      <trkpt lat="48.607487" lon="10.805338">
        <ele>449.5</ele>
        <time>2026-05-29T13:28:53.579000Z</time>
      </trkpt>
      <trkpt lat="48.607492" lon="10.805022">
        <ele>449.5</ele>
        <time>2026-05-29T13:29:06.237000Z</time>
      </trkpt>
      <trkpt lat="48.607492" lon="10.804918">
        <ele>449.4</ele>
        <time>2026-05-29T13:29:10.384000Z</time>
      </trkpt>
      <trkpt lat="48.606975" lon="10.805275">
        <ele>449</ele>
        <time>2026-05-29T13:29:45.053000Z</time>
      </trkpt>
      <trkpt lat="48.606959" lon="10.805286">
        <ele>449</ele>
        <time>2026-05-29T13:29:46.126000Z</time>
      </trkpt>
      <trkpt lat="48.606568" lon="10.805609">
        <ele>448.6</ele>
        <time>2026-05-29T13:30:13.419000Z</time>
      </trkpt>
      <trkpt lat="48.606251" lon="10.805923">
        <ele>448.2</ele>
        <time>2026-05-29T13:30:36.600000Z</time>
      </trkpt>
      <trkpt lat="48.60611" lon="10.8061">
        <ele>448</ele>
        <time>2026-05-29T13:30:47.884000Z</time>
      </trkpt>
      <trkpt lat="48.605837" lon="10.806443">
        <ele>447.5</ele>
        <time>2026-05-29T13:31:09.783000Z</time>
      </trkpt>
      <trkpt lat="48.605714" lon="10.806624">
        <ele>447.3</ele>
        <time>2026-05-29T13:31:20.430000Z</time>
      </trkpt>
      <trkpt lat="48.605753" lon="10.806732">
        <ele>447.1</ele>
        <time>2026-05-29T13:31:25.517000Z</time>
      </trkpt>
      <trkpt lat="48.605773" lon="10.806911">
        <ele>446.9</ele>
        <time>2026-05-29T13:31:32.968000Z</time>
      </trkpt>
      <trkpt lat="48.605941" lon="10.808588">
        <ele>443.9</ele>
        <time>2026-05-29T13:32:44.089000Z</time>
      </trkpt>
      <trkpt lat="48.605846" lon="10.809502">
        <ele>441.9</ele>
        <time>2026-05-29T13:33:23.238000Z</time>
      </trkpt>
      <trkpt lat="48.605866" lon="10.810314">
        <ele>440.8</ele>
        <time>2026-05-29T13:33:56.881000Z</time>
      </trkpt>
      <trkpt lat="48.605836" lon="10.811046">
        <ele>440.4</ele>
        <time>2026-05-29T13:34:26.421000Z</time>
      </trkpt>
      <trkpt lat="48.605455" lon="10.811654">
        <ele>440.4</ele>
        <time>2026-05-29T13:34:59.675000Z</time>
      </trkpt>
      <trkpt lat="48.605266" lon="10.812037">
        <ele>440.7</ele>
        <time>2026-05-29T13:35:19.235000Z</time>
      </trkpt>
      <trkpt lat="48.605332" lon="10.813051">
        <ele>442.7</ele>
        <time>2026-05-29T13:36:03.811000Z</time>
      </trkpt>
      <trkpt lat="48.605389" lon="10.813387">
        <ele>443.3</ele>
        <time>2026-05-29T13:36:18.842000Z</time>
      </trkpt>
      <trkpt lat="48.605269" lon="10.813432">
        <ele>443.6</ele>
        <time>2026-05-29T13:36:27.002000Z</time>
      </trkpt>
      <trkpt lat="48.605133" lon="10.813726">
        <ele>444.1</ele>
        <time>2026-05-29T13:36:42.355000Z</time>
      </trkpt>
      <trkpt lat="48.605067" lon="10.813982">
        <ele>444.5</ele>
        <time>2026-05-29T13:36:54.155000Z</time>
      </trkpt>
    </trkseg>
  </trk>
</gpx>