<?xml version="1.0" encoding="UTF-8"?>
<gpx xmlns="http://www.topografix.com/GPX/1/1" xmlns:xsi="http://www.w3.org/2001/XMLSchema-instance" xsi:schemaLocation="http://www.topografix.com/GPX/1/1 http://www.topografix.com/GPX/1/1/gpx.xsd" version="1.1" creator="Robert Kampf">
  <metadata>
    <name>Saatgutbestand der Roteiche Runde von Rommelsried</name>
    <desc>Distance: 5.276km, Estimated duration: 1.36h, Elevation up: 28.699386679316206m, Elevation down: 28.69938667931615m, Grade: easy</desc>
    <author>
      <name>Robert Kampf</name>
      <link href="https://www.komoot.de/user/4125295338453">
        <text>View Robert Kampf's Profile on Komoot</text>
      </link>
    </author>
    <link href="https://www.komoot.de/tour/2735857431">
      <text>View tour on Komoot</text>
    </link>
  </metadata>
  <wpt lat="48.371358" lon="10.712694">
    <name>Rommelsried</name>
    <cmt></cmt>
    <desc></desc>
    <src>Komoot</src>
    <type>POI</type>
  </wpt>
  <wpt lat="48.385695" lon="10.71657">
    <ele>522.7</ele>
    <name>Red Oak Seed Stand</name>
    <cmt>https://d2exd72xrrp1s7.cloudfront.net/www/000/1k6/ao/aoxdq0kwtgco6ihrj2jerhhx4d2oophg-uhi55930657/0</cmt>
    <desc></desc>
    <src>Komoot</src>
    <link href="https://www.komoot.de/highlight/5201220">
      <text>View POI on Komoot</text>
    </link>
    <type>Highlight</type>
  </wpt>
  <trk>
    <name>Saatgutbestand der Roteiche Runde von Rommelsried</name>
    <desc>Distance: 5.276km, Estimated duration: 1.36h, Elevation up: 28.699386679316206m, Elevation down: 28.69938667931615m, Grade: easy</desc>
    <link href="https://www.komoot.de/tour/2735857431">
      <text>View tour on Komoot</text>
    </link>
    <trkseg>
      <trkpt lat="48.371397" lon="10.712652">
        <ele>482.9</ele>
        <time>2026-01-01T12:35:47.425000Z</time>
      </trkpt>
      <trkpt lat="48.371527" lon="10.71293">
        <ele>483.1</ele>
        <time>2026-01-01T12:36:10.664000Z</time>
      </trkpt>
      <trkpt lat="48.371646" lon="10.713281">
        <ele>483.4</ele>
        <time>2026-01-01T12:36:37.939000Z</time>
      </trkpt>
      <trkpt lat="48.371678" lon="10.713436">
        <ele>483.5</ele>
        <time>2026-01-01T12:36:49.189000Z</time>
      </trkpt>
      <trkpt lat="48.371729" lon="10.713773">
        <ele>483.8</ele>
        <time>2026-01-01T12:37:13.159000Z</time>
      </trkpt>
      <trkpt lat="48.371834" lon="10.713855">
        <ele>483.9</ele>
        <time>2026-01-01T12:37:25.357000Z</time>
      </trkpt>
      <trkpt lat="48.372132" lon="10.714368">
        <ele>484.1</ele>
        <time>2026-01-01T12:38:11.261000Z</time>
      </trkpt>
      <trkpt lat="48.372169" lon="10.714422">
        <ele>484.1</ele>
        <time>2026-01-01T12:38:16.354000Z</time>
      </trkpt>
      <trkpt lat="48.372287" lon="10.714593">
        <ele>484</ele>
        <time>2026-01-01T12:38:32.891000Z</time>
      </trkpt>
      <trkpt lat="48.372501" lon="10.714858">
        <ele>483.8</ele>
        <time>2026-01-01T12:39:01.021000Z</time>
      </trkpt>
      <trkpt lat="48.372749" lon="10.715056">
        <ele>483.5</ele>
        <time>2026-01-01T12:39:29.746000Z</time>
      </trkpt>
      <trkpt lat="48.372956" lon="10.715141">
        <ele>483.2</ele>
        <time>2026-01-01T12:39:51.859000Z</time>
      </trkpt>
      <trkpt lat="48.373333" lon="10.715207">
        <ele>482.8</ele>
        <time>2026-01-01T12:40:30.758000Z</time>
      </trkpt>
      <trkpt lat="48.373454" lon="10.71524">
        <ele>482.6</ele>
        <time>2026-01-01T12:40:43.335000Z</time>
      </trkpt>
      <trkpt lat="48.373787" lon="10.715274">
        <ele>482.4</ele>
        <time>2026-01-01T12:41:17.105000Z</time>
      </trkpt>
      <trkpt lat="48.374092" lon="10.715241">
        <ele>482.6</ele>
        <time>2026-01-01T12:41:48.269000Z</time>
      </trkpt>
      <trkpt lat="48.375397" lon="10.714764">
        <ele>485.8</ele>
        <time>2026-01-01T12:44:13.986000Z</time>
      </trkpt>
      <trkpt lat="48.375998" lon="10.714614">
        <ele>487.1</ele>
        <time>2026-01-01T12:45:19.681000Z</time>
      </trkpt>
      <trkpt lat="48.376264" lon="10.71461">
        <ele>487.5</ele>
        <time>2026-01-01T12:45:47.481000Z</time>
      </trkpt>
      <trkpt lat="48.376479" lon="10.714768">
        <ele>487.6</ele>
        <time>2026-01-01T12:46:11.903000Z</time>
      </trkpt>
      <trkpt lat="48.376728" lon="10.715181">
        <ele>487.5</ele>
        <time>2026-01-01T12:46:49.190000Z</time>
      </trkpt>
      <trkpt lat="48.376854" lon="10.714795">
        <ele>487.2</ele>
        <time>2026-01-01T12:47:18.377000Z</time>
      </trkpt>
      <trkpt lat="48.377672" lon="10.712476">
        <ele>482.1</ele>
        <time>2026-01-01T12:50:23.520000Z</time>
      </trkpt>
      <trkpt lat="48.378108" lon="10.711705">
        <ele>480.3</ele>
        <time>2026-01-01T12:51:34.538000Z</time>
      </trkpt>
      <trkpt lat="48.379308" lon="10.710925">
        <ele>478.8</ele>
        <time>2026-01-01T12:53:48.361000Z</time>
      </trkpt>
      <trkpt lat="48.379653" lon="10.709147">
        <ele>478</ele>
        <time>2026-01-01T12:55:53.210000Z</time>
      </trkpt>
      <trkpt lat="48.380455" lon="10.705267">
        <ele>473.5</ele>
        <time>2026-01-01T13:00:32.562000Z</time>
      </trkpt>
      <trkpt lat="48.380515" lon="10.704981">
        <ele>473.3</ele>
        <time>2026-01-01T13:00:53.027000Z</time>
      </trkpt>
      <trkpt lat="48.381044" lon="10.704014">
        <ele>472.2</ele>
        <time>2026-01-01T13:02:18.628000Z</time>
      </trkpt>
      <trkpt lat="48.381232" lon="10.703328">
        <ele>471.8</ele>
        <time>2026-01-01T13:03:08.635000Z</time>
      </trkpt>
      <trkpt lat="48.381274" lon="10.702677">
        <ele>471.8</ele>
        <time>2026-01-01T13:03:52.203000Z</time>
      </trkpt>
      <trkpt lat="48.381446" lon="10.703739">
        <ele>471.9</ele>
        <time>2026-01-01T13:05:05.128000Z</time>
      </trkpt>
      <trkpt lat="48.381479" lon="10.704098">
        <ele>472</ele>
        <time>2026-01-01T13:05:29.846000Z</time>
      </trkpt>
      <trkpt lat="48.381215" lon="10.705027">
        <ele>472.6</ele>
        <time>2026-01-01T13:06:39.156000Z</time>
      </trkpt>
      <trkpt lat="48.381121" lon="10.705569">
        <ele>472.8</ele>
        <time>2026-01-01T13:07:16.816000Z</time>
      </trkpt>
      <trkpt lat="48.380931" lon="10.706923">
        <ele>473.9</ele>
        <time>2026-01-01T13:08:52.681000Z</time>
      </trkpt>
      <trkpt lat="48.380999" lon="10.708382">
        <ele>476.1</ele>
        <time>2026-01-01T13:10:37.934000Z</time>
      </trkpt>
      <trkpt lat="48.381013" lon="10.708699">
        <ele>476.7</ele>
        <time>2026-01-01T13:11:01.004000Z</time>
      </trkpt>
      <trkpt lat="48.381112" lon="10.7092">
        <ele>477.5</ele>
        <time>2026-01-01T13:11:38.551000Z</time>
      </trkpt>
      <trkpt lat="48.381312" lon="10.709816">
        <ele>478.2</ele>
        <time>2026-01-01T13:12:26.823000Z</time>
      </trkpt>
      <trkpt lat="48.382095" lon="10.711263">
        <ele>479.4</ele>
        <time>2026-01-01T13:14:35.018000Z</time>
      </trkpt>
      <trkpt lat="48.3822" lon="10.711765">
        <ele>479.5</ele>
        <time>2026-01-01T13:15:10.347000Z</time>
      </trkpt>
      <trkpt lat="48.382299" lon="10.712445">
        <ele>479.3</ele>
        <time>2026-01-01T13:15:57.083000Z</time>
      </trkpt>
      <trkpt lat="48.382773" lon="10.713356">
        <ele>478.4</ele>
        <time>2026-01-01T13:17:15.809000Z</time>
      </trkpt>
      <trkpt lat="48.382931" lon="10.713797">
        <ele>478</ele>
        <time>2026-01-01T13:17:49.921000Z</time>
      </trkpt>
      <trkpt lat="48.383025" lon="10.714006">
        <ele>477.8</ele>
        <time>2026-01-01T13:18:07.117000Z</time>
      </trkpt>
      <trkpt lat="48.383157" lon="10.714181">
        <ele>477.7</ele>
        <time>2026-01-01T13:18:24.922000Z</time>
      </trkpt>
      <trkpt lat="48.383371" lon="10.714245">
        <ele>477.7</ele>
        <time>2026-01-01T13:18:46.815000Z</time>
      </trkpt>
      <trkpt lat="48.384378" lon="10.714206">
        <ele>479.4</ele>
        <time>2026-01-01T13:20:33.711000Z</time>
      </trkpt>
      <trkpt lat="48.385125" lon="10.715467">
        <ele>482.2</ele>
        <time>2026-01-01T13:22:35.811000Z</time>
      </trkpt>
      <trkpt lat="48.38541" lon="10.715677">
        <ele>482.6</ele>
        <time>2026-01-01T13:23:08.920000Z</time>
      </trkpt>
      <trkpt lat="48.385537" lon="10.715978">
        <ele>482.7</ele>
        <time>2026-01-01T13:23:32.926000Z</time>
      </trkpt>
      <trkpt lat="48.385668" lon="10.716583">
        <ele>482.4</ele>
        <time>2026-01-01T13:24:15.825000Z</time>
      </trkpt>
      <trkpt lat="48.385728" lon="10.71686">
        <ele>482.1</ele>
        <time>2026-01-01T13:24:35.840000Z</time>
      </trkpt>
      <trkpt lat="48.386034" lon="10.718496">
        <ele>480.1</ele>
        <time>2026-01-01T13:26:32.925000Z</time>
      </trkpt>
      <trkpt lat="48.384542" lon="10.71972">
        <ele>480.5</ele>
        <time>2026-01-01T13:29:24.465000Z</time>
      </trkpt>
      <trkpt lat="48.383949" lon="10.720278">
        <ele>481.5</ele>
        <time>2026-01-01T13:30:38.027000Z</time>
      </trkpt>
      <trkpt lat="48.383172" lon="10.721011">
        <ele>483.1</ele>
        <time>2026-01-01T13:32:15.589000Z</time>
      </trkpt>
      <trkpt lat="48.381699" lon="10.722179">
        <ele>485.9</ele>
        <time>2026-01-01T13:35:12.078000Z</time>
      </trkpt>
      <trkpt lat="48.376728" lon="10.715181">
        <ele>488.2</ele>
        <time>2026-01-01T13:46:41.334000Z</time>
      </trkpt>
      <trkpt lat="48.376479" lon="10.714768">
        <ele>487.9</ele>
        <time>2026-01-01T13:47:19.113000Z</time>
      </trkpt>
      <trkpt lat="48.376264" lon="10.71461">
        <ele>487.6</ele>
        <time>2026-01-01T13:47:43.689000Z</time>
      </trkpt>
      <trkpt lat="48.375998" lon="10.714614">
        <ele>487.2</ele>
        <time>2026-01-01T13:48:11.140000Z</time>
      </trkpt>
      <trkpt lat="48.375397" lon="10.714764">
        <ele>485.8</ele>
        <time>2026-01-01T13:49:14.907000Z</time>
      </trkpt>
      <trkpt lat="48.374092" lon="10.715241">
        <ele>482.6</ele>
        <time>2026-01-01T13:51:35.933000Z</time>
      </trkpt>
      <trkpt lat="48.373787" lon="10.715274">
        <ele>482.4</ele>
        <time>2026-01-01T13:52:06.873000Z</time>
      </trkpt>
      <trkpt lat="48.373454" lon="10.71524">
        <ele>482.6</ele>
        <time>2026-01-01T13:52:40.927000Z</time>
      </trkpt>
      <trkpt lat="48.373333" lon="10.715207">
        <ele>482.8</ele>
        <time>2026-01-01T13:52:53.695000Z</time>
      </trkpt>
      <trkpt lat="48.372956" lon="10.715141">
        <ele>483.2</ele>
        <time>2026-01-01T13:53:33.258000Z</time>
      </trkpt>
      <trkpt lat="48.372749" lon="10.715056">
        <ele>483.5</ele>
        <time>2026-01-01T13:53:55.770000Z</time>
      </trkpt>
      <trkpt lat="48.372501" lon="10.714858">
        <ele>483.8</ele>
        <time>2026-01-01T13:54:24.994000Z</time>
      </trkpt>
      <trkpt lat="48.372287" lon="10.714593">
        <ele>484</ele>
        <time>2026-01-01T13:54:53.421000Z</time>
      </trkpt>
      <trkpt lat="48.372169" lon="10.714422">
        <ele>484.1</ele>
        <time>2026-01-01T13:55:10.030000Z</time>
      </trkpt>
      <trkpt lat="48.372132" lon="10.714368">
        <ele>484.1</ele>
        <time>2026-01-01T13:55:15.123000Z</time>
      </trkpt>
      <trkpt lat="48.371834" lon="10.713855">
        <ele>483.9</ele>
        <time>2026-01-01T13:56:00.799000Z</time>
      </trkpt>
      <trkpt lat="48.371729" lon="10.713773">
        <ele>483.8</ele>
        <time>2026-01-01T13:56:12.839000Z</time>
      </trkpt>
      <trkpt lat="48.371678" lon="10.713436">
        <ele>483.5</ele>
        <time>2026-01-01T13:56:36.402000Z</time>
      </trkpt>
      <trkpt lat="48.371646" lon="10.713281">
        <ele>483.4</ele>
        <time>2026-01-01T13:56:47.448000Z</time>
      </trkpt>
      <trkpt lat="48.371527" lon="10.71293">
        <ele>483.1</ele>
        <time>2026-01-01T13:57:14.296000Z</time>
      </trkpt>
      <trkpt lat="48.371397" lon="10.712652">
        <ele>482.9</ele>
        <time>2026-01-01T13:57:37.262000Z</time>
      </trkpt>
    </trkseg>
  </trk>
</gpx>