<?xml version="1.0" encoding="UTF-8"?>
<gpx xmlns="http://www.topografix.com/GPX/1/1" xmlns:xsi="http://www.w3.org/2001/XMLSchema-instance" xsi:schemaLocation="http://www.topografix.com/GPX/1/1 http://www.topografix.com/GPX/1/1/gpx.xsd" version="1.1" creator="Robert Kampf">
  <metadata>
    <name>Schmutterbrücke in Holzen – Blick auf Nordendorf Runde von Ehingen</name>
    <desc>Distance: 7.872km, Estimated duration: 2.09h, Elevation up: 78.81315881237043m, Elevation down: 78.81315881237066m, Grade: moderate</desc>
    <author>
      <name>Robert Kampf</name>
      <link href="https://www.komoot.de/user/4125295338453">
        <text>View Robert Kampf's Profile on Komoot</text>
      </link>
    </author>
    <link href="https://www.komoot.de/tour/2995686258">
      <text>View tour on Komoot</text>
    </link>
  </metadata>
  <wpt lat="48.60434" lon="10.809513">
    <name>Allmannshofen Kloster Holzen</name>
    <cmt></cmt>
    <desc>Not accessible</desc>
    <src>Komoot</src>
    <type>POI</type>
  </wpt>
  <wpt lat="48.603608" lon="10.814419">
    <ele>446.5</ele>
    <name>Cloister Garden at Holzen Abbey</name>
    <cmt>https://d2exd72xrrp1s7.cloudfront.net/www/000/1ka/18/181p3ssnfi4kvgpd30nojybg65q0fi2lz-uhi99058276/0</cmt>
    <desc>Marius: Der Kreuzgarten von Kloster Holzen war kein Ziergarten, sondern ein Ort für Gebet und Meditation. Im Innenhof lässt sich seine frühere Form noch immer am kreuzförmigen Verlauf der Wege ablesen. Seine Achsen stehen für die vier Dimensionen eines erfüllten Lebens – Beten, Arbeiten, Ruhe und leibliches Wohl. Die Benediktinerinnen ließen den Garten Ende des 17. Jahrhunderts hinter hohen Klostermauern anlegen, damit niemand von außen hineinsehen konnte.</desc>
    <src>Komoot</src>
    <link href="https://www.komoot.de/highlight/8273952">
      <text>View POI on Komoot</text>
    </link>
    <type>Highlight</type>
  </wpt>
  <wpt lat="48.604339" lon="10.814852">
    <ele>446.1</ele>
    <name>Holzen Abbey and the Abbey Church of St. John the Baptist</name>
    <cmt>https://d2exd72xrrp1s7.cloudfront.net/www/000/1k4/a0/a0xgoktqgzm1y9kfdox27b1g3h9d7n43-uhi19955442/0</cmt>
    <desc>Rolf Schiffner: Neben der Besichtigung der schönen Kirche des Klosters kann man im Klosterrestaurant auch sehr gut essen.
――――――――――
Siggi: Wer die Möglichkeit hat, das Kloster auch innen zu besuchen, sollte sich auf jeden Fall die Bibliothek ansehen, sie ist beeindruckend.
――――――――――
Martin: Nun hab ich's endlich auch geschafft, nach Kloster Holzen zu fahren: Ein ehemaliges Benediktinerkloster (bis zur Säkularisation). Später von Franziskanerinnen geführt, mittlerweile sind die auch weg und hier ist ein Hotel. Die Barockkirche ist sehenswert. 
Der Biergarten war leider heute geschlossen wegen Vorbereitung auf eine geschlossene Veranstaltung. Da war ich bei der heutigen Hitze ziemlich enttäuscht 🤔
――――――――――
Siggi: Dieser Garten strahlt einfach Ruhe aus.
――――――――――
Siggi: Die ganze Anlage ist sehenswert, es gibt daneben sogar einen kleinen Streichelzoo und einen Waldlehrpfad.
――――――――――
Gerd H.: Beeindruckender Ort, bemerkenswerte Kirche und gepflegte Gastronomie.
――――――――――
Ronny F 3333 🚵‍♀️🧗‍♂️: Das Kloster und die Umgebung lohnt sich immer wieder. Alle 4 Jahreszeiten.
――――――――――
Astrid: Klosterkirche sehenswert! Und der Küchenmesser Restaurant auch 😎
――――――――――
Thomas: Schöne Rastmöglichkeit am Kloster Holzen für Radfahrer oder Wanderer. Im Klosterhof oder Klostergarten gibt es zahlreiche Sitzgelegenheiten. Einkehr mit guten Speisen und günstigen Preisen ist im Klostergasthof möglich. Der Klostergasthof ist Samstags und Sonntags ab 11:30 geöffnet, Montag bis Freitag ab 15 Uhr
――――――――――
Martin: Schöner Klostergarten mit Kräutergarten
――――――――――
Margret: der nette Biergarten vor dem Hotel ist einladend, es gibt eine ebike-Auflandestation der LEW. Haben wir aber nicht gebraucht; die ganze Strecke hin und zurück hat uns nicht mal einen Strich von 5 auf dem ebike gekostet!
eine Barockkirche mit dem Park drumherum, der Johannimarkt und der Weihnachtsmarkt hier ziehen viele Leute aus nah und fern an. und nicht zuletzt gibt es auch eine kleine Aussicht ins Schmutter- und Lechtal.
――――――――――
FranziM97: schöne Einkehrmöglichkeit im Klosterhof
――――――――――
Jens: Wer kurz zeit hat, kann hier auch heiraten. In der historischen bibliothek 😉
――――――――――
breddy: Kloster Holzen ist eine ehemalige Benediktinerinnen-Abtei und heute eine Einrichtung des Dominikus-Ringeisen-Werkes. Die Einrichtung mit dem Sitz in Ursberg bietet dort Wohn- und Arbeitsmöglichkeiten für Menschen mit Behinderung. Die Klosterkirche St. Johannes der Täufer stammt aus dem Jahr 1704 und ist geprägt durch die üppige Barockausstattung mit reichen Stuckaturen. Am Kloster ist ein Tagungshotel untergebracht.
――――――――――
Didier: Imponierendes Kloster mit Kräuter-Klostergarten und herrlichem Ambiente.
――――――――――
🚲 Heiner der Radl-Opa 🚲: Sehr schön gepflegte Anlage mit Hotel und Restaurant.
Naja, Mönche gibt es hier auch noch )
――――――――――
Magic Harry: Koster Anlage, heute Hotel und Restaurant
――――――――――
Ronny F 3333 🚵‍♀️🧗‍♂️: Nicht nur das Kloster ist sehenswert sondern auch die gesamte Umgebung. Mit dem Rad aber auch zu Fuss.
――――――――――
Rolf Schiffner: Schöne Parkanalge - zum relaxen nach dem guten Mittagessen
――――――――――
Didada: Auf dem festen Fundament des Karlbergs, zwischen Himmel und Erde, hat sie ihren Platz: die Klosterkirche St. Johannes der Täufer. Von dort reckt sie ihre Türme in die Höhe und blickt weit über Schmutter- und Lechtal. Im Inneren mit einzigartigem Stuckarbeiten, Deckenfresken und Reliquienaltären spiegelt sie die barocke Hochkultur wieder – und das im reizvollem Kontrast zur klösterlichen Strenge.

Das großformatige Deckengemälde zeigt die Erdkugel mit der Holzener Klosterkirche. Darüber spannt sich das Himmelszelt. Kloster Holzen – zwischen Himmel und Erde! Dieses Werk verbildlicht das selbstverständliche Miteinander von Spirituellem und Weltlichem, das das Leben im Kloster Holzen damals wie heute prägt.
――――――――――
breddy: Ein wunderschöne Klosteranlage mit einem besonderen Klostergarten
――――――――――
Christian: Schöne Anlage mit Restaurant, Hotel und Biergarten
――――――――――
Walter Fa.: Beeindruckende Klosteranlage mit Kirche, Klosterladen, Klostergarten und Loreto-Kapelle.
――――――――――
Martin: Schönes Kloster, aber vergesst den Biergarten. Er ist immer wegen geschlossener Veranstaltung geschlossen.
War jetzt 2x dort und konnte nicht einkehren.</desc>
    <src>Komoot</src>
    <link href="https://www.komoot.de/highlight/100711">
      <text>View POI on Komoot</text>
    </link>
    <type>Highlight</type>
  </wpt>
  <wpt lat="48.606998" lon="10.815758">
    <ele>470.4</ele>
    <name>Schmutter Bridge in Holzen</name>
    <cmt>https://d2exd72xrrp1s7.cloudfront.net/www/000/1k9/1h/1hr56jaidh71411ku0by1l0avz5abc0e98-uhi83382375/0</cmt>
    <desc></desc>
    <src>Komoot</src>
    <link href="https://www.komoot.de/highlight/7275302">
      <text>View POI on Komoot</text>
    </link>
    <type>Highlight</type>
  </wpt>
  <wpt lat="48.606964" lon="10.821986">
    <ele>467.6</ele>
    <name>Bridge over the Schmutter</name>
    <cmt>https://d2exd72xrrp1s7.cloudfront.net/www/000/1k5/1h/1h0t21frgxo1b1oeevv2dd8c4b3p3nd1w3-uhi29823207/0</cmt>
    <desc>KlaPePe: Schöne Landschaft</desc>
    <src>Komoot</src>
    <link href="https://www.komoot.de/highlight/3007714">
      <text>View POI on Komoot</text>
    </link>
    <type>Highlight</type>
  </wpt>
  <wpt lat="48.594845" lon="10.823847">
    <ele>418.7</ele>
    <name>Wooden Owl and Mushroom Sculptures by the Schmutter</name>
    <cmt>https://d2exd72xrrp1s7.cloudfront.net/www/000/1k9/pa/pa2o00ux6lvbtllk2bgwl4xk5d1p7k42-uhi86098741/0</cmt>
    <desc></desc>
    <src>Komoot</src>
    <link href="https://www.komoot.de/highlight/4776790">
      <text>View POI on Komoot</text>
    </link>
    <type>Highlight</type>
  </wpt>
  <wpt lat="48.586484" lon="10.820831">
    <ele>448.8</ele>
    <name>View of Nordendorf</name>
    <cmt>https://d2exd72xrrp1s7.cloudfront.net/www/000/1k5/1o/1oex8pgnw2f00ushazsjcmsou3nriqyu5-uhi28490972/0</cmt>
    <desc>Siggi: Dieser Ausblick auf Nordendorf und das Schmuttertal ist zu jeder Jahreszeit super, Fernsicht vorausgesetzt.</desc>
    <src>Komoot</src>
    <link href="https://www.komoot.de/highlight/2940936">
      <text>View POI on Komoot</text>
    </link>
    <type>Highlight</type>
  </wpt>
  <wpt lat="48.600009" lon="10.817514">
    <ele>420.3</ele>
    <name>View of Kloster Holzen</name>
    <cmt>https://d2exd72xrrp1s7.cloudfront.net/www/000/1k8/17/17drf76tet323z8z6f646szb056ori7rq-uhi81016664/0</cmt>
    <desc></desc>
    <src>Komoot</src>
    <link href="https://www.komoot.de/highlight/7148819">
      <text>View POI on Komoot</text>
    </link>
    <type>Highlight</type>
  </wpt>
  <wpt lat="48.601227" lon="10.815243">
    <ele>473.5</ele>
    <name>Kloster Holzen</name>
    <cmt>https://d2exd72xrrp1s7.cloudfront.net/www/000/1k8/rq/rqj6mm1lkxm87hnfigcsqnsm4xsdwta7-uhi70591330/0</cmt>
    <desc>HePeMa: Kloster Holzen &amp; Karlsberg – historischer Überblick

Das heutige Kloster Holzen liegt auf dem Karlsberg, einer rund 20 Meter erhöhten Anhöhe über dem Schmuttertal bei Allmannshofen. Der Name „Karlsberg“ geht auf eine Kapelle zurück, die Anfang des 17. Jahrhunderts zu Ehren des hl. Karl Borromäus errichtet wurde.

Ursprünglich befand sich das im 12. Jahrhundert gegründete Benediktinerinnenkloster im Tal nahe der Schmutter. Wegen Hochwassergefahr und baulichem Verfall entschied man sich Ende des 17. Jahrhunderts für einen Neubau auf dem höher gelegenen Plateau. Die Klosteranlage mit der weithin sichtbaren barocken Kirche St. Johannes der Täufer entstand zwischen 1696 und 1710 nach Plänen des Vorarlberger Baumeisters Franz Beer.

Nach der Säkularisation 1803 wurde die Anlage zunächst weltlich genutzt. Seit 1927 gehört sie dem Dominikus-Ringeisen-Werk und dient heute als soziale Einrichtung, Hotel- und Tagungsstandort.

Kloster Holzen und der Karlsberg bilden damit ein historisch gewachsenes Ensemble, das Landschaft, Ortsgeschichte und Barockarchitektur der Region eindrucksvoll verbindet.

schwabenmedia.de/Kirchen/Landkreis-augsburg/St-johannes-holzen.php

Lageplan Kloster Holzen (PDF)
kloster-holzen.de/media/78971/lageplan-kloster-holzen-2784639.pdf</desc>
    <src>Komoot</src>
    <link href="https://www.komoot.de/highlight/6517523">
      <text>View POI on Komoot</text>
    </link>
    <type>Highlight</type>
  </wpt>
  <trk>
    <name>Schmutterbrücke in Holzen – Blick auf Nordendorf Runde von Ehingen</name>
    <desc>Distance: 7.872km, Estimated duration: 2.09h, Elevation up: 78.81315881237043m, Elevation down: 78.81315881237066m, Grade: moderate</desc>
    <link href="https://www.komoot.de/tour/2995686258">
      <text>View tour on Komoot</text>
    </link>
    <trkseg>
      <trkpt lat="48.604349" lon="10.809522">
        <ele>449.1</ele>
        <time>2026-05-29T12:51:19.069000Z</time>
      </trkpt>
      <trkpt lat="48.604164" lon="10.809955">
        <ele>449</ele>
        <time>2026-05-29T12:51:53.470000Z</time>
      </trkpt>
      <trkpt lat="48.603718" lon="10.810996">
        <ele>448</ele>
        <time>2026-05-29T12:53:17.639000Z</time>
      </trkpt>
      <trkpt lat="48.603435" lon="10.811768">
        <ele>446.4</ele>
        <time>2026-05-29T12:54:19.287000Z</time>
      </trkpt>
      <trkpt lat="48.602886" lon="10.813001">
        <ele>445.4</ele>
        <time>2026-05-29T12:55:59.821000Z</time>
      </trkpt>
      <trkpt lat="48.603192" lon="10.813245">
        <ele>445.7</ele>
        <time>2026-05-29T12:56:35.552000Z</time>
      </trkpt>
      <trkpt lat="48.603381" lon="10.813335">
        <ele>446</ele>
        <time>2026-05-29T12:56:56.424000Z</time>
      </trkpt>
      <trkpt lat="48.603794" lon="10.813391">
        <ele>446.7</ele>
        <time>2026-05-29T12:57:40.627000Z</time>
      </trkpt>
      <trkpt lat="48.603912" lon="10.813379">
        <ele>447</ele>
        <time>2026-05-29T12:57:53.255000Z</time>
      </trkpt>
      <trkpt lat="48.603981" lon="10.813322">
        <ele>447.1</ele>
        <time>2026-05-29T12:58:01.759000Z</time>
      </trkpt>
      <trkpt lat="48.604115" lon="10.81326">
        <ele>447.4</ele>
        <time>2026-05-29T12:58:16.757000Z</time>
      </trkpt>
      <trkpt lat="48.604125" lon="10.81331">
        <ele>447.5</ele>
        <time>2026-05-29T12:58:20.368000Z</time>
      </trkpt>
      <trkpt lat="48.604118" lon="10.813463">
        <ele>447.6</ele>
        <time>2026-05-29T12:58:30.998000Z</time>
      </trkpt>
      <trkpt lat="48.604098" lon="10.813503">
        <ele>447.6</ele>
        <time>2026-05-29T12:58:34.462000Z</time>
      </trkpt>
      <trkpt lat="48.604094" lon="10.813865">
        <ele>447.9</ele>
        <time>2026-05-29T12:58:59.256000Z</time>
      </trkpt>
      <trkpt lat="48.603922" lon="10.813863">
        <ele>448</ele>
        <time>2026-05-29T12:59:16.823000Z</time>
      </trkpt>
      <trkpt lat="48.603904" lon="10.813951">
        <ele>448</ele>
        <time>2026-05-29T12:59:22.988000Z</time>
      </trkpt>
      <trkpt lat="48.603897" lon="10.814379">
        <ele>448</ele>
        <time>2026-05-29T12:59:51.519000Z</time>
      </trkpt>
      <trkpt lat="48.60364" lon="10.814365">
        <ele>448.1</ele>
        <time>2026-05-29T13:00:17.425000Z</time>
      </trkpt>
      <trkpt lat="48.603609" lon="10.814408">
        <ele>448.1</ele>
        <time>2026-05-29T13:00:21.648000Z</time>
      </trkpt>
      <trkpt lat="48.60364" lon="10.814365">
        <ele>448.1</ele>
        <time>2026-05-29T13:00:25.899000Z</time>
      </trkpt>
      <trkpt lat="48.603897" lon="10.814379">
        <ele>448.1</ele>
        <time>2026-05-29T13:00:51.696000Z</time>
      </trkpt>
      <trkpt lat="48.603904" lon="10.813951">
        <ele>448.2</ele>
        <time>2026-05-29T13:01:20.281000Z</time>
      </trkpt>
      <trkpt lat="48.603922" lon="10.813863">
        <ele>448.2</ele>
        <time>2026-05-29T13:01:26.495000Z</time>
      </trkpt>
      <trkpt lat="48.604094" lon="10.813865">
        <ele>448.3</ele>
        <time>2026-05-29T13:01:44.028000Z</time>
      </trkpt>
      <trkpt lat="48.604148" lon="10.81385">
        <ele>448.4</ele>
        <time>2026-05-29T13:01:49.720000Z</time>
      </trkpt>
      <trkpt lat="48.604302" lon="10.813869">
        <ele>448.5</ele>
        <time>2026-05-29T13:02:05.640000Z</time>
      </trkpt>
      <trkpt lat="48.604446" lon="10.813924">
        <ele>448.6</ele>
        <time>2026-05-29T13:02:21.003000Z</time>
      </trkpt>
      <trkpt lat="48.604492" lon="10.81393">
        <ele>448.7</ele>
        <time>2026-05-29T13:02:25.803000Z</time>
      </trkpt>
      <trkpt lat="48.604482" lon="10.814408">
        <ele>449</ele>
        <time>2026-05-29T13:02:58.477000Z</time>
      </trkpt>
      <trkpt lat="48.604467" lon="10.814898">
        <ele>449</ele>
        <time>2026-05-29T13:03:30.978000Z</time>
      </trkpt>
      <trkpt lat="48.604326" lon="10.814896">
        <ele>448.8</ele>
        <time>2026-05-29T13:03:45.359000Z</time>
      </trkpt>
      <trkpt lat="48.604467" lon="10.814898">
        <ele>448.6</ele>
        <time>2026-05-29T13:04:00.060000Z</time>
      </trkpt>
      <trkpt lat="48.604482" lon="10.814408">
        <ele>446.9</ele>
        <time>2026-05-29T13:04:35.793000Z</time>
      </trkpt>
      <trkpt lat="48.604574" lon="10.814408">
        <ele>446.3</ele>
        <time>2026-05-29T13:04:46.202000Z</time>
      </trkpt>
      <trkpt lat="48.604575" lon="10.814337">
        <ele>446.1</ele>
        <time>2026-05-29T13:04:51.397000Z</time>
      </trkpt>
      <trkpt lat="48.604883" lon="10.814343">
        <ele>443.9</ele>
        <time>2026-05-29T13:05:26.517000Z</time>
      </trkpt>
      <trkpt lat="48.604932" lon="10.814338">
        <ele>443.5</ele>
        <time>2026-05-29T13:05:32.204000Z</time>
      </trkpt>
      <trkpt lat="48.605019" lon="10.814362">
        <ele>442.8</ele>
        <time>2026-05-29T13:05:42.536000Z</time>
      </trkpt>
      <trkpt lat="48.605058" lon="10.814409">
        <ele>442.4</ele>
        <time>2026-05-29T13:05:48.337000Z</time>
      </trkpt>
      <trkpt lat="48.605173" lon="10.81441">
        <ele>441.5</ele>
        <time>2026-05-29T13:06:01.752000Z</time>
      </trkpt>
      <trkpt lat="48.605439" lon="10.814419">
        <ele>439</ele>
        <time>2026-05-29T13:06:33.242000Z</time>
      </trkpt>
      <trkpt lat="48.60546" lon="10.81443">
        <ele>438.8</ele>
        <time>2026-05-29T13:06:35.828000Z</time>
      </trkpt>
      <trkpt lat="48.605592" lon="10.814498">
        <ele>437.5</ele>
        <time>2026-05-29T13:06:52.415000Z</time>
      </trkpt>
      <trkpt lat="48.60561" lon="10.814778">
        <ele>435.7</ele>
        <time>2026-05-29T13:07:14.558000Z</time>
      </trkpt>
      <trkpt lat="48.605626" lon="10.815139">
        <ele>433.3</ele>
        <time>2026-05-29T13:07:43.273000Z</time>
      </trkpt>
      <trkpt lat="48.605745" lon="10.815333">
        <ele>431.6</ele>
        <time>2026-05-29T13:08:04.138000Z</time>
      </trkpt>
      <trkpt lat="48.605782" lon="10.815542">
        <ele>430.2</ele>
        <time>2026-05-29T13:08:21.060000Z</time>
      </trkpt>
      <trkpt lat="48.605823" lon="10.815437">
        <ele>429.6</ele>
        <time>2026-05-29T13:08:30.397000Z</time>
      </trkpt>
      <trkpt lat="48.605934" lon="10.815308">
        <ele>428.6</ele>
        <time>2026-05-29T13:08:46.347000Z</time>
      </trkpt>
      <trkpt lat="48.606092" lon="10.815411">
        <ele>427.6</ele>
        <time>2026-05-29T13:09:05.611000Z</time>
      </trkpt>
      <trkpt lat="48.606786" lon="10.815659">
        <ele>423.7</ele>
        <time>2026-05-29T13:10:25.038000Z</time>
      </trkpt>
      <trkpt lat="48.606922" lon="10.815722">
        <ele>423</ele>
        <time>2026-05-29T13:10:40.546000Z</time>
      </trkpt>
      <trkpt lat="48.606997" lon="10.815764">
        <ele>422.6</ele>
        <time>2026-05-29T13:10:49.336000Z</time>
      </trkpt>
      <trkpt lat="48.606922" lon="10.815722">
        <ele>422.3</ele>
        <time>2026-05-29T13:10:58Z</time>
      </trkpt>
      <trkpt lat="48.606892" lon="10.815873">
        <ele>421.9</ele>
        <time>2026-05-29T13:11:09.294000Z</time>
      </trkpt>
      <trkpt lat="48.606828" lon="10.816233">
        <ele>421</ele>
        <time>2026-05-29T13:11:35.835000Z</time>
      </trkpt>
      <trkpt lat="48.606816" lon="10.816446">
        <ele>420.5</ele>
        <time>2026-05-29T13:11:50.946000Z</time>
      </trkpt>
      <trkpt lat="48.606636" lon="10.816886">
        <ele>419.5</ele>
        <time>2026-05-29T13:12:27.289000Z</time>
      </trkpt>
      <trkpt lat="48.606604" lon="10.817233">
        <ele>418.9</ele>
        <time>2026-05-29T13:12:51.598000Z</time>
      </trkpt>
      <trkpt lat="48.606782" lon="10.818924">
        <ele>418.1</ele>
        <time>2026-05-29T13:14:46.717000Z</time>
      </trkpt>
      <trkpt lat="48.606931" lon="10.820839">
        <ele>418.1</ele>
        <time>2026-05-29T13:16:54.365000Z</time>
      </trkpt>
      <trkpt lat="48.606959" lon="10.821485">
        <ele>418</ele>
        <time>2026-05-29T13:17:37.466000Z</time>
      </trkpt>
      <trkpt lat="48.606954" lon="10.821986">
        <ele>417.8</ele>
        <time>2026-05-29T13:18:10.856000Z</time>
      </trkpt>
      <trkpt lat="48.606951" lon="10.822256">
        <ele>417.8</ele>
        <time>2026-05-29T13:18:28.889000Z</time>
      </trkpt>
      <trkpt lat="48.606003" lon="10.822873">
        <ele>417.5</ele>
        <time>2026-05-29T13:20:12.756000Z</time>
      </trkpt>
      <trkpt lat="48.605781" lon="10.822981">
        <ele>417.5</ele>
        <time>2026-05-29T13:20:36.162000Z</time>
      </trkpt>
      <trkpt lat="48.605571" lon="10.823044">
        <ele>417.4</ele>
        <time>2026-05-29T13:20:57.572000Z</time>
      </trkpt>
      <trkpt lat="48.605214" lon="10.823005">
        <ele>417.4</ele>
        <time>2026-05-29T13:21:33.436000Z</time>
      </trkpt>
      <trkpt lat="48.605038" lon="10.822921">
        <ele>417.4</ele>
        <time>2026-05-29T13:21:51.905000Z</time>
      </trkpt>
      <trkpt lat="48.604993" lon="10.822835">
        <ele>417.4</ele>
        <time>2026-05-29T13:21:59.188000Z</time>
      </trkpt>
      <trkpt lat="48.604537" lon="10.822594">
        <ele>417.4</ele>
        <time>2026-05-29T13:22:47.615000Z</time>
      </trkpt>
      <trkpt lat="48.603836" lon="10.822447">
        <ele>417.4</ele>
        <time>2026-05-29T13:23:58.432000Z</time>
      </trkpt>
      <trkpt lat="48.603623" lon="10.822452">
        <ele>417.4</ele>
        <time>2026-05-29T13:24:19.832000Z</time>
      </trkpt>
      <trkpt lat="48.603051" lon="10.822678">
        <ele>417.5</ele>
        <time>2026-05-29T13:25:19.595000Z</time>
      </trkpt>
      <trkpt lat="48.601687" lon="10.823397">
        <ele>418.2</ele>
        <time>2026-05-29T13:27:46.444000Z</time>
      </trkpt>
      <trkpt lat="48.600664" lon="10.823994">
        <ele>418.4</ele>
        <time>2026-05-29T13:29:36.917000Z</time>
      </trkpt>
      <trkpt lat="48.600598" lon="10.824031">
        <ele>418.4</ele>
        <time>2026-05-29T13:29:43.956000Z</time>
      </trkpt>
      <trkpt lat="48.60029" lon="10.820786">
        <ele>418.6</ele>
        <time>2026-05-29T13:33:21.632000Z</time>
      </trkpt>
      <trkpt lat="48.60025" lon="10.820796">
        <ele>418.6</ele>
        <time>2026-05-29T13:33:25.777000Z</time>
      </trkpt>
      <trkpt lat="48.59956" lon="10.821381">
        <ele>418.6</ele>
        <time>2026-05-29T13:34:44.872000Z</time>
      </trkpt>
      <trkpt lat="48.598976" lon="10.821963">
        <ele>418.5</ele>
        <time>2026-05-29T13:35:55.061000Z</time>
      </trkpt>
      <trkpt lat="48.598179" lon="10.822586">
        <ele>418.5</ele>
        <time>2026-05-29T13:37:24.954000Z</time>
      </trkpt>
      <trkpt lat="48.597886" lon="10.822753">
        <ele>418.5</ele>
        <time>2026-05-29T13:37:56.406000Z</time>
      </trkpt>
      <trkpt lat="48.597614" lon="10.822847">
        <ele>418.6</ele>
        <time>2026-05-29T13:38:24.460000Z</time>
      </trkpt>
      <trkpt lat="48.597005" lon="10.822907">
        <ele>418.7</ele>
        <time>2026-05-29T13:39:26.072000Z</time>
      </trkpt>
      <trkpt lat="48.59611" lon="10.822737">
        <ele>419</ele>
        <time>2026-05-29T13:40:57.317000Z</time>
      </trkpt>
      <trkpt lat="48.595872" lon="10.822762">
        <ele>419</ele>
        <time>2026-05-29T13:41:21.325000Z</time>
      </trkpt>
      <trkpt lat="48.595625" lon="10.822867">
        <ele>419</ele>
        <time>2026-05-29T13:41:47.025000Z</time>
      </trkpt>
      <trkpt lat="48.595252" lon="10.823125">
        <ele>419</ele>
        <time>2026-05-29T13:42:28.061000Z</time>
      </trkpt>
      <trkpt lat="48.594971" lon="10.823483">
        <ele>419</ele>
        <time>2026-05-29T13:43:04.938000Z</time>
      </trkpt>
      <trkpt lat="48.594831" lon="10.823835">
        <ele>419</ele>
        <time>2026-05-29T13:43:32.125000Z</time>
      </trkpt>
      <trkpt lat="48.594814" lon="10.823878">
        <ele>419</ele>
        <time>2026-05-29T13:43:35.465000Z</time>
      </trkpt>
      <trkpt lat="48.594764" lon="10.824305">
        <ele>419.1</ele>
        <time>2026-05-29T13:44:04.169000Z</time>
      </trkpt>
      <trkpt lat="48.594697" lon="10.825077">
        <ele>419.1</ele>
        <time>2026-05-29T13:44:55.908000Z</time>
      </trkpt>
      <trkpt lat="48.594598" lon="10.825666">
        <ele>419.1</ele>
        <time>2026-05-29T13:45:36.262000Z</time>
      </trkpt>
      <trkpt lat="48.594453" lon="10.826206">
        <ele>419.2</ele>
        <time>2026-05-29T13:46:15.041000Z</time>
      </trkpt>
      <trkpt lat="48.594387" lon="10.826371">
        <ele>419.2</ele>
        <time>2026-05-29T13:46:27.818000Z</time>
      </trkpt>
      <trkpt lat="48.594323" lon="10.826263">
        <ele>419.2</ele>
        <time>2026-05-29T13:46:37.423000Z</time>
      </trkpt>
      <trkpt lat="48.59414" lon="10.825993">
        <ele>419.2</ele>
        <time>2026-05-29T13:47:02.968000Z</time>
      </trkpt>
      <trkpt lat="48.594125" lon="10.825975">
        <ele>419.2</ele>
        <time>2026-05-29T13:47:04.898000Z</time>
      </trkpt>
      <trkpt lat="48.593218" lon="10.824955">
        <ele>419.1</ele>
        <time>2026-05-29T13:48:58.335000Z</time>
      </trkpt>
      <trkpt lat="48.592477" lon="10.824187">
        <ele>419</ele>
        <time>2026-05-29T13:50:28.475000Z</time>
      </trkpt>
      <trkpt lat="48.592392" lon="10.824043">
        <ele>419</ele>
        <time>2026-05-29T13:50:41.207000Z</time>
      </trkpt>
      <trkpt lat="48.592323" lon="10.823816">
        <ele>419</ele>
        <time>2026-05-29T13:50:57.809000Z</time>
      </trkpt>
      <trkpt lat="48.588378" lon="10.824753">
        <ele>419.3</ele>
        <time>2026-05-29T13:57:38.643000Z</time>
      </trkpt>
      <trkpt lat="48.587971" lon="10.824821">
        <ele>419.5</ele>
        <time>2026-05-29T13:58:20.378000Z</time>
      </trkpt>
      <trkpt lat="48.587408" lon="10.824845">
        <ele>420.1</ele>
        <time>2026-05-29T13:59:18.656000Z</time>
      </trkpt>
      <trkpt lat="48.587075" lon="10.824871">
        <ele>420.4</ele>
        <time>2026-05-29T13:59:53.365000Z</time>
      </trkpt>
      <trkpt lat="48.586999" lon="10.824877">
        <ele>420.5</ele>
        <time>2026-05-29T14:00:01.383000Z</time>
      </trkpt>
      <trkpt lat="48.586683" lon="10.824961">
        <ele>421.1</ele>
        <time>2026-05-29T14:00:35.629000Z</time>
      </trkpt>
      <trkpt lat="48.586607" lon="10.824987">
        <ele>421.3</ele>
        <time>2026-05-29T14:00:44.056000Z</time>
      </trkpt>
      <trkpt lat="48.586451" lon="10.825041">
        <ele>421.7</ele>
        <time>2026-05-29T14:01:01.418000Z</time>
      </trkpt>
      <trkpt lat="48.586402" lon="10.825054">
        <ele>421.8</ele>
        <time>2026-05-29T14:01:06.839000Z</time>
      </trkpt>
      <trkpt lat="48.586256" lon="10.825079">
        <ele>422.2</ele>
        <time>2026-05-29T14:01:22.926000Z</time>
      </trkpt>
      <trkpt lat="48.586062" lon="10.825038">
        <ele>422.9</ele>
        <time>2026-05-29T14:01:45.087000Z</time>
      </trkpt>
      <trkpt lat="48.585936" lon="10.824615">
        <ele>424.2</ele>
        <time>2026-05-29T14:02:20.094000Z</time>
      </trkpt>
      <trkpt lat="48.585722" lon="10.823893">
        <ele>426.5</ele>
        <time>2026-05-29T14:03:20.652000Z</time>
      </trkpt>
      <trkpt lat="48.585633" lon="10.823595">
        <ele>427.9</ele>
        <time>2026-05-29T14:03:46.874000Z</time>
      </trkpt>
      <trkpt lat="48.58562" lon="10.823548">
        <ele>428.1</ele>
        <time>2026-05-29T14:03:50.948000Z</time>
      </trkpt>
      <trkpt lat="48.585416" lon="10.82273">
        <ele>432.4</ele>
        <time>2026-05-29T14:05:03.765000Z</time>
      </trkpt>
      <trkpt lat="48.585391" lon="10.822629">
        <ele>433.1</ele>
        <time>2026-05-29T14:05:12.997000Z</time>
      </trkpt>
      <trkpt lat="48.585467" lon="10.822507">
        <ele>434.1</ele>
        <time>2026-05-29T14:05:27.542000Z</time>
      </trkpt>
      <trkpt lat="48.585646" lon="10.822218">
        <ele>436.7</ele>
        <time>2026-05-29T14:06:02.478000Z</time>
      </trkpt>
      <trkpt lat="48.585829" lon="10.822031">
        <ele>438.9</ele>
        <time>2026-05-29T14:06:32.147000Z</time>
      </trkpt>
      <trkpt lat="48.586014" lon="10.821843">
        <ele>441.3</ele>
        <time>2026-05-29T14:07:02.392000Z</time>
      </trkpt>
      <trkpt lat="48.586225" lon="10.821474">
        <ele>444.9</ele>
        <time>2026-05-29T14:07:46.961000Z</time>
      </trkpt>
      <trkpt lat="48.586471" lon="10.82082">
        <ele>450.7</ele>
        <time>2026-05-29T14:08:56.783000Z</time>
      </trkpt>
      <trkpt lat="48.586501" lon="10.820738">
        <ele>451.3</ele>
        <time>2026-05-29T14:09:05.185000Z</time>
      </trkpt>
      <trkpt lat="48.587041" lon="10.820002">
        <ele>457.3</ele>
        <time>2026-05-29T14:10:38.144000Z</time>
      </trkpt>
      <trkpt lat="48.587155" lon="10.819753">
        <ele>458.5</ele>
        <time>2026-05-29T14:11:02.319000Z</time>
      </trkpt>
      <trkpt lat="48.587435" lon="10.819341">
        <ele>460.4</ele>
        <time>2026-05-29T14:11:47.958000Z</time>
      </trkpt>
      <trkpt lat="48.587766" lon="10.819097">
        <ele>461.8</ele>
        <time>2026-05-29T14:12:29.666000Z</time>
      </trkpt>
      <trkpt lat="48.587842" lon="10.818991">
        <ele>462</ele>
        <time>2026-05-29T14:12:40.922000Z</time>
      </trkpt>
      <trkpt lat="48.587832" lon="10.818759">
        <ele>462.3</ele>
        <time>2026-05-29T14:12:57.310000Z</time>
      </trkpt>
      <trkpt lat="48.587651" lon="10.818017">
        <ele>462.6</ele>
        <time>2026-05-29T14:13:50.885000Z</time>
      </trkpt>
      <trkpt lat="48.587621" lon="10.817765">
        <ele>462.7</ele>
        <time>2026-05-29T14:14:07.934000Z</time>
      </trkpt>
      <trkpt lat="48.588069" lon="10.817694">
        <ele>462.6</ele>
        <time>2026-05-29T14:14:53.183000Z</time>
      </trkpt>
      <trkpt lat="48.588422" lon="10.817376">
        <ele>461.9</ele>
        <time>2026-05-29T14:15:35.778000Z</time>
      </trkpt>
      <trkpt lat="48.58858" lon="10.817234">
        <ele>461.4</ele>
        <time>2026-05-29T14:15:55.145000Z</time>
      </trkpt>
      <trkpt lat="48.589362" lon="10.816829">
        <ele>458.6</ele>
        <time>2026-05-29T14:17:23.421000Z</time>
      </trkpt>
      <trkpt lat="48.589516" lon="10.817259">
        <ele>457.6</ele>
        <time>2026-05-29T14:17:58.038000Z</time>
      </trkpt>
      <trkpt lat="48.589675" lon="10.817862">
        <ele>456.2</ele>
        <time>2026-05-29T14:18:43.843000Z</time>
      </trkpt>
      <trkpt lat="48.590029" lon="10.81833">
        <ele>454.8</ele>
        <time>2026-05-29T14:19:33.769000Z</time>
      </trkpt>
      <trkpt lat="48.590322" lon="10.818573">
        <ele>453.9</ele>
        <time>2026-05-29T14:20:09.120000Z</time>
      </trkpt>
      <trkpt lat="48.590949" lon="10.819047">
        <ele>452.4</ele>
        <time>2026-05-29T14:21:22.230000Z</time>
      </trkpt>
      <trkpt lat="48.591359" lon="10.818921">
        <ele>452</ele>
        <time>2026-05-29T14:22:04.985000Z</time>
      </trkpt>
      <trkpt lat="48.592112" lon="10.818474">
        <ele>452.2</ele>
        <time>2026-05-29T14:23:26.484000Z</time>
      </trkpt>
      <trkpt lat="48.592946" lon="10.817934">
        <ele>452.8</ele>
        <time>2026-05-29T14:24:59.500000Z</time>
      </trkpt>
      <trkpt lat="48.593824" lon="10.817511">
        <ele>452.8</ele>
        <time>2026-05-29T14:26:31.797000Z</time>
      </trkpt>
      <trkpt lat="48.593935" lon="10.81743">
        <ele>452.6</ele>
        <time>2026-05-29T14:26:44.599000Z</time>
      </trkpt>
      <trkpt lat="48.593774" lon="10.817471">
        <ele>452.2</ele>
        <time>2026-05-29T14:27:01.649000Z</time>
      </trkpt>
      <trkpt lat="48.593666" lon="10.817014">
        <ele>451.4</ele>
        <time>2026-05-29T14:27:35.609000Z</time>
      </trkpt>
      <trkpt lat="48.593657" lon="10.816605">
        <ele>450.4</ele>
        <time>2026-05-29T14:28:04.549000Z</time>
      </trkpt>
      <trkpt lat="48.593799" lon="10.815334">
        <ele>446.8</ele>
        <time>2026-05-29T14:29:37.250000Z</time>
      </trkpt>
      <trkpt lat="48.59409" lon="10.8147">
        <ele>444.4</ele>
        <time>2026-05-29T14:30:33.321000Z</time>
      </trkpt>
      <trkpt lat="48.594234" lon="10.814813">
        <ele>443.6</ele>
        <time>2026-05-29T14:30:51.127000Z</time>
      </trkpt>
      <trkpt lat="48.594644" lon="10.81451">
        <ele>441.5</ele>
        <time>2026-05-29T14:31:41.006000Z</time>
      </trkpt>
      <trkpt lat="48.595563" lon="10.81421">
        <ele>437.8</ele>
        <time>2026-05-29T14:33:22.607000Z</time>
      </trkpt>
      <trkpt lat="48.596055" lon="10.814321">
        <ele>436.2</ele>
        <time>2026-05-29T14:34:15.728000Z</time>
      </trkpt>
      <trkpt lat="48.596708" lon="10.814468">
        <ele>435.1</ele>
        <time>2026-05-29T14:35:24.107000Z</time>
      </trkpt>
      <trkpt lat="48.597728" lon="10.815053">
        <ele>433</ele>
        <time>2026-05-29T14:37:17.698000Z</time>
      </trkpt>
      <trkpt lat="48.59789" lon="10.815152">
        <ele>432.4</ele>
        <time>2026-05-29T14:37:36.436000Z</time>
      </trkpt>
      <trkpt lat="48.598212" lon="10.815241">
        <ele>431</ele>
        <time>2026-05-29T14:38:12.160000Z</time>
      </trkpt>
      <trkpt lat="48.598327" lon="10.815361">
        <ele>430.2</ele>
        <time>2026-05-29T14:38:27.557000Z</time>
      </trkpt>
      <trkpt lat="48.598442" lon="10.815407">
        <ele>429.6</ele>
        <time>2026-05-29T14:38:40.818000Z</time>
      </trkpt>
      <trkpt lat="48.59942" lon="10.815871">
        <ele>423.5</ele>
        <time>2026-05-29T14:40:35.610000Z</time>
      </trkpt>
      <trkpt lat="48.599774" lon="10.816229">
        <ele>421.8</ele>
        <time>2026-05-29T14:41:21.779000Z</time>
      </trkpt>
      <trkpt lat="48.599914" lon="10.816328">
        <ele>421.3</ele>
        <time>2026-05-29T14:41:38.245000Z</time>
      </trkpt>
      <trkpt lat="48.599975" lon="10.817065">
        <ele>420.4</ele>
        <time>2026-05-29T14:42:29.250000Z</time>
      </trkpt>
      <trkpt lat="48.600009" lon="10.817514">
        <ele>420.4</ele>
        <time>2026-05-29T14:42:59.220000Z</time>
      </trkpt>
      <trkpt lat="48.599975" lon="10.817065">
        <ele>420.7</ele>
        <time>2026-05-29T14:43:30.156000Z</time>
      </trkpt>
      <trkpt lat="48.600028" lon="10.817049">
        <ele>420.7</ele>
        <time>2026-05-29T14:43:35.840000Z</time>
      </trkpt>
      <trkpt lat="48.600081" lon="10.817034">
        <ele>420.8</ele>
        <time>2026-05-29T14:43:41.531000Z</time>
      </trkpt>
      <trkpt lat="48.600048" lon="10.816655">
        <ele>421.4</ele>
        <time>2026-05-29T14:44:08.717000Z</time>
      </trkpt>
      <trkpt lat="48.600064" lon="10.816597">
        <ele>421.5</ele>
        <time>2026-05-29T14:44:13.280000Z</time>
      </trkpt>
      <trkpt lat="48.60019" lon="10.816489">
        <ele>421.9</ele>
        <time>2026-05-29T14:44:29.296000Z</time>
      </trkpt>
      <trkpt lat="48.600303" lon="10.816317">
        <ele>422.4</ele>
        <time>2026-05-29T14:44:47.092000Z</time>
      </trkpt>
      <trkpt lat="48.600407" lon="10.816175">
        <ele>422.9</ele>
        <time>2026-05-29T14:45:02.939000Z</time>
      </trkpt>
      <trkpt lat="48.601231" lon="10.815252">
        <ele>427.8</ele>
        <time>2026-05-29T14:47:02.476000Z</time>
      </trkpt>
      <trkpt lat="48.602167" lon="10.814205">
        <ele>434.6</ele>
        <time>2026-05-29T14:49:22.440000Z</time>
      </trkpt>
      <trkpt lat="48.602539" lon="10.813636">
        <ele>437.9</ele>
        <time>2026-05-29T14:50:26.922000Z</time>
      </trkpt>
      <trkpt lat="48.602886" lon="10.813001">
        <ele>441.4</ele>
        <time>2026-05-29T14:51:33.200000Z</time>
      </trkpt>
      <trkpt lat="48.603435" lon="10.811768">
        <ele>446.3</ele>
        <time>2026-05-29T14:53:28.776000Z</time>
      </trkpt>
      <trkpt lat="48.603718" lon="10.810996">
        <ele>448</ele>
        <time>2026-05-29T14:54:33.009000Z</time>
      </trkpt>
      <trkpt lat="48.604164" lon="10.809955">
        <ele>449</ele>
        <time>2026-05-29T14:55:58.689000Z</time>
      </trkpt>
      <trkpt lat="48.604349" lon="10.809522">
        <ele>449.1</ele>
        <time>2026-05-29T14:56:33.268000Z</time>
      </trkpt>
    </trkseg>
  </trk>
</gpx>