<?xml version="1.0" encoding="UTF-8"?>
<gpx xmlns="http://www.topografix.com/GPX/1/1" xmlns:xsi="http://www.w3.org/2001/XMLSchema-instance" xsi:schemaLocation="http://www.topografix.com/GPX/1/1 http://www.topografix.com/GPX/1/1/gpx.xsd" version="1.1" creator="Robert Kampf">
  <metadata>
    <name>Staudamm Brombachsee – Hauptdamm des Großen Brombachsees Runde von Mandlesmühle</name>
    <desc>Distance: 5.536km, Estimated duration: 1.46h, Elevation up: 51.75233629207611m, Elevation down: 51.72784844811093m, Grade: easy</desc>
    <author>
      <name>Robert Kampf</name>
      <link href="https://www.komoot.de/user/4125295338453">
        <text>View Robert Kampf's Profile on Komoot</text>
      </link>
    </author>
    <link href="https://www.komoot.de/tour/3328691399">
      <text>View tour on Komoot</text>
    </link>
  </metadata>
  <wpt lat="49.122498" lon="10.972109">
    <name>Mandelsmühle</name>
    <cmt></cmt>
    <desc>Accessible, Toll</desc>
    <src>Komoot</src>
    <type>POI</type>
  </wpt>
  <wpt lat="49.124624" lon="10.972287">
    <ele>428.7</ele>
    <name>Mandlesmühle</name>
    <cmt>https://d2exd72xrrp1s7.cloudfront.net/www/000/1k4/ty/tyszby6ylb3rapxvcgfuwb4e3kii2143-uhi25681959/0</cmt>
    <desc>IRI𝕊 with
🅱️🅴🅻🅻🅰️ 🚵‍♀️: sehr schöne informative Mühle die Mandlesmühle
――――――――――
Moni: Hier kann die Mühle beim Arbeiten zusehen. Rastplätze inklusive
――――――――――
Bianca: Mühle mit Erklärstationen ( öffentliches kostenloses WC vorhanden)</desc>
    <src>Komoot</src>
    <link href="https://www.komoot.de/highlight/7609365">
      <text>View POI on Komoot</text>
    </link>
    <type>Highlight</type>
  </wpt>
  <wpt lat="49.124753" lon="10.972365">
    <ele>376.7</ele>
    <name>Mandlesmühle Watermill and Information Centre</name>
    <cmt>https://d2exd72xrrp1s7.cloudfront.net/www/000/1k0/1p/1peuooo1szzns8jgzafa7z6391x0jtbkg-uhi541042/0</cmt>
    <desc>Mario: Die durch die Anstauung des Großen Brombachsees aufgegebene Mühle wurde vom Freistaat Bayern aufgekauft und wird vom Wasserwirtschaftsamt Ansbach als Informationszentrum „Fränkisches Seenland“ genutzt. Die Mühle wurde als einzige im Brombachtal nicht abgebrochen. Der Ort ist Sitz der Seemeisterstelle. (Wikipedia)
――――――――――
Hermann 🥾🥾🌲🌳🍁: Vor 40 Jahren waren hier viele Baggerseen und als Jugendliche war hier in der Nähe fast immer ein Treffpunkt zum Baden. Man konnte hier ewig durchs Sandgebiet fahren von Mühle zu Mühle und von Baggersee zu Baggersee.
――――――――――
🇺🇦Schlofwandler🕊️: Sehr informativ und super hergerichtet. Daumen hoch für das Land Bayern.
――――――――――
Hermann 🥾🥾🌲🌳🍁: Ansehen lohnt sich.
Schaut es euch selbst an.
――――――――――
ML: Schöne, authentische Darstellung über die Wichtigkeit von Wassermühlen und was man alles mit Wasserkraft machen konnte und immer noch kann
――――――――――
Hermann 🥾🥾🌲🌳🍁: Sehr saubere Kneipanlage. Viele Menschen aus der Umgebung kommen täglich her.
――――――――――
GöRa: Das Infozentrum ist gut gemacht! Sehr informativ! Die ganze Anlage ist sehr gepflegt
――――――――――
Rainer &amp; Petra: Im Jahr 1977 kaufte das Talsperren-Neubauanmt Nürnberg das Mühlenanwesen und sanierte es. Während des Baus der Überleitung Donau-Main war hier das Büro der Bauleitung. Heute befindet sich hier eine Außenstelle des Wasserwirtschaftsamtes Ansbach und ein Infozentrum des Fränkischen Seenlandes.
――――――――――
S+S 👣👣: Schön gelegene Mühle mit Infozentrum.
――――――――――
ML: Schöne Abkühlung für die Füße
――――――――――
Dagmar: Schön gemachtes Infozentrum, wie ein kleines Museum und kostenlos. Eine schöne Wiese mit Rastplatz und kleiner Kneipanlage lädt zum Verweilen ein.
――――――――――
Fortuna Rolf: Eine schöne Ausstellung mit vielen Informationen rund um den Brombachsee und das Verbundsystem zwischen den Seen.
――――――――――
Uschi unterwegs 🌈: Infozentrum Seenland: Mandlesmühle
Nach der Flutung des Brombachsees wurde die Mandlesmühle Sitz der Seemeisterstelle Brombachsee mit attraktiver Informationsstelle für Gäste. Im Inforaum der Seemeisterstelle wird zu den Öffnungszeiten der halbstündige Film „Fränkisches Seenland“ gezeigt. In der angrenzenden historischen Scheune der Mandlesmühle wurde das Infozentrum „Seenland - Wasser für Franken“ eingerichtet. Hier wird die Entwicklung dieses gigantischen Seenbauprojekts auf zwei Stockwerken mit insgesamt 300 Quadratmetern dokumentiert. Für die Besucher sind hier die Beweggründe, die Planung und Umsetzung einschließlich des heutigen Betriebs der Überleitung anschaulich dargestellt.
Am Infozentrum befinden sich außerdem Rastplätze mit Tischen und Bänken und ein natürliches Wassertretbecken. Eine Brücke und zahlreiche Blickschneisen erlauben eine gute Sicht über die Weihergruppe.</desc>
    <src>Komoot</src>
    <link href="https://www.komoot.de/highlight/6837646">
      <text>View POI on Komoot</text>
    </link>
    <type>Highlight</type>
  </wpt>
  <wpt lat="49.125395" lon="10.972793">
    <ele>376</ele>
    <name>Mandlesweiher Pond</name>
    <cmt>https://d2exd72xrrp1s7.cloudfront.net/www/000/1k7/va/vajkruu4do3jg5m54pm9dm854kuj75dy-uhi60080030/0</cmt>
    <desc>IRI𝕊 with
🅱️🅴🅻🅻🅰️ 🚵‍♀️: einen wunderschönen Blick in Mutter Natur am Mandlesweiher kann man hier genießen
――――――――――
ML: Naturidylle am Fuß  des Staudammes
――――――――――
Johanna: Der Mandlesweiher ist einer von vielen Weihern, was die Gegend zu einem wirklich schönen Wandergebiet macht. Am Ufer kannst du reichlich Vögel beobachten.
――――――――――
🇺🇦Schlofwandler🕊️: Das muss man sich anschauen. So idyllisch.
――――――――――
Rainer &amp; Petra: Unweit der Mandlesmühle gelegener, malerischer Weiher, wo sich auch Enten und Schwäne aufhalten.
――――――――――
H.G.: unterhalb des Dammes
――――――――――
Uschi unterwegs 🌈: Die Mandlesweiher-Kette wird hauptsächlich durch den Brombach gespeist, der unterhalb des Großen Brombachsees fließt und die Weiherkette durchzieht, wobei auch der Weilerbach von Norden her Wasser zuführt und kleinere Quellen die Versorgung ergänzen, was sie zu einem interessanten Feuchtgebiet macht. Die Mandlesweiher-Gruppe liegt zwischen dem Großen Brombachsee (westlich) und dem durch Sandabbau entstandenen Baggersee Heiligenwaldsee (östlich).</desc>
    <src>Komoot</src>
    <link href="https://www.komoot.de/highlight/4815990">
      <text>View POI on Komoot</text>
    </link>
    <type>Highlight</type>
  </wpt>
  <wpt lat="49.13348" lon="10.961419">
    <ele>457.8</ele>
    <name>Allmannsdorf Beach at the Brombachsee</name>
    <cmt>https://d2exd72xrrp1s7.cloudfront.net/www/000/1k5/17/17w7hrc8oi8hny5pfnd3td0we3sltg16h-uhi34811569/0</cmt>
    <desc>Sebastian Kowalke: Der Strand bei Allmannsdorf ist der perfekte Ort für eine Rast. Hier kannst du im Wasser baden, am Strand in der Sonne liegen, im Biergarten fränkische Spezialitäten genießen oder einfach bloß den Blick auf den See bewundern.

Wenn du nach einer langen Radtour ein wenig die Beine schonen möchtest, kannst du hier auf die MS Brombachsee steigen und mit ihr über den See tuckern. Besonderes Schmankerl: Fahrräder werden kostenlos transportiert.

Mehr Infos zur MS Brombachsee findest du unter https://www.msbrombachsee.com/.
――――――――――
welu: Die Rundfahrt mit dem ungewöhnlichen Dreirumpfschiff (bei Kaffee und Kuchen) dauert 90 Minuten. Man kann das Fahrrad mitnehmen und die Fahrt an jedem der 5 Häfen unterbrechen.
――――――――――
Bernhard 🚴🏻‍♂️🥾: Im Seezentrum Allmannsdorf gibt es alles, was man als Badegast oder Radfahrer benötigt: Sandstrand mit Liegewiese, Umkleiden, Sanitäranlagen, Biergarten, Kinderspielplatz, Rettungsstation der Wasserwacht, Kite-Surfschule, Infozentrum, Fahrradvermietung und Schiffsanlegestelle der MS Brombachsee
――――――――――
BioMann: Sehr schöner Sandstrand, direkt am Damm und der Arche.
――――――――――
Hutte: toller und sauberer Sandstrand. Das Restaurant und seine Wucherpreise würde ich allerdings meiden.
――――――――――
Mario: Hier gibt es einen tollen Sandstrand.
――――――――――
Rombea: Das Seezentrum Allmannsdorf bietet einen tollen Strand und die Arche Brombachsee, ein Selbstbedienungs-Restaurant mit Biergarten. Hier kann man bei traumhafter Aussicht ganz entspannt das saisonal wechselnde Speisenangebot genießen - von kalter Gazpacho bis Brezenknödel mit Pfifferlingen. Bequem: Die Anlegestelle der "MS Brombachsee" liegt direkt vor der Tür, Kinder können sich auf dem großen Spielplatz nebenan austoben.
――――――――――
Christofer: Wunderschöner Strand zum relaxen.
――――――――――
🚵‍♂️  Volker 🌲: Schönes Strandbad neben dem Damm
――――――――――
Nils 🎲: Der See ist und bleibt hoffentlich ein Freizeiteldorado. Auf, neben oder mittlerweile auch darüber... Einfach nur genial sowas vor der Haustür zu haben 👍🏻
――――――――――
ingo: Urlaubsfeeling am Brombachsee mit Sandstrand
――――――――――
🚵‍♂️  Volker 🌲: Schöner Badesee teilweise Sandstrand
――――――――――
Hucki: Je nach Wetterlage und Jahreszeit  ein Magnet für die unterschiedlichsten Outdoor-Aktivitäten. Heute konnte man bei stärker werdendem Wind  die Kiter bestaunen.
――――――――――
Sebastian: Badestellen gibt es einige verteilt am See.
――――――――――
Kurpfalzradler: Hilfreich, wenn man mal eine Panne hat. Es werden auch Räder befördert.
――――――――――
Kurpfalzradler: Ich habe eigentlich alle Strandabschnitte als sehr schön empfunden. Eigentlich ist das immer eine Geschmacksache. Der eine liebt Ruhe, der ander action.
――――――――――
Kurpfalzradler: Hier ist es etwas ruhiger als am Seehotel, aber das kann jeder für sich selbst entscheiden.
――――――――――
Rombea: An mehreren Stellen ist der Zustieg zur MS Brombachsee möglich und man erreicht die "Hot Spots" des Brombachsees mit dem Schiff.
――――――――――
Rad_Tom: Auch bei leichtem Regen ein schöner Ort.
――――――――――
Mike❎: Nette Tour ohne nennenswerte Steigungen
――――――――――
E-Bike Traveler: Muss man echt mal machen. Einmal rum um den See super ausgebaute Schotter so wie Teer Radwege. Leicht strecke und mann kann da wirklich nichts falsch machen immer dem weg entlang und bis man es Merkt ist man schon rum.
――――――――――
Willi: Man kann überall sich eine Abkühlung holen
――――――――――
Da Steff 🚵💥: Hier ist viel los bei schönem Wetter.
――――――――――
𝕯𝕽: Sehr schön &amp; gemütliche Schiff mit Bordrestaurant &amp; tolle Angebote 👍</desc>
    <src>Komoot</src>
    <link href="https://www.komoot.de/highlight/78181">
      <text>View POI on Komoot</text>
    </link>
    <type>Highlight</type>
  </wpt>
  <wpt lat="49.132651" lon="10.961765">
    <ele>462.9</ele>
    <name>Brombachsee Dam</name>
    <cmt>https://d2exd72xrrp1s7.cloudfront.net/www/000/1k7/1d/1dpzfbd519hfr1mqh3tut5lz454mhq4q7m-uhi61898377/0</cmt>
    <desc>🥾🚲Achim68🚲🥾: Toller künstlich angelegter See mit hohem Freizeitwert.
――――――――――
Darkman: Super Landschaft mit gut ausgebauten Rad Netz.
――――――――――
Wirthi: Wunderschöner Ausblick und Ruhe.
――――――――――
Sunny: Macht Spaß, bei dieser Aussicht auf den See
――――――――――
Dr. Knödelmeier: Und  wirklich richtig laufenswert  😀😀
――――――――――
Stefan H.  🚴‍♂️🚸🌲🌳🥾: Es gibt nicht viele Seeradtouren, die so tolle Ausblicke gewähren
――――――――――
Norbert 🌳: Abendstimmung über dem See magisch
――――――――――
🥾🚲Achim68🚲🥾: Am Staudamm erkennt man die hervorragende deutsche Ingenieurskunst.
――――――――――
Stefan Knorr: ein wunderbarer Blick über den gesammten Brmbachsee
――――――――――
Barbara: um den nördlichen Teil des Brombachsee traumhafte Strecke, sehr empfehlenswert. Die Strecke weg vom See zuviel Landstraßen.
――――――――――
KiWaWa: Blick auf Brombach und den großen Brombachsee
――――――――――
Thorsten | Laufend-Glücklich Blog: Gute Aussicht auf die Kombination See und Wald.
――――――――――
Dani Snuff Degi 👾🫟: Toll
――――――――――
MS 🚴‍♂️: Infozentrum Seenland - Wasser für Franken: https://www.wwa-an.bayern.de/themen/ueberleitung_donau_main/infozentrum/index.htm
――――――――――
MS 🚴‍♂️: Webcam Brombachsee mit Wetterdaten

https://www.wwa-an.bayern.de/themen/ueberleitung_donau_main/webcam/index.htm
――――――――――
Diana: Schöne Wege, tolle Gegend
――――――――――
Uwe: Toller Blick über den ganzen See
――――――――――
Alex: Lohnt sich immer
――――――――――
Darkman: Schöner Radweg mit tollem Panorama und Pause Möglichkeiten.
――――――――――
Matthias W: Eine Umfahrung des See's wird Empfohlen! 😉
Wir brauchten ca. 2 Std zum lockeren Umfahren.
――――――――――
Herbert: Tolle Aussicht über den See 😎👍
――――――――――
David Meyer: Keine Ausrüstung notwendig hier
――――――――――
Alex: Hier ist Platz für alle </desc>
    <src>Komoot</src>
    <link href="https://www.komoot.de/highlight/5742212">
      <text>View POI on Komoot</text>
    </link>
    <type>Highlight</type>
  </wpt>
  <wpt lat="49.123452" lon="10.964467">
    <ele>412.4</ele>
    <name>Main Dam of the Großer Brombachsee</name>
    <cmt>https://d2exd72xrrp1s7.cloudfront.net/www/000/1k4/1u/1ug68fb7hpnpf1756xr5s90qr33duhm696-uhi13754960/0</cmt>
    <desc>Rombea: Schöner Bade - und Wassersportsee, toller Radweg um den See. Es gibt sehr schöne Strände, gute Gastronomie und mit der MS Brombachsee kann man zudem gemütlich über den See schippern.
――――――――――
Mike 🇩🇪 🇪🇺: Der Radweg rund um den Brombachsee bzw. um alle drei Seen ist 28 Kilometer lang und dabei sind nur zehn Meter Höhenunterschied zu bewältigen. Da es rings herum sehr viele Spielplätze und Rastplätze (mit Eisdielen oder zumindest Eisstand) gibt ist die Tour auch mit den Kids zu machen.
Noch mehr Infos könnt ihr unter schoene-radtouren.de/brombachsee-radweg.html abrufen.
――――――――――
Lisa im Ländle: You spin me round round Baby round round
――――――――――
BioMann: Schöner Badesee mit guter Wasserqualität, eigentlich ein Wasserspeicher für das regenarme Nordbayern.
――――――――――
🚵‍♂️  Volker 🌲: Radfahren Schwimmen und  Wandern
――――――――――
Sebastian: Der lädt zum entspannen und bewegen ein
――――――――――
Anne FFB: Wunderbar immer direkt am See entlang
――――――――――
Gerd H.: Tolle Freizeitmöglichkeiten: baden, wandern, Boot/Schiff fahren,...
――――――――――
Marc: Schön zum Radfahren, auch mit Kindern kein Problem
――――――――――
Tibor🥾🌿☀️: Lohnend zu jeder Jahreszeit für eine Wanderung oder mit dem Fahrrad.
――――――――――
Dr. Knödelmeier: Klasse zum Tadeln um den See
――――――――――
Hans-Peter: Eine Fahrt oder auch Wanderung rund um die Seen ist nur zu empfehlen.
――――――――――
Da Steff 🚵💥: Sehr viel los am Brombachsee. Die Gegend ist echt schön, aber man sollte früh morgens schon unterwegs sein.
――――――――――
𝕯𝕽: Der Große Brombachsee ist ein Stausee im Süden Mittelfrankens. Im Jahr 2000 eingeweiht, ist der größte Stausee des Fränkischen Seenlands und größtes Stillgewässer Frankens.
――――――――――
🚲CyklistCR🚲: Die Einöde Mandlesmühle liegt nordwestlich von Pleinfeld umgeben von Wäldern unterhalb des Staudamms des Großen Brombachsees. Der Ort und das ehemalige Mühlengelände liegen am Mandlesweiher, eine vom Brombach gespeiste Weiherkette. Eine Straße verbindet den Ort mit der Kreisstraße WUG 18.[2] Unweit befand sich die heute abgegangene Belzmühle. Das Gebiet nahe der Mandlesmühle ist im Rahmen der Sandachse Franken als bedeutender Lebensraum geschützt.

Das im 18. Jahrhundert errichtete Mühlengebäude (Mandlesmühle 9) wurde vom Bayerischen Landesamt für Denkmalpflege unter der Nummer D-5-77-161-74 als Baudenkmal in die Bayerische Denkmalliste eingetragen. Ebenfalls denkmalgeschützt ist ein Nebengebäude der Mühle sowie eine kleine Wegkapelle des 18. Jahrhunderts am nördlichen Ortsrand mit der Denkmalnummer D-5-77-161-75.[3] Siehe auch die Liste der Baudenkmäler in Mandlesmühle.

Quelle: Wikipedia
――――――――――
🚲CyklistCR🚲: Der Große Brombachsee ist eine Talsperre, als deren Absperrbauwerk ein Erddamm von 1,7 Kilometer Länge mit einer Kerninnendichtung dient. Der mehrstufige Dammaufbau besteht aus Stützkörper, Dammkern, Dichtungswand, Filterschichten, Herdmauer mit Kontrollgang, Flächenfilter und Untergrundschlitzwand. Auf der Luftseite des Staudammes liegt am Betriebsauslass das Krafthaus Brombachsee, das mit zwei Durchströmturbinen von je 315 Kilowatt Auslegungsleistung bei einem Nutzgefälle von 32 Metern elektrischen Strom aus dem in den Unterlauf des Brombaches abgegebenem Wasser erzeugen kann. Der Ausbaudurchfluss jeder der beiden Turbinen liegt dabei bei 1,2 m³/s, die jährliche Stromerzeugung im Mittel bei 1,6 Mio. kWh.[

Quelle: Wikipedia
――――――――――
Rombea: Herrlicher Ausblick vom Damm auf den See und das Umland.
――――――――――
Rombea: Schöner Weg über die Staumauer mit herrlichem Ausblick über den See. Höchste Höhe 36 m.
――――――――――
Siggi: Vom Brombachseehauptdamm hat man nicht nur einen schönen Blick auf den See sondern auch auf die andere Seite und da sieht man erst wie hoch der Damm ist.
――――――――――
☘️ Werner: Der Hauptdamm (Staudamm) des großen Brombachsees ist 1,7 km lang. Auf der Luftseite des Staudammes liegt am Betriebsauslass das Krafthaus Brombachsee, das mit zwei Durchströmturbinen von je 315 Kilowatt Auslegungsleistung bei einem Nutzgefälle von 32 Metern elektrischen Strom aus dem in den Unterlauf des Brombaches abgegebenem Wasser erzeugen kann.
――――――――――
christine: Schöner Ausblick vom Hauptdamm auf den  Brombachsee.
――――――――――
Rombea: Sehr schöner See mit Rundweg um den See.
――――――――――
Fastcat: Hier bekommt man ein Gefühl für die Menge Wasser,die im Brombachsee zurückgehalten wird.Und einen tollen Blick über das Spalterbig/Pleinfelder Hinterland gibts auch dazu.
――――――――――
Mo: Bootsfahrt wäre auch möglich.</desc>
    <src>Komoot</src>
    <link href="https://www.komoot.de/highlight/538374">
      <text>View POI on Komoot</text>
    </link>
    <type>Highlight</type>
  </wpt>
  <wpt lat="49.120108" lon="10.964545">
    <ele>413.1</ele>
    <name>Bench with a View of Brombachsee</name>
    <cmt>https://d2exd72xrrp1s7.cloudfront.net/www/000/1k7/1h/1hxiq7xofqzovtq2je6wbfwxw4pquntub-uhi65190314/0</cmt>
    <desc>🥾🚲Achim68🚲🥾: Der Weg über die sehr hohe „Staumauer“.
――――――――――
Wirthi: Weiter Blick auf den See und die Bademöglichkeiten
――――――――――
EBikeChRiS78⚫️🔴: Erlebe eine nette Prise Wind, an warmen Tagen schön angenehm wenn  man über den Damm fährt
――――――――――
Stefan H.  🚴‍♂️🚸🌲🌳🥾: Beeindruckend hoher Deich mit schönem Ausblick auf den See
――――――――――
KiWaWa: Toller Rundumblick, an dem man auch die Tiefe des Sees ein wenig abschätzen kann. Durch den schnurgeraden Damm hat man von hier aus vermutlich einen der besten "Breitblicke" auf den See.
――――――――――
Darkman: Schöner Rundweg zum Radeln um den Brombachsee mit immer wieder Möglichkeiten zum einkehren.
――――――――――
Uwe K🏸: Schöner Blick auf See und Wald
――――――――――
Rainer: Ruhebank mit Aussicht
――――――――――
Thorsten | Laufend-Glücklich Blog: Große Bänke mit Blick auf den See. Leider hat man als Läufer immer die Zeit im Nacken.
――――――――――
David Meyer: Super für ein Päuschen bei einer zauberhaften Laufeinheit im Spalter Hügelland
――――――――――
Becker: Von dieser Stelle erscheint der See besonders groß</desc>
    <src>Komoot</src>
    <link href="https://www.komoot.de/highlight/3600135">
      <text>View POI on Komoot</text>
    </link>
    <type>Highlight</type>
  </wpt>
  <wpt lat="49.119801" lon="10.964673">
    <ele>417</ele>
    <name>Water Power Trail at Brombachsee</name>
    <cmt>https://d2exd72xrrp1s7.cloudfront.net/www/000/1k5/r2/r2s92ufpd6161d232ak0ml9kc3xitwtfy-uhi42514309/0</cmt>
    <desc>Peter 23 🚴‍♀️🏄‍♂️: Schöner Rastplatz am Brombachsee
――――――――――
Rainer Schmidt: Der Rundweg "Weg der Wasserkraft" ist ca. 5km lang und sehr interessant gemacht. Es geht oben am Wasser entlang und unten am Rand des Staudammes wieder zurück, mit einem kurzen Abstecher zur Mandlesmühle.
――――――――――
Marco: Eine von mehreren Infotafeln die zum 5km langen Rundweg namens Weg des Wassers gehören sehr informativ
――――――――――
Becker: Viele interessante Informationen</desc>
    <src>Komoot</src>
    <link href="https://www.komoot.de/highlight/3845828">
      <text>View POI on Komoot</text>
    </link>
    <type>Highlight</type>
  </wpt>
  <trk>
    <name>Staudamm Brombachsee – Hauptdamm des Großen Brombachsees Runde von Mandlesmühle</name>
    <desc>Distance: 5.536km, Estimated duration: 1.46h, Elevation up: 51.75233629207611m, Elevation down: 51.72784844811093m, Grade: easy</desc>
    <link href="https://www.komoot.de/tour/3328691399">
      <text>View tour on Komoot</text>
    </link>
    <trkseg>
      <trkpt lat="49.122534" lon="10.972125">
        <ele>385.5</ele>
        <time>2026-10-04T11:50:05.009000Z</time>
      </trkpt>
      <trkpt lat="49.122562" lon="10.971986">
        <ele>385.4</ele>
        <time>2026-10-04T11:50:14.850000Z</time>
      </trkpt>
      <trkpt lat="49.122708" lon="10.972017">
        <ele>385.1</ele>
        <time>2026-10-04T11:50:30.184000Z</time>
      </trkpt>
      <trkpt lat="49.122836" lon="10.971928">
        <ele>384.8</ele>
        <time>2026-10-04T11:50:44.861000Z</time>
      </trkpt>
      <trkpt lat="49.123019" lon="10.971859">
        <ele>384.3</ele>
        <time>2026-10-04T11:51:04.665000Z</time>
      </trkpt>
      <trkpt lat="49.123137" lon="10.97185">
        <ele>384.1</ele>
        <time>2026-10-04T11:51:17.051000Z</time>
      </trkpt>
      <trkpt lat="49.123262" lon="10.97193">
        <ele>383.7</ele>
        <time>2026-10-04T11:51:31.335000Z</time>
      </trkpt>
      <trkpt lat="49.123414" lon="10.971938">
        <ele>383.2</ele>
        <time>2026-10-04T11:51:47.532000Z</time>
      </trkpt>
      <trkpt lat="49.123745" lon="10.972125">
        <ele>381.8</ele>
        <time>2026-10-04T11:52:25.731000Z</time>
      </trkpt>
      <trkpt lat="49.123984" lon="10.972056">
        <ele>380.8</ele>
        <time>2026-10-04T11:52:52.123000Z</time>
      </trkpt>
      <trkpt lat="49.124065" lon="10.97208">
        <ele>380.5</ele>
        <time>2026-10-04T11:53:01.076000Z</time>
      </trkpt>
      <trkpt lat="49.124095" lon="10.972089">
        <ele>380.4</ele>
        <time>2026-10-04T11:53:04.379000Z</time>
      </trkpt>
      <trkpt lat="49.124256" lon="10.972069">
        <ele>379.7</ele>
        <time>2026-10-04T11:53:21.860000Z</time>
      </trkpt>
      <trkpt lat="49.124361" lon="10.972226">
        <ele>379.2</ele>
        <time>2026-10-04T11:53:37.644000Z</time>
      </trkpt>
      <trkpt lat="49.124448" lon="10.972323">
        <ele>378.8</ele>
        <time>2026-10-04T11:53:49.291000Z</time>
      </trkpt>
      <trkpt lat="49.124557" lon="10.972341">
        <ele>378.4</ele>
        <time>2026-10-04T11:54:00.985000Z</time>
      </trkpt>
      <trkpt lat="49.124559" lon="10.97228">
        <ele>378.3</ele>
        <time>2026-10-04T11:54:05.287000Z</time>
      </trkpt>
      <trkpt lat="49.124591" lon="10.97229">
        <ele>378.1</ele>
        <time>2026-10-04T11:54:08.841000Z</time>
      </trkpt>
      <trkpt lat="49.124627" lon="10.972303">
        <ele>378</ele>
        <time>2026-10-04T11:54:12.757000Z</time>
      </trkpt>
      <trkpt lat="49.124758" lon="10.972375">
        <ele>377.5</ele>
        <time>2026-10-04T11:54:27.646000Z</time>
      </trkpt>
      <trkpt lat="49.124864" lon="10.972434">
        <ele>377.2</ele>
        <time>2026-10-04T11:54:39.761000Z</time>
      </trkpt>
      <trkpt lat="49.124926" lon="10.972381">
        <ele>376.9</ele>
        <time>2026-10-04T11:54:47.370000Z</time>
      </trkpt>
      <trkpt lat="49.124966" lon="10.972347">
        <ele>376.8</ele>
        <time>2026-10-04T11:54:52.254000Z</time>
      </trkpt>
      <trkpt lat="49.12503" lon="10.972293">
        <ele>376.5</ele>
        <time>2026-10-04T11:55:00.110000Z</time>
      </trkpt>
      <trkpt lat="49.12514" lon="10.972185">
        <ele>376.1</ele>
        <time>2026-10-04T11:55:14.050000Z</time>
      </trkpt>
      <trkpt lat="49.125159" lon="10.972167">
        <ele>376</ele>
        <time>2026-10-04T11:55:16.447000Z</time>
      </trkpt>
      <trkpt lat="49.125241" lon="10.971986">
        <ele>375.5</ele>
        <time>2026-10-04T11:55:31.845000Z</time>
      </trkpt>
      <trkpt lat="49.125369" lon="10.971604">
        <ele>374.8</ele>
        <time>2026-10-04T11:56:01.459000Z</time>
      </trkpt>
      <trkpt lat="49.1254" lon="10.971424">
        <ele>374.5</ele>
        <time>2026-10-04T11:56:14.125000Z</time>
      </trkpt>
      <trkpt lat="49.125401" lon="10.970836">
        <ele>374</ele>
        <time>2026-10-04T11:56:53.728000Z</time>
      </trkpt>
      <trkpt lat="49.125428" lon="10.970333">
        <ele>373.9</ele>
        <time>2026-10-04T11:57:26.991000Z</time>
      </trkpt>
      <trkpt lat="49.125388" lon="10.969797">
        <ele>374.1</ele>
        <time>2026-10-04T11:58:02.843000Z</time>
      </trkpt>
      <trkpt lat="49.125376" lon="10.969153">
        <ele>374.4</ele>
        <time>2026-10-04T11:58:46.144000Z</time>
      </trkpt>
      <trkpt lat="49.125411" lon="10.968776">
        <ele>374.7</ele>
        <time>2026-10-04T11:59:12.099000Z</time>
      </trkpt>
      <trkpt lat="49.125517" lon="10.968429">
        <ele>375.1</ele>
        <time>2026-10-04T11:59:38.637000Z</time>
      </trkpt>
      <trkpt lat="49.125742" lon="10.967724">
        <ele>376.3</ele>
        <time>2026-10-04T12:00:34.453000Z</time>
      </trkpt>
      <trkpt lat="49.125824" lon="10.967197">
        <ele>377.3</ele>
        <time>2026-10-04T12:01:13.418000Z</time>
      </trkpt>
      <trkpt lat="49.12586" lon="10.966775">
        <ele>378.1</ele>
        <time>2026-10-04T12:01:43.818000Z</time>
      </trkpt>
      <trkpt lat="49.125873" lon="10.966233">
        <ele>379.1</ele>
        <time>2026-10-04T12:02:22.930000Z</time>
      </trkpt>
      <trkpt lat="49.125824" lon="10.966039">
        <ele>379.5</ele>
        <time>2026-10-04T12:02:38.142000Z</time>
      </trkpt>
      <trkpt lat="49.125731" lon="10.965875">
        <ele>380</ele>
        <time>2026-10-04T12:02:54.108000Z</time>
      </trkpt>
      <trkpt lat="49.12646" lon="10.96549">
        <ele>382.8</ele>
        <time>2026-10-04T12:04:20.883000Z</time>
      </trkpt>
      <trkpt lat="49.126863" lon="10.965191">
        <ele>384.2</ele>
        <time>2026-10-04T12:05:10.731000Z</time>
      </trkpt>
      <trkpt lat="49.127196" lon="10.965049">
        <ele>385.5</ele>
        <time>2026-10-04T12:05:49.728000Z</time>
      </trkpt>
      <trkpt lat="49.12763" lon="10.964959">
        <ele>387.2</ele>
        <time>2026-10-04T12:06:39.781000Z</time>
      </trkpt>
      <trkpt lat="49.128384" lon="10.965029">
        <ele>390.1</ele>
        <time>2026-10-04T12:08:05.279000Z</time>
      </trkpt>
      <trkpt lat="49.128691" lon="10.964945">
        <ele>391.2</ele>
        <time>2026-10-04T12:08:40.315000Z</time>
      </trkpt>
      <trkpt lat="49.128912" lon="10.964809">
        <ele>391.9</ele>
        <time>2026-10-04T12:09:06.637000Z</time>
      </trkpt>
      <trkpt lat="49.129393" lon="10.964416">
        <ele>392.7</ele>
        <time>2026-10-04T12:10:04.333000Z</time>
      </trkpt>
      <trkpt lat="49.129656" lon="10.964285">
        <ele>392.8</ele>
        <time>2026-10-04T12:10:32.402000Z</time>
      </trkpt>
      <trkpt lat="49.129819" lon="10.964246">
        <ele>392.9</ele>
        <time>2026-10-04T12:10:48.996000Z</time>
      </trkpt>
      <trkpt lat="49.130703" lon="10.964129">
        <ele>393.3</ele>
        <time>2026-10-04T12:12:19.446000Z</time>
      </trkpt>
      <trkpt lat="49.13096" lon="10.964023">
        <ele>393.6</ele>
        <time>2026-10-04T12:12:47.111000Z</time>
      </trkpt>
      <trkpt lat="49.131306" lon="10.963736">
        <ele>394.3</ele>
        <time>2026-10-04T12:13:28.931000Z</time>
      </trkpt>
      <trkpt lat="49.131664" lon="10.963372">
        <ele>395.3</ele>
        <time>2026-10-04T12:14:15.526000Z</time>
      </trkpt>
      <trkpt lat="49.131922" lon="10.963189">
        <ele>396.2</ele>
        <time>2026-10-04T12:14:47.119000Z</time>
      </trkpt>
      <trkpt lat="49.131973" lon="10.963157">
        <ele>396.4</ele>
        <time>2026-10-04T12:14:53.260000Z</time>
      </trkpt>
      <trkpt lat="49.132594" lon="10.962844">
        <ele>398.6</ele>
        <time>2026-10-04T12:16:06.537000Z</time>
      </trkpt>
      <trkpt lat="49.132767" lon="10.962704">
        <ele>399.4</ele>
        <time>2026-10-04T12:16:28.847000Z</time>
      </trkpt>
      <trkpt lat="49.133134" lon="10.962308">
        <ele>401.2</ele>
        <time>2026-10-04T12:17:20.266000Z</time>
      </trkpt>
      <trkpt lat="49.133415" lon="10.962028">
        <ele>402.8</ele>
        <time>2026-10-04T12:17:59.394000Z</time>
      </trkpt>
      <trkpt lat="49.133774" lon="10.961892">
        <ele>404.9</ele>
        <time>2026-10-04T12:18:43.455000Z</time>
      </trkpt>
      <trkpt lat="49.133898" lon="10.961882">
        <ele>405.6</ele>
        <time>2026-10-04T12:18:58.305000Z</time>
      </trkpt>
      <trkpt lat="49.134114" lon="10.961953">
        <ele>406.9</ele>
        <time>2026-10-04T12:19:25.013000Z</time>
      </trkpt>
      <trkpt lat="49.134323" lon="10.962189">
        <ele>408.5</ele>
        <time>2026-10-04T12:19:56.640000Z</time>
      </trkpt>
      <trkpt lat="49.134481" lon="10.962391">
        <ele>409.7</ele>
        <time>2026-10-04T12:20:21.152000Z</time>
      </trkpt>
      <trkpt lat="49.134539" lon="10.9618">
        <ele>411.1</ele>
        <time>2026-10-04T12:21:05.522000Z</time>
      </trkpt>
      <trkpt lat="49.134507" lon="10.961279">
        <ele>411.9</ele>
        <time>2026-10-04T12:21:42.317000Z</time>
      </trkpt>
      <trkpt lat="49.134451" lon="10.960933">
        <ele>412</ele>
        <time>2026-10-04T12:22:06.066000Z</time>
      </trkpt>
      <trkpt lat="49.13428" lon="10.961013">
        <ele>411.9</ele>
        <time>2026-10-04T12:22:24.158000Z</time>
      </trkpt>
      <trkpt lat="49.133451" lon="10.961407">
        <ele>409.9</ele>
        <time>2026-10-04T12:23:55.249000Z</time>
      </trkpt>
      <trkpt lat="49.13329" lon="10.961484">
        <ele>409.3</ele>
        <time>2026-10-04T12:24:13.333000Z</time>
      </trkpt>
      <trkpt lat="49.132656" lon="10.961787">
        <ele>407.6</ele>
        <time>2026-10-04T12:25:23.281000Z</time>
      </trkpt>
      <trkpt lat="49.132389" lon="10.961915">
        <ele>407.2</ele>
        <time>2026-10-04T12:25:52.068000Z</time>
      </trkpt>
      <trkpt lat="49.131445" lon="10.962318">
        <ele>406.7</ele>
        <time>2026-10-04T12:27:31.294000Z</time>
      </trkpt>
      <trkpt lat="49.130656" lon="10.962633">
        <ele>406.5</ele>
        <time>2026-10-04T12:28:53.229000Z</time>
      </trkpt>
      <trkpt lat="49.129405" lon="10.963071">
        <ele>406.3</ele>
        <time>2026-10-04T12:31:02.036000Z</time>
      </trkpt>
      <trkpt lat="49.12771" lon="10.963598">
        <ele>405.4</ele>
        <time>2026-10-04T12:33:57.168000Z</time>
      </trkpt>
      <trkpt lat="49.125806" lon="10.964073">
        <ele>404.2</ele>
        <time>2026-10-04T12:37:12.805000Z</time>
      </trkpt>
      <trkpt lat="49.123981" lon="10.964384">
        <ele>404.8</ele>
        <time>2026-10-04T12:40:18.710000Z</time>
      </trkpt>
      <trkpt lat="49.123452" lon="10.96446">
        <ele>405</ele>
        <time>2026-10-04T12:41:12.771000Z</time>
      </trkpt>
      <trkpt lat="49.123355" lon="10.964474">
        <ele>405.1</ele>
        <time>2026-10-04T12:41:22.681000Z</time>
      </trkpt>
      <trkpt lat="49.121921" lon="10.964588">
        <ele>406.2</ele>
        <time>2026-10-04T12:43:50.267000Z</time>
      </trkpt>
      <trkpt lat="49.120393" lon="10.964658">
        <ele>409.7</ele>
        <time>2026-10-04T12:46:35.686000Z</time>
      </trkpt>
      <trkpt lat="49.120109" lon="10.964665">
        <ele>409.9</ele>
        <time>2026-10-04T12:47:04.802000Z</time>
      </trkpt>
      <trkpt lat="49.119801" lon="10.964673">
        <ele>409.9</ele>
        <time>2026-10-04T12:47:35.849000Z</time>
      </trkpt>
      <trkpt lat="49.120109" lon="10.964665">
        <ele>409.9</ele>
        <time>2026-10-04T12:48:06.791000Z</time>
      </trkpt>
      <trkpt lat="49.120393" lon="10.964658">
        <ele>409.7</ele>
        <time>2026-10-04T12:48:35.616000Z</time>
      </trkpt>
      <trkpt lat="49.121921" lon="10.964588">
        <ele>406.2</ele>
        <time>2026-10-04T12:51:15.888000Z</time>
      </trkpt>
      <trkpt lat="49.123355" lon="10.964474">
        <ele>404.7</ele>
        <time>2026-10-04T12:53:42.536000Z</time>
      </trkpt>
      <trkpt lat="49.123452" lon="10.96446">
        <ele>404.5</ele>
        <time>2026-10-04T12:53:52.659000Z</time>
      </trkpt>
      <trkpt lat="49.123981" lon="10.964384">
        <ele>403.2</ele>
        <time>2026-10-04T12:54:48.545000Z</time>
      </trkpt>
      <trkpt lat="49.124052" lon="10.964433">
        <ele>403</ele>
        <time>2026-10-04T12:54:56.875000Z</time>
      </trkpt>
      <trkpt lat="49.124208" lon="10.964467">
        <ele>402.4</ele>
        <time>2026-10-04T12:55:13.812000Z</time>
      </trkpt>
      <trkpt lat="49.125077" lon="10.964555">
        <ele>398.1</ele>
        <time>2026-10-04T12:56:49.604000Z</time>
      </trkpt>
      <trkpt lat="49.126222" lon="10.964783">
        <ele>391</ele>
        <time>2026-10-04T12:58:59.617000Z</time>
      </trkpt>
      <trkpt lat="49.127127" lon="10.964978">
        <ele>386.3</ele>
        <time>2026-10-04T13:00:40.618000Z</time>
      </trkpt>
      <trkpt lat="49.127196" lon="10.965049">
        <ele>385.9</ele>
        <time>2026-10-04T13:00:49.675000Z</time>
      </trkpt>
      <trkpt lat="49.126863" lon="10.965191">
        <ele>384.5</ele>
        <time>2026-10-04T13:01:27.118000Z</time>
      </trkpt>
      <trkpt lat="49.12646" lon="10.96549">
        <ele>383</ele>
        <time>2026-10-04T13:02:14.972000Z</time>
      </trkpt>
      <trkpt lat="49.125731" lon="10.965875">
        <ele>381.9</ele>
        <time>2026-10-04T13:03:34.590000Z</time>
      </trkpt>
      <trkpt lat="49.125057" lon="10.966153">
        <ele>382.1</ele>
        <time>2026-10-04T13:04:45.219000Z</time>
      </trkpt>
      <trkpt lat="49.124669" lon="10.966175">
        <ele>382.7</ele>
        <time>2026-10-04T13:05:26.478000Z</time>
      </trkpt>
      <trkpt lat="49.124546" lon="10.966137">
        <ele>383</ele>
        <time>2026-10-04T13:05:40.038000Z</time>
      </trkpt>
      <trkpt lat="49.124305" lon="10.965976">
        <ele>383.7</ele>
        <time>2026-10-04T13:06:08.822000Z</time>
      </trkpt>
      <trkpt lat="49.124088" lon="10.96573">
        <ele>384.5</ele>
        <time>2026-10-04T13:06:38.694000Z</time>
      </trkpt>
      <trkpt lat="49.123899" lon="10.965568">
        <ele>385.2</ele>
        <time>2026-10-04T13:07:02.882000Z</time>
      </trkpt>
      <trkpt lat="49.123779" lon="10.96552">
        <ele>385.6</ele>
        <time>2026-10-04T13:07:16.760000Z</time>
      </trkpt>
      <trkpt lat="49.123683" lon="10.965522">
        <ele>386</ele>
        <time>2026-10-04T13:07:27.442000Z</time>
      </trkpt>
      <trkpt lat="49.123594" lon="10.965544">
        <ele>386.2</ele>
        <time>2026-10-04T13:07:37.441000Z</time>
      </trkpt>
      <trkpt lat="49.123427" lon="10.965655">
        <ele>386.7</ele>
        <time>2026-10-04T13:07:57.458000Z</time>
      </trkpt>
      <trkpt lat="49.123091" lon="10.966011">
        <ele>387.6</ele>
        <time>2026-10-04T13:08:41.500000Z</time>
      </trkpt>
      <trkpt lat="49.12276" lon="10.966241">
        <ele>388.1</ele>
        <time>2026-10-04T13:09:19.563000Z</time>
      </trkpt>
      <trkpt lat="49.122758" lon="10.966446">
        <ele>388.2</ele>
        <time>2026-10-04T13:09:33.288000Z</time>
      </trkpt>
      <trkpt lat="49.122998" lon="10.966902">
        <ele>388.2</ele>
        <time>2026-10-04T13:10:11.639000Z</time>
      </trkpt>
      <trkpt lat="49.123332" lon="10.968058">
        <ele>386.7</ele>
        <time>2026-10-04T13:11:37.327000Z</time>
      </trkpt>
      <trkpt lat="49.123666" lon="10.969214">
        <ele>385</ele>
        <time>2026-10-04T13:13:03.618000Z</time>
      </trkpt>
      <trkpt lat="49.123747" lon="10.970055">
        <ele>384.2</ele>
        <time>2026-10-04T13:14:01.017000Z</time>
      </trkpt>
      <trkpt lat="49.123753" lon="10.970406">
        <ele>383.9</ele>
        <time>2026-10-04T13:14:24.573000Z</time>
      </trkpt>
      <trkpt lat="49.123583" lon="10.971086">
        <ele>383.9</ele>
        <time>2026-10-04T13:15:12.323000Z</time>
      </trkpt>
      <trkpt lat="49.123414" lon="10.971938">
        <ele>384.4</ele>
        <time>2026-10-04T13:16:12.334000Z</time>
      </trkpt>
      <trkpt lat="49.123262" lon="10.97193">
        <ele>384.6</ele>
        <time>2026-10-04T13:16:28.125000Z</time>
      </trkpt>
      <trkpt lat="49.123137" lon="10.97185">
        <ele>384.7</ele>
        <time>2026-10-04T13:16:42.218000Z</time>
      </trkpt>
      <trkpt lat="49.123019" lon="10.971859">
        <ele>384.8</ele>
        <time>2026-10-04T13:16:54.489000Z</time>
      </trkpt>
      <trkpt lat="49.122836" lon="10.971928">
        <ele>385.1</ele>
        <time>2026-10-04T13:17:14.170000Z</time>
      </trkpt>
      <trkpt lat="49.122708" lon="10.972017">
        <ele>385.2</ele>
        <time>2026-10-04T13:17:28.860000Z</time>
      </trkpt>
      <trkpt lat="49.122562" lon="10.971986">
        <ele>385.4</ele>
        <time>2026-10-04T13:17:44.292000Z</time>
      </trkpt>
      <trkpt lat="49.122534" lon="10.972125">
        <ele>385.5</ele>
        <time>2026-10-04T13:17:54.237000Z</time>
      </trkpt>
    </trkseg>
  </trk>
</gpx>