<?xml version="1.0" encoding="UTF-8"?>
<gpx xmlns="http://www.topografix.com/GPX/1/1" xmlns:xsi="http://www.w3.org/2001/XMLSchema-instance" xsi:schemaLocation="http://www.topografix.com/GPX/1/1 http://www.topografix.com/GPX/1/1/gpx.xsd" version="1.1" creator="Robert Kampf">
  <metadata>
    <name>Teepflanzungen Gorreana - Rundweg auf der Insel São Miguel (PRC 28 SMI)</name>
    <desc>Distance: 3.619km, Estimated duration: 0.47h, Elevation up: 165.39056385853647m, Elevation down: 165.39056385853644m, Grade: moderate</desc>
    <author>
      <name>Robert Kampf</name>
      <link href="https://www.komoot.de/user/4125295338453">
        <text>View Robert Kampf's Profile on Komoot</text>
      </link>
    </author>
    <link href="https://www.komoot.de/tour/1837925944">
      <text>View tour on Komoot</text>
    </link>
  </metadata>
  <wpt lat="37.818889" lon="-25.401891">
    <name>Parking</name>
    <cmt></cmt>
    <desc></desc>
    <src>Komoot</src>
    <type>POI</type>
  </wpt>
  <wpt lat="37.818253" lon="-25.402415">
    <ele>224</ele>
    <name>Chá Gorreana Tea Factory and Plantation</name>
    <cmt>https://d2exd72xrrp1s7.cloudfront.net/www/000/1k1/1h/1hfbon2ecoeb214iwfk3sx7spb2bpetxl8-uhi1656487/0</cmt>
    <desc>HorstAP: Die Tee-Plantage Chá Gorreana (Chá ist im Portugiesischen die Bezeichnung für Tee) liegt auf der Insel-Nordseite der Insel Sao Miguel. 
Das milde Klima der Insel mit über das ganze Jahr verteiltem Regen ohne Frost und wenig zu intensivem Sonnenschein ist ideal. Im Bereich Gorreana gibt es saure Lehmböden, Voraussetzung für duftenden Tee mit angenehmem Nachgeschmack. Quelle: Wikipedia.de
――――――――――
HorstAP: Besichtigung der Tee-Plantage Chá Gorreana (Chá ist im Portugiesischen die Bezeichnung für Tee). Diese liegt auf der Insel-Nordseite der Insel Sao Miguel. Das milde Klima der Insel mit über das ganze Jahr verteiltem Regen ohne Frost und wenig zu intensivem Sonnenschein ist ideal. Im Bereich Gorreana gibt es saure Lehmböden, Voraussetzung für duftenden Tee mit angenehmem Nachgeschmack.
Quelle: Wikipedia.de
――――――――――
Till: Tee Plantage mit Teefabrik siehe auch Wikipedia. Lokalen Tee kaufen und die Maschinen kostenlos anschauen. Laut Reiseführer kann man den Tee auch Online bestellen. 

Tea plantage with factory. You can buy here lokal tea and try some. You can also have a look at a lot of mashines for free.
――――――――――
luktob07: Die einzige Teeplantage Europas muss man einfach gesehen haben. Die Produktion kann besichtigt werden. Der hier produzierte Tee wird verkauft und kann vorher verkostet werden.
――――――――――
jpaone: Before or after taking the tour through the factory and having a cup of tea, take an easy walk through the tea fields.  Great views out to the ocean as well.
――――――――――
Logusi: Eine einfache aber schöne Tour
――――――――――
Evi: Wem es hier zu überlaufen ist, der kann die kleinere Teeplantage Porto Formoso besuchen. Da ist es deutlich familiärer und gemütlicher.
――――――――――
Frank Pankow: Bei einer kurzen Führung erhält mein ausführliche Informationen zur Tee-Herstellung. Im Shop nebenan kann man den Tee probieren!
――――――――――
Fernando Cintra: Chá Gorreana é uma grande produtora de chá, bem como uma fábrica que processa o chá e o industrializa. É possível aceder um pequeno museu com peças antigas da produção de chá açoreana, bem como comprar chá e artesanato local.
――――――――――
Andy Velo: Unbedingt einen Besuch abstatten. Es handelt sich um die letzte Teeplantage in Europa. Man kann alle alten Maschinen anschauen, die noch Heute im Einsatz sind. Ein Café gibt es auch.
――――――――――
Andy Velo: Auf jeden Fall besuchen. Man kann durch die Teeplantage (die einzige in Europa) durchwandern. Auch lohnt ein Abstecher in die Produktionsanlagen. Alles kann man sich ansehen, auch einen kleinen Shop, in dem man den Tee und andere Sachen kaufen kann.
――――――――――
☮️🕊🌍 - Stefan Z: Mein persönliches Highlight- einzigste etablierte Teeplantage und industriell genutzte Teefabrik in Europa.

Sehr eindrucksvoll wie Tee hergestellt wird, das Beste ist dass man den sehr leckeren Tee hier verköstigen kann. 
――――――――――
Mark: am Eingang zur Plantagen
――――――――――
Wolfgang: Sehr rustikal, aber ein Tip
――――――――――
jpaone: In addition to the factory tour and a cup of tea, be sure to walk through the tea fields.
――――――――――
Ferdi de Gier 🦅: Je krijgt mooi het hele proces te zien wat er aan te pas komt om de thee te verwerken
――――――――――
Jürgen: Sehr guter Tee.
――――――――――
Andy Velo: Auf jeden Fall besuchen!! Da es Europas einzige Teeplantage ist. Man kann sich im Betrieb unten in der Plantage alles ansehen. Alle alten Maschinen die nicht in Funktion sind, ein kleines Caffee dort kann man den Tee auch gleich probieren. Danach kann man die ganze Plantage zu Fuß erkunden.  Sehr empfehlenswert!!
――――――――――
Mandy F.: Auf jeden Fall empfehlenswert. Interessant und man kann eine schöne Wanderung durch die Teeplantage machen.

Das einzige was nicht so toll ist, ist die Parkplatzsituation.
――――――――――
Andy Velo: Auf jeden Fall besuchen. Man kann alles in der Fabrik besichtigen und im Anschluß im Café einen leckeren Tee trinken.
――――――――――
Alexander P.: Sehr schön.
――――――――――
Alexander P.: Hier ist es sehr schön.</desc>
    <src>Komoot</src>
    <link href="https://www.komoot.de/highlight/329376">
      <text>View POI on Komoot</text>
    </link>
    <type>Highlight</type>
  </wpt>
  <wpt lat="37.811854" lon="-25.404237">
    <ele>295.4</ele>
    <name>Tea plantage overview</name>
    <cmt>https://d2exd72xrrp1s7.cloudfront.net/www/000/1k1/15/15in674u4aakv14ovffdzb35cw2e31yhs6-uhi1863006/0</cmt>
    <desc>Andy Velo: Es handelt sich um die einzige Teeplantagen in Europa, das muss man sich anschauen. Gute Erklärungen vor Ort. Wie, warum und weshalb. Danach kann  man den Tee auch direkt probieren und in Anschluss durch die Plantagen wandern.
――――――――――
luktob07: Leider lies uns das Wetter ein wenig im Stich, aber trotzdem ist die Teeplantage sehr eindrucksvoll.
――――――――――
Till: Toller Blick über die Teefelder die heute maschinell geerntet werden.
――――――――――
jpaone: Definitely worth a walk through the fields for great views.  Grab a cup of tea afterwards.
――――――――――
Andy Velo: Schöne kleine Wanderung durch die Tee Plantagen. Inkl. Tee Verkostung und Rundgang.
――――――――――
Fernando Cintra: Bali? Vietnam? Não; Europa! Trata-se da único plantio extensivo de chá no continente europeu. Correr pelos campos de plantio de chá é uma experiência única - tanto visual quanto sensorial, pois sente-se o aroma de longe.
――――――――――
lko731: Ab km 3 könnte der Wanderweg durch eine Kuhweide unterbrochen sein. Wir sind leider umgekehrt…</desc>
    <src>Komoot</src>
    <link href="https://www.komoot.de/highlight/329378">
      <text>View POI on Komoot</text>
    </link>
    <type>Highlight</type>
  </wpt>
  <trk>
    <name>Teepflanzungen Gorreana - Rundweg auf der Insel São Miguel (PRC 28 SMI)</name>
    <desc>Distance: 3.619km, Estimated duration: 0.47h, Elevation up: 165.39056385853647m, Elevation down: 165.39056385853644m, Grade: moderate</desc>
    <link href="https://www.komoot.de/tour/1837925944">
      <text>View tour on Komoot</text>
    </link>
    <trkseg>
      <trkpt lat="37.818841" lon="-25.401906">
        <ele>208.6</ele>
        <time>2024-09-03T16:31:49.830000Z</time>
      </trkpt>
      <trkpt lat="37.818818" lon="-25.401783">
        <ele>208.7</ele>
        <time>2024-09-03T16:31:54.223000Z</time>
      </trkpt>
      <trkpt lat="37.818708" lon="-25.401722">
        <ele>209</ele>
        <time>2024-09-03T16:31:59.562000Z</time>
      </trkpt>
      <trkpt lat="37.818626" lon="-25.401828">
        <ele>209.3</ele>
        <time>2024-09-03T16:32:04.826000Z</time>
      </trkpt>
      <trkpt lat="37.818525" lon="-25.402043">
        <ele>209.7</ele>
        <time>2024-09-03T16:32:13.719000Z</time>
      </trkpt>
      <trkpt lat="37.818259" lon="-25.402089">
        <ele>210.4</ele>
        <time>2024-09-03T16:32:25.952000Z</time>
      </trkpt>
      <trkpt lat="37.81821" lon="-25.402135">
        <ele>210.6</ele>
        <time>2024-09-03T16:32:28.730000Z</time>
      </trkpt>
      <trkpt lat="37.818129" lon="-25.402412">
        <ele>211.3</ele>
        <time>2024-09-03T16:32:39.429000Z</time>
      </trkpt>
      <trkpt lat="37.818094" lon="-25.402479">
        <ele>211.5</ele>
        <time>2024-09-03T16:32:42.365000Z</time>
      </trkpt>
      <trkpt lat="37.818066" lon="-25.402486">
        <ele>211.6</ele>
        <time>2024-09-03T16:32:43.667000Z</time>
      </trkpt>
      <trkpt lat="37.81794" lon="-25.402465">
        <ele>212</ele>
        <time>2024-09-03T16:32:49.580000Z</time>
      </trkpt>
      <trkpt lat="37.817161" lon="-25.402677">
        <ele>214.8</ele>
        <time>2024-09-03T16:33:27.188000Z</time>
      </trkpt>
      <trkpt lat="37.817092" lon="-25.402717">
        <ele>215</ele>
        <time>2024-09-03T16:33:30.758000Z</time>
      </trkpt>
      <trkpt lat="37.817031" lon="-25.402746">
        <ele>215.3</ele>
        <time>2024-09-03T16:33:33.888000Z</time>
      </trkpt>
      <trkpt lat="37.816868" lon="-25.402412">
        <ele>216.4</ele>
        <time>2024-09-03T16:33:51.078000Z</time>
      </trkpt>
      <trkpt lat="37.816553" lon="-25.401921">
        <ele>218.6</ele>
        <time>2024-09-03T16:34:19.944000Z</time>
      </trkpt>
      <trkpt lat="37.816443" lon="-25.401801">
        <ele>219.3</ele>
        <time>2024-09-03T16:34:28.633000Z</time>
      </trkpt>
      <trkpt lat="37.816274" lon="-25.401658">
        <ele>220.4</ele>
        <time>2024-09-03T16:34:40.959000Z</time>
      </trkpt>
      <trkpt lat="37.816015" lon="-25.401518">
        <ele>222</ele>
        <time>2024-09-03T16:34:58.180000Z</time>
      </trkpt>
      <trkpt lat="37.815948" lon="-25.401505">
        <ele>222.4</ele>
        <time>2024-09-03T16:35:02.408000Z</time>
      </trkpt>
      <trkpt lat="37.815829" lon="-25.401547">
        <ele>223.1</ele>
        <time>2024-09-03T16:35:09.863000Z</time>
      </trkpt>
      <trkpt lat="37.81573" lon="-25.401729">
        <ele>224</ele>
        <time>2024-09-03T16:35:18.731000Z</time>
      </trkpt>
      <trkpt lat="37.815548" lon="-25.401785">
        <ele>225</ele>
        <time>2024-09-03T16:35:28.361000Z</time>
      </trkpt>
      <trkpt lat="37.814908" lon="-25.401708">
        <ele>229</ele>
        <time>2024-09-03T16:36:02.693000Z</time>
      </trkpt>
      <trkpt lat="37.814855" lon="-25.401769">
        <ele>229.6</ele>
        <time>2024-09-03T16:36:06.812000Z</time>
      </trkpt>
      <trkpt lat="37.814829" lon="-25.401904">
        <ele>230.4</ele>
        <time>2024-09-03T16:36:13.087000Z</time>
      </trkpt>
      <trkpt lat="37.814836" lon="-25.402046">
        <ele>231.4</ele>
        <time>2024-09-03T16:36:19.845000Z</time>
      </trkpt>
      <trkpt lat="37.814868" lon="-25.402183">
        <ele>232.4</ele>
        <time>2024-09-03T16:36:26.807000Z</time>
      </trkpt>
      <trkpt lat="37.815004" lon="-25.402759">
        <ele>237.1</ele>
        <time>2024-09-03T16:36:57.553000Z</time>
      </trkpt>
      <trkpt lat="37.815" lon="-25.402863">
        <ele>238</ele>
        <time>2024-09-03T16:37:03.362000Z</time>
      </trkpt>
      <trkpt lat="37.814948" lon="-25.402954">
        <ele>239.1</ele>
        <time>2024-09-03T16:37:09.811000Z</time>
      </trkpt>
      <trkpt lat="37.814503" lon="-25.402924">
        <ele>245</ele>
        <time>2024-09-03T16:37:43.087000Z</time>
      </trkpt>
      <trkpt lat="37.813727" lon="-25.4031">
        <ele>256.4</ele>
        <time>2024-09-03T16:38:44.812000Z</time>
      </trkpt>
      <trkpt lat="37.81355" lon="-25.402992">
        <ele>259.2</ele>
        <time>2024-09-03T16:39:00.089000Z</time>
      </trkpt>
      <trkpt lat="37.813227" lon="-25.402716">
        <ele>264.4</ele>
        <time>2024-09-03T16:39:29.524000Z</time>
      </trkpt>
      <trkpt lat="37.813114" lon="-25.40259">
        <ele>266.3</ele>
        <time>2024-09-03T16:39:40.444000Z</time>
      </trkpt>
      <trkpt lat="37.812838" lon="-25.402439">
        <ele>269.5</ele>
        <time>2024-09-03T16:40:01.156000Z</time>
      </trkpt>
      <trkpt lat="37.812806" lon="-25.402396">
        <ele>270</ele>
        <time>2024-09-03T16:40:04.189000Z</time>
      </trkpt>
      <trkpt lat="37.812798" lon="-25.402334">
        <ele>270.5</ele>
        <time>2024-09-03T16:40:07.385000Z</time>
      </trkpt>
      <trkpt lat="37.812844" lon="-25.402235">
        <ele>271.4</ele>
        <time>2024-09-03T16:40:13.250000Z</time>
      </trkpt>
      <trkpt lat="37.81313" lon="-25.402025">
        <ele>274.4</ele>
        <time>2024-09-03T16:40:33.792000Z</time>
      </trkpt>
      <trkpt lat="37.813175" lon="-25.402012">
        <ele>274.8</ele>
        <time>2024-09-03T16:40:36.556000Z</time>
      </trkpt>
      <trkpt lat="37.813364" lon="-25.402053">
        <ele>276.4</ele>
        <time>2024-09-03T16:40:48.094000Z</time>
      </trkpt>
      <trkpt lat="37.813456" lon="-25.401942">
        <ele>277.5</ele>
        <time>2024-09-03T16:40:55.575000Z</time>
      </trkpt>
      <trkpt lat="37.813527" lon="-25.401597">
        <ele>279.6</ele>
        <time>2024-09-03T16:41:11.600000Z</time>
      </trkpt>
      <trkpt lat="37.8134" lon="-25.401425">
        <ele>280.9</ele>
        <time>2024-09-03T16:41:21.864000Z</time>
      </trkpt>
      <trkpt lat="37.813352" lon="-25.40119">
        <ele>282.3</ele>
        <time>2024-09-03T16:41:32.768000Z</time>
      </trkpt>
      <trkpt lat="37.813387" lon="-25.400974">
        <ele>283.6</ele>
        <time>2024-09-03T16:41:42.642000Z</time>
      </trkpt>
      <trkpt lat="37.8135" lon="-25.400684">
        <ele>285.8</ele>
        <time>2024-09-03T16:41:57.984000Z</time>
      </trkpt>
      <trkpt lat="37.813492" lon="-25.400617">
        <ele>286.3</ele>
        <time>2024-09-03T16:42:01.237000Z</time>
      </trkpt>
      <trkpt lat="37.813437" lon="-25.400565">
        <ele>286.9</ele>
        <time>2024-09-03T16:42:05.656000Z</time>
      </trkpt>
      <trkpt lat="37.813324" lon="-25.400549">
        <ele>288.1</ele>
        <time>2024-09-03T16:42:13.070000Z</time>
      </trkpt>
      <trkpt lat="37.812793" lon="-25.400671">
        <ele>294.4</ele>
        <time>2024-09-03T16:42:51.585000Z</time>
      </trkpt>
      <trkpt lat="37.81268" lon="-25.400663">
        <ele>296</ele>
        <time>2024-09-03T16:43:00.305000Z</time>
      </trkpt>
      <trkpt lat="37.812552" lon="-25.400577">
        <ele>298</ele>
        <time>2024-09-03T16:43:11.484000Z</time>
      </trkpt>
      <trkpt lat="37.812372" lon="-25.400378">
        <ele>301.6</ele>
        <time>2024-09-03T16:43:30.561000Z</time>
      </trkpt>
      <trkpt lat="37.812053" lon="-25.400351">
        <ele>306.6</ele>
        <time>2024-09-03T16:43:56.457000Z</time>
      </trkpt>
      <trkpt lat="37.811868" lon="-25.400251">
        <ele>309.7</ele>
        <time>2024-09-03T16:44:12.843000Z</time>
      </trkpt>
      <trkpt lat="37.811453" lon="-25.399678">
        <ele>319.1</ele>
        <time>2024-09-03T16:45:02.429000Z</time>
      </trkpt>
      <trkpt lat="37.811322" lon="-25.399577">
        <ele>321.3</ele>
        <time>2024-09-03T16:45:14.513000Z</time>
      </trkpt>
      <trkpt lat="37.811074" lon="-25.39948">
        <ele>324.9</ele>
        <time>2024-09-03T16:45:34.423000Z</time>
      </trkpt>
      <trkpt lat="37.810773" lon="-25.399552">
        <ele>328.7</ele>
        <time>2024-09-03T16:45:56.591000Z</time>
      </trkpt>
      <trkpt lat="37.810723" lon="-25.399496">
        <ele>329.4</ele>
        <time>2024-09-03T16:46:01.176000Z</time>
      </trkpt>
      <trkpt lat="37.810723" lon="-25.399413">
        <ele>330.2</ele>
        <time>2024-09-03T16:46:05.790000Z</time>
      </trkpt>
      <trkpt lat="37.810851" lon="-25.399226">
        <ele>332</ele>
        <time>2024-09-03T16:46:18.277000Z</time>
      </trkpt>
      <trkpt lat="37.810841" lon="-25.399137">
        <ele>332.8</ele>
        <time>2024-09-03T16:46:23.067000Z</time>
      </trkpt>
      <trkpt lat="37.810372" lon="-25.398375">
        <ele>340.5</ele>
        <time>2024-09-03T16:47:13.034000Z</time>
      </trkpt>
      <trkpt lat="37.81034" lon="-25.398346">
        <ele>340.9</ele>
        <time>2024-09-03T16:47:15.821000Z</time>
      </trkpt>
      <trkpt lat="37.810293" lon="-25.39836">
        <ele>341.5</ele>
        <time>2024-09-03T16:47:19.214000Z</time>
      </trkpt>
      <trkpt lat="37.810284" lon="-25.398424">
        <ele>341.9</ele>
        <time>2024-09-03T16:47:22.403000Z</time>
      </trkpt>
      <trkpt lat="37.81046" lon="-25.398917">
        <ele>346.4</ele>
        <time>2024-09-03T16:47:51.086000Z</time>
      </trkpt>
      <trkpt lat="37.810468" lon="-25.39899">
        <ele>347.1</ele>
        <time>2024-09-03T16:47:55.129000Z</time>
      </trkpt>
      <trkpt lat="37.81044" lon="-25.399083">
        <ele>347.9</ele>
        <time>2024-09-03T16:48:00.641000Z</time>
      </trkpt>
      <trkpt lat="37.810233" lon="-25.399192">
        <ele>350.2</ele>
        <time>2024-09-03T16:48:15.492000Z</time>
      </trkpt>
      <trkpt lat="37.80992" lon="-25.399217">
        <ele>353.2</ele>
        <time>2024-09-03T16:48:35.066000Z</time>
      </trkpt>
      <trkpt lat="37.809679" lon="-25.39919">
        <ele>354.9</ele>
        <time>2024-09-03T16:48:48.737000Z</time>
      </trkpt>
      <trkpt lat="37.80957" lon="-25.399152">
        <ele>355.5</ele>
        <time>2024-09-03T16:48:54.480000Z</time>
      </trkpt>
      <trkpt lat="37.809421" lon="-25.399194">
        <ele>356.4</ele>
        <time>2024-09-03T16:49:02.398000Z</time>
      </trkpt>
      <trkpt lat="37.809232" lon="-25.399349">
        <ele>357.8</ele>
        <time>2024-09-03T16:49:14.482000Z</time>
      </trkpt>
      <trkpt lat="37.8092" lon="-25.39937">
        <ele>358</ele>
        <time>2024-09-03T16:49:16.368000Z</time>
      </trkpt>
      <trkpt lat="37.808875" lon="-25.39958">
        <ele>361.1</ele>
        <time>2024-09-03T16:49:38.258000Z</time>
      </trkpt>
      <trkpt lat="37.80884" lon="-25.399641">
        <ele>361.6</ele>
        <time>2024-09-03T16:49:41.883000Z</time>
      </trkpt>
      <trkpt lat="37.80886" lon="-25.399759">
        <ele>362.6</ele>
        <time>2024-09-03T16:49:48.081000Z</time>
      </trkpt>
      <trkpt lat="37.808899" lon="-25.399785">
        <ele>363</ele>
        <time>2024-09-03T16:49:50.898000Z</time>
      </trkpt>
      <trkpt lat="37.809043" lon="-25.399772">
        <ele>364.3</ele>
        <time>2024-09-03T16:49:59.596000Z</time>
      </trkpt>
      <trkpt lat="37.809112" lon="-25.399798">
        <ele>364.9</ele>
        <time>2024-09-03T16:50:03.879000Z</time>
      </trkpt>
      <trkpt lat="37.809211" lon="-25.400037">
        <ele>366.8</ele>
        <time>2024-09-03T16:50:17.095000Z</time>
      </trkpt>
      <trkpt lat="37.809233" lon="-25.400164">
        <ele>367.6</ele>
        <time>2024-09-03T16:50:23.048000Z</time>
      </trkpt>
      <trkpt lat="37.809196" lon="-25.400403">
        <ele>369.3</ele>
        <time>2024-09-03T16:50:34.884000Z</time>
      </trkpt>
      <trkpt lat="37.809102" lon="-25.400562">
        <ele>370.3</ele>
        <time>2024-09-03T16:50:43.358000Z</time>
      </trkpt>
      <trkpt lat="37.809069" lon="-25.400678">
        <ele>371</ele>
        <time>2024-09-03T16:50:48.733000Z</time>
      </trkpt>
      <trkpt lat="37.809046" lon="-25.401136">
        <ele>372.8</ele>
        <time>2024-09-03T16:51:07.030000Z</time>
      </trkpt>
      <trkpt lat="37.809036" lon="-25.401225">
        <ele>373.2</ele>
        <time>2024-09-03T16:51:10.504000Z</time>
      </trkpt>
      <trkpt lat="37.809005" lon="-25.401278">
        <ele>373.3</ele>
        <time>2024-09-03T16:51:12.938000Z</time>
      </trkpt>
      <trkpt lat="37.808964" lon="-25.401313">
        <ele>373.4</ele>
        <time>2024-09-03T16:51:15.103000Z</time>
      </trkpt>
      <trkpt lat="37.808886" lon="-25.401317">
        <ele>373.5</ele>
        <time>2024-09-03T16:51:18.397000Z</time>
      </trkpt>
      <trkpt lat="37.808666" lon="-25.401273">
        <ele>373.7</ele>
        <time>2024-09-03T16:51:27.998000Z</time>
      </trkpt>
      <trkpt lat="37.808586" lon="-25.401283">
        <ele>373.8</ele>
        <time>2024-09-03T16:51:31.442000Z</time>
      </trkpt>
      <trkpt lat="37.808526" lon="-25.401328">
        <ele>373.8</ele>
        <time>2024-09-03T16:51:34.289000Z</time>
      </trkpt>
      <trkpt lat="37.808491" lon="-25.4014">
        <ele>373.8</ele>
        <time>2024-09-03T16:51:37.019000Z</time>
      </trkpt>
      <trkpt lat="37.808493" lon="-25.401592">
        <ele>373.9</ele>
        <time>2024-09-03T16:51:43.447000Z</time>
      </trkpt>
      <trkpt lat="37.808667" lon="-25.401843">
        <ele>373.5</ele>
        <time>2024-09-03T16:51:53.789000Z</time>
      </trkpt>
      <trkpt lat="37.80874" lon="-25.402085">
        <ele>372.8</ele>
        <time>2024-09-03T16:52:01.537000Z</time>
      </trkpt>
      <trkpt lat="37.808865" lon="-25.402154">
        <ele>371.8</ele>
        <time>2024-09-03T16:52:07.181000Z</time>
      </trkpt>
      <trkpt lat="37.809121" lon="-25.402491">
        <ele>368.5</ele>
        <time>2024-09-03T16:52:21.844000Z</time>
      </trkpt>
      <trkpt lat="37.809592" lon="-25.402627">
        <ele>362.6</ele>
        <time>2024-09-03T16:52:40.179000Z</time>
      </trkpt>
      <trkpt lat="37.809698" lon="-25.402706">
        <ele>360.6</ele>
        <time>2024-09-03T16:52:44.844000Z</time>
      </trkpt>
      <trkpt lat="37.809781" lon="-25.402834">
        <ele>358.5</ele>
        <time>2024-09-03T16:52:49.760000Z</time>
      </trkpt>
      <trkpt lat="37.809796" lon="-25.402981">
        <ele>356.5</ele>
        <time>2024-09-03T16:52:54.159000Z</time>
      </trkpt>
      <trkpt lat="37.81054" lon="-25.403298">
        <ele>341.1</ele>
        <time>2024-09-03T16:53:23.462000Z</time>
      </trkpt>
      <trkpt lat="37.810471" lon="-25.40365">
        <ele>335.4</ele>
        <time>2024-09-03T16:53:34.148000Z</time>
      </trkpt>
      <trkpt lat="37.810469" lon="-25.40377">
        <ele>333.3</ele>
        <time>2024-09-03T16:53:37.685000Z</time>
      </trkpt>
      <trkpt lat="37.810498" lon="-25.403854">
        <ele>331.9</ele>
        <time>2024-09-03T16:53:40.388000Z</time>
      </trkpt>
      <trkpt lat="37.810769" lon="-25.403979">
        <ele>326</ele>
        <time>2024-09-03T16:53:51.163000Z</time>
      </trkpt>
      <trkpt lat="37.811104" lon="-25.404256">
        <ele>317.9</ele>
        <time>2024-09-03T16:54:06.091000Z</time>
      </trkpt>
      <trkpt lat="37.81178" lon="-25.404221">
        <ele>304.5</ele>
        <time>2024-09-03T16:54:31.368000Z</time>
      </trkpt>
      <trkpt lat="37.811919" lon="-25.404214">
        <ele>301.6</ele>
        <time>2024-09-03T16:54:36.535000Z</time>
      </trkpt>
      <trkpt lat="37.811968" lon="-25.404274">
        <ele>300.2</ele>
        <time>2024-09-03T16:54:39.086000Z</time>
      </trkpt>
      <trkpt lat="37.812027" lon="-25.404485">
        <ele>296.6</ele>
        <time>2024-09-03T16:54:45.689000Z</time>
      </trkpt>
      <trkpt lat="37.812085" lon="-25.404503">
        <ele>295.4</ele>
        <time>2024-09-03T16:54:47.924000Z</time>
      </trkpt>
      <trkpt lat="37.812903" lon="-25.404455">
        <ele>280</ele>
        <time>2024-09-03T16:55:18.569000Z</time>
      </trkpt>
      <trkpt lat="37.812961" lon="-25.404439">
        <ele>279</ele>
        <time>2024-09-03T16:55:20.764000Z</time>
      </trkpt>
      <trkpt lat="37.813089" lon="-25.40433">
        <ele>276.4</ele>
        <time>2024-09-03T16:55:26.557000Z</time>
      </trkpt>
      <trkpt lat="37.813155" lon="-25.404314">
        <ele>275.2</ele>
        <time>2024-09-03T16:55:29.069000Z</time>
      </trkpt>
      <trkpt lat="37.813831" lon="-25.404475">
        <ele>264.2</ele>
        <time>2024-09-03T16:55:54.986000Z</time>
      </trkpt>
      <trkpt lat="37.813899" lon="-25.404553">
        <ele>262.8</ele>
        <time>2024-09-03T16:55:58.436000Z</time>
      </trkpt>
      <trkpt lat="37.813923" lon="-25.404624">
        <ele>261.9</ele>
        <time>2024-09-03T16:56:00.729000Z</time>
      </trkpt>
      <trkpt lat="37.813968" lon="-25.404644">
        <ele>261.2</ele>
        <time>2024-09-03T16:56:02.543000Z</time>
      </trkpt>
      <trkpt lat="37.814366" lon="-25.40445">
        <ele>255</ele>
        <time>2024-09-03T16:56:18.670000Z</time>
      </trkpt>
      <trkpt lat="37.814443" lon="-25.404381">
        <ele>253.7</ele>
        <time>2024-09-03T16:56:22.213000Z</time>
      </trkpt>
      <trkpt lat="37.814454" lon="-25.404332">
        <ele>253.2</ele>
        <time>2024-09-03T16:56:23.756000Z</time>
      </trkpt>
      <trkpt lat="37.814351" lon="-25.403496">
        <ele>244.4</ele>
        <time>2024-09-03T16:56:49.061000Z</time>
      </trkpt>
      <trkpt lat="37.814363" lon="-25.403449">
        <ele>243.9</ele>
        <time>2024-09-03T16:56:50.549000Z</time>
      </trkpt>
      <trkpt lat="37.815287" lon="-25.403298">
        <ele>233.1</ele>
        <time>2024-09-03T16:57:25.956000Z</time>
      </trkpt>
      <trkpt lat="37.815365" lon="-25.403254">
        <ele>232.2</ele>
        <time>2024-09-03T16:57:29.226000Z</time>
      </trkpt>
      <trkpt lat="37.815409" lon="-25.403163">
        <ele>231.2</ele>
        <time>2024-09-03T16:57:32.431000Z</time>
      </trkpt>
      <trkpt lat="37.817031" lon="-25.402746">
        <ele>217.5</ele>
        <time>2024-09-03T16:58:38.956000Z</time>
      </trkpt>
      <trkpt lat="37.817092" lon="-25.402717">
        <ele>217.1</ele>
        <time>2024-09-03T16:58:41.280000Z</time>
      </trkpt>
      <trkpt lat="37.817161" lon="-25.402677">
        <ele>216.7</ele>
        <time>2024-09-03T16:58:44.016000Z</time>
      </trkpt>
      <trkpt lat="37.81794" lon="-25.402465">
        <ele>212.4</ele>
        <time>2024-09-03T16:59:12.919000Z</time>
      </trkpt>
      <trkpt lat="37.818066" lon="-25.402486">
        <ele>211.8</ele>
        <time>2024-09-03T16:59:17.641000Z</time>
      </trkpt>
      <trkpt lat="37.818094" lon="-25.402479">
        <ele>211.7</ele>
        <time>2024-09-03T16:59:18.683000Z</time>
      </trkpt>
      <trkpt lat="37.818129" lon="-25.402412">
        <ele>211.5</ele>
        <time>2024-09-03T16:59:21.061000Z</time>
      </trkpt>
      <trkpt lat="37.81821" lon="-25.402135">
        <ele>210.7</ele>
        <time>2024-09-03T16:59:29.894000Z</time>
      </trkpt>
      <trkpt lat="37.818259" lon="-25.402089">
        <ele>210.4</ele>
        <time>2024-09-03T16:59:32.171000Z</time>
      </trkpt>
      <trkpt lat="37.818525" lon="-25.402043">
        <ele>209.7</ele>
        <time>2024-09-03T16:59:42.542000Z</time>
      </trkpt>
      <trkpt lat="37.818626" lon="-25.401828">
        <ele>209.3</ele>
        <time>2024-09-03T16:59:50.214000Z</time>
      </trkpt>
      <trkpt lat="37.818708" lon="-25.401722">
        <ele>209</ele>
        <time>2024-09-03T16:59:54.758000Z</time>
      </trkpt>
      <trkpt lat="37.818818" lon="-25.401783">
        <ele>208.7</ele>
        <time>2024-09-03T16:59:59.419000Z</time>
      </trkpt>
      <trkpt lat="37.818841" lon="-25.401906">
        <ele>208.6</ele>
        <time>2024-09-03T17:00:03.332000Z</time>
      </trkpt>
    </trkseg>
  </trk>
</gpx>