<?xml version="1.0" encoding="UTF-8"?>
<gpx xmlns="http://www.topografix.com/GPX/1/1" xmlns:xsi="http://www.w3.org/2001/XMLSchema-instance" xsi:schemaLocation="http://www.topografix.com/GPX/1/1 http://www.topografix.com/GPX/1/1/gpx.xsd" version="1.1" creator="Robert Kampf">
  <metadata>
    <name>Vinchio Weinland-Trail (über Route 203)</name>
    <desc>Distance: 12.249km, Estimated duration: 3.39h, Elevation up: 213.04355280101268m, Elevation down: 213.10142485757544m, Grade: moderate</desc>
    <author>
      <name>Robert Kampf</name>
      <link href="https://www.komoot.de/user/4125295338453">
        <text>View Robert Kampf's Profile on Komoot</text>
      </link>
    </author>
    <link href="https://www.komoot.de/tour/2860984070">
      <text>View tour on Komoot</text>
    </link>
  </metadata>
  <wpt lat="44.828318" lon="8.35566">
    <name>Parking</name>
    <cmt></cmt>
    <desc></desc>
    <src>Komoot</src>
    <type>POI</type>
  </wpt>
  <wpt lat="44.811041" lon="8.337506">
    <ele>316.8</ele>
    <name>Casotto di Ulisse – Davide Lajolo Partisan Hut</name>
    <cmt>https://d2exd72xrrp1s7.cloudfront.net/www/000/1k7/ih/ih4m84ncopvn1hceocby5mntd4k9kj4d7-uhi59584855/0</cmt>
    <desc>LUTZE: Kleine Hütte für Werkzeuge in der Nähe von Vinchio, wo der Dichter Davide Lajolo (1912-1984) im Juni 1944 erstmals eine Gruppe von Partisanen um sich versammelt hatte, nachdem er sich vom Faschismus losgesagt hatte.</desc>
    <src>Komoot</src>
    <link href="https://www.komoot.de/highlight/5651350">
      <text>View POI on Komoot</text>
    </link>
    <type>Highlight</type>
  </wpt>
  <wpt lat="44.810361" lon="8.336055">
    <ele>313</ele>
    <name>Big Bench Vinchio</name>
    <cmt>https://d2exd72xrrp1s7.cloudfront.net/www/000/1k6/k1/k1d4luqtf8vyysj1qorn9p7v46mb1tc0-uhi50041181/0</cmt>
    <desc>Il Regaz: Posizione dominante tra Vinchio e Cortiglione
――――――――――
Sabrina immer mit 🐕Erox unterwegs🤗: Eine super Aussichtsbank :-)
――――――――――
claudio pasero: il posto effettivamente è spettacolare; sulla mania di piazzare questi oggetti stendiamo un pietoso velo</desc>
    <src>Komoot</src>
    <link href="https://www.komoot.de/highlight/2831018">
      <text>View POI on Komoot</text>
    </link>
    <type>Highlight</type>
  </wpt>
  <wpt lat="44.810144" lon="8.334804">
    <ele>236.8</ele>
    <name>Beautiful open walk, vineyards , forest, villages</name>
    <cmt>https://d2exd72xrrp1s7.cloudfront.net/www/000/1k7/vr/vrl2r2ty20fs9smbei4dzsat4nzykkjt-uhi63330839/0</cmt>
    <desc>Erik53: Wandeling in de Val Sarmassa, Valtiglione , deel van D’Langhe.
Klein natuurgebied waar wijn, hazelnoot en populier verbouwd worden.
Wandeling over asfalt ( rustige/stille wegen en landbouwpaden. En als je wil, koop je na afloop wijn bij de locale coöperatie van Vincchio


</desc>
    <src>Komoot</src>
    <link href="https://www.komoot.de/highlight/3775205">
      <text>View POI on Komoot</text>
    </link>
    <type>Highlight</type>
  </wpt>
  <wpt lat="44.81295" lon="8.33941">
    <ele>246.1</ele>
    <name>Val Sermassa</name>
    <cmt>https://d2exd72xrrp1s7.cloudfront.net/www/000/1k7/al/al9h75qvkfyu1xdzq69yqwa5d4gpg3klo-uhi57487129/0</cmt>
    <desc></desc>
    <src>Komoot</src>
    <link href="https://www.komoot.de/highlight/5423202">
      <text>View POI on Komoot</text>
    </link>
    <type>Highlight</type>
  </wpt>
  <wpt lat="44.831585" lon="8.327048">
    <ele>190.3</ele>
    <name>Casot Barbera</name>
    <cmt>https://d2exd72xrrp1s7.cloudfront.net/www/000/1k9/u8/u8333lyasgtc97hqdbjsbei75eiq08ja-uhi88062117/0</cmt>
    <desc></desc>
    <src>Komoot</src>
    <link href="https://www.komoot.de/highlight/7544759">
      <text>View POI on Komoot</text>
    </link>
    <type>Highlight</type>
  </wpt>
  <trk>
    <name>Vinchio Weinland-Trail (über Route 203)</name>
    <desc>Distance: 12.249km, Estimated duration: 3.39h, Elevation up: 213.04355280101268m, Elevation down: 213.10142485757544m, Grade: moderate</desc>
    <link href="https://www.komoot.de/tour/2860984070">
      <text>View tour on Komoot</text>
    </link>
    <trkseg>
      <trkpt lat="44.828475" lon="8.356168">
        <ele>129.6</ele>
        <time>2026-04-03T17:05:47.823000Z</time>
      </trkpt>
      <trkpt lat="44.827608" lon="8.356699">
        <ele>133.3</ele>
        <time>2026-04-03T17:05:47.823000Z</time>
      </trkpt>
      <trkpt lat="44.827504" lon="8.356764">
        <ele>134</ele>
        <time>2026-04-03T17:05:47.823000Z</time>
      </trkpt>
      <trkpt lat="44.826709" lon="8.357264">
        <ele>140</ele>
        <time>2026-04-03T17:05:47.823000Z</time>
      </trkpt>
      <trkpt lat="44.826337" lon="8.357325">
        <ele>142.7</ele>
        <time>2026-04-03T17:05:47.823000Z</time>
      </trkpt>
      <trkpt lat="44.826096" lon="8.357313">
        <ele>144.3</ele>
        <time>2026-04-03T17:05:47.823000Z</time>
      </trkpt>
      <trkpt lat="44.825991" lon="8.357252">
        <ele>145</ele>
        <time>2026-04-03T17:05:47.823000Z</time>
      </trkpt>
      <trkpt lat="44.825232" lon="8.356897">
        <ele>150.1</ele>
        <time>2026-04-03T17:05:47.823000Z</time>
      </trkpt>
      <trkpt lat="44.825149" lon="8.356871">
        <ele>150.6</ele>
        <time>2026-04-03T17:05:47.823000Z</time>
      </trkpt>
      <trkpt lat="44.825088" lon="8.356891">
        <ele>151.1</ele>
        <time>2026-04-03T17:05:47.823000Z</time>
      </trkpt>
      <trkpt lat="44.825045" lon="8.356952">
        <ele>151.5</ele>
        <time>2026-04-03T17:05:47.823000Z</time>
      </trkpt>
      <trkpt lat="44.82503" lon="8.357029">
        <ele>151.9</ele>
        <time>2026-04-03T17:05:47.823000Z</time>
      </trkpt>
      <trkpt lat="44.825052" lon="8.357135">
        <ele>152.4</ele>
        <time>2026-04-03T17:05:47.823000Z</time>
      </trkpt>
      <trkpt lat="44.825387" lon="8.357561">
        <ele>155.9</ele>
        <time>2026-04-03T17:05:47.823000Z</time>
      </trkpt>
      <trkpt lat="44.825442" lon="8.357666">
        <ele>156.7</ele>
        <time>2026-04-03T17:05:47.823000Z</time>
      </trkpt>
      <trkpt lat="44.825452" lon="8.357767">
        <ele>157.3</ele>
        <time>2026-04-03T17:05:47.823000Z</time>
      </trkpt>
      <trkpt lat="44.825436" lon="8.357822">
        <ele>157.7</ele>
        <time>2026-04-03T17:05:47.823000Z</time>
      </trkpt>
      <trkpt lat="44.825336" lon="8.357879">
        <ele>158.6</ele>
        <time>2026-04-03T17:05:47.823000Z</time>
      </trkpt>
      <trkpt lat="44.825066" lon="8.357856">
        <ele>161.1</ele>
        <time>2026-04-03T17:05:47.823000Z</time>
      </trkpt>
      <trkpt lat="44.823795" lon="8.357536">
        <ele>173.6</ele>
        <time>2026-04-03T17:05:47.823000Z</time>
      </trkpt>
      <trkpt lat="44.823579" lon="8.357521">
        <ele>175.7</ele>
        <time>2026-04-03T17:05:47.823000Z</time>
      </trkpt>
      <trkpt lat="44.823335" lon="8.357551">
        <ele>178.2</ele>
        <time>2026-04-03T17:05:47.823000Z</time>
      </trkpt>
      <trkpt lat="44.82271" lon="8.357704">
        <ele>184.5</ele>
        <time>2026-04-03T17:05:47.823000Z</time>
      </trkpt>
      <trkpt lat="44.822193" lon="8.357632">
        <ele>188.5</ele>
        <time>2026-04-03T17:05:47.823000Z</time>
      </trkpt>
      <trkpt lat="44.82201" lon="8.357551">
        <ele>189.6</ele>
        <time>2026-04-03T17:05:47.823000Z</time>
      </trkpt>
      <trkpt lat="44.821916" lon="8.35745">
        <ele>190.3</ele>
        <time>2026-04-03T17:05:47.823000Z</time>
      </trkpt>
      <trkpt lat="44.821848" lon="8.357333">
        <ele>190.9</ele>
        <time>2026-04-03T17:05:47.823000Z</time>
      </trkpt>
      <trkpt lat="44.821826" lon="8.357206">
        <ele>191.4</ele>
        <time>2026-04-03T17:05:47.823000Z</time>
      </trkpt>
      <trkpt lat="44.821819" lon="8.357049">
        <ele>192</ele>
        <time>2026-04-03T17:05:47.823000Z</time>
      </trkpt>
      <trkpt lat="44.82201" lon="8.356242">
        <ele>194.3</ele>
        <time>2026-04-03T17:05:47.823000Z</time>
      </trkpt>
      <trkpt lat="44.822028" lon="8.356084">
        <ele>194.6</ele>
        <time>2026-04-03T17:05:47.823000Z</time>
      </trkpt>
      <trkpt lat="44.821985" lon="8.355983">
        <ele>194.8</ele>
        <time>2026-04-03T17:05:47.823000Z</time>
      </trkpt>
      <trkpt lat="44.821913" lon="8.355942">
        <ele>194.9</ele>
        <time>2026-04-03T17:05:47.823000Z</time>
      </trkpt>
      <trkpt lat="44.821833" lon="8.355973">
        <ele>195</ele>
        <time>2026-04-03T17:05:47.823000Z</time>
      </trkpt>
      <trkpt lat="44.821272" lon="8.356924">
        <ele>195.4</ele>
        <time>2026-04-03T17:05:47.823000Z</time>
      </trkpt>
      <trkpt lat="44.821137" lon="8.356993">
        <ele>195.5</ele>
        <time>2026-04-03T17:05:47.823000Z</time>
      </trkpt>
      <trkpt lat="44.820852" lon="8.357035">
        <ele>195.4</ele>
        <time>2026-04-03T17:05:47.823000Z</time>
      </trkpt>
      <trkpt lat="44.820884" lon="8.356208">
        <ele>195.5</ele>
        <time>2026-04-03T17:05:47.823000Z</time>
      </trkpt>
      <trkpt lat="44.821096" lon="8.355525">
        <ele>196.4</ele>
        <time>2026-04-03T17:05:47.823000Z</time>
      </trkpt>
      <trkpt lat="44.821151" lon="8.355186">
        <ele>197.3</ele>
        <time>2026-04-03T17:05:47.823000Z</time>
      </trkpt>
      <trkpt lat="44.821162" lon="8.354786">
        <ele>198.4</ele>
        <time>2026-04-03T17:05:47.823000Z</time>
      </trkpt>
      <trkpt lat="44.821044" lon="8.353796">
        <ele>201.4</ele>
        <time>2026-04-03T17:05:47.823000Z</time>
      </trkpt>
      <trkpt lat="44.821056" lon="8.353088">
        <ele>203.5</ele>
        <time>2026-04-03T17:05:47.823000Z</time>
      </trkpt>
      <trkpt lat="44.820926" lon="8.352393">
        <ele>205.6</ele>
        <time>2026-04-03T17:05:47.823000Z</time>
      </trkpt>
      <trkpt lat="44.820841" lon="8.351661">
        <ele>207.7</ele>
        <time>2026-04-03T17:05:47.823000Z</time>
      </trkpt>
      <trkpt lat="44.820734" lon="8.351187">
        <ele>209.2</ele>
        <time>2026-04-03T17:05:47.823000Z</time>
      </trkpt>
      <trkpt lat="44.82065" lon="8.350956">
        <ele>209.9</ele>
        <time>2026-04-03T17:05:47.823000Z</time>
      </trkpt>
      <trkpt lat="44.820519" lon="8.350714">
        <ele>210.8</ele>
        <time>2026-04-03T17:05:47.823000Z</time>
      </trkpt>
      <trkpt lat="44.819979" lon="8.350022">
        <ele>214</ele>
        <time>2026-04-03T17:05:47.823000Z</time>
      </trkpt>
      <trkpt lat="44.819908" lon="8.349899">
        <ele>214.4</ele>
        <time>2026-04-03T17:05:47.823000Z</time>
      </trkpt>
      <trkpt lat="44.819859" lon="8.349735">
        <ele>214.8</ele>
        <time>2026-04-03T17:05:47.823000Z</time>
      </trkpt>
      <trkpt lat="44.819771" lon="8.348899">
        <ele>216.2</ele>
        <time>2026-04-03T17:05:47.823000Z</time>
      </trkpt>
      <trkpt lat="44.819653" lon="8.348204">
        <ele>216.3</ele>
        <time>2026-04-03T17:05:47.823000Z</time>
      </trkpt>
      <trkpt lat="44.81961" lon="8.348067">
        <ele>216.2</ele>
        <time>2026-04-03T17:05:47.823000Z</time>
      </trkpt>
      <trkpt lat="44.819018" lon="8.346823">
        <ele>212.6</ele>
        <time>2026-04-03T17:05:47.823000Z</time>
      </trkpt>
      <trkpt lat="44.818944" lon="8.346723">
        <ele>212.2</ele>
        <time>2026-04-03T17:05:47.823000Z</time>
      </trkpt>
      <trkpt lat="44.818578" lon="8.346458">
        <ele>211.1</ele>
        <time>2026-04-03T17:05:47.823000Z</time>
      </trkpt>
      <trkpt lat="44.818407" lon="8.346254">
        <ele>210.7</ele>
        <time>2026-04-03T17:05:47.823000Z</time>
      </trkpt>
      <trkpt lat="44.817827" lon="8.344816">
        <ele>214.3</ele>
        <time>2026-04-03T17:05:47.823000Z</time>
      </trkpt>
      <trkpt lat="44.817713" lon="8.344344">
        <ele>217.3</ele>
        <time>2026-04-03T17:05:47.823000Z</time>
      </trkpt>
      <trkpt lat="44.817669" lon="8.343955">
        <ele>220</ele>
        <time>2026-04-03T17:05:47.823000Z</time>
      </trkpt>
      <trkpt lat="44.817418" lon="8.34321">
        <ele>226.7</ele>
        <time>2026-04-03T17:05:47.823000Z</time>
      </trkpt>
      <trkpt lat="44.817271" lon="8.34299">
        <ele>229.3</ele>
        <time>2026-04-03T17:05:47.823000Z</time>
      </trkpt>
      <trkpt lat="44.817167" lon="8.342899">
        <ele>230.7</ele>
        <time>2026-04-03T17:05:47.823000Z</time>
      </trkpt>
      <trkpt lat="44.816666" lon="8.34257">
        <ele>237</ele>
        <time>2026-04-03T17:05:47.823000Z</time>
      </trkpt>
      <trkpt lat="44.816382" lon="8.34235">
        <ele>240.2</ele>
        <time>2026-04-03T17:05:47.823000Z</time>
      </trkpt>
      <trkpt lat="44.816199" lon="8.342265">
        <ele>241.8</ele>
        <time>2026-04-03T17:05:47.823000Z</time>
      </trkpt>
      <trkpt lat="44.816047" lon="8.342205">
        <ele>243.1</ele>
        <time>2026-04-03T17:05:47.823000Z</time>
      </trkpt>
      <trkpt lat="44.816003" lon="8.342183">
        <ele>243.5</ele>
        <time>2026-04-03T17:05:47.823000Z</time>
      </trkpt>
      <trkpt lat="44.815003" lon="8.341799">
        <ele>247</ele>
        <time>2026-04-03T17:05:47.823000Z</time>
      </trkpt>
      <trkpt lat="44.814785" lon="8.341667">
        <ele>246.9</ele>
        <time>2026-04-03T17:05:47.823000Z</time>
      </trkpt>
      <trkpt lat="44.814628" lon="8.341477">
        <ele>246.6</ele>
        <time>2026-04-03T17:05:47.823000Z</time>
      </trkpt>
      <trkpt lat="44.814516" lon="8.341225">
        <ele>246.2</ele>
        <time>2026-04-03T17:05:47.823000Z</time>
      </trkpt>
      <trkpt lat="44.814147" lon="8.340793">
        <ele>245.1</ele>
        <time>2026-04-03T17:05:47.823000Z</time>
      </trkpt>
      <trkpt lat="44.813924" lon="8.340458">
        <ele>244.3</ele>
        <time>2026-04-03T17:05:47.823000Z</time>
      </trkpt>
      <trkpt lat="44.812979" lon="8.339529">
        <ele>244.3</ele>
        <time>2026-04-03T17:05:47.823000Z</time>
      </trkpt>
      <trkpt lat="44.81292" lon="8.339463">
        <ele>244.5</ele>
        <time>2026-04-03T17:05:47.823000Z</time>
      </trkpt>
      <trkpt lat="44.8124" lon="8.338881">
        <ele>246.6</ele>
        <time>2026-04-03T17:05:47.823000Z</time>
      </trkpt>
      <trkpt lat="44.811934" lon="8.338636">
        <ele>249</ele>
        <time>2026-04-03T17:05:47.823000Z</time>
      </trkpt>
      <trkpt lat="44.811791" lon="8.338527">
        <ele>249.8</ele>
        <time>2026-04-03T17:05:47.823000Z</time>
      </trkpt>
      <trkpt lat="44.811619" lon="8.338314">
        <ele>251</ele>
        <time>2026-04-03T17:05:47.823000Z</time>
      </trkpt>
      <trkpt lat="44.811386" lon="8.337982">
        <ele>252.6</ele>
        <time>2026-04-03T17:05:47.823000Z</time>
      </trkpt>
      <trkpt lat="44.811257" lon="8.3377">
        <ele>253.7</ele>
        <time>2026-04-03T17:05:47.823000Z</time>
      </trkpt>
      <trkpt lat="44.811098" lon="8.337437">
        <ele>254.6</ele>
        <time>2026-04-03T17:05:47.823000Z</time>
      </trkpt>
      <trkpt lat="44.810845" lon="8.337019">
        <ele>255.4</ele>
        <time>2026-04-03T17:05:47.823000Z</time>
      </trkpt>
      <trkpt lat="44.810741" lon="8.336885">
        <ele>255.6</ele>
        <time>2026-04-03T17:05:47.823000Z</time>
      </trkpt>
      <trkpt lat="44.810579" lon="8.336815">
        <ele>255.9</ele>
        <time>2026-04-03T17:05:47.823000Z</time>
      </trkpt>
      <trkpt lat="44.810527" lon="8.336687">
        <ele>256</ele>
        <time>2026-04-03T17:05:47.823000Z</time>
      </trkpt>
      <trkpt lat="44.810336" lon="8.336485">
        <ele>256.1</ele>
        <time>2026-04-03T17:05:47.823000Z</time>
      </trkpt>
      <trkpt lat="44.810252" lon="8.336306">
        <ele>256.1</ele>
        <time>2026-04-03T17:05:47.823000Z</time>
      </trkpt>
      <trkpt lat="44.81027" lon="8.336221">
        <ele>256</ele>
        <time>2026-04-03T17:05:47.823000Z</time>
      </trkpt>
      <trkpt lat="44.810342" lon="8.336127">
        <ele>255.9</ele>
        <time>2026-04-03T17:05:47.823000Z</time>
      </trkpt>
      <trkpt lat="44.81027" lon="8.336221">
        <ele>255.8</ele>
        <time>2026-04-03T17:05:47.823000Z</time>
      </trkpt>
      <trkpt lat="44.810252" lon="8.336306">
        <ele>255.7</ele>
        <time>2026-04-03T17:05:47.823000Z</time>
      </trkpt>
      <trkpt lat="44.810336" lon="8.336485">
        <ele>255.3</ele>
        <time>2026-04-03T17:05:47.823000Z</time>
      </trkpt>
      <trkpt lat="44.810527" lon="8.336687">
        <ele>254.5</ele>
        <time>2026-04-03T17:05:47.823000Z</time>
      </trkpt>
      <trkpt lat="44.810579" lon="8.336815">
        <ele>254.1</ele>
        <time>2026-04-03T17:05:47.823000Z</time>
      </trkpt>
      <trkpt lat="44.810176" lon="8.336595">
        <ele>251.6</ele>
        <time>2026-04-03T17:05:47.823000Z</time>
      </trkpt>
      <trkpt lat="44.810032" lon="8.336471">
        <ele>250.4</ele>
        <time>2026-04-03T17:05:47.823000Z</time>
      </trkpt>
      <trkpt lat="44.809981" lon="8.336402">
        <ele>249.8</ele>
        <time>2026-04-03T17:05:47.823000Z</time>
      </trkpt>
      <trkpt lat="44.80992" lon="8.336181">
        <ele>248.3</ele>
        <time>2026-04-03T17:05:47.823000Z</time>
      </trkpt>
      <trkpt lat="44.809924" lon="8.336027">
        <ele>247.4</ele>
        <time>2026-04-03T17:05:47.823000Z</time>
      </trkpt>
      <trkpt lat="44.809972" lon="8.335803">
        <ele>246.2</ele>
        <time>2026-04-03T17:05:47.823000Z</time>
      </trkpt>
      <trkpt lat="44.810147" lon="8.33542">
        <ele>244.5</ele>
        <time>2026-04-03T17:05:47.823000Z</time>
      </trkpt>
      <trkpt lat="44.810158" lon="8.335311">
        <ele>244.3</ele>
        <time>2026-04-03T17:05:47.823000Z</time>
      </trkpt>
      <trkpt lat="44.810164" lon="8.335099">
        <ele>243.8</ele>
        <time>2026-04-03T17:05:47.823000Z</time>
      </trkpt>
      <trkpt lat="44.810105" lon="8.334821">
        <ele>243.6</ele>
        <time>2026-04-03T17:05:47.823000Z</time>
      </trkpt>
      <trkpt lat="44.810164" lon="8.335099">
        <ele>243.8</ele>
        <time>2026-04-03T17:05:47.823000Z</time>
      </trkpt>
      <trkpt lat="44.810158" lon="8.335311">
        <ele>244.3</ele>
        <time>2026-04-03T17:05:47.823000Z</time>
      </trkpt>
      <trkpt lat="44.810147" lon="8.33542">
        <ele>244.5</ele>
        <time>2026-04-03T17:05:47.823000Z</time>
      </trkpt>
      <trkpt lat="44.809972" lon="8.335803">
        <ele>246.2</ele>
        <time>2026-04-03T17:05:47.823000Z</time>
      </trkpt>
      <trkpt lat="44.809924" lon="8.336027">
        <ele>247.4</ele>
        <time>2026-04-03T17:05:47.823000Z</time>
      </trkpt>
      <trkpt lat="44.80992" lon="8.336181">
        <ele>248.3</ele>
        <time>2026-04-03T17:05:47.823000Z</time>
      </trkpt>
      <trkpt lat="44.809981" lon="8.336402">
        <ele>249.9</ele>
        <time>2026-04-03T17:05:47.823000Z</time>
      </trkpt>
      <trkpt lat="44.810032" lon="8.336471">
        <ele>250.5</ele>
        <time>2026-04-03T17:05:47.823000Z</time>
      </trkpt>
      <trkpt lat="44.810176" lon="8.336595">
        <ele>251.7</ele>
        <time>2026-04-03T17:05:47.823000Z</time>
      </trkpt>
      <trkpt lat="44.810579" lon="8.336815">
        <ele>254</ele>
        <time>2026-04-03T17:05:47.823000Z</time>
      </trkpt>
      <trkpt lat="44.810741" lon="8.336885">
        <ele>254.4</ele>
        <time>2026-04-03T17:05:47.823000Z</time>
      </trkpt>
      <trkpt lat="44.810845" lon="8.337019">
        <ele>254.7</ele>
        <time>2026-04-03T17:05:47.823000Z</time>
      </trkpt>
      <trkpt lat="44.811257" lon="8.3377">
        <ele>253.6</ele>
        <time>2026-04-03T17:05:47.823000Z</time>
      </trkpt>
      <trkpt lat="44.811386" lon="8.337982">
        <ele>252.6</ele>
        <time>2026-04-03T17:05:47.823000Z</time>
      </trkpt>
      <trkpt lat="44.811619" lon="8.338314">
        <ele>251</ele>
        <time>2026-04-03T17:05:47.823000Z</time>
      </trkpt>
      <trkpt lat="44.811791" lon="8.338527">
        <ele>249.8</ele>
        <time>2026-04-03T17:05:47.823000Z</time>
      </trkpt>
      <trkpt lat="44.811934" lon="8.338636">
        <ele>249</ele>
        <time>2026-04-03T17:05:47.823000Z</time>
      </trkpt>
      <trkpt lat="44.8124" lon="8.338881">
        <ele>246.6</ele>
        <time>2026-04-03T17:05:47.823000Z</time>
      </trkpt>
      <trkpt lat="44.81292" lon="8.339463">
        <ele>244.5</ele>
        <time>2026-04-03T17:05:47.823000Z</time>
      </trkpt>
      <trkpt lat="44.812979" lon="8.339529">
        <ele>244.3</ele>
        <time>2026-04-03T17:05:47.823000Z</time>
      </trkpt>
      <trkpt lat="44.813924" lon="8.340458">
        <ele>244.3</ele>
        <time>2026-04-03T17:05:47.823000Z</time>
      </trkpt>
      <trkpt lat="44.814147" lon="8.340793">
        <ele>245.1</ele>
        <time>2026-04-03T17:05:47.823000Z</time>
      </trkpt>
      <trkpt lat="44.814516" lon="8.341225">
        <ele>246.2</ele>
        <time>2026-04-03T17:05:47.823000Z</time>
      </trkpt>
      <trkpt lat="44.814628" lon="8.341477">
        <ele>246.6</ele>
        <time>2026-04-03T17:05:47.823000Z</time>
      </trkpt>
      <trkpt lat="44.814785" lon="8.341667">
        <ele>246.9</ele>
        <time>2026-04-03T17:05:47.823000Z</time>
      </trkpt>
      <trkpt lat="44.815003" lon="8.341799">
        <ele>247</ele>
        <time>2026-04-03T17:05:47.823000Z</time>
      </trkpt>
      <trkpt lat="44.816003" lon="8.342183">
        <ele>247.5</ele>
        <time>2026-04-03T17:05:47.823000Z</time>
      </trkpt>
      <trkpt lat="44.816047" lon="8.342205">
        <ele>247.5</ele>
        <time>2026-04-03T17:05:47.823000Z</time>
      </trkpt>
      <trkpt lat="44.815128" lon="8.342977">
        <ele>247.4</ele>
        <time>2026-04-03T17:05:47.823000Z</time>
      </trkpt>
      <trkpt lat="44.81443" lon="8.343828">
        <ele>244.4</ele>
        <time>2026-04-03T17:05:47.823000Z</time>
      </trkpt>
      <trkpt lat="44.814192" lon="8.344042">
        <ele>242</ele>
        <time>2026-04-03T17:05:47.823000Z</time>
      </trkpt>
      <trkpt lat="44.814075" lon="8.344198">
        <ele>240.4</ele>
        <time>2026-04-03T17:05:47.823000Z</time>
      </trkpt>
      <trkpt lat="44.813927" lon="8.343875">
        <ele>237.3</ele>
        <time>2026-04-03T17:05:47.823000Z</time>
      </trkpt>
      <trkpt lat="44.813715" lon="8.343626">
        <ele>233.8</ele>
        <time>2026-04-03T17:05:47.823000Z</time>
      </trkpt>
      <trkpt lat="44.813001" lon="8.343318">
        <ele>222.6</ele>
        <time>2026-04-03T17:05:47.823000Z</time>
      </trkpt>
      <trkpt lat="44.812505" lon="8.343218">
        <ele>214.7</ele>
        <time>2026-04-03T17:05:47.823000Z</time>
      </trkpt>
      <trkpt lat="44.811858" lon="8.343202">
        <ele>209.1</ele>
        <time>2026-04-03T17:05:47.823000Z</time>
      </trkpt>
      <trkpt lat="44.811681" lon="8.343129">
        <ele>208.6</ele>
        <time>2026-04-03T17:05:47.823000Z</time>
      </trkpt>
      <trkpt lat="44.811572" lon="8.343148">
        <ele>208.5</ele>
        <time>2026-04-03T17:05:47.823000Z</time>
      </trkpt>
      <trkpt lat="44.811681" lon="8.343129">
        <ele>208.6</ele>
        <time>2026-04-03T17:05:47.823000Z</time>
      </trkpt>
      <trkpt lat="44.811858" lon="8.343202">
        <ele>209.1</ele>
        <time>2026-04-03T17:05:47.823000Z</time>
      </trkpt>
      <trkpt lat="44.812505" lon="8.343218">
        <ele>214.7</ele>
        <time>2026-04-03T17:05:47.823000Z</time>
      </trkpt>
      <trkpt lat="44.813001" lon="8.343318">
        <ele>222.6</ele>
        <time>2026-04-03T17:05:47.823000Z</time>
      </trkpt>
      <trkpt lat="44.813715" lon="8.343626">
        <ele>233.8</ele>
        <time>2026-04-03T17:05:47.823000Z</time>
      </trkpt>
      <trkpt lat="44.813927" lon="8.343875">
        <ele>237.3</ele>
        <time>2026-04-03T17:05:47.823000Z</time>
      </trkpt>
      <trkpt lat="44.814075" lon="8.344198">
        <ele>240.4</ele>
        <time>2026-04-03T17:05:47.823000Z</time>
      </trkpt>
      <trkpt lat="44.814192" lon="8.344042">
        <ele>242</ele>
        <time>2026-04-03T17:05:47.823000Z</time>
      </trkpt>
      <trkpt lat="44.81443" lon="8.343828">
        <ele>244.4</ele>
        <time>2026-04-03T17:05:47.823000Z</time>
      </trkpt>
      <trkpt lat="44.815128" lon="8.342977">
        <ele>247.4</ele>
        <time>2026-04-03T17:05:47.823000Z</time>
      </trkpt>
      <trkpt lat="44.816047" lon="8.342205">
        <ele>243.3</ele>
        <time>2026-04-03T17:05:47.823000Z</time>
      </trkpt>
      <trkpt lat="44.816003" lon="8.342183">
        <ele>243</ele>
        <time>2026-04-03T17:05:47.823000Z</time>
      </trkpt>
      <trkpt lat="44.816155" lon="8.342099">
        <ele>241.5</ele>
        <time>2026-04-03T17:05:47.823000Z</time>
      </trkpt>
      <trkpt lat="44.81636" lon="8.342118">
        <ele>239.5</ele>
        <time>2026-04-03T17:05:47.823000Z</time>
      </trkpt>
      <trkpt lat="44.816414" lon="8.342072">
        <ele>238.9</ele>
        <time>2026-04-03T17:05:47.823000Z</time>
      </trkpt>
      <trkpt lat="44.816613" lon="8.342051">
        <ele>236.6</ele>
        <time>2026-04-03T17:05:47.823000Z</time>
      </trkpt>
      <trkpt lat="44.817155" lon="8.341686">
        <ele>228.7</ele>
        <time>2026-04-03T17:05:47.823000Z</time>
      </trkpt>
      <trkpt lat="44.817326" lon="8.341507">
        <ele>225.8</ele>
        <time>2026-04-03T17:05:47.823000Z</time>
      </trkpt>
      <trkpt lat="44.817442" lon="8.341009">
        <ele>221</ele>
        <time>2026-04-03T17:05:47.823000Z</time>
      </trkpt>
      <trkpt lat="44.817548" lon="8.340806">
        <ele>218.9</ele>
        <time>2026-04-03T17:05:47.823000Z</time>
      </trkpt>
      <trkpt lat="44.81762" lon="8.340718">
        <ele>217.8</ele>
        <time>2026-04-03T17:05:47.823000Z</time>
      </trkpt>
      <trkpt lat="44.817707" lon="8.340661">
        <ele>216.7</ele>
        <time>2026-04-03T17:05:47.823000Z</time>
      </trkpt>
      <trkpt lat="44.817802" lon="8.340651">
        <ele>215.7</ele>
        <time>2026-04-03T17:05:47.823000Z</time>
      </trkpt>
      <trkpt lat="44.817983" lon="8.340726">
        <ele>213.7</ele>
        <time>2026-04-03T17:05:47.823000Z</time>
      </trkpt>
      <trkpt lat="44.818091" lon="8.340903">
        <ele>212.1</ele>
        <time>2026-04-03T17:05:47.823000Z</time>
      </trkpt>
      <trkpt lat="44.818335" lon="8.341163">
        <ele>209.3</ele>
        <time>2026-04-03T17:05:47.823000Z</time>
      </trkpt>
      <trkpt lat="44.818542" lon="8.341576">
        <ele>206.3</ele>
        <time>2026-04-03T17:05:47.823000Z</time>
      </trkpt>
      <trkpt lat="44.818748" lon="8.341549">
        <ele>204.6</ele>
        <time>2026-04-03T17:05:47.823000Z</time>
      </trkpt>
      <trkpt lat="44.819096" lon="8.341565">
        <ele>201.6</ele>
        <time>2026-04-03T17:05:47.823000Z</time>
      </trkpt>
      <trkpt lat="44.819372" lon="8.341439">
        <ele>199.1</ele>
        <time>2026-04-03T17:05:47.823000Z</time>
      </trkpt>
      <trkpt lat="44.819707" lon="8.341343">
        <ele>196.1</ele>
        <time>2026-04-03T17:05:47.823000Z</time>
      </trkpt>
      <trkpt lat="44.819878" lon="8.341348">
        <ele>194.7</ele>
        <time>2026-04-03T17:05:47.823000Z</time>
      </trkpt>
      <trkpt lat="44.820154" lon="8.341222">
        <ele>192.4</ele>
        <time>2026-04-03T17:05:47.823000Z</time>
      </trkpt>
      <trkpt lat="44.820473" lon="8.340994">
        <ele>189.9</ele>
        <time>2026-04-03T17:05:47.823000Z</time>
      </trkpt>
      <trkpt lat="44.820601" lon="8.341018">
        <ele>189.1</ele>
        <time>2026-04-03T17:05:47.823000Z</time>
      </trkpt>
      <trkpt lat="44.821231" lon="8.34098">
        <ele>185.4</ele>
        <time>2026-04-03T17:05:47.823000Z</time>
      </trkpt>
      <trkpt lat="44.821303" lon="8.341029">
        <ele>185</ele>
        <time>2026-04-03T17:05:47.823000Z</time>
      </trkpt>
      <trkpt lat="44.821409" lon="8.34105">
        <ele>184.4</ele>
        <time>2026-04-03T17:05:47.823000Z</time>
      </trkpt>
      <trkpt lat="44.821842" lon="8.341066">
        <ele>182.1</ele>
        <time>2026-04-03T17:05:47.823000Z</time>
      </trkpt>
      <trkpt lat="44.822081" lon="8.341002">
        <ele>180.9</ele>
        <time>2026-04-03T17:05:47.823000Z</time>
      </trkpt>
      <trkpt lat="44.822517" lon="8.341104">
        <ele>179</ele>
        <time>2026-04-03T17:05:47.823000Z</time>
      </trkpt>
      <trkpt lat="44.822869" lon="8.3413">
        <ele>177.7</ele>
        <time>2026-04-03T17:05:47.823000Z</time>
      </trkpt>
      <trkpt lat="44.823097" lon="8.341544">
        <ele>176.5</ele>
        <time>2026-04-03T17:05:47.823000Z</time>
      </trkpt>
      <trkpt lat="44.823545" lon="8.341667">
        <ele>174.1</ele>
        <time>2026-04-03T17:05:47.823000Z</time>
      </trkpt>
      <trkpt lat="44.823706" lon="8.341657">
        <ele>173.1</ele>
        <time>2026-04-03T17:05:47.823000Z</time>
      </trkpt>
      <trkpt lat="44.823867" lon="8.341815">
        <ele>171.8</ele>
        <time>2026-04-03T17:05:47.823000Z</time>
      </trkpt>
      <trkpt lat="44.823871" lon="8.34171">
        <ele>171.2</ele>
        <time>2026-04-03T17:05:47.823000Z</time>
      </trkpt>
      <trkpt lat="44.823938" lon="8.341597">
        <ele>170.4</ele>
        <time>2026-04-03T17:05:47.823000Z</time>
      </trkpt>
      <trkpt lat="44.824155" lon="8.341506">
        <ele>168.6</ele>
        <time>2026-04-03T17:05:47.823000Z</time>
      </trkpt>
      <trkpt lat="44.824277" lon="8.341546">
        <ele>167.5</ele>
        <time>2026-04-03T17:05:47.823000Z</time>
      </trkpt>
      <trkpt lat="44.824469" lon="8.341429">
        <ele>165.6</ele>
        <time>2026-04-03T17:05:47.823000Z</time>
      </trkpt>
      <trkpt lat="44.824807" lon="8.341345">
        <ele>162.3</ele>
        <time>2026-04-03T17:05:47.823000Z</time>
      </trkpt>
      <trkpt lat="44.825157" lon="8.34145">
        <ele>159</ele>
        <time>2026-04-03T17:05:47.823000Z</time>
      </trkpt>
      <trkpt lat="44.825347" lon="8.341477">
        <ele>157.5</ele>
        <time>2026-04-03T17:05:47.823000Z</time>
      </trkpt>
      <trkpt lat="44.825891" lon="8.341402">
        <ele>154</ele>
        <time>2026-04-03T17:05:47.823000Z</time>
      </trkpt>
      <trkpt lat="44.825978" lon="8.341444">
        <ele>153.5</ele>
        <time>2026-04-03T17:05:47.823000Z</time>
      </trkpt>
      <trkpt lat="44.826091" lon="8.341453">
        <ele>152.8</ele>
        <time>2026-04-03T17:05:47.823000Z</time>
      </trkpt>
      <trkpt lat="44.826552" lon="8.341326">
        <ele>150.3</ele>
        <time>2026-04-03T17:05:47.823000Z</time>
      </trkpt>
      <trkpt lat="44.826643" lon="8.341235">
        <ele>149.7</ele>
        <time>2026-04-03T17:05:47.823000Z</time>
      </trkpt>
      <trkpt lat="44.826832" lon="8.3409">
        <ele>147.8</ele>
        <time>2026-04-03T17:05:47.823000Z</time>
      </trkpt>
      <trkpt lat="44.827269" lon="8.340777">
        <ele>145</ele>
        <time>2026-04-03T17:05:47.823000Z</time>
      </trkpt>
      <trkpt lat="44.827316" lon="8.340696">
        <ele>144.5</ele>
        <time>2026-04-03T17:05:47.823000Z</time>
      </trkpt>
      <trkpt lat="44.827354" lon="8.3406">
        <ele>144</ele>
        <time>2026-04-03T17:05:47.823000Z</time>
      </trkpt>
      <trkpt lat="44.827358" lon="8.340511">
        <ele>143.7</ele>
        <time>2026-04-03T17:05:47.823000Z</time>
      </trkpt>
      <trkpt lat="44.827295" lon="8.339892">
        <ele>140.9</ele>
        <time>2026-04-03T17:05:47.823000Z</time>
      </trkpt>
      <trkpt lat="44.827342" lon="8.339773">
        <ele>140.4</ele>
        <time>2026-04-03T17:05:47.823000Z</time>
      </trkpt>
      <trkpt lat="44.828989" lon="8.339211">
        <ele>133.5</ele>
        <time>2026-04-03T17:05:47.823000Z</time>
      </trkpt>
      <trkpt lat="44.828851" lon="8.338146">
        <ele>132.1</ele>
        <time>2026-04-03T17:05:47.823000Z</time>
      </trkpt>
      <trkpt lat="44.82889" lon="8.337826">
        <ele>131.9</ele>
        <time>2026-04-03T17:05:47.823000Z</time>
      </trkpt>
      <trkpt lat="44.82878" lon="8.337321">
        <ele>131.9</ele>
        <time>2026-04-03T17:05:47.823000Z</time>
      </trkpt>
      <trkpt lat="44.828689" lon="8.337036">
        <ele>132</ele>
        <time>2026-04-03T17:05:47.823000Z</time>
      </trkpt>
      <trkpt lat="44.828579" lon="8.33682">
        <ele>132</ele>
        <time>2026-04-03T17:05:47.823000Z</time>
      </trkpt>
      <trkpt lat="44.828375" lon="8.336463">
        <ele>132.2</ele>
        <time>2026-04-03T17:05:47.823000Z</time>
      </trkpt>
      <trkpt lat="44.828013" lon="8.335695">
        <ele>132.5</ele>
        <time>2026-04-03T17:05:47.823000Z</time>
      </trkpt>
      <trkpt lat="44.827841" lon="8.334993">
        <ele>132.6</ele>
        <time>2026-04-03T17:05:47.823000Z</time>
      </trkpt>
      <trkpt lat="44.827704" lon="8.334235">
        <ele>132.1</ele>
        <time>2026-04-03T17:05:47.823000Z</time>
      </trkpt>
      <trkpt lat="44.829315" lon="8.334158">
        <ele>130</ele>
        <time>2026-04-03T17:05:47.823000Z</time>
      </trkpt>
      <trkpt lat="44.829574" lon="8.334051">
        <ele>129.9</ele>
        <time>2026-04-03T17:05:47.823000Z</time>
      </trkpt>
      <trkpt lat="44.829688" lon="8.334278">
        <ele>130</ele>
        <time>2026-04-03T17:05:47.823000Z</time>
      </trkpt>
      <trkpt lat="44.830206" lon="8.334283">
        <ele>130.2</ele>
        <time>2026-04-03T17:05:47.823000Z</time>
      </trkpt>
      <trkpt lat="44.830444" lon="8.333849">
        <ele>130.7</ele>
        <time>2026-04-03T17:05:47.823000Z</time>
      </trkpt>
      <trkpt lat="44.83021" lon="8.3333">
        <ele>131.4</ele>
        <time>2026-04-03T17:05:47.823000Z</time>
      </trkpt>
      <trkpt lat="44.829959" lon="8.332738">
        <ele>132</ele>
        <time>2026-04-03T17:05:47.823000Z</time>
      </trkpt>
      <trkpt lat="44.829708" lon="8.332083">
        <ele>132.5</ele>
        <time>2026-04-03T17:05:47.823000Z</time>
      </trkpt>
      <trkpt lat="44.82952" lon="8.331473">
        <ele>132.9</ele>
        <time>2026-04-03T17:05:47.823000Z</time>
      </trkpt>
      <trkpt lat="44.829413" lon="8.330947">
        <ele>133.1</ele>
        <time>2026-04-03T17:05:47.823000Z</time>
      </trkpt>
      <trkpt lat="44.829334" lon="8.330395">
        <ele>133.3</ele>
        <time>2026-04-03T17:05:47.823000Z</time>
      </trkpt>
      <trkpt lat="44.829279" lon="8.329728">
        <ele>133.7</ele>
        <time>2026-04-03T17:05:47.823000Z</time>
      </trkpt>
      <trkpt lat="44.829291" lon="8.328778">
        <ele>134.9</ele>
        <time>2026-04-03T17:05:47.823000Z</time>
      </trkpt>
      <trkpt lat="44.829513" lon="8.328971">
        <ele>135.7</ele>
        <time>2026-04-03T17:05:47.823000Z</time>
      </trkpt>
      <trkpt lat="44.829769" lon="8.329118">
        <ele>136.7</ele>
        <time>2026-04-03T17:05:47.823000Z</time>
      </trkpt>
      <trkpt lat="44.830391" lon="8.329209">
        <ele>139</ele>
        <time>2026-04-03T17:05:47.823000Z</time>
      </trkpt>
      <trkpt lat="44.830925" lon="8.329252">
        <ele>141.1</ele>
        <time>2026-04-03T17:05:47.823000Z</time>
      </trkpt>
      <trkpt lat="44.830918" lon="8.328703">
        <ele>142.6</ele>
        <time>2026-04-03T17:05:47.823000Z</time>
      </trkpt>
      <trkpt lat="44.830974" lon="8.327849">
        <ele>145.1</ele>
        <time>2026-04-03T17:05:47.823000Z</time>
      </trkpt>
      <trkpt lat="44.831119" lon="8.327326">
        <ele>145.9</ele>
        <time>2026-04-03T17:05:47.823000Z</time>
      </trkpt>
      <trkpt lat="44.831261" lon="8.327132">
        <ele>146.2</ele>
        <time>2026-04-03T17:05:47.823000Z</time>
      </trkpt>
      <trkpt lat="44.831553" lon="8.326947">
        <ele>146.4</ele>
        <time>2026-04-03T17:05:47.823000Z</time>
      </trkpt>
      <trkpt lat="44.831261" lon="8.327132">
        <ele>146.2</ele>
        <time>2026-04-03T17:05:47.823000Z</time>
      </trkpt>
      <trkpt lat="44.831119" lon="8.327326">
        <ele>145.9</ele>
        <time>2026-04-03T17:05:47.823000Z</time>
      </trkpt>
      <trkpt lat="44.830974" lon="8.327849">
        <ele>145.1</ele>
        <time>2026-04-03T17:05:47.823000Z</time>
      </trkpt>
      <trkpt lat="44.830918" lon="8.328703">
        <ele>142.6</ele>
        <time>2026-04-03T17:05:47.823000Z</time>
      </trkpt>
      <trkpt lat="44.830925" lon="8.329252">
        <ele>141.1</ele>
        <time>2026-04-03T17:05:47.823000Z</time>
      </trkpt>
      <trkpt lat="44.830391" lon="8.329209">
        <ele>139</ele>
        <time>2026-04-03T17:05:47.823000Z</time>
      </trkpt>
      <trkpt lat="44.829769" lon="8.329118">
        <ele>136.7</ele>
        <time>2026-04-03T17:05:47.823000Z</time>
      </trkpt>
      <trkpt lat="44.829513" lon="8.328971">
        <ele>135.7</ele>
        <time>2026-04-03T17:05:47.823000Z</time>
      </trkpt>
      <trkpt lat="44.829291" lon="8.328778">
        <ele>134.9</ele>
        <time>2026-04-03T17:05:47.823000Z</time>
      </trkpt>
      <trkpt lat="44.829279" lon="8.329728">
        <ele>133.7</ele>
        <time>2026-04-03T17:05:47.823000Z</time>
      </trkpt>
      <trkpt lat="44.829334" lon="8.330395">
        <ele>133.3</ele>
        <time>2026-04-03T17:05:47.823000Z</time>
      </trkpt>
      <trkpt lat="44.829413" lon="8.330947">
        <ele>133.1</ele>
        <time>2026-04-03T17:05:47.823000Z</time>
      </trkpt>
      <trkpt lat="44.82952" lon="8.331473">
        <ele>132.9</ele>
        <time>2026-04-03T17:05:47.823000Z</time>
      </trkpt>
      <trkpt lat="44.829708" lon="8.332083">
        <ele>132.5</ele>
        <time>2026-04-03T17:05:47.823000Z</time>
      </trkpt>
      <trkpt lat="44.829959" lon="8.332738">
        <ele>132</ele>
        <time>2026-04-03T17:05:47.823000Z</time>
      </trkpt>
      <trkpt lat="44.83021" lon="8.3333">
        <ele>131.4</ele>
        <time>2026-04-03T17:05:47.823000Z</time>
      </trkpt>
      <trkpt lat="44.830444" lon="8.333849">
        <ele>130.7</ele>
        <time>2026-04-03T17:05:47.823000Z</time>
      </trkpt>
      <trkpt lat="44.830206" lon="8.334283">
        <ele>130.2</ele>
        <time>2026-04-03T17:05:47.823000Z</time>
      </trkpt>
      <trkpt lat="44.829688" lon="8.334278">
        <ele>130</ele>
        <time>2026-04-03T17:05:47.823000Z</time>
      </trkpt>
      <trkpt lat="44.829574" lon="8.334051">
        <ele>129.9</ele>
        <time>2026-04-03T17:05:47.823000Z</time>
      </trkpt>
      <trkpt lat="44.829315" lon="8.334158">
        <ele>130</ele>
        <time>2026-04-03T17:05:47.823000Z</time>
      </trkpt>
      <trkpt lat="44.827704" lon="8.334235">
        <ele>132.1</ele>
        <time>2026-04-03T17:05:47.823000Z</time>
      </trkpt>
      <trkpt lat="44.827841" lon="8.334993">
        <ele>132.6</ele>
        <time>2026-04-03T17:05:47.823000Z</time>
      </trkpt>
      <trkpt lat="44.828013" lon="8.335695">
        <ele>132.5</ele>
        <time>2026-04-03T17:05:47.823000Z</time>
      </trkpt>
      <trkpt lat="44.828375" lon="8.336463">
        <ele>132.2</ele>
        <time>2026-04-03T17:05:47.823000Z</time>
      </trkpt>
      <trkpt lat="44.828579" lon="8.33682">
        <ele>132</ele>
        <time>2026-04-03T17:05:47.823000Z</time>
      </trkpt>
      <trkpt lat="44.828689" lon="8.337036">
        <ele>132</ele>
        <time>2026-04-03T17:05:47.823000Z</time>
      </trkpt>
      <trkpt lat="44.82878" lon="8.337321">
        <ele>131.9</ele>
        <time>2026-04-03T17:05:47.823000Z</time>
      </trkpt>
      <trkpt lat="44.82889" lon="8.337826">
        <ele>131.9</ele>
        <time>2026-04-03T17:05:47.823000Z</time>
      </trkpt>
      <trkpt lat="44.828851" lon="8.338146">
        <ele>132.1</ele>
        <time>2026-04-03T17:05:47.823000Z</time>
      </trkpt>
      <trkpt lat="44.828989" lon="8.339211">
        <ele>133.3</ele>
        <time>2026-04-03T17:05:47.823000Z</time>
      </trkpt>
      <trkpt lat="44.829116" lon="8.339702">
        <ele>133.9</ele>
        <time>2026-04-03T17:05:47.823000Z</time>
      </trkpt>
      <trkpt lat="44.829375" lon="8.340921">
        <ele>134.8</ele>
        <time>2026-04-03T17:05:47.823000Z</time>
      </trkpt>
      <trkpt lat="44.829471" lon="8.341491">
        <ele>134.6</ele>
        <time>2026-04-03T17:05:47.823000Z</time>
      </trkpt>
      <trkpt lat="44.829521" lon="8.342214">
        <ele>134.1</ele>
        <time>2026-04-03T17:05:47.823000Z</time>
      </trkpt>
      <trkpt lat="44.829516" lon="8.343173">
        <ele>133.2</ele>
        <time>2026-04-03T17:05:47.823000Z</time>
      </trkpt>
      <trkpt lat="44.82943" lon="8.34446">
        <ele>132</ele>
        <time>2026-04-03T17:05:47.823000Z</time>
      </trkpt>
      <trkpt lat="44.829406" lon="8.346352">
        <ele>130.8</ele>
        <time>2026-04-03T17:05:47.823000Z</time>
      </trkpt>
      <trkpt lat="44.829383" lon="8.346725">
        <ele>130.6</ele>
        <time>2026-04-03T17:05:47.823000Z</time>
      </trkpt>
      <trkpt lat="44.829334" lon="8.347064">
        <ele>130.5</ele>
        <time>2026-04-03T17:05:47.823000Z</time>
      </trkpt>
      <trkpt lat="44.828723" lon="8.35055">
        <ele>129</ele>
        <time>2026-04-03T17:05:47.823000Z</time>
      </trkpt>
      <trkpt lat="44.828593" lon="8.351515">
        <ele>129.2</ele>
        <time>2026-04-03T17:05:47.823000Z</time>
      </trkpt>
      <trkpt lat="44.828478" lon="8.351912">
        <ele>129.4</ele>
        <time>2026-04-03T17:05:47.823000Z</time>
      </trkpt>
      <trkpt lat="44.828289" lon="8.352431">
        <ele>129.7</ele>
        <time>2026-04-03T17:05:47.823000Z</time>
      </trkpt>
      <trkpt lat="44.828059" lon="8.352882">
        <ele>130</ele>
        <time>2026-04-03T17:05:47.823000Z</time>
      </trkpt>
      <trkpt lat="44.82749" lon="8.353511">
        <ele>130.5</ele>
        <time>2026-04-03T17:05:47.823000Z</time>
      </trkpt>
      <trkpt lat="44.827294" lon="8.353837">
        <ele>130.8</ele>
        <time>2026-04-03T17:05:47.823000Z</time>
      </trkpt>
      <trkpt lat="44.827251" lon="8.354034">
        <ele>130.8</ele>
        <time>2026-04-03T17:05:47.823000Z</time>
      </trkpt>
      <trkpt lat="44.827247" lon="8.354353">
        <ele>131</ele>
        <time>2026-04-03T17:05:47.823000Z</time>
      </trkpt>
      <trkpt lat="44.827373" lon="8.355227">
        <ele>131.3</ele>
        <time>2026-04-03T17:05:47.823000Z</time>
      </trkpt>
      <trkpt lat="44.827561" lon="8.356217">
        <ele>131.2</ele>
        <time>2026-04-03T17:05:47.823000Z</time>
      </trkpt>
      <trkpt lat="44.827608" lon="8.356699">
        <ele>130.8</ele>
        <time>2026-04-03T17:05:47.823000Z</time>
      </trkpt>
      <trkpt lat="44.828475" lon="8.356168">
        <ele>129.5</ele>
        <time>2026-04-03T17:05:47.823000Z</time>
      </trkpt>
    </trkseg>
  </trk>
</gpx>