<?xml version="1.0" encoding="UTF-8"?>
<gpx xmlns="http://www.topografix.com/GPX/1/1" xmlns:xsi="http://www.w3.org/2001/XMLSchema-instance" xsi:schemaLocation="http://www.topografix.com/GPX/1/1 http://www.topografix.com/GPX/1/1/gpx.xsd" version="1.1" creator="Robert Kampf">
  <metadata>
    <name>Von Maria Birnbaum nach Blumenthal</name>
    <desc>Distance: 10.866km, Estimated duration: 2.88h, Elevation up: 106.00741080077802m, Elevation down: 105.5661639301133m, Grade: moderate</desc>
    <author>
      <name>Robert Kampf</name>
      <link href="https://www.komoot.de/user/4125295338453">
        <text>View Robert Kampf's Profile on Komoot</text>
      </link>
    </author>
    <link href="https://www.komoot.de/tour/2637878144">
      <text>View tour on Komoot</text>
    </link>
  </metadata>
  <wpt lat="48.392673" lon="11.161053">
    <name>Parking</name>
    <cmt></cmt>
    <desc>Free</desc>
    <src>Komoot</src>
    <type>POI</type>
  </wpt>
  <wpt lat="48.421113" lon="11.148655">
    <ele>458.9</ele>
    <name>Blumenthal Castle Beer Garden</name>
    <cmt>https://d2exd72xrrp1s7.cloudfront.net/www/000/1k7/1m/1mzmx9lszyew917n69n1ltdkbm4jmest4y-uhi59077091/0</cmt>
    <desc>Mia Ka: Hier gibt es einen Biergarten, ein Hotel, ein Seminarzentrum und einen solidarischen Landwirtschaftsbetrieb. Die verschiedenen Veranstaltungen sind immer einen Besuch wert.
――――――――――
suny: Wunderschönes Ausflugsziel.
Dort werden auch gerne Festivitäten abgehalten, mit inkl. Hotel
――――――――――
🇪🇺Raubach🇺🇦: Das Schloss Blumenthal im Weiler Blumenthal liegt am Fluss Ecknach zwischen dem Aichacher Ortsteil Klingen und der Gemeinde Sielenbach bzw. dem bayerischen Wallfahrtsort Maria Birnbaum. 

Wikipedia
――――――――――
🇪🇺Raubach🇺🇦: Sehr schönes Schloss und Hotel 😊
――――――――――
Ivan Irrweg: Das Schloss Blumenthal im Weiler Blumenthal liegt am Fluss Ecknach zwischen dem Aichacher Ortsteil Klingen und der Wallfahrtskirche Maria Birnbaum bei Sielenbach.
――――――――――
🅰️ndy: Sehenswertes Gelände, welches im Moment 47 Erwachsene und 29 Kinder beheimatet... Und ganze vier Autos ihr eigen nennt.
――――――――――
Johanna: In dem Schloss gibt es unter anderem ein Hotel und ein Restaurant mit Biergarten. Hier kannst du eine gemütliche Pause einlegen und dich mit Spezialitäten aus frischen, regionalen und biologischen Zutaten verwöhnen lassen. Neben Fisch- und Fleischgerichten hast du auch eine große Auswahl an vegetarischen Speisen.

Öffnungszeiten:
Von Montag bis Freitag von 17 bis 22 Uhr und Samstag, Sonntag und an Feiertagen von 11 bis 22 Uhr.
――――――――――
🇪🇺Raubach🇺🇦: Ehemaliges Brauereigebäude von Storchenbräu
――――――――――
Didier: Blumenthal ist schon seit Jahrzehnten ein Treffpunkt der Wanderer, Radler und Motorradfahrer. Herrliches Ambiente, toller Biergarten.
――――――――――
🅰️ndy: Jeden zweiten Samstag kann man eine Führung mit Verkostung in der Käserei mitmachen.
――――――――――
Siggi58: Toller und seltenst leerer Biergarten
――――――――――
🇪🇺Raubach🇺🇦: Hier gibt es einen tollen Biergarten 🍺
――――――――――
Merlin: Schöne Anlage mit Biergarten, alles Bio. 😁
――――――――――
Tobias Augsburg: Schöner Biergarten (bei schönen Wetter geöffnet) Zeiten siehe bild
――――――――――
Churchy: Schöner Biergarten und für Kinder ist ein Kletterbaum zum spielen da.
――――――――――
Margret: schöner ruhiger Biergarten, ideal für eine Pause auf der Radtour
――――――――――
Martin: Schöner Biergarten, bei schönem Wetter am Wochenende manchmal überfüllt
――――――――――
Thomas Denkel: Schöne historische Anlage mit einladendem, schattigem Biergarten.
――――――――――
Knersi (📍Maisach): Schloss Blumenthal, ehemals Komturei des Deutschherren-Ordens, später im Besitz der Fugger, ist heute ein zentrales Kultur-, Tagungs- und Veranstaltungszentrum. 2006 kauften mehrere Familien das 700 Jahre alte Klostergut und gestalteten es um zu einer kreativen Wohn- und Wirkungsstätte.
――――――――――
Heiko: Schloss Blumenthal ist ein historisches Anwesen im Weiler Blumenthal, gelegen am Fluss Ecknach zwischen den Aichacher Ortsteilen Klingen und Sielenbach sowie dem bayerischen Wallfahrtsort Maria Birnbaum. Die Geschichte des Schlosses reicht bis ins 13. Jahrhundert zurück, als es vermutlich um 1254 vom Deutschen Orden erworben wurde. Ursprünglich als Kommende des Ordens genutzt, entwickelte sich das Schloss im Laufe der Jahrhunderte zu einem bedeutenden kulturellen Zentrum. 

Heute dient Schloss Blumenthal als Hotel, Bio-Gasthaus, Seminarort und Hochzeitslocation. Es beherbergt zudem eine Gemeinschaft von über 40 Menschen, die hier gemeinsam leben und arbeiten. Die historische Architektur des Schlosses, einschließlich der barocken Schlosskapelle St. Maria, sowie der weitläufige Schlosspark und der angrenzende Tierpark bieten Gästen ein einzigartiges Ambiente. 

Das Schlossgelände ist ein lebendiger Ort für Kunst und Kultur. Über das Jahr verteilt finden zahlreiche Veranstaltungen statt, darunter Konzerte, Ausstellungen und Workshops. Der Blumenthaler Kunst- und Kulturverein e.V. sowie der Wandel e.V. als Träger des Blumenthaler Akademieprogramms organisieren diese Events und tragen so zur kulturellen Vielfalt der Region bei.
――――――――――
BB1000: Schöner Biergarten mit gutem Essen
――――――――――
ChristianAG: Toller Schlosshof für eine kleine Rast.
――――――――――
Mickl: Ein absolutes Highlight hier beim Schloss Blumenthal ist das jährliche Elfenfestival. Leider z. Zt. ja nicht möglich. Aber zu gegebener Zeit auf jeden Fall besuchen!
――――――――――
Lukas Blomquist: Sehenswertes Gelände mit interssantem Hintergrund</desc>
    <src>Komoot</src>
    <link href="https://www.komoot.de/highlight/134473">
      <text>View POI on Komoot</text>
    </link>
    <type>Highlight</type>
  </wpt>
  <wpt lat="48.42148" lon="11.15175">
    <ele>470.7</ele>
    <name>Ruins of St. George and St. Elisabeth Tower</name>
    <cmt>https://d2exd72xrrp1s7.cloudfront.net/www/000/1k7/xj/xjzb89rvblali926tb59mjti4jmestp9-uhi59077102/0</cmt>
    <desc>Merlin: Imposant und schön anzuschauen. Hier ist höchste Vorsicht wegen des Gesamtzustandes geboten.
――――――――――
🇪🇺Raubach🇺🇦: Sehr schöne Turmruine 😊
Vorsicht das Schild Einsturzgefahr steht hier nicht umsonst dran  ⚠️🆘⚠️
――――――――――
🅰️ndy: Tolle Ruine ganz in der Nähe der Straße, kann man nur im Winter von der Straße aus sehen. Um den Turm herum ist ein Zaun gespannt, da das Gebäude baufällig ist.
――――――――――
Churchy: Eine Kapellenruine aus dem 17. Jahrhundert.
――――――――――
Heiko: Die Turmruine St. Georg und St. Elisabeth, auch bekannt als Georgsturm, befindet sich auf dem Kellerberg nordöstlich von Schloss Blumenthal im Landkreis Aichach-Friedberg, Bayern. Sie sind die baulichen Überreste einer ehemaligen Renaissancekapelle aus dem 17. Jahrhundert. 

Geschichte:
Im Jahr 1596 stiftete der Deutschordenskomtur Johann von Hördt einen Jahrtag an dieser Stelle, an dem später die Kapelle St. Georg und St. Elisabeth erbaut wurde. Ab diesem Jahr wurde offenbar jeden Freitag die Heilige Messe gefeiert. Die heute noch sichtbaren oberen Geschosse des Turms gehen möglicherweise auf eine Erweiterung aus dem 17. Jahrhundert zurück. 

Anfahrt:
Die Ruine befindet sich am Fuß des bewaldeten Kellerbergs nordöstlich von Schloss Blumenthal. Die Staatsstraße St2338 zwischen den Aichacher Ortsteilen Klingen und Sielenbach sowie die Ecknach grenzen diese anfängliche Erhöhung von der Einfahrtsallee des Schlosses ab. Gegenüber der Allee befindet sich etwas nach links versetzt ein Feldweg in ein Waldstück. Dieser Weg führt links an einem alten Backsteingebäude vorbei, dem ehemaligen Brauereigebäude des Storchenbräu. Folgt man dem alten Feldweg wenige Schritte geradeaus weiter, erscheint rechterhand die auf einem leichten Anstieg gelegene Turmruine der ehemaligen Kapelle St. Georg und St. Elisabeth. Da die Anlage einsturzgefährdet ist, wird vom Betreten abgeraten. 

Aktuelle Nutzung:
Die Ruine dient als historisches Wahrzeichen und ist Teil des kulturellen Erbes der Region. Sie ist ein beliebtes Ziel für Wanderer und Geschichtsinteressierte, die mehr über die Geschichte des Ortes erfahren möchten. Aufgrund der Baufälligkeit wird jedoch vom Betreten abgeraten.
――――――――――
RalfDi: Fast kaum zu sehen vom Weg aus . Ein Blick empfiehlt sich und bitte vorsichtig sein das Gebäude ist sehr baufällig.
――――――――――
Lomanfu: Die Turmruine ist Überrest der 1608 in Auftrag gegebenen Renaissance-Kapelle St. Georg und St. Elisabeth. Sie wurde während des Säkularisationsprozesses Anfang des 19. Jahrhunderts als überflüssig deklariert und in der Folge weitgehend abgebrochen. Weitere Infos: https://de.wikipedia.org/wiki/Turmruine_St._Georg_und_St._Elisabeth_(Blumenthal_bei_Aichach)
――――――――――
Eberhard: Blumenthal
――――――――――
RITTER MARTON 🐑 🐿: Viele alte Bäume um die Ruine.  Leider auch eine Bank Ruine,  ich hatte Hunger 🙄
――――――――――
Eberhard: Hotel Blumenthal
――――――――――
Michael: Turmruine aus dem 17. Jahrhundert
――――――――――
山𝓐𝐋к𝓲ภＧ ᶠΔή 𝔰𝓶ⓩ💯%: Die Turmruine der ehemaligen Kapelle befindet sich am Fuß des bewaldeten Kellerbergs nordöstlich von Schloss Blumenthal. Die Staatsstraße St2338 zwischen dem Aichacher Ortsteil Klingen und Sielenbach sowie die Ecknach grenzen diese anfängliche Erhöhung von der Einfahrtsallee des Schlosses ab. Gegenüber der Allee befindet sich etwas nach links versetzt ein Feldweg in ein Waldstück. Dieser Weg führt links an einem alten Backsteingebäude vorbei, dem ehemaligen Brauereigebäude des Storchenbräu. Folgt man dem alten Feldweg wenige Schritte geradeaus weiter, erscheint rechterhand die auf einem leichten Anstieg gelegene Turmruine der ehemaligen Kapelle St. Georg und St. Elisabeth. Weil die Anlage einsturzgefährdet ist, wird vom Betreten abgeraten
――――――――――
山𝓐𝐋к𝓲ภＧ ᶠΔή 𝔰𝓶ⓩ💯%: Eine schöne Ruine, muss man mal gesehen haben </desc>
    <src>Komoot</src>
    <link href="https://www.komoot.de/highlight/402696">
      <text>View POI on Komoot</text>
    </link>
    <type>Highlight</type>
  </wpt>
  <wpt lat="48.393562" lon="11.161946">
    <ele>502</ele>
    <name>Maria Birnbaum Pilgrimage Church</name>
    <cmt>https://d2exd72xrrp1s7.cloudfront.net/www/000/1k8/13/13u8h4d8tn0ar1r22o484qpc7m51unldct-uhi75288848/0</cmt>
    <desc>Heinz: http://www.maria-birnbaum.de
Das Kloster Maria Birnbaum liegt am Fluss Ecknach südlich von Sielenbach an der Straße nach Adelzhausen im Landkreis Aichach-Friedberg (Bayern).
――――――――――
JR56: Die Wallfahrtskirche „Unserer Lieben Frau im Birnbaum“ in Sielenbach ist ein Ort mit langer Tradition, der bis heute nichts von seiner Faszination eingebüßt hat.
Diese Faszination – die in der Erfahrung liegt, dass sich hier Himmel und Erde berühren, 
wenn wir uns vertrauensvoll an Maria wenden – war es, die vor fast 350 Jahren den Deutschordens-Komtur Philipp Jakob von Kaltenthal zum Bau der Wallfahrtskirche inspirierte. Und er wählte eine außergewöhnliche Form, um dem Außergewöhnlichen Ausdruck zu verleihen.

https://www.maria-birnbaum.de/
――――――――――
🅰️ndy: Ich kann mich nur den Vorrednern anschließen: sehr sehr schöne Kirche und Wallfahrtsort mit einer interessanten Geschichte.
――――――――――
Merlin: Sehr schönes Kloster mit der katholischen Wallfahrtskirche Maria (im) Birnbaum, welche in der zweiten Hälfte des 17. Jahrhunderts gebaut wurde und damit einer der ersten Zentralbauten des Barocks in Bayern war.
――――――――――
🇪🇺Raubach🇺🇦: Eine sehr schöne Wallfahrtskirche 😊
――――――――――
Di Rienzo S.: Wunderschöne Kirche sehr schön anzusehen.
――――――――――
🅰️H🍀: Deutscher Orden (Wallfahrtskirche Maria Birnbaum, 2023-04-02): 
https://www.maria-birnbaum.de/ 

Wikipedia (Maria Birnbaum (Sielenbach), 2023-04-02): 
https://de.m.wikipedia.org/wiki/Maria_Birnbaum_(Sielenbach)
Wikipedia (Liste der Baudenkmäler in Sielenbach, 2023-04-02): 
https://de.m.wikipedia.org/wiki/Liste_der_Baudenkmäler_in_Sielenbach 
“Katholische Wallfahrtskirche Maria Birnbaum … barocker Zentralbau, drei hintereinander angeordnete, pilastergegliederte Kuppelräume mit Türmen, von Constantin Pader, 1661–68 … D-7-71-165-2”
――――――――――
🅰️H🍀: Deutscher Orden (Wallfahrtskirche Maria Birnbaum, 2023-04-02): 
https://www.maria-birnbaum.de/ 

Wikipedia (Maria Birnbaum (Sielenbach), 2023-04-02): 
https://de.m.wikipedia.org/wiki/Maria_Birnbaum_(Sielenbach) 
Wikipedia (Liste der Baudenkmäler in Sielenbach, 2023-04-02): 
https://de.m.wikipedia.org/wiki/Liste_der_Baudenkmäler_in_Sielenbach 
“Katholische Wallfahrtskirche Maria Birnbaum … barocker Zentralbau, drei hintereinander angeordnete, pilastergegliederte Kuppelräume mit Türmen, von Constantin Pader, 1661–68 … D-7-71-165-2”
――――――――――
🇪🇺Raubach🇺🇦: Kreuzgang Maria Birnbaum
――――――――――
🇪🇺Raubach🇺🇦: Wallfahrtskirche Maria Birnbaum
――――――――――
Lukas Blomquist: Sehr schöne Kloster mit netter Geschichte
――――――――――
Max Power: Schöne Wahlfahrtskirche mit kleiner Pizzaria und Eisdiele neben an.  
Sehr zu empfehlen
――――――――――
Martin: Bekanntes Kloster des Deutschordens, schöne alte Kirche
――――――――――
Pusher: Wunderschöne Kapelle. Ca. 7 km von der Autobahn.
――――――――――
Dirk aus Altenerding: Die Wallfahrtskirche sieht von außen einfach hübsch und interessant aus. Es geht auf ein Vesperbild zurück, dass im 30-jährigen Krieg halb verbrannt und später gefunden wurde. Dieses wurde in einem hohlen Birnbaum versteckt und prompt gab es hier Wunderheilungen...
――――――――――
Heiko: Ursprünglich stand an dieser Stelle ein Birnbaum mit einem Vesperbild. Nachdem sich an dem Baum mehrere Wunderheilungen ereigneten, wurde im 17. Jahrhundert um ihn herum die Kirche gebaut. Den Baum kann man heute noch im Inneren der barocken Wallfahrtskirche Maria Birnbaum bewundern. Die Räume der Kuppelkirche sind rund, ineinandergreifend und lichtdurchflutet. Sie war die erste Barockkirche, die in Bayern gebaut wurde.
――――――――――
Kristof: Während der Schwedenkriege im 17. Jahrhundert wurde in dieser Gegend ein Marienbild zerstört. Ein Hirte fand das Bild und setzte es in einen hohlen Birnbaum. Da diesem Birnbaum angeblich Wunderheilungen geschahen, begann die Wallfahrt an diesen Ort. Die Wallfahrtkirche sieht von außen fast ein bisschen orthodox aus, aber spätestens im Inneren wird der überschwängliche Barock sichtbar.
――――――――――
Didier: Eine tolle Kirche mit italienischem Restaurant nebenan
――――――――――
Didier: Gigantische Kirche, immer einen Abstecher wert
――――――――――
Alex: Riesen Kirche in Maria Birnbaum, immer etwas los. Parkplatz vorhanden.
――――――――――
Rosradler: Dieses Kloster liegt am sog. 7-Klöster-Weg im Wittelsbacher Land
――――――――――
Helmut: Sehr schöne Wallfahrtskirche. Ausflug dorthin lohnt sich.
――――――――――
genurad: Fantasievolle frühbarocke Wallfahrtskirche, wirkt von außen wie eine orthdoxe Kirche
――――――――――
Heiko: Die Wallfahrtskirche Maria Birnbaum befindet sich im bayerischen Sielenbach, Landkreis Aichach-Friedberg, und gilt als eine der ersten Kuppelkirchen nördlich der Alpen. Erbaut zwischen 1661 und 1668, zeichnet sie sich durch ihre einzigartige Architektur mit runden Innenräumen, drei Türmen und überwölbenden Dächern aus, die an byzantinische Bauweisen erinnern. 

Geschichte:
Die Entstehung der Wallfahrt begann um 1600, als ein geschnitztes Vesperbild in einem Bildstock aufgestellt wurde. Nach seiner Zerstörung im Dreißigjährigen Krieg wurde das Bild von einem Hirten in einem hohlen Birnbaum aufgestellt. Wunderheilungen führten zur Entstehung einer Wallfahrt, die 1659/60 dokumentiert ist. Philipp Jakob von Kaltenthal, Komtur des Deutschen Ordens in Blumenthal, ließ daraufhin die Kirche errichten. 

Ausstattung:
Der Hochaltar beherbergt das Gnadenbild der Pietà, das in einer Höhlung des Birnbaumstammes aufbewahrt wird. Die Innenausstattung umfasst Wessobrunner Stuckarbeiten und schwarz-rot-goldene Altäre. Votivtafeln zeugen von zahlreichen Gebetsanliegen und Wundern, die im Laufe der Jahrhunderte dokumentiert wurden. 

Aktuelle Nutzung:
Die Wallfahrtskirche wird vom Deutschen Orden betreut und dient als Ort für Gottesdienste, Andachten und kulturelle Veranstaltungen. Sie ist ein bedeutender Anziehungspunkt für Pilger und Besucher, die die spirituelle Atmosphäre und die historische Architektur erleben möchten.</desc>
    <src>Komoot</src>
    <link href="https://www.komoot.de/highlight/203600">
      <text>View POI on Komoot</text>
    </link>
    <type>Highlight</type>
  </wpt>
  <trk>
    <name>Von Maria Birnbaum nach Blumenthal</name>
    <desc>Distance: 10.866km, Estimated duration: 2.88h, Elevation up: 106.00741080077802m, Elevation down: 105.5661639301133m, Grade: moderate</desc>
    <link href="https://www.komoot.de/tour/2637878144">
      <text>View tour on Komoot</text>
    </link>
    <trkseg>
      <trkpt lat="48.392746" lon="11.161017">
        <ele>468.2</ele>
        <time>2025-10-16T17:46:27.437000Z</time>
      </trkpt>
      <trkpt lat="48.392702" lon="11.160747">
        <ele>468</ele>
        <time>2025-10-16T17:46:46.384000Z</time>
      </trkpt>
      <trkpt lat="48.392671" lon="11.160676">
        <ele>467.9</ele>
        <time>2025-10-16T17:46:52.160000Z</time>
      </trkpt>
      <trkpt lat="48.392635" lon="11.160646">
        <ele>467.8</ele>
        <time>2025-10-16T17:46:56.364000Z</time>
      </trkpt>
      <trkpt lat="48.392498" lon="11.160675">
        <ele>467.8</ele>
        <time>2025-10-16T17:47:10.358000Z</time>
      </trkpt>
      <trkpt lat="48.39248" lon="11.160481">
        <ele>467.5</ele>
        <time>2025-10-16T17:47:23.859000Z</time>
      </trkpt>
      <trkpt lat="48.392175" lon="11.160447">
        <ele>467.2</ele>
        <time>2025-10-16T17:47:55.100000Z</time>
      </trkpt>
      <trkpt lat="48.392169" lon="11.160378">
        <ele>467.1</ele>
        <time>2025-10-16T17:47:59.941000Z</time>
      </trkpt>
      <trkpt lat="48.392109" lon="11.160105">
        <ele>467</ele>
        <time>2025-10-16T17:48:19.383000Z</time>
      </trkpt>
      <trkpt lat="48.392015" lon="11.15993">
        <ele>466.8</ele>
        <time>2025-10-16T17:48:34.676000Z</time>
      </trkpt>
      <trkpt lat="48.391953" lon="11.159825">
        <ele>466.7</ele>
        <time>2025-10-16T17:48:44.132000Z</time>
      </trkpt>
      <trkpt lat="48.391587" lon="11.158582">
        <ele>466.5</ele>
        <time>2025-10-16T17:50:15.021000Z</time>
      </trkpt>
      <trkpt lat="48.39156" lon="11.158483">
        <ele>466.5</ele>
        <time>2025-10-16T17:50:22.164000Z</time>
      </trkpt>
      <trkpt lat="48.391447" lon="11.158062">
        <ele>466.5</ele>
        <time>2025-10-16T17:50:52.315000Z</time>
      </trkpt>
      <trkpt lat="48.391388" lon="11.157566">
        <ele>466.7</ele>
        <time>2025-10-16T17:51:26.789000Z</time>
      </trkpt>
      <trkpt lat="48.39137" lon="11.157204">
        <ele>467</ele>
        <time>2025-10-16T17:51:51.964000Z</time>
      </trkpt>
      <trkpt lat="48.391385" lon="11.157104">
        <ele>467.1</ele>
        <time>2025-10-16T17:51:59.144000Z</time>
      </trkpt>
      <trkpt lat="48.391412" lon="11.157015">
        <ele>467.2</ele>
        <time>2025-10-16T17:52:05.989000Z</time>
      </trkpt>
      <trkpt lat="48.391838" lon="11.156367">
        <ele>468.9</ele>
        <time>2025-10-16T17:53:12.349000Z</time>
      </trkpt>
      <trkpt lat="48.391866" lon="11.15632">
        <ele>469</ele>
        <time>2025-10-16T17:53:17.027000Z</time>
      </trkpt>
      <trkpt lat="48.39196" lon="11.156158">
        <ele>469.5</ele>
        <time>2025-10-16T17:53:33.007000Z</time>
      </trkpt>
      <trkpt lat="48.392009" lon="11.156064">
        <ele>469.8</ele>
        <time>2025-10-16T17:53:42.036000Z</time>
      </trkpt>
      <trkpt lat="48.392041" lon="11.155956">
        <ele>470.1</ele>
        <time>2025-10-16T17:53:51.052000Z</time>
      </trkpt>
      <trkpt lat="48.392109" lon="11.155591">
        <ele>471.1</ele>
        <time>2025-10-16T17:54:19.620000Z</time>
      </trkpt>
      <trkpt lat="48.392167" lon="11.155171">
        <ele>472.2</ele>
        <time>2025-10-16T17:54:52.055000Z</time>
      </trkpt>
      <trkpt lat="48.392186" lon="11.154863">
        <ele>473.2</ele>
        <time>2025-10-16T17:55:15.844000Z</time>
      </trkpt>
      <trkpt lat="48.392159" lon="11.154293">
        <ele>474.9</ele>
        <time>2025-10-16T17:55:59.874000Z</time>
      </trkpt>
      <trkpt lat="48.392077" lon="11.152661">
        <ele>480.3</ele>
        <time>2025-10-16T17:58:07.409000Z</time>
      </trkpt>
      <trkpt lat="48.392047" lon="11.151535">
        <ele>483.2</ele>
        <time>2025-10-16T17:59:32.399000Z</time>
      </trkpt>
      <trkpt lat="48.392047" lon="11.151532">
        <ele>483.2</ele>
        <time>2025-10-16T17:59:32.592000Z</time>
      </trkpt>
      <trkpt lat="48.392093" lon="11.151186">
        <ele>483.9</ele>
        <time>2025-10-16T17:59:58.464000Z</time>
      </trkpt>
      <trkpt lat="48.392191" lon="11.150896">
        <ele>484.4</ele>
        <time>2025-10-16T18:00:21.777000Z</time>
      </trkpt>
      <trkpt lat="48.392471" lon="11.150348">
        <ele>485.6</ele>
        <time>2025-10-16T18:01:12.110000Z</time>
      </trkpt>
      <trkpt lat="48.392513" lon="11.150288">
        <ele>485.8</ele>
        <time>2025-10-16T18:01:18.486000Z</time>
      </trkpt>
      <trkpt lat="48.392893" lon="11.150608">
        <ele>486.8</ele>
        <time>2025-10-16T18:02:05.478000Z</time>
      </trkpt>
      <trkpt lat="48.393092" lon="11.150588">
        <ele>486.9</ele>
        <time>2025-10-16T18:02:26.035000Z</time>
      </trkpt>
      <trkpt lat="48.393197" lon="11.150458">
        <ele>486.9</ele>
        <time>2025-10-16T18:02:39.739000Z</time>
      </trkpt>
      <trkpt lat="48.393276" lon="11.150251">
        <ele>486.7</ele>
        <time>2025-10-16T18:02:55.953000Z</time>
      </trkpt>
      <trkpt lat="48.393501" lon="11.149097">
        <ele>485</ele>
        <time>2025-10-16T18:04:19.578000Z</time>
      </trkpt>
      <trkpt lat="48.393564" lon="11.148922">
        <ele>484.6</ele>
        <time>2025-10-16T18:04:33.566000Z</time>
      </trkpt>
      <trkpt lat="48.393667" lon="11.148881">
        <ele>484.4</ele>
        <time>2025-10-16T18:04:44.595000Z</time>
      </trkpt>
      <trkpt lat="48.394306" lon="11.148854">
        <ele>483.5</ele>
        <time>2025-10-16T18:05:50.491000Z</time>
      </trkpt>
      <trkpt lat="48.394927" lon="11.148953">
        <ele>482.6</ele>
        <time>2025-10-16T18:06:54.947000Z</time>
      </trkpt>
      <trkpt lat="48.395051" lon="11.148923">
        <ele>482.3</ele>
        <time>2025-10-16T18:07:08.050000Z</time>
      </trkpt>
      <trkpt lat="48.395143" lon="11.148808">
        <ele>482.1</ele>
        <time>2025-10-16T18:07:20.306000Z</time>
      </trkpt>
      <trkpt lat="48.395818" lon="11.147083">
        <ele>485.6</ele>
        <time>2025-10-16T18:09:45.679000Z</time>
      </trkpt>
      <trkpt lat="48.395897" lon="11.146981">
        <ele>486.1</ele>
        <time>2025-10-16T18:09:57.697000Z</time>
      </trkpt>
      <trkpt lat="48.396963" lon="11.147331">
        <ele>491.2</ele>
        <time>2025-10-16T18:12:04.498000Z</time>
      </trkpt>
      <trkpt lat="48.397048" lon="11.147347">
        <ele>491.6</ele>
        <time>2025-10-16T18:12:14.661000Z</time>
      </trkpt>
      <trkpt lat="48.397124" lon="11.147319">
        <ele>492</ele>
        <time>2025-10-16T18:12:23.647000Z</time>
      </trkpt>
      <trkpt lat="48.397065" lon="11.146707">
        <ele>493.7</ele>
        <time>2025-10-16T18:13:10.892000Z</time>
      </trkpt>
      <trkpt lat="48.397097" lon="11.145321">
        <ele>496.8</ele>
        <time>2025-10-16T18:14:53.915000Z</time>
      </trkpt>
      <trkpt lat="48.397056" lon="11.144839">
        <ele>497.5</ele>
        <time>2025-10-16T18:15:28.716000Z</time>
      </trkpt>
      <trkpt lat="48.399663" lon="11.144454">
        <ele>498.1</ele>
        <time>2025-10-16T18:19:52.958000Z</time>
      </trkpt>
      <trkpt lat="48.399775" lon="11.144455">
        <ele>497.6</ele>
        <time>2025-10-16T18:20:05.210000Z</time>
      </trkpt>
      <trkpt lat="48.400136" lon="11.144551">
        <ele>495.7</ele>
        <time>2025-10-16T18:20:45.721000Z</time>
      </trkpt>
      <trkpt lat="48.400502" lon="11.14466">
        <ele>493.3</ele>
        <time>2025-10-16T18:21:27.885000Z</time>
      </trkpt>
      <trkpt lat="48.4007" lon="11.144623">
        <ele>491.9</ele>
        <time>2025-10-16T18:21:50.622000Z</time>
      </trkpt>
      <trkpt lat="48.400859" lon="11.144519">
        <ele>490.4</ele>
        <time>2025-10-16T18:22:11.002000Z</time>
      </trkpt>
      <trkpt lat="48.40131" lon="11.143817">
        <ele>484.8</ele>
        <time>2025-10-16T18:23:27.037000Z</time>
      </trkpt>
      <trkpt lat="48.401521" lon="11.143645">
        <ele>482.9</ele>
        <time>2025-10-16T18:23:54.682000Z</time>
      </trkpt>
      <trkpt lat="48.401638" lon="11.143611">
        <ele>482</ele>
        <time>2025-10-16T18:24:08.528000Z</time>
      </trkpt>
      <trkpt lat="48.401869" lon="11.143627">
        <ele>480.5</ele>
        <time>2025-10-16T18:24:34.632000Z</time>
      </trkpt>
      <trkpt lat="48.402182" lon="11.14377">
        <ele>478.7</ele>
        <time>2025-10-16T18:25:10.975000Z</time>
      </trkpt>
      <trkpt lat="48.402427" lon="11.143915">
        <ele>478</ele>
        <time>2025-10-16T18:25:38.778000Z</time>
      </trkpt>
      <trkpt lat="48.402637" lon="11.143966">
        <ele>477.7</ele>
        <time>2025-10-16T18:26:00.758000Z</time>
      </trkpt>
      <trkpt lat="48.403043" lon="11.143892">
        <ele>477.8</ele>
        <time>2025-10-16T18:26:41.888000Z</time>
      </trkpt>
      <trkpt lat="48.403342" lon="11.143732">
        <ele>478.3</ele>
        <time>2025-10-16T18:27:15.605000Z</time>
      </trkpt>
      <trkpt lat="48.403544" lon="11.143573">
        <ele>479</ele>
        <time>2025-10-16T18:27:40.802000Z</time>
      </trkpt>
      <trkpt lat="48.403607" lon="11.143481">
        <ele>479.3</ele>
        <time>2025-10-16T18:27:50.638000Z</time>
      </trkpt>
      <trkpt lat="48.403652" lon="11.143353">
        <ele>479.6</ele>
        <time>2025-10-16T18:28:01.283000Z</time>
      </trkpt>
      <trkpt lat="48.403664" lon="11.143061">
        <ele>480.2</ele>
        <time>2025-10-16T18:28:22.747000Z</time>
      </trkpt>
      <trkpt lat="48.403532" lon="11.142254">
        <ele>481.4</ele>
        <time>2025-10-16T18:29:22.459000Z</time>
      </trkpt>
      <trkpt lat="48.403525" lon="11.14205">
        <ele>481.5</ele>
        <time>2025-10-16T18:29:36.270000Z</time>
      </trkpt>
      <trkpt lat="48.403545" lon="11.141861">
        <ele>481.6</ele>
        <time>2025-10-16T18:29:49.325000Z</time>
      </trkpt>
      <trkpt lat="48.403591" lon="11.141728">
        <ele>481.6</ele>
        <time>2025-10-16T18:29:59.313000Z</time>
      </trkpt>
      <trkpt lat="48.403707" lon="11.14156">
        <ele>481.4</ele>
        <time>2025-10-16T18:30:15.790000Z</time>
      </trkpt>
      <trkpt lat="48.403911" lon="11.141472">
        <ele>481</ele>
        <time>2025-10-16T18:30:37.913000Z</time>
      </trkpt>
      <trkpt lat="48.404365" lon="11.141608">
        <ele>479.2</ele>
        <time>2025-10-16T18:31:27.844000Z</time>
      </trkpt>
      <trkpt lat="48.40459" lon="11.14159">
        <ele>478.3</ele>
        <time>2025-10-16T18:31:52.424000Z</time>
      </trkpt>
      <trkpt lat="48.404906" lon="11.141456">
        <ele>476.7</ele>
        <time>2025-10-16T18:32:28.341000Z</time>
      </trkpt>
      <trkpt lat="48.405074" lon="11.1415">
        <ele>475.9</ele>
        <time>2025-10-16T18:32:47.096000Z</time>
      </trkpt>
      <trkpt lat="48.405322" lon="11.141626">
        <ele>474.6</ele>
        <time>2025-10-16T18:33:16.024000Z</time>
      </trkpt>
      <trkpt lat="48.405562" lon="11.141616">
        <ele>473.3</ele>
        <time>2025-10-16T18:33:42.574000Z</time>
      </trkpt>
      <trkpt lat="48.406424" lon="11.14145">
        <ele>470.7</ele>
        <time>2025-10-16T18:35:14.964000Z</time>
      </trkpt>
      <trkpt lat="48.406639" lon="11.141474">
        <ele>470.4</ele>
        <time>2025-10-16T18:35:37.085000Z</time>
      </trkpt>
      <trkpt lat="48.406734" lon="11.141537">
        <ele>470.4</ele>
        <time>2025-10-16T18:35:47.446000Z</time>
      </trkpt>
      <trkpt lat="48.406864" lon="11.141749">
        <ele>470.5</ele>
        <time>2025-10-16T18:36:07.148000Z</time>
      </trkpt>
      <trkpt lat="48.407081" lon="11.142484">
        <ele>471.5</ele>
        <time>2025-10-16T18:37:03.987000Z</time>
      </trkpt>
      <trkpt lat="48.407116" lon="11.142843">
        <ele>472</ele>
        <time>2025-10-16T18:37:29.932000Z</time>
      </trkpt>
      <trkpt lat="48.407119" lon="11.143109">
        <ele>472.4</ele>
        <time>2025-10-16T18:37:49.075000Z</time>
      </trkpt>
      <trkpt lat="48.407125" lon="11.14359">
        <ele>473.2</ele>
        <time>2025-10-16T18:38:23.759000Z</time>
      </trkpt>
      <trkpt lat="48.407213" lon="11.143964">
        <ele>473.9</ele>
        <time>2025-10-16T18:38:52.553000Z</time>
      </trkpt>
      <trkpt lat="48.407335" lon="11.14412">
        <ele>474.3</ele>
        <time>2025-10-16T18:39:10.186000Z</time>
      </trkpt>
      <trkpt lat="48.407584" lon="11.144354">
        <ele>475.1</ele>
        <time>2025-10-16T18:39:42.096000Z</time>
      </trkpt>
      <trkpt lat="48.408022" lon="11.145046">
        <ele>476.5</ele>
        <time>2025-10-16T18:40:50.707000Z</time>
      </trkpt>
      <trkpt lat="48.408236" lon="11.145182">
        <ele>476.9</ele>
        <time>2025-10-16T18:41:15.509000Z</time>
      </trkpt>
      <trkpt lat="48.408349" lon="11.145204">
        <ele>477.1</ele>
        <time>2025-10-16T18:41:27.600000Z</time>
      </trkpt>
      <trkpt lat="48.408512" lon="11.145178">
        <ele>477.4</ele>
        <time>2025-10-16T18:41:44.890000Z</time>
      </trkpt>
      <trkpt lat="48.410105" lon="11.144611">
        <ele>478.1</ele>
        <time>2025-10-16T18:44:31.120000Z</time>
      </trkpt>
      <trkpt lat="48.410577" lon="11.144592">
        <ele>478.5</ele>
        <time>2025-10-16T18:45:19.961000Z</time>
      </trkpt>
      <trkpt lat="48.410687" lon="11.144606">
        <ele>478.5</ele>
        <time>2025-10-16T18:45:31.146000Z</time>
      </trkpt>
      <trkpt lat="48.411614" lon="11.144764">
        <ele>478.8</ele>
        <time>2025-10-16T18:47:05.613000Z</time>
      </trkpt>
      <trkpt lat="48.411913" lon="11.144972">
        <ele>478.5</ele>
        <time>2025-10-16T18:47:39.123000Z</time>
      </trkpt>
      <trkpt lat="48.412431" lon="11.145509">
        <ele>477.4</ele>
        <time>2025-10-16T18:48:44.437000Z</time>
      </trkpt>
      <trkpt lat="48.412986" lon="11.146081">
        <ele>474.7</ele>
        <time>2025-10-16T18:49:57.139000Z</time>
      </trkpt>
      <trkpt lat="48.413096" lon="11.146218">
        <ele>474</ele>
        <time>2025-10-16T18:50:12.854000Z</time>
      </trkpt>
      <trkpt lat="48.41319" lon="11.146444">
        <ele>473.2</ele>
        <time>2025-10-16T18:50:32.335000Z</time>
      </trkpt>
      <trkpt lat="48.413262" lon="11.146731">
        <ele>472.2</ele>
        <time>2025-10-16T18:50:54.763000Z</time>
      </trkpt>
      <trkpt lat="48.413412" lon="11.146904">
        <ele>471.2</ele>
        <time>2025-10-16T18:51:15.594000Z</time>
      </trkpt>
      <trkpt lat="48.413525" lon="11.146944">
        <ele>470.7</ele>
        <time>2025-10-16T18:51:28.298000Z</time>
      </trkpt>
      <trkpt lat="48.414203" lon="11.147035">
        <ele>467.8</ele>
        <time>2025-10-16T18:52:42.334000Z</time>
      </trkpt>
      <trkpt lat="48.414462" lon="11.147101">
        <ele>467</ele>
        <time>2025-10-16T18:53:10.314000Z</time>
      </trkpt>
      <trkpt lat="48.414522" lon="11.147159">
        <ele>466.7</ele>
        <time>2025-10-16T18:53:17.910000Z</time>
      </trkpt>
      <trkpt lat="48.414586" lon="11.147288">
        <ele>466.5</ele>
        <time>2025-10-16T18:53:29.108000Z</time>
      </trkpt>
      <trkpt lat="48.41492" lon="11.148178">
        <ele>465.5</ele>
        <time>2025-10-16T18:54:39.040000Z</time>
      </trkpt>
      <trkpt lat="48.415036" lon="11.148407">
        <ele>465.4</ele>
        <time>2025-10-16T18:54:58.461000Z</time>
      </trkpt>
      <trkpt lat="48.415239" lon="11.148569">
        <ele>465.3</ele>
        <time>2025-10-16T18:55:21.662000Z</time>
      </trkpt>
      <trkpt lat="48.415333" lon="11.148584">
        <ele>465.3</ele>
        <time>2025-10-16T18:55:31.171000Z</time>
      </trkpt>
      <trkpt lat="48.415457" lon="11.148567">
        <ele>465.2</ele>
        <time>2025-10-16T18:55:43.704000Z</time>
      </trkpt>
      <trkpt lat="48.415759" lon="11.148434">
        <ele>465.1</ele>
        <time>2025-10-16T18:56:15.428000Z</time>
      </trkpt>
      <trkpt lat="48.416837" lon="11.147748">
        <ele>464.9</ele>
        <time>2025-10-16T18:58:13.053000Z</time>
      </trkpt>
      <trkpt lat="48.417082" lon="11.147683">
        <ele>464.8</ele>
        <time>2025-10-16T18:58:37.994000Z</time>
      </trkpt>
      <trkpt lat="48.417388" lon="11.14765">
        <ele>464.8</ele>
        <time>2025-10-16T18:59:08.741000Z</time>
      </trkpt>
      <trkpt lat="48.417675" lon="11.147562">
        <ele>464.8</ele>
        <time>2025-10-16T18:59:38.137000Z</time>
      </trkpt>
      <trkpt lat="48.417945" lon="11.147417">
        <ele>464.7</ele>
        <time>2025-10-16T19:00:07.033000Z</time>
      </trkpt>
      <trkpt lat="48.41901" lon="11.146684">
        <ele>463.8</ele>
        <time>2025-10-16T19:02:06.056000Z</time>
      </trkpt>
      <trkpt lat="48.419648" lon="11.146253">
        <ele>463.4</ele>
        <time>2025-10-16T19:03:16.913000Z</time>
      </trkpt>
      <trkpt lat="48.419815" lon="11.146197">
        <ele>463.2</ele>
        <time>2025-10-16T19:03:34.413000Z</time>
      </trkpt>
      <trkpt lat="48.419909" lon="11.146198">
        <ele>463.1</ele>
        <time>2025-10-16T19:03:43.998000Z</time>
      </trkpt>
      <trkpt lat="48.419984" lon="11.146257">
        <ele>463</ele>
        <time>2025-10-16T19:03:52.601000Z</time>
      </trkpt>
      <trkpt lat="48.420098" lon="11.146429">
        <ele>462.8</ele>
        <time>2025-10-16T19:04:09.239000Z</time>
      </trkpt>
      <trkpt lat="48.420201" lon="11.146475">
        <ele>462.7</ele>
        <time>2025-10-16T19:04:20.218000Z</time>
      </trkpt>
      <trkpt lat="48.42042" lon="11.146333">
        <ele>462.3</ele>
        <time>2025-10-16T19:04:44.779000Z</time>
      </trkpt>
      <trkpt lat="48.420827" lon="11.145944">
        <ele>461.4</ele>
        <time>2025-10-16T19:05:34.855000Z</time>
      </trkpt>
      <trkpt lat="48.420968" lon="11.145902">
        <ele>461.2</ele>
        <time>2025-10-16T19:05:49.667000Z</time>
      </trkpt>
      <trkpt lat="48.421037" lon="11.145921">
        <ele>461.1</ele>
        <time>2025-10-16T19:05:56.897000Z</time>
      </trkpt>
      <trkpt lat="48.42119" lon="11.146039">
        <ele>460.9</ele>
        <time>2025-10-16T19:06:14.724000Z</time>
      </trkpt>
      <trkpt lat="48.421372" lon="11.146374">
        <ele>460.5</ele>
        <time>2025-10-16T19:06:44.250000Z</time>
      </trkpt>
      <trkpt lat="48.421495" lon="11.146712">
        <ele>460.2</ele>
        <time>2025-10-16T19:07:10.437000Z</time>
      </trkpt>
      <trkpt lat="48.421527" lon="11.146889">
        <ele>460</ele>
        <time>2025-10-16T19:07:22.958000Z</time>
      </trkpt>
      <trkpt lat="48.421564" lon="11.147383">
        <ele>459.5</ele>
        <time>2025-10-16T19:07:56.961000Z</time>
      </trkpt>
      <trkpt lat="48.421547" lon="11.147752">
        <ele>459.2</ele>
        <time>2025-10-16T19:08:22.201000Z</time>
      </trkpt>
      <trkpt lat="48.421514" lon="11.147883">
        <ele>459</ele>
        <time>2025-10-16T19:08:32.001000Z</time>
      </trkpt>
      <trkpt lat="48.421441" lon="11.148174">
        <ele>458.8</ele>
        <time>2025-10-16T19:08:53.148000Z</time>
      </trkpt>
      <trkpt lat="48.421108" lon="11.148663">
        <ele>458.3</ele>
        <time>2025-10-16T19:09:40.675000Z</time>
      </trkpt>
      <trkpt lat="48.42109" lon="11.148554">
        <ele>458.2</ele>
        <time>2025-10-16T19:09:48.403000Z</time>
      </trkpt>
      <trkpt lat="48.42107" lon="11.148476">
        <ele>458.1</ele>
        <time>2025-10-16T19:09:53.988000Z</time>
      </trkpt>
      <trkpt lat="48.421032" lon="11.148333">
        <ele>458.3</ele>
        <time>2025-10-16T19:10:04.780000Z</time>
      </trkpt>
      <trkpt lat="48.42107" lon="11.148476">
        <ele>458.3</ele>
        <time>2025-10-16T19:10:15.166000Z</time>
      </trkpt>
      <trkpt lat="48.42109" lon="11.148554">
        <ele>458.3</ele>
        <time>2025-10-16T19:10:20.692000Z</time>
      </trkpt>
      <trkpt lat="48.421108" lon="11.148663">
        <ele>458.4</ele>
        <time>2025-10-16T19:10:28.346000Z</time>
      </trkpt>
      <trkpt lat="48.4211" lon="11.148779">
        <ele>458.6</ele>
        <time>2025-10-16T19:10:36.700000Z</time>
      </trkpt>
      <trkpt lat="48.421127" lon="11.148907">
        <ele>458.8</ele>
        <time>2025-10-16T19:10:46.446000Z</time>
      </trkpt>
      <trkpt lat="48.421276" lon="11.149271">
        <ele>459.5</ele>
        <time>2025-10-16T19:11:17.322000Z</time>
      </trkpt>
      <trkpt lat="48.421387" lon="11.149521">
        <ele>460.1</ele>
        <time>2025-10-16T19:11:39.280000Z</time>
      </trkpt>
      <trkpt lat="48.421424" lon="11.149616">
        <ele>460.3</ele>
        <time>2025-10-16T19:11:47.274000Z</time>
      </trkpt>
      <trkpt lat="48.42147" lon="11.149736">
        <ele>460.6</ele>
        <time>2025-10-16T19:11:57.721000Z</time>
      </trkpt>
      <trkpt lat="48.421549" lon="11.149928">
        <ele>461.1</ele>
        <time>2025-10-16T19:12:14.553000Z</time>
      </trkpt>
      <trkpt lat="48.421677" lon="11.149855">
        <ele>461.5</ele>
        <time>2025-10-16T19:12:29.584000Z</time>
      </trkpt>
      <trkpt lat="48.421782" lon="11.15031">
        <ele>462.6</ele>
        <time>2025-10-16T19:13:05.382000Z</time>
      </trkpt>
      <trkpt lat="48.421782" lon="11.150515">
        <ele>463</ele>
        <time>2025-10-16T19:13:20.417000Z</time>
      </trkpt>
      <trkpt lat="48.421742" lon="11.15074">
        <ele>463.6</ele>
        <time>2025-10-16T19:13:37.842000Z</time>
      </trkpt>
      <trkpt lat="48.421657" lon="11.150923">
        <ele>464</ele>
        <time>2025-10-16T19:13:54.035000Z</time>
      </trkpt>
      <trkpt lat="48.421939" lon="11.1515">
        <ele>465.6</ele>
        <time>2025-10-16T19:14:47.439000Z</time>
      </trkpt>
      <trkpt lat="48.421789" lon="11.151687">
        <ele>466.2</ele>
        <time>2025-10-16T19:15:08.912000Z</time>
      </trkpt>
      <trkpt lat="48.421615" lon="11.151848">
        <ele>466.8</ele>
        <time>2025-10-16T19:15:31.494000Z</time>
      </trkpt>
      <trkpt lat="48.421537" lon="11.151911">
        <ele>467</ele>
        <time>2025-10-16T19:15:41.284000Z</time>
      </trkpt>
      <trkpt lat="48.421615" lon="11.151848">
        <ele>467.2</ele>
        <time>2025-10-16T19:15:50.890000Z</time>
      </trkpt>
      <trkpt lat="48.421789" lon="11.151687">
        <ele>467.6</ele>
        <time>2025-10-16T19:16:12.730000Z</time>
      </trkpt>
      <trkpt lat="48.421939" lon="11.1515">
        <ele>467.9</ele>
        <time>2025-10-16T19:16:33.110000Z</time>
      </trkpt>
      <trkpt lat="48.422127" lon="11.151884">
        <ele>468</ele>
        <time>2025-10-16T19:17:05.329000Z</time>
      </trkpt>
      <trkpt lat="48.422214" lon="11.152194">
        <ele>468</ele>
        <time>2025-10-16T19:17:27.703000Z</time>
      </trkpt>
      <trkpt lat="48.422323" lon="11.152939">
        <ele>467.8</ele>
        <time>2025-10-16T19:18:18.901000Z</time>
      </trkpt>
      <trkpt lat="48.422498" lon="11.154409">
        <ele>467.2</ele>
        <time>2025-10-16T19:19:59.338000Z</time>
      </trkpt>
      <trkpt lat="48.422558" lon="11.155201">
        <ele>466.7</ele>
        <time>2025-10-16T19:20:53.313000Z</time>
      </trkpt>
      <trkpt lat="48.422729" lon="11.155812">
        <ele>466.4</ele>
        <time>2025-10-16T19:21:37.899000Z</time>
      </trkpt>
      <trkpt lat="48.422976" lon="11.155743">
        <ele>466.3</ele>
        <time>2025-10-16T19:22:03.355000Z</time>
      </trkpt>
      <trkpt lat="48.423398" lon="11.15556">
        <ele>466.2</ele>
        <time>2025-10-16T19:22:47.434000Z</time>
      </trkpt>
      <trkpt lat="48.423637" lon="11.155509">
        <ele>466.2</ele>
        <time>2025-10-16T19:23:11.653000Z</time>
      </trkpt>
      <trkpt lat="48.423738" lon="11.155493">
        <ele>466.2</ele>
        <time>2025-10-16T19:23:21.833000Z</time>
      </trkpt>
      <trkpt lat="48.42337" lon="11.156848">
        <ele>466.3</ele>
        <time>2025-10-16T19:24:59.341000Z</time>
      </trkpt>
      <trkpt lat="48.423258" lon="11.157355">
        <ele>466.6</ele>
        <time>2025-10-16T19:25:35.950000Z</time>
      </trkpt>
      <trkpt lat="48.423196" lon="11.157839">
        <ele>467</ele>
        <time>2025-10-16T19:26:10.059000Z</time>
      </trkpt>
      <trkpt lat="48.423171" lon="11.158305">
        <ele>467.4</ele>
        <time>2025-10-16T19:26:42.353000Z</time>
      </trkpt>
      <trkpt lat="48.423111" lon="11.159085">
        <ele>467.9</ele>
        <time>2025-10-16T19:27:36.595000Z</time>
      </trkpt>
      <trkpt lat="48.42302" lon="11.160177">
        <ele>468.6</ele>
        <time>2025-10-16T19:28:51.926000Z</time>
      </trkpt>
      <trkpt lat="48.42277" lon="11.161224">
        <ele>469.4</ele>
        <time>2025-10-16T19:30:08.790000Z</time>
      </trkpt>
      <trkpt lat="48.422674" lon="11.161578">
        <ele>469.7</ele>
        <time>2025-10-16T19:30:35.382000Z</time>
      </trkpt>
      <trkpt lat="48.422479" lon="11.162321">
        <ele>470.5</ele>
        <time>2025-10-16T19:31:31.252000Z</time>
      </trkpt>
      <trkpt lat="48.422342" lon="11.162952">
        <ele>471.2</ele>
        <time>2025-10-16T19:32:17.762000Z</time>
      </trkpt>
      <trkpt lat="48.422117" lon="11.164575">
        <ele>473.9</ele>
        <time>2025-10-16T19:34:17.328000Z</time>
      </trkpt>
      <trkpt lat="48.422058" lon="11.165437">
        <ele>475.7</ele>
        <time>2025-10-16T19:35:21.370000Z</time>
      </trkpt>
      <trkpt lat="48.422002" lon="11.165859">
        <ele>476.7</ele>
        <time>2025-10-16T19:35:53.571000Z</time>
      </trkpt>
      <trkpt lat="48.421619" lon="11.167305">
        <ele>480</ele>
        <time>2025-10-16T19:37:48.375000Z</time>
      </trkpt>
      <trkpt lat="48.421543" lon="11.167476">
        <ele>480.3</ele>
        <time>2025-10-16T19:38:03.148000Z</time>
      </trkpt>
      <trkpt lat="48.421413" lon="11.167717">
        <ele>480.9</ele>
        <time>2025-10-16T19:38:25.887000Z</time>
      </trkpt>
      <trkpt lat="48.421334" lon="11.167811">
        <ele>481.1</ele>
        <time>2025-10-16T19:38:36.634000Z</time>
      </trkpt>
      <trkpt lat="48.420891" lon="11.168283">
        <ele>482.3</ele>
        <time>2025-10-16T19:39:35.275000Z</time>
      </trkpt>
      <trkpt lat="48.419998" lon="11.169082">
        <ele>485.1</ele>
        <time>2025-10-16T19:41:29.021000Z</time>
      </trkpt>
      <trkpt lat="48.41981" lon="11.169305">
        <ele>486</ele>
        <time>2025-10-16T19:41:55.997000Z</time>
      </trkpt>
      <trkpt lat="48.419745" lon="11.169458">
        <ele>486.4</ele>
        <time>2025-10-16T19:42:09.554000Z</time>
      </trkpt>
      <trkpt lat="48.419712" lon="11.169749">
        <ele>487.3</ele>
        <time>2025-10-16T19:42:32.332000Z</time>
      </trkpt>
      <trkpt lat="48.419597" lon="11.170023">
        <ele>488.5</ele>
        <time>2025-10-16T19:42:57.839000Z</time>
      </trkpt>
      <trkpt lat="48.419562" lon="11.170149">
        <ele>489</ele>
        <time>2025-10-16T19:43:08.808000Z</time>
      </trkpt>
      <trkpt lat="48.419455" lon="11.170534">
        <ele>490.9</ele>
        <time>2025-10-16T19:43:43.024000Z</time>
      </trkpt>
      <trkpt lat="48.418665" lon="11.170554">
        <ele>497.3</ele>
        <time>2025-10-16T19:45:23.481000Z</time>
      </trkpt>
      <trkpt lat="48.418229" lon="11.171149">
        <ele>501.6</ele>
        <time>2025-10-16T19:46:37.309000Z</time>
      </trkpt>
      <trkpt lat="48.418153" lon="11.171501">
        <ele>503.2</ele>
        <time>2025-10-16T19:47:07.375000Z</time>
      </trkpt>
      <trkpt lat="48.417633" lon="11.171965">
        <ele>506.5</ele>
        <time>2025-10-16T19:48:19.073000Z</time>
      </trkpt>
      <trkpt lat="48.416196" lon="11.173453">
        <ele>510.1</ele>
        <time>2025-10-16T19:51:26.452000Z</time>
      </trkpt>
      <trkpt lat="48.416129" lon="11.17363">
        <ele>510.2</ele>
        <time>2025-10-16T19:51:40.086000Z</time>
      </trkpt>
      <trkpt lat="48.415637" lon="11.173984">
        <ele>510.2</ele>
        <time>2025-10-16T19:52:34.852000Z</time>
      </trkpt>
      <trkpt lat="48.415619" lon="11.174078">
        <ele>510.3</ele>
        <time>2025-10-16T19:52:41.458000Z</time>
      </trkpt>
      <trkpt lat="48.415625" lon="11.174542">
        <ele>510.3</ele>
        <time>2025-10-16T19:53:12.359000Z</time>
      </trkpt>
      <trkpt lat="48.415141" lon="11.174618">
        <ele>510.2</ele>
        <time>2025-10-16T19:54:01.261000Z</time>
      </trkpt>
      <trkpt lat="48.41491" lon="11.174617">
        <ele>510</ele>
        <time>2025-10-16T19:54:24.717000Z</time>
      </trkpt>
      <trkpt lat="48.414564" lon="11.174605">
        <ele>509.6</ele>
        <time>2025-10-16T19:55:00.254000Z</time>
      </trkpt>
      <trkpt lat="48.414388" lon="11.174531">
        <ele>509.2</ele>
        <time>2025-10-16T19:55:19.285000Z</time>
      </trkpt>
      <trkpt lat="48.41321" lon="11.173944">
        <ele>505</ele>
        <time>2025-10-16T19:57:32.188000Z</time>
      </trkpt>
      <trkpt lat="48.41247" lon="11.173618">
        <ele>502.9</ele>
        <time>2025-10-16T19:58:53.684000Z</time>
      </trkpt>
      <trkpt lat="48.412059" lon="11.173378">
        <ele>501.9</ele>
        <time>2025-10-16T19:59:39.799000Z</time>
      </trkpt>
      <trkpt lat="48.41193" lon="11.173284">
        <ele>501.7</ele>
        <time>2025-10-16T19:59:54.513000Z</time>
      </trkpt>
      <trkpt lat="48.411753" lon="11.173067">
        <ele>501.3</ele>
        <time>2025-10-16T20:00:18.154000Z</time>
      </trkpt>
      <trkpt lat="48.411366" lon="11.172368">
        <ele>500.8</ele>
        <time>2025-10-16T20:01:19.706000Z</time>
      </trkpt>
      <trkpt lat="48.411194" lon="11.172151">
        <ele>500.8</ele>
        <time>2025-10-16T20:01:42.209000Z</time>
      </trkpt>
      <trkpt lat="48.411076" lon="11.172045">
        <ele>500.8</ele>
        <time>2025-10-16T20:01:55.988000Z</time>
      </trkpt>
      <trkpt lat="48.410821" lon="11.171889">
        <ele>500.8</ele>
        <time>2025-10-16T20:02:23.559000Z</time>
      </trkpt>
      <trkpt lat="48.410496" lon="11.171753">
        <ele>500.7</ele>
        <time>2025-10-16T20:02:57.650000Z</time>
      </trkpt>
      <trkpt lat="48.410212" lon="11.171675">
        <ele>500.3</ele>
        <time>2025-10-16T20:03:27.251000Z</time>
      </trkpt>
      <trkpt lat="48.409417" lon="11.171629">
        <ele>499.2</ele>
        <time>2025-10-16T20:04:49.253000Z</time>
      </trkpt>
      <trkpt lat="48.409031" lon="11.171564">
        <ele>498.6</ele>
        <time>2025-10-16T20:05:29.294000Z</time>
      </trkpt>
      <trkpt lat="48.408826" lon="11.171394">
        <ele>498.1</ele>
        <time>2025-10-16T20:05:53.685000Z</time>
      </trkpt>
      <trkpt lat="48.408567" lon="11.170931">
        <ele>497</ele>
        <time>2025-10-16T20:06:36.242000Z</time>
      </trkpt>
      <trkpt lat="48.408529" lon="11.170852">
        <ele>496.9</ele>
        <time>2025-10-16T20:06:43.064000Z</time>
      </trkpt>
      <trkpt lat="48.408426" lon="11.170642">
        <ele>496.2</ele>
        <time>2025-10-16T20:07:01.721000Z</time>
      </trkpt>
      <trkpt lat="48.408385" lon="11.170559">
        <ele>495.9</ele>
        <time>2025-10-16T20:07:09.201000Z</time>
      </trkpt>
      <trkpt lat="48.408211" lon="11.170177">
        <ele>494.7</ele>
        <time>2025-10-16T20:07:42.502000Z</time>
      </trkpt>
      <trkpt lat="48.408066" lon="11.16993">
        <ele>493.7</ele>
        <time>2025-10-16T20:08:06.324000Z</time>
      </trkpt>
      <trkpt lat="48.407952" lon="11.169804">
        <ele>493</ele>
        <time>2025-10-16T20:08:21.997000Z</time>
      </trkpt>
      <trkpt lat="48.407811" lon="11.169689">
        <ele>492.3</ele>
        <time>2025-10-16T20:08:39.464000Z</time>
      </trkpt>
      <trkpt lat="48.407617" lon="11.169584">
        <ele>491.2</ele>
        <time>2025-10-16T20:09:02.221000Z</time>
      </trkpt>
      <trkpt lat="48.407405" lon="11.169393">
        <ele>490</ele>
        <time>2025-10-16T20:09:29.453000Z</time>
      </trkpt>
      <trkpt lat="48.407209" lon="11.16911">
        <ele>488.4</ele>
        <time>2025-10-16T20:09:59.816000Z</time>
      </trkpt>
      <trkpt lat="48.406893" lon="11.168437">
        <ele>484.6</ele>
        <time>2025-10-16T20:11:02.248000Z</time>
      </trkpt>
      <trkpt lat="48.406753" lon="11.168216">
        <ele>483.2</ele>
        <time>2025-10-16T20:11:25.363000Z</time>
      </trkpt>
      <trkpt lat="48.406611" lon="11.168037">
        <ele>481.8</ele>
        <time>2025-10-16T20:11:46.587000Z</time>
      </trkpt>
      <trkpt lat="48.406108" lon="11.167548">
        <ele>477.9</ele>
        <time>2025-10-16T20:12:54.452000Z</time>
      </trkpt>
      <trkpt lat="48.405792" lon="11.167093">
        <ele>475.1</ele>
        <time>2025-10-16T20:13:43.794000Z</time>
      </trkpt>
      <trkpt lat="48.405633" lon="11.166782">
        <ele>473.7</ele>
        <time>2025-10-16T20:14:12.720000Z</time>
      </trkpt>
      <trkpt lat="48.405595" lon="11.166701">
        <ele>473.2</ele>
        <time>2025-10-16T20:14:20.215000Z</time>
      </trkpt>
      <trkpt lat="48.405431" lon="11.166408">
        <ele>472</ele>
        <time>2025-10-16T20:14:48.133000Z</time>
      </trkpt>
      <trkpt lat="48.405274" lon="11.166148">
        <ele>471</ele>
        <time>2025-10-16T20:15:13.666000Z</time>
      </trkpt>
      <trkpt lat="48.405056" lon="11.165924">
        <ele>470.1</ele>
        <time>2025-10-16T20:15:41.910000Z</time>
      </trkpt>
      <trkpt lat="48.40496" lon="11.165829">
        <ele>469.7</ele>
        <time>2025-10-16T20:15:54.079000Z</time>
      </trkpt>
      <trkpt lat="48.404719" lon="11.165625">
        <ele>469.1</ele>
        <time>2025-10-16T20:16:23.112000Z</time>
      </trkpt>
      <trkpt lat="48.404636" lon="11.165598">
        <ele>468.9</ele>
        <time>2025-10-16T20:16:31.868000Z</time>
      </trkpt>
      <trkpt lat="48.404602" lon="11.165451">
        <ele>468.8</ele>
        <time>2025-10-16T20:16:42.415000Z</time>
      </trkpt>
      <trkpt lat="48.404458" lon="11.165172">
        <ele>468.4</ele>
        <time>2025-10-16T20:17:06.701000Z</time>
      </trkpt>
      <trkpt lat="48.404343" lon="11.165238">
        <ele>468.4</ele>
        <time>2025-10-16T20:17:19.174000Z</time>
      </trkpt>
      <trkpt lat="48.404237" lon="11.165273">
        <ele>468.2</ele>
        <time>2025-10-16T20:17:30.309000Z</time>
      </trkpt>
      <trkpt lat="48.40419" lon="11.165271">
        <ele>468.2</ele>
        <time>2025-10-16T20:17:35.152000Z</time>
      </trkpt>
      <trkpt lat="48.404142" lon="11.165221">
        <ele>468.1</ele>
        <time>2025-10-16T20:17:41.248000Z</time>
      </trkpt>
      <trkpt lat="48.40411" lon="11.165228">
        <ele>468</ele>
        <time>2025-10-16T20:17:44.487000Z</time>
      </trkpt>
      <trkpt lat="48.403996" lon="11.165257">
        <ele>467.9</ele>
        <time>2025-10-16T20:17:56.195000Z</time>
      </trkpt>
      <trkpt lat="48.403907" lon="11.165271">
        <ele>467.9</ele>
        <time>2025-10-16T20:18:05.315000Z</time>
      </trkpt>
      <trkpt lat="48.40372" lon="11.165294">
        <ele>467.8</ele>
        <time>2025-10-16T20:18:24.287000Z</time>
      </trkpt>
      <trkpt lat="48.403499" lon="11.165357">
        <ele>467.7</ele>
        <time>2025-10-16T20:18:47.059000Z</time>
      </trkpt>
      <trkpt lat="48.403432" lon="11.16538">
        <ele>467.6</ele>
        <time>2025-10-16T20:18:54.026000Z</time>
      </trkpt>
      <trkpt lat="48.403163" lon="11.165516">
        <ele>467.5</ele>
        <time>2025-10-16T20:19:22.765000Z</time>
      </trkpt>
      <trkpt lat="48.403055" lon="11.165555">
        <ele>467.4</ele>
        <time>2025-10-16T20:19:33.979000Z</time>
      </trkpt>
      <trkpt lat="48.40289" lon="11.165547">
        <ele>467.4</ele>
        <time>2025-10-16T20:19:50.635000Z</time>
      </trkpt>
      <trkpt lat="48.402721" lon="11.165432">
        <ele>467.3</ele>
        <time>2025-10-16T20:20:09.333000Z</time>
      </trkpt>
      <trkpt lat="48.402706" lon="11.165416">
        <ele>467.3</ele>
        <time>2025-10-16T20:20:11.116000Z</time>
      </trkpt>
      <trkpt lat="48.40258" lon="11.165285">
        <ele>467.2</ele>
        <time>2025-10-16T20:20:26.641000Z</time>
      </trkpt>
      <trkpt lat="48.402425" lon="11.165128">
        <ele>467.1</ele>
        <time>2025-10-16T20:20:45.500000Z</time>
      </trkpt>
      <trkpt lat="48.40238" lon="11.165083">
        <ele>467.1</ele>
        <time>2025-10-16T20:20:51.009000Z</time>
      </trkpt>
      <trkpt lat="48.402123" lon="11.164813">
        <ele>466.8</ele>
        <time>2025-10-16T20:21:22.944000Z</time>
      </trkpt>
      <trkpt lat="48.401969" lon="11.164712">
        <ele>466.7</ele>
        <time>2025-10-16T20:21:40.015000Z</time>
      </trkpt>
      <trkpt lat="48.40191" lon="11.164687">
        <ele>466.6</ele>
        <time>2025-10-16T20:21:46.189000Z</time>
      </trkpt>
      <trkpt lat="48.40182" lon="11.164647">
        <ele>466.6</ele>
        <time>2025-10-16T20:21:55.715000Z</time>
      </trkpt>
      <trkpt lat="48.401763" lon="11.164635">
        <ele>466.5</ele>
        <time>2025-10-16T20:22:01.596000Z</time>
      </trkpt>
      <trkpt lat="48.401477" lon="11.164577">
        <ele>466.4</ele>
        <time>2025-10-16T20:22:30.863000Z</time>
      </trkpt>
      <trkpt lat="48.401317" lon="11.164559">
        <ele>466.3</ele>
        <time>2025-10-16T20:22:47.065000Z</time>
      </trkpt>
      <trkpt lat="48.401036" lon="11.164561">
        <ele>466.2</ele>
        <time>2025-10-16T20:23:15.379000Z</time>
      </trkpt>
      <trkpt lat="48.400926" lon="11.164574">
        <ele>466.2</ele>
        <time>2025-10-16T20:23:26.510000Z</time>
      </trkpt>
      <trkpt lat="48.40085" lon="11.164583">
        <ele>466.1</ele>
        <time>2025-10-16T20:23:34.160000Z</time>
      </trkpt>
      <trkpt lat="48.400711" lon="11.164599">
        <ele>466.1</ele>
        <time>2025-10-16T20:23:48.161000Z</time>
      </trkpt>
      <trkpt lat="48.400494" lon="11.16462">
        <ele>466.2</ele>
        <time>2025-10-16T20:24:10.135000Z</time>
      </trkpt>
      <trkpt lat="48.400335" lon="11.164628">
        <ele>466.3</ele>
        <time>2025-10-16T20:24:26.497000Z</time>
      </trkpt>
      <trkpt lat="48.400296" lon="11.164632">
        <ele>466.3</ele>
        <time>2025-10-16T20:24:30.547000Z</time>
      </trkpt>
      <trkpt lat="48.400105" lon="11.164677">
        <ele>466.5</ele>
        <time>2025-10-16T20:24:50.625000Z</time>
      </trkpt>
      <trkpt lat="48.399909" lon="11.16471">
        <ele>466.7</ele>
        <time>2025-10-16T20:25:11.161000Z</time>
      </trkpt>
      <trkpt lat="48.399773" lon="11.164729">
        <ele>466.9</ele>
        <time>2025-10-16T20:25:25.266000Z</time>
      </trkpt>
      <trkpt lat="48.399737" lon="11.164734">
        <ele>466.9</ele>
        <time>2025-10-16T20:25:29.002000Z</time>
      </trkpt>
      <trkpt lat="48.39957" lon="11.164759">
        <ele>467.1</ele>
        <time>2025-10-16T20:25:46.583000Z</time>
      </trkpt>
      <trkpt lat="48.399288" lon="11.16481">
        <ele>467.5</ele>
        <time>2025-10-16T20:26:16.265000Z</time>
      </trkpt>
      <trkpt lat="48.39907" lon="11.164856">
        <ele>467.7</ele>
        <time>2025-10-16T20:26:39.165000Z</time>
      </trkpt>
      <trkpt lat="48.399013" lon="11.164869">
        <ele>467.8</ele>
        <time>2025-10-16T20:26:45.165000Z</time>
      </trkpt>
      <trkpt lat="48.398879" lon="11.164891">
        <ele>467.9</ele>
        <time>2025-10-16T20:26:59.168000Z</time>
      </trkpt>
      <trkpt lat="48.398734" lon="11.164916">
        <ele>468</ele>
        <time>2025-10-16T20:27:14.056000Z</time>
      </trkpt>
      <trkpt lat="48.398565" lon="11.164945">
        <ele>468.1</ele>
        <time>2025-10-16T20:27:31.491000Z</time>
      </trkpt>
      <trkpt lat="48.398475" lon="11.16495">
        <ele>468.1</ele>
        <time>2025-10-16T20:27:40.644000Z</time>
      </trkpt>
      <trkpt lat="48.398425" lon="11.164948">
        <ele>468.1</ele>
        <time>2025-10-16T20:27:45.652000Z</time>
      </trkpt>
      <trkpt lat="48.398287" lon="11.164944">
        <ele>468.2</ele>
        <time>2025-10-16T20:27:59.501000Z</time>
      </trkpt>
      <trkpt lat="48.398071" lon="11.164938">
        <ele>468.2</ele>
        <time>2025-10-16T20:28:21.096000Z</time>
      </trkpt>
      <trkpt lat="48.398045" lon="11.164937">
        <ele>468.2</ele>
        <time>2025-10-16T20:28:23.773000Z</time>
      </trkpt>
      <trkpt lat="48.397911" lon="11.164936">
        <ele>468.2</ele>
        <time>2025-10-16T20:28:37.103000Z</time>
      </trkpt>
      <trkpt lat="48.397775" lon="11.164925">
        <ele>468.2</ele>
        <time>2025-10-16T20:28:50.826000Z</time>
      </trkpt>
      <trkpt lat="48.3977" lon="11.164907">
        <ele>468.1</ele>
        <time>2025-10-16T20:28:58.437000Z</time>
      </trkpt>
      <trkpt lat="48.397668" lon="11.164899">
        <ele>468.1</ele>
        <time>2025-10-16T20:29:01.723000Z</time>
      </trkpt>
      <trkpt lat="48.397573" lon="11.164871">
        <ele>468.1</ele>
        <time>2025-10-16T20:29:11.486000Z</time>
      </trkpt>
      <trkpt lat="48.397405" lon="11.164787">
        <ele>468.1</ele>
        <time>2025-10-16T20:29:29.118000Z</time>
      </trkpt>
      <trkpt lat="48.397242" lon="11.164687">
        <ele>468.1</ele>
        <time>2025-10-16T20:29:46.757000Z</time>
      </trkpt>
      <trkpt lat="48.397191" lon="11.164655">
        <ele>468.1</ele>
        <time>2025-10-16T20:29:52.355000Z</time>
      </trkpt>
      <trkpt lat="48.39712" lon="11.164614">
        <ele>468.1</ele>
        <time>2025-10-16T20:29:59.932000Z</time>
      </trkpt>
      <trkpt lat="48.396926" lon="11.164516">
        <ele>468</ele>
        <time>2025-10-16T20:30:20.601000Z</time>
      </trkpt>
      <trkpt lat="48.396697" lon="11.164459">
        <ele>468</ele>
        <time>2025-10-16T20:30:43.997000Z</time>
      </trkpt>
      <trkpt lat="48.396375" lon="11.16443">
        <ele>467.9</ele>
        <time>2025-10-16T20:31:16.480000Z</time>
      </trkpt>
      <trkpt lat="48.396311" lon="11.164427">
        <ele>467.9</ele>
        <time>2025-10-16T20:31:22.916000Z</time>
      </trkpt>
      <trkpt lat="48.396219" lon="11.164406">
        <ele>467.8</ele>
        <time>2025-10-16T20:31:32.270000Z</time>
      </trkpt>
      <trkpt lat="48.396093" lon="11.164314">
        <ele>467.8</ele>
        <time>2025-10-16T20:31:46.364000Z</time>
      </trkpt>
      <trkpt lat="48.395742" lon="11.163638">
        <ele>467.7</ele>
        <time>2025-10-16T20:32:43.550000Z</time>
      </trkpt>
      <trkpt lat="48.395433" lon="11.16328">
        <ele>467.8</ele>
        <time>2025-10-16T20:33:22.954000Z</time>
      </trkpt>
      <trkpt lat="48.395249" lon="11.163165">
        <ele>468</ele>
        <time>2025-10-16T20:33:43.611000Z</time>
      </trkpt>
      <trkpt lat="48.394984" lon="11.163075">
        <ele>468.3</ele>
        <time>2025-10-16T20:34:11.655000Z</time>
      </trkpt>
      <trkpt lat="48.394863" lon="11.163028">
        <ele>468.4</ele>
        <time>2025-10-16T20:34:24.786000Z</time>
      </trkpt>
      <trkpt lat="48.394635" lon="11.162866">
        <ele>468.5</ele>
        <time>2025-10-16T20:34:50.216000Z</time>
      </trkpt>
      <trkpt lat="48.394355" lon="11.162565">
        <ele>468.4</ele>
        <time>2025-10-16T20:35:24.624000Z</time>
      </trkpt>
      <trkpt lat="48.394124" lon="11.162263">
        <ele>468.3</ele>
        <time>2025-10-16T20:35:55.519000Z</time>
      </trkpt>
      <trkpt lat="48.393992" lon="11.162302">
        <ele>468.4</ele>
        <time>2025-10-16T20:36:09.393000Z</time>
      </trkpt>
      <trkpt lat="48.393713" lon="11.161885">
        <ele>468.5</ele>
        <time>2025-10-16T20:36:49.204000Z</time>
      </trkpt>
      <trkpt lat="48.393658" lon="11.161802">
        <ele>468.5</ele>
        <time>2025-10-16T20:36:57.004000Z</time>
      </trkpt>
      <trkpt lat="48.393334" lon="11.161311">
        <ele>468.5</ele>
        <time>2025-10-16T20:37:43.087000Z</time>
      </trkpt>
      <trkpt lat="48.393129" lon="11.161046">
        <ele>468.6</ele>
        <time>2025-10-16T20:38:10.439000Z</time>
      </trkpt>
      <trkpt lat="48.393076" lon="11.160869">
        <ele>468.6</ele>
        <time>2025-10-16T20:38:23.334000Z</time>
      </trkpt>
      <trkpt lat="48.392954" lon="11.160916">
        <ele>468.7</ele>
        <time>2025-10-16T20:38:36.255000Z</time>
      </trkpt>
      <trkpt lat="48.392847" lon="11.161164">
        <ele>468.6</ele>
        <time>2025-10-16T20:38:55.985000Z</time>
      </trkpt>
      <trkpt lat="48.392784" lon="11.161103">
        <ele>468.7</ele>
        <time>2025-10-16T20:39:03.486000Z</time>
      </trkpt>
      <trkpt lat="48.392746" lon="11.161017">
        <ele>468.6</ele>
        <time>2025-10-16T20:39:10.402000Z</time>
      </trkpt>
    </trkseg>
  </trk>
</gpx>