<?xml version="1.0" encoding="UTF-8"?>
<gpx xmlns="http://www.topografix.com/GPX/1/1" xmlns:xsi="http://www.w3.org/2001/XMLSchema-instance" xsi:schemaLocation="http://www.topografix.com/GPX/1/1 http://www.topografix.com/GPX/1/1/gpx.xsd" version="1.1" creator="Robert Kampf">
  <metadata>
    <name>Waldgaststätte Da Luigi – Kleine Kapelle mit Bank Runde von Obergriesbach</name>
    <desc>Distance: 8.325km, Estimated duration: 2.24h, Elevation up: 106.36246739728068m, Elevation down: 107.09390577429235m, Grade: moderate</desc>
    <author>
      <name>Robert Kampf</name>
      <link href="https://www.komoot.de/user/4125295338453">
        <text>View Robert Kampf's Profile on Komoot</text>
      </link>
    </author>
    <link href="https://www.komoot.de/tour/2766536902">
      <text>View tour on Komoot</text>
    </link>
  </metadata>
  <wpt lat="48.426464" lon="11.058814">
    <name>Parking</name>
    <cmt></cmt>
    <desc>Free</desc>
    <src>Komoot</src>
    <type>POI</type>
  </wpt>
  <wpt lat="48.426281" lon="11.057915">
    <ele>548</ele>
    <name>Forest Inn Da Luigi</name>
    <cmt>https://d2exd72xrrp1s7.cloudfront.net/www/000/1k8/9s/9sungrsi83iadihtsgtxnuhi4w54cvbq-uhi69286155/0</cmt>
    <desc>SabineK: Hausgemachte Nudeln, leckere Pizzen, freundlicher, singender Wirt, nette Bedienungen und hundefreundlich.  Was will man mehr...
――――――――――
SabineK: https://ristorante-da-luigi.webnode.page/
――――――――――
Superruisi: Leider gibt’s den Luigi nicht mehr in Obergriesbach! 🤷🏻‍♂️</desc>
    <src>Komoot</src>
    <link href="https://www.komoot.de/highlight/6435890">
      <text>View POI on Komoot</text>
    </link>
    <type>Highlight</type>
  </wpt>
  <wpt lat="48.440673" lon="11.037608">
    <ele>542.7</ele>
    <name>Small Chapel with Bench</name>
    <cmt>https://d2exd72xrrp1s7.cloudfront.net/www/000/1k9/9q/9q2pnyqelko81oh66n1zanw345a2brqbc-uhi83217252/0</cmt>
    <desc></desc>
    <src>Komoot</src>
    <link href="https://www.komoot.de/highlight/7265948">
      <text>View POI on Komoot</text>
    </link>
    <type>Highlight</type>
  </wpt>
  <trk>
    <name>Waldgaststätte Da Luigi – Kleine Kapelle mit Bank Runde von Obergriesbach</name>
    <desc>Distance: 8.325km, Estimated duration: 2.24h, Elevation up: 106.36246739728068m, Elevation down: 107.09390577429235m, Grade: moderate</desc>
    <link href="https://www.komoot.de/tour/2766536902">
      <text>View tour on Komoot</text>
    </link>
    <trkseg>
      <trkpt lat="48.426483" lon="11.058747">
        <ele>499</ele>
        <time>2026-01-29T11:25:36.539000Z</time>
      </trkpt>
      <trkpt lat="48.42644" lon="11.058718">
        <ele>499</ele>
        <time>2026-01-29T11:25:41.307000Z</time>
      </trkpt>
      <trkpt lat="48.426404" lon="11.058696">
        <ele>499</ele>
        <time>2026-01-29T11:25:45.121000Z</time>
      </trkpt>
      <trkpt lat="48.426463" lon="11.058491">
        <ele>499</ele>
        <time>2026-01-29T11:26:00.067000Z</time>
      </trkpt>
      <trkpt lat="48.426519" lon="11.058307">
        <ele>498.9</ele>
        <time>2026-01-29T11:26:13.688000Z</time>
      </trkpt>
      <trkpt lat="48.426544" lon="11.058214">
        <ele>498.8</ele>
        <time>2026-01-29T11:26:20.460000Z</time>
      </trkpt>
      <trkpt lat="48.426312" lon="11.057958">
        <ele>498.4</ele>
        <time>2026-01-29T11:26:50.078000Z</time>
      </trkpt>
      <trkpt lat="48.426544" lon="11.058214">
        <ele>497.8</ele>
        <time>2026-01-29T11:27:20.112000Z</time>
      </trkpt>
      <trkpt lat="48.426519" lon="11.058307">
        <ele>497.6</ele>
        <time>2026-01-29T11:27:27.108000Z</time>
      </trkpt>
      <trkpt lat="48.428535" lon="11.059617">
        <ele>487.5</ele>
        <time>2026-01-29T11:31:27.376000Z</time>
      </trkpt>
      <trkpt lat="48.427839" lon="11.06208">
        <ele>485.2</ele>
        <time>2026-01-29T11:34:29.959000Z</time>
      </trkpt>
      <trkpt lat="48.427788" lon="11.062382">
        <ele>486.1</ele>
        <time>2026-01-29T11:34:53.587000Z</time>
      </trkpt>
      <trkpt lat="48.427954" lon="11.062333">
        <ele>486.9</ele>
        <time>2026-01-29T11:35:13.306000Z</time>
      </trkpt>
      <trkpt lat="48.428308" lon="11.062205">
        <ele>489</ele>
        <time>2026-01-29T11:35:57.246000Z</time>
      </trkpt>
      <trkpt lat="48.428781" lon="11.062025">
        <ele>492.4</ele>
        <time>2026-01-29T11:36:57.518000Z</time>
      </trkpt>
      <trkpt lat="48.429244" lon="11.061907">
        <ele>495.8</ele>
        <time>2026-01-29T11:37:56.029000Z</time>
      </trkpt>
      <trkpt lat="48.429647" lon="11.061675">
        <ele>497.6</ele>
        <time>2026-01-29T11:38:45.759000Z</time>
      </trkpt>
      <trkpt lat="48.42988" lon="11.061626">
        <ele>498.4</ele>
        <time>2026-01-29T11:39:12.015000Z</time>
      </trkpt>
      <trkpt lat="48.429947" lon="11.061287">
        <ele>499.1</ele>
        <time>2026-01-29T11:39:37.817000Z</time>
      </trkpt>
      <trkpt lat="48.431207" lon="11.057213">
        <ele>505.4</ele>
        <time>2026-01-29T11:44:58.708000Z</time>
      </trkpt>
      <trkpt lat="48.432467" lon="11.053139">
        <ele>511.2</ele>
        <time>2026-01-29T11:50:17.600000Z</time>
      </trkpt>
      <trkpt lat="48.433132" lon="11.051057">
        <ele>512.1</ele>
        <time>2026-01-29T11:52:54.219000Z</time>
      </trkpt>
      <trkpt lat="48.433144" lon="11.05092">
        <ele>512.1</ele>
        <time>2026-01-29T11:53:03.550000Z</time>
      </trkpt>
      <trkpt lat="48.433117" lon="11.050783">
        <ele>512.1</ele>
        <time>2026-01-29T11:53:13.172000Z</time>
      </trkpt>
      <trkpt lat="48.432971" lon="11.050325">
        <ele>512.4</ele>
        <time>2026-01-29T11:53:47.859000Z</time>
      </trkpt>
      <trkpt lat="48.432777" lon="11.049249">
        <ele>513.7</ele>
        <time>2026-01-29T11:55:06.600000Z</time>
      </trkpt>
      <trkpt lat="48.432686" lon="11.048917">
        <ele>514.5</ele>
        <time>2026-01-29T11:55:33.259000Z</time>
      </trkpt>
      <trkpt lat="48.432577" lon="11.048348">
        <ele>516.3</ele>
        <time>2026-01-29T11:56:18.622000Z</time>
      </trkpt>
      <trkpt lat="48.432423" lon="11.047885">
        <ele>517.9</ele>
        <time>2026-01-29T11:56:58.877000Z</time>
      </trkpt>
      <trkpt lat="48.432291" lon="11.047587">
        <ele>518.9</ele>
        <time>2026-01-29T11:57:26.156000Z</time>
      </trkpt>
      <trkpt lat="48.432094" lon="11.047283">
        <ele>519.8</ele>
        <time>2026-01-29T11:57:57.347000Z</time>
      </trkpt>
      <trkpt lat="48.431747" lon="11.04684">
        <ele>520.6</ele>
        <time>2026-01-29T11:58:45.731000Z</time>
      </trkpt>
      <trkpt lat="48.43153" lon="11.046428">
        <ele>520.6</ele>
        <time>2026-01-29T11:59:20.728000Z</time>
      </trkpt>
      <trkpt lat="48.431477" lon="11.046206">
        <ele>520.4</ele>
        <time>2026-01-29T11:59:36.788000Z</time>
      </trkpt>
      <trkpt lat="48.432506" lon="11.044127">
        <ele>515.8</ele>
        <time>2026-01-29T12:02:38.627000Z</time>
      </trkpt>
      <trkpt lat="48.433262" lon="11.04271">
        <ele>515.1</ele>
        <time>2026-01-29T12:04:40.699000Z</time>
      </trkpt>
      <trkpt lat="48.433338" lon="11.04262">
        <ele>515.1</ele>
        <time>2026-01-29T12:04:50.475000Z</time>
      </trkpt>
      <trkpt lat="48.433841" lon="11.041285">
        <ele>514.1</ele>
        <time>2026-01-29T12:06:34.481000Z</time>
      </trkpt>
      <trkpt lat="48.433796" lon="11.041024">
        <ele>513.9</ele>
        <time>2026-01-29T12:06:52.847000Z</time>
      </trkpt>
      <trkpt lat="48.433767" lon="11.040752">
        <ele>513.7</ele>
        <time>2026-01-29T12:07:11.490000Z</time>
      </trkpt>
      <trkpt lat="48.433737" lon="11.040467">
        <ele>513.6</ele>
        <time>2026-01-29T12:07:30.876000Z</time>
      </trkpt>
      <trkpt lat="48.433761" lon="11.039989">
        <ele>513.6</ele>
        <time>2026-01-29T12:08:02.752000Z</time>
      </trkpt>
      <trkpt lat="48.433919" lon="11.038852">
        <ele>515.2</ele>
        <time>2026-01-29T12:09:25.544000Z</time>
      </trkpt>
      <trkpt lat="48.434002" lon="11.038528">
        <ele>516</ele>
        <time>2026-01-29T12:09:51.531000Z</time>
      </trkpt>
      <trkpt lat="48.434093" lon="11.03831">
        <ele>516.7</ele>
        <time>2026-01-29T12:10:10.947000Z</time>
      </trkpt>
      <trkpt lat="48.434209" lon="11.03809">
        <ele>517.4</ele>
        <time>2026-01-29T12:10:32.079000Z</time>
      </trkpt>
      <trkpt lat="48.434335" lon="11.037681">
        <ele>518.5</ele>
        <time>2026-01-29T12:11:06.084000Z</time>
      </trkpt>
      <trkpt lat="48.43459" lon="11.037113">
        <ele>520.2</ele>
        <time>2026-01-29T12:11:57.535000Z</time>
      </trkpt>
      <trkpt lat="48.434643" lon="11.036888">
        <ele>520.8</ele>
        <time>2026-01-29T12:12:15.333000Z</time>
      </trkpt>
      <trkpt lat="48.434863" lon="11.034886">
        <ele>520.7</ele>
        <time>2026-01-29T12:14:30.436000Z</time>
      </trkpt>
      <trkpt lat="48.435395" lon="11.035394">
        <ele>518.5</ele>
        <time>2026-01-29T12:15:37.797000Z</time>
      </trkpt>
      <trkpt lat="48.43563" lon="11.035557">
        <ele>517.3</ele>
        <time>2026-01-29T12:16:06.185000Z</time>
      </trkpt>
      <trkpt lat="48.435952" lon="11.035204">
        <ele>515</ele>
        <time>2026-01-29T12:16:50.750000Z</time>
      </trkpt>
      <trkpt lat="48.436044" lon="11.035017">
        <ele>514</ele>
        <time>2026-01-29T12:17:08.141000Z</time>
      </trkpt>
      <trkpt lat="48.436205" lon="11.034434">
        <ele>511.4</ele>
        <time>2026-01-29T12:17:55.251000Z</time>
      </trkpt>
      <trkpt lat="48.436254" lon="11.034142">
        <ele>510.3</ele>
        <time>2026-01-29T12:18:17.519000Z</time>
      </trkpt>
      <trkpt lat="48.436285" lon="11.033683">
        <ele>508.6</ele>
        <time>2026-01-29T12:18:51.708000Z</time>
      </trkpt>
      <trkpt lat="48.436336" lon="11.033458">
        <ele>507.6</ele>
        <time>2026-01-29T12:19:09.393000Z</time>
      </trkpt>
      <trkpt lat="48.4364" lon="11.033353">
        <ele>507.1</ele>
        <time>2026-01-29T12:19:19.914000Z</time>
      </trkpt>
      <trkpt lat="48.436639" lon="11.033086">
        <ele>505.5</ele>
        <time>2026-01-29T12:19:52.886000Z</time>
      </trkpt>
      <trkpt lat="48.436786" lon="11.033008">
        <ele>504.8</ele>
        <time>2026-01-29T12:20:09.992000Z</time>
      </trkpt>
      <trkpt lat="48.436864" lon="11.033019">
        <ele>504.5</ele>
        <time>2026-01-29T12:20:18.498000Z</time>
      </trkpt>
      <trkpt lat="48.437189" lon="11.033204">
        <ele>503.2</ele>
        <time>2026-01-29T12:20:55.920000Z</time>
      </trkpt>
      <trkpt lat="48.43756" lon="11.033913">
        <ele>501.7</ele>
        <time>2026-01-29T12:21:58.871000Z</time>
      </trkpt>
      <trkpt lat="48.437791" lon="11.034588">
        <ele>500.8</ele>
        <time>2026-01-29T12:22:51.150000Z</time>
      </trkpt>
      <trkpt lat="48.437922" lon="11.035049">
        <ele>500.2</ele>
        <time>2026-01-29T12:23:25.787000Z</time>
      </trkpt>
      <trkpt lat="48.437957" lon="11.035244">
        <ele>499.8</ele>
        <time>2026-01-29T12:23:39.850000Z</time>
      </trkpt>
      <trkpt lat="48.438057" lon="11.035795">
        <ele>498.9</ele>
        <time>2026-01-29T12:24:19.807000Z</time>
      </trkpt>
      <trkpt lat="48.438129" lon="11.035914">
        <ele>498.6</ele>
        <time>2026-01-29T12:24:31.059000Z</time>
      </trkpt>
      <trkpt lat="48.438568" lon="11.036274">
        <ele>497.3</ele>
        <time>2026-01-29T12:25:23.779000Z</time>
      </trkpt>
      <trkpt lat="48.43919" lon="11.036723">
        <ele>496.7</ele>
        <time>2026-01-29T12:26:33.892000Z</time>
      </trkpt>
      <trkpt lat="48.439604" lon="11.036979">
        <ele>496.3</ele>
        <time>2026-01-29T12:27:19.652000Z</time>
      </trkpt>
      <trkpt lat="48.439799" lon="11.037361">
        <ele>495.3</ele>
        <time>2026-01-29T12:27:53.806000Z</time>
      </trkpt>
      <trkpt lat="48.440031" lon="11.037948">
        <ele>494.2</ele>
        <time>2026-01-29T12:28:41.403000Z</time>
      </trkpt>
      <trkpt lat="48.440707" lon="11.037673">
        <ele>494.2</ele>
        <time>2026-01-29T12:29:51.657000Z</time>
      </trkpt>
      <trkpt lat="48.440031" lon="11.037948">
        <ele>493.9</ele>
        <time>2026-01-29T12:31:02.310000Z</time>
      </trkpt>
      <trkpt lat="48.440165" lon="11.038407">
        <ele>494.6</ele>
        <time>2026-01-29T12:31:38.053000Z</time>
      </trkpt>
      <trkpt lat="48.440329" lon="11.039659">
        <ele>496.1</ele>
        <time>2026-01-29T12:33:08.026000Z</time>
      </trkpt>
      <trkpt lat="48.440345" lon="11.039997">
        <ele>495.7</ele>
        <time>2026-01-29T12:33:31.449000Z</time>
      </trkpt>
      <trkpt lat="48.440317" lon="11.040174">
        <ele>495.4</ele>
        <time>2026-01-29T12:33:44.158000Z</time>
      </trkpt>
      <trkpt lat="48.440078" lon="11.040899">
        <ele>493.4</ele>
        <time>2026-01-29T12:34:41.887000Z</time>
      </trkpt>
      <trkpt lat="48.44002" lon="11.042044">
        <ele>488.9</ele>
        <time>2026-01-29T12:36:07.286000Z</time>
      </trkpt>
      <trkpt lat="48.439932" lon="11.042767">
        <ele>486</ele>
        <time>2026-01-29T12:37:02.018000Z</time>
      </trkpt>
      <trkpt lat="48.439876" lon="11.043073">
        <ele>485</ele>
        <time>2026-01-29T12:37:25.131000Z</time>
      </trkpt>
      <trkpt lat="48.439801" lon="11.043325">
        <ele>484.3</ele>
        <time>2026-01-29T12:37:44.890000Z</time>
      </trkpt>
      <trkpt lat="48.439751" lon="11.043458">
        <ele>483.9</ele>
        <time>2026-01-29T12:37:55.712000Z</time>
      </trkpt>
      <trkpt lat="48.43925" lon="11.044368">
        <ele>482.6</ele>
        <time>2026-01-29T12:39:17.058000Z</time>
      </trkpt>
      <trkpt lat="48.43918" lon="11.044557">
        <ele>482.5</ele>
        <time>2026-01-29T12:39:31.647000Z</time>
      </trkpt>
      <trkpt lat="48.43903" lon="11.045032">
        <ele>482.2</ele>
        <time>2026-01-29T12:40:07.112000Z</time>
      </trkpt>
      <trkpt lat="48.438924" lon="11.045494">
        <ele>481.9</ele>
        <time>2026-01-29T12:40:40.227000Z</time>
      </trkpt>
      <trkpt lat="48.438724" lon="11.046111">
        <ele>481.3</ele>
        <time>2026-01-29T12:41:27.044000Z</time>
      </trkpt>
      <trkpt lat="48.438705" lon="11.046363">
        <ele>481.1</ele>
        <time>2026-01-29T12:41:44.366000Z</time>
      </trkpt>
      <trkpt lat="48.438565" lon="11.046404">
        <ele>480.9</ele>
        <time>2026-01-29T12:41:58.902000Z</time>
      </trkpt>
      <trkpt lat="48.438273" lon="11.046424">
        <ele>480.7</ele>
        <time>2026-01-29T12:42:28.613000Z</time>
      </trkpt>
      <trkpt lat="48.438128" lon="11.046361">
        <ele>480.7</ele>
        <time>2026-01-29T12:42:43.872000Z</time>
      </trkpt>
      <trkpt lat="48.437776" lon="11.046083">
        <ele>481.4</ele>
        <time>2026-01-29T12:43:25.865000Z</time>
      </trkpt>
      <trkpt lat="48.437393" lon="11.045669">
        <ele>482.7</ele>
        <time>2026-01-29T12:44:17.840000Z</time>
      </trkpt>
      <trkpt lat="48.437233" lon="11.045556">
        <ele>483.2</ele>
        <time>2026-01-29T12:44:37.171000Z</time>
      </trkpt>
      <trkpt lat="48.436927" lon="11.045424">
        <ele>483.9</ele>
        <time>2026-01-29T12:45:11.437000Z</time>
      </trkpt>
      <trkpt lat="48.436939" lon="11.045598">
        <ele>484.1</ele>
        <time>2026-01-29T12:45:23.730000Z</time>
      </trkpt>
      <trkpt lat="48.437018" lon="11.046015">
        <ele>484.4</ele>
        <time>2026-01-29T12:45:53.799000Z</time>
      </trkpt>
      <trkpt lat="48.437343" lon="11.046818">
        <ele>484.2</ele>
        <time>2026-01-29T12:46:56.767000Z</time>
      </trkpt>
      <trkpt lat="48.437408" lon="11.047063">
        <ele>483.8</ele>
        <time>2026-01-29T12:47:15.116000Z</time>
      </trkpt>
      <trkpt lat="48.437467" lon="11.047365">
        <ele>483.2</ele>
        <time>2026-01-29T12:47:37.249000Z</time>
      </trkpt>
      <trkpt lat="48.437508" lon="11.047987">
        <ele>482</ele>
        <time>2026-01-29T12:48:21.211000Z</time>
      </trkpt>
      <trkpt lat="48.437575" lon="11.04849">
        <ele>481.3</ele>
        <time>2026-01-29T12:48:56.665000Z</time>
      </trkpt>
      <trkpt lat="48.437654" lon="11.04849">
        <ele>481.2</ele>
        <time>2026-01-29T12:49:04.826000Z</time>
      </trkpt>
      <trkpt lat="48.437782" lon="11.048552">
        <ele>481.1</ele>
        <time>2026-01-29T12:49:18.481000Z</time>
      </trkpt>
      <trkpt lat="48.437935" lon="11.048666">
        <ele>481.1</ele>
        <time>2026-01-29T12:49:35.570000Z</time>
      </trkpt>
      <trkpt lat="48.438132" lon="11.048884">
        <ele>481.3</ele>
        <time>2026-01-29T12:50:00.572000Z</time>
      </trkpt>
      <trkpt lat="48.438299" lon="11.049124">
        <ele>481.5</ele>
        <time>2026-01-29T12:50:24.461000Z</time>
      </trkpt>
      <trkpt lat="48.438469" lon="11.049445">
        <ele>481.7</ele>
        <time>2026-01-29T12:50:52.681000Z</time>
      </trkpt>
      <trkpt lat="48.438575" lon="11.049717">
        <ele>482</ele>
        <time>2026-01-29T12:51:14.548000Z</time>
      </trkpt>
      <trkpt lat="48.438687" lon="11.050204">
        <ele>482.5</ele>
        <time>2026-01-29T12:51:50.419000Z</time>
      </trkpt>
      <trkpt lat="48.438726" lon="11.051555">
        <ele>481.9</ele>
        <time>2026-01-29T12:53:21.461000Z</time>
      </trkpt>
      <trkpt lat="48.438658" lon="11.052089">
        <ele>480.9</ele>
        <time>2026-01-29T12:53:59.542000Z</time>
      </trkpt>
      <trkpt lat="48.438432" lon="11.053239">
        <ele>479.2</ele>
        <time>2026-01-29T12:55:22.681000Z</time>
      </trkpt>
      <trkpt lat="48.438417" lon="11.054225">
        <ele>479.5</ele>
        <time>2026-01-29T12:56:29.212000Z</time>
      </trkpt>
      <trkpt lat="48.438311" lon="11.054688">
        <ele>480</ele>
        <time>2026-01-29T12:57:03.641000Z</time>
      </trkpt>
      <trkpt lat="48.438161" lon="11.05518">
        <ele>480.7</ele>
        <time>2026-01-29T12:57:41.934000Z</time>
      </trkpt>
      <trkpt lat="48.438049" lon="11.055938">
        <ele>481.5</ele>
        <time>2026-01-29T12:58:36.432000Z</time>
      </trkpt>
      <trkpt lat="48.437941" lon="11.056351">
        <ele>481.6</ele>
        <time>2026-01-29T12:59:06.080000Z</time>
      </trkpt>
      <trkpt lat="48.437567" lon="11.056956">
        <ele>480.5</ele>
        <time>2026-01-29T13:00:03.189000Z</time>
      </trkpt>
      <trkpt lat="48.437071" lon="11.058162">
        <ele>476.2</ele>
        <time>2026-01-29T13:01:46.181000Z</time>
      </trkpt>
      <trkpt lat="48.436832" lon="11.059357">
        <ele>474.1</ele>
        <time>2026-01-29T13:03:13.364000Z</time>
      </trkpt>
      <trkpt lat="48.436644" lon="11.058797">
        <ele>474.3</ele>
        <time>2026-01-29T13:03:55.704000Z</time>
      </trkpt>
      <trkpt lat="48.436456" lon="11.058391">
        <ele>475.1</ele>
        <time>2026-01-29T13:04:31.430000Z</time>
      </trkpt>
      <trkpt lat="48.436195" lon="11.05758">
        <ele>478.2</ele>
        <time>2026-01-29T13:05:42.162000Z</time>
      </trkpt>
      <trkpt lat="48.436113" lon="11.057515">
        <ele>478.8</ele>
        <time>2026-01-29T13:05:53.354000Z</time>
      </trkpt>
      <trkpt lat="48.436059" lon="11.057509">
        <ele>479.1</ele>
        <time>2026-01-29T13:06:00.007000Z</time>
      </trkpt>
      <trkpt lat="48.435606" lon="11.057702">
        <ele>482.2</ele>
        <time>2026-01-29T13:06:57.565000Z</time>
      </trkpt>
      <trkpt lat="48.435137" lon="11.057609">
        <ele>485.5</ele>
        <time>2026-01-29T13:07:56.123000Z</time>
      </trkpt>
      <trkpt lat="48.434229" lon="11.057136">
        <ele>494.1</ele>
        <time>2026-01-29T13:10:01.359000Z</time>
      </trkpt>
      <trkpt lat="48.433667" lon="11.056894">
        <ele>499.6</ele>
        <time>2026-01-29T13:11:18.390000Z</time>
      </trkpt>
      <trkpt lat="48.433289" lon="11.056691">
        <ele>502.7</ele>
        <time>2026-01-29T13:12:09.352000Z</time>
      </trkpt>
      <trkpt lat="48.432994" lon="11.056439">
        <ele>504.6</ele>
        <time>2026-01-29T13:12:49.565000Z</time>
      </trkpt>
      <trkpt lat="48.432843" lon="11.056536">
        <ele>505</ele>
        <time>2026-01-29T13:13:07.648000Z</time>
      </trkpt>
      <trkpt lat="48.432764" lon="11.057324">
        <ele>504.5</ele>
        <time>2026-01-29T13:14:01.785000Z</time>
      </trkpt>
      <trkpt lat="48.432764" lon="11.058045">
        <ele>501.4</ele>
        <time>2026-01-29T13:14:55.749000Z</time>
      </trkpt>
      <trkpt lat="48.432889" lon="11.058692">
        <ele>497.4</ele>
        <time>2026-01-29T13:15:48.509000Z</time>
      </trkpt>
      <trkpt lat="48.433092" lon="11.059361">
        <ele>493</ele>
        <time>2026-01-29T13:16:46.153000Z</time>
      </trkpt>
      <trkpt lat="48.433139" lon="11.05989">
        <ele>490.3</ele>
        <time>2026-01-29T13:17:26.846000Z</time>
      </trkpt>
      <trkpt lat="48.433122" lon="11.060169">
        <ele>489.2</ele>
        <time>2026-01-29T13:17:47.727000Z</time>
      </trkpt>
      <trkpt lat="48.432747" lon="11.061075">
        <ele>486.9</ele>
        <time>2026-01-29T13:19:03.402000Z</time>
      </trkpt>
      <trkpt lat="48.43262" lon="11.061331">
        <ele>486.8</ele>
        <time>2026-01-29T13:19:24.719000Z</time>
      </trkpt>
      <trkpt lat="48.432583" lon="11.061463">
        <ele>486.9</ele>
        <time>2026-01-29T13:19:34.429000Z</time>
      </trkpt>
      <trkpt lat="48.432131" lon="11.061899">
        <ele>487</ele>
        <time>2026-01-29T13:20:28.580000Z</time>
      </trkpt>
      <trkpt lat="48.432023" lon="11.06194">
        <ele>487</ele>
        <time>2026-01-29T13:20:39.756000Z</time>
      </trkpt>
      <trkpt lat="48.431569" lon="11.061916">
        <ele>486.7</ele>
        <time>2026-01-29T13:21:25.821000Z</time>
      </trkpt>
      <trkpt lat="48.431446" lon="11.062626">
        <ele>486.5</ele>
        <time>2026-01-29T13:22:15.088000Z</time>
      </trkpt>
      <trkpt lat="48.431375" lon="11.063362">
        <ele>486.5</ele>
        <time>2026-01-29T13:23:04.615000Z</time>
      </trkpt>
      <trkpt lat="48.431182" lon="11.063556">
        <ele>486.5</ele>
        <time>2026-01-29T13:23:28.006000Z</time>
      </trkpt>
      <trkpt lat="48.431002" lon="11.06363">
        <ele>486.8</ele>
        <time>2026-01-29T13:23:47.526000Z</time>
      </trkpt>
      <trkpt lat="48.430589" lon="11.063609">
        <ele>488.1</ele>
        <time>2026-01-29T13:24:33.549000Z</time>
      </trkpt>
      <trkpt lat="48.430513" lon="11.063546">
        <ele>488.5</ele>
        <time>2026-01-29T13:24:43.524000Z</time>
      </trkpt>
      <trkpt lat="48.430436" lon="11.063483">
        <ele>488.9</ele>
        <time>2026-01-29T13:24:53.758000Z</time>
      </trkpt>
      <trkpt lat="48.43029" lon="11.063219">
        <ele>490.2</ele>
        <time>2026-01-29T13:25:20.960000Z</time>
      </trkpt>
      <trkpt lat="48.430114" lon="11.063064">
        <ele>491.4</ele>
        <time>2026-01-29T13:25:45.649000Z</time>
      </trkpt>
      <trkpt lat="48.430046" lon="11.062354">
        <ele>494</ele>
        <time>2026-01-29T13:26:42.215000Z</time>
      </trkpt>
      <trkpt lat="48.430065" lon="11.061808">
        <ele>495.5</ele>
        <time>2026-01-29T13:27:23.609000Z</time>
      </trkpt>
      <trkpt lat="48.430029" lon="11.06161">
        <ele>495.8</ele>
        <time>2026-01-29T13:27:38.583000Z</time>
      </trkpt>
      <trkpt lat="48.42988" lon="11.061626">
        <ele>496.1</ele>
        <time>2026-01-29T13:27:54.614000Z</time>
      </trkpt>
      <trkpt lat="48.429647" lon="11.061675">
        <ele>496.3</ele>
        <time>2026-01-29T13:28:18.697000Z</time>
      </trkpt>
      <trkpt lat="48.429244" lon="11.061907">
        <ele>495.4</ele>
        <time>2026-01-29T13:29:03.582000Z</time>
      </trkpt>
      <trkpt lat="48.428781" lon="11.062025">
        <ele>492.4</ele>
        <time>2026-01-29T13:29:56.734000Z</time>
      </trkpt>
      <trkpt lat="48.428308" lon="11.062205">
        <ele>489</ele>
        <time>2026-01-29T13:30:52.246000Z</time>
      </trkpt>
      <trkpt lat="48.427954" lon="11.062333">
        <ele>486.9</ele>
        <time>2026-01-29T13:31:33.108000Z</time>
      </trkpt>
      <trkpt lat="48.427788" lon="11.062382">
        <ele>486.1</ele>
        <time>2026-01-29T13:31:51.633000Z</time>
      </trkpt>
      <trkpt lat="48.427839" lon="11.06208">
        <ele>485.2</ele>
        <time>2026-01-29T13:32:14.042000Z</time>
      </trkpt>
      <trkpt lat="48.428535" lon="11.059617">
        <ele>487.5</ele>
        <time>2026-01-29T13:35:20.069000Z</time>
      </trkpt>
      <trkpt lat="48.426519" lon="11.058307">
        <ele>497.5</ele>
        <time>2026-01-29T13:39:34.450000Z</time>
      </trkpt>
      <trkpt lat="48.426463" lon="11.058491">
        <ele>497.8</ele>
        <time>2026-01-29T13:39:49.036000Z</time>
      </trkpt>
      <trkpt lat="48.426404" lon="11.058696">
        <ele>498.1</ele>
        <time>2026-01-29T13:40:04.996000Z</time>
      </trkpt>
      <trkpt lat="48.42644" lon="11.058718">
        <ele>498.2</ele>
        <time>2026-01-29T13:40:09.077000Z</time>
      </trkpt>
      <trkpt lat="48.426483" lon="11.058747">
        <ele>498.3</ele>
        <time>2026-01-29T13:40:14.119000Z</time>
      </trkpt>
    </trkseg>
  </trk>
</gpx>