<?xml version="1.0" encoding="UTF-8"?>
<gpx xmlns="http://www.topografix.com/GPX/1/1" xmlns:xsi="http://www.w3.org/2001/XMLSchema-instance" xsi:schemaLocation="http://www.topografix.com/GPX/1/1 http://www.topografix.com/GPX/1/1/gpx.xsd" version="1.1" creator="Robert Kampf">
  <metadata>
    <name>Waldweg mit Pilzen – Hochlandrinder und Pferde Runde von Langerringen</name>
    <desc>Distance: 22.469km, Estimated duration: 5.68h, Elevation up: 38.87136319011711m, Elevation down: 38.871363190116995m, Grade: difficult</desc>
    <author>
      <name>Robert Kampf</name>
      <link href="https://www.komoot.de/user/4125295338453">
        <text>View Robert Kampf's Profile on Komoot</text>
      </link>
    </author>
    <link href="https://www.komoot.de/tour/2953797488">
      <text>View tour on Komoot</text>
    </link>
  </metadata>
  <wpt lat="48.151288" lon="10.754484">
    <name>Langerringen Hiltenfinger Straße</name>
    <cmt></cmt>
    <desc>Not accessible</desc>
    <src>Komoot</src>
    <type>POI</type>
  </wpt>
  <wpt lat="48.132779" lon="10.714989">
    <ele>624</ele>
    <name>Forest Path With Mushrooms</name>
    <cmt>https://d2exd72xrrp1s7.cloudfront.net/www/000/1k8/1e/1ease9rxuxepi1dptabfbcpfa55mb4x25-uhi79975494/0</cmt>
    <desc></desc>
    <src>Komoot</src>
    <link href="https://www.komoot.de/highlight/7092536">
      <text>View POI on Komoot</text>
    </link>
    <type>Highlight</type>
  </wpt>
  <wpt lat="48.141664" lon="10.744617">
    <ele>568.1</ele>
    <name>Highland Cattle and Horses</name>
    <cmt>https://d2exd72xrrp1s7.cloudfront.net/www/000/1k6/9e/9ej0i4byoy9tp8gl413udci46rqvxtk-uhi50157630/0</cmt>
    <desc>Annette: Die Hochlandrinder in Gemeinschaft mit Pferden.</desc>
    <src>Komoot</src>
    <link href="https://www.komoot.de/highlight/4464884">
      <text>View POI on Komoot</text>
    </link>
    <type>Highlight</type>
  </wpt>
  <trk>
    <name>Waldweg mit Pilzen – Hochlandrinder und Pferde Runde von Langerringen</name>
    <desc>Distance: 22.469km, Estimated duration: 5.68h, Elevation up: 38.87136319011711m, Elevation down: 38.871363190116995m, Grade: difficult</desc>
    <link href="https://www.komoot.de/tour/2953797488">
      <text>View tour on Komoot</text>
    </link>
    <trkseg>
      <trkpt lat="48.151313" lon="10.754556">
        <ele>559.5</ele>
        <time>2026-05-14T12:05:42.120000Z</time>
      </trkpt>
      <trkpt lat="48.151466" lon="10.754217">
        <ele>559.6</ele>
        <time>2026-05-14T12:06:09.512000Z</time>
      </trkpt>
      <trkpt lat="48.151525" lon="10.754075">
        <ele>559.6</ele>
        <time>2026-05-14T12:06:20.785000Z</time>
      </trkpt>
      <trkpt lat="48.151743" lon="10.753549">
        <ele>559.7</ele>
        <time>2026-05-14T12:07:02.608000Z</time>
      </trkpt>
      <trkpt lat="48.151832" lon="10.753334">
        <ele>559.7</ele>
        <time>2026-05-14T12:07:19.645000Z</time>
      </trkpt>
      <trkpt lat="48.151905" lon="10.753167">
        <ele>559.8</ele>
        <time>2026-05-14T12:07:33.036000Z</time>
      </trkpt>
      <trkpt lat="48.152042" lon="10.752848">
        <ele>559.8</ele>
        <time>2026-05-14T12:07:58.439000Z</time>
      </trkpt>
      <trkpt lat="48.152194" lon="10.75245">
        <ele>559.8</ele>
        <time>2026-05-14T12:08:29.144000Z</time>
      </trkpt>
      <trkpt lat="48.152405" lon="10.751742">
        <ele>559.6</ele>
        <time>2026-05-14T12:09:21.184000Z</time>
      </trkpt>
      <trkpt lat="48.152413" lon="10.751711">
        <ele>559.6</ele>
        <time>2026-05-14T12:09:23.445000Z</time>
      </trkpt>
      <trkpt lat="48.152578" lon="10.751023">
        <ele>559.4</ele>
        <time>2026-05-14T12:10:12.645000Z</time>
      </trkpt>
      <trkpt lat="48.152616" lon="10.750862">
        <ele>559.3</ele>
        <time>2026-05-14T12:10:24.258000Z</time>
      </trkpt>
      <trkpt lat="48.152671" lon="10.750629">
        <ele>559.2</ele>
        <time>2026-05-14T12:10:41.096000Z</time>
      </trkpt>
      <trkpt lat="48.152772" lon="10.750193">
        <ele>558.9</ele>
        <time>2026-05-14T12:11:12.479000Z</time>
      </trkpt>
      <trkpt lat="48.152863" lon="10.749804">
        <ele>558.6</ele>
        <time>2026-05-14T12:11:40.542000Z</time>
      </trkpt>
      <trkpt lat="48.153015" lon="10.749232">
        <ele>558.2</ele>
        <time>2026-05-14T12:12:22.505000Z</time>
      </trkpt>
      <trkpt lat="48.153064" lon="10.749017">
        <ele>558.1</ele>
        <time>2026-05-14T12:12:37.949000Z</time>
      </trkpt>
      <trkpt lat="48.153076" lon="10.748966">
        <ele>558.1</ele>
        <time>2026-05-14T12:12:41.609000Z</time>
      </trkpt>
      <trkpt lat="48.153083" lon="10.748942">
        <ele>558.1</ele>
        <time>2026-05-14T12:12:43.410000Z</time>
      </trkpt>
      <trkpt lat="48.153217" lon="10.748252">
        <ele>557.6</ele>
        <time>2026-05-14T12:13:32.226000Z</time>
      </trkpt>
      <trkpt lat="48.15323" lon="10.747869">
        <ele>557.4</ele>
        <time>2026-05-14T12:13:58.303000Z</time>
      </trkpt>
      <trkpt lat="48.153185" lon="10.747033">
        <ele>557.1</ele>
        <time>2026-05-14T12:14:54.869000Z</time>
      </trkpt>
      <trkpt lat="48.152868" lon="10.742338">
        <ele>558</ele>
        <time>2026-05-14T12:20:12.932000Z</time>
      </trkpt>
      <trkpt lat="48.152852" lon="10.742113">
        <ele>558</ele>
        <time>2026-05-14T12:20:28.247000Z</time>
      </trkpt>
      <trkpt lat="48.152765" lon="10.742075">
        <ele>558.1</ele>
        <time>2026-05-14T12:20:37.460000Z</time>
      </trkpt>
      <trkpt lat="48.15245" lon="10.741761">
        <ele>558.2</ele>
        <time>2026-05-14T12:21:15.900000Z</time>
      </trkpt>
      <trkpt lat="48.151604" lon="10.737256">
        <ele>560.6</ele>
        <time>2026-05-14T12:26:36.708000Z</time>
      </trkpt>
      <trkpt lat="48.151601" lon="10.737241">
        <ele>560.6</ele>
        <time>2026-05-14T12:26:37.803000Z</time>
      </trkpt>
      <trkpt lat="48.150804" lon="10.733654">
        <ele>561.5</ele>
        <time>2026-05-14T12:30:53.449000Z</time>
      </trkpt>
      <trkpt lat="48.154008" lon="10.731862">
        <ele>560.4</ele>
        <time>2026-05-14T12:36:37.897000Z</time>
      </trkpt>
      <trkpt lat="48.153222" lon="10.728288">
        <ele>560.4</ele>
        <time>2026-05-14T12:40:49.183000Z</time>
      </trkpt>
      <trkpt lat="48.152383" lon="10.724517">
        <ele>560.8</ele>
        <time>2026-05-14T12:45:16.187000Z</time>
      </trkpt>
      <trkpt lat="48.151574" lon="10.720819">
        <ele>560.8</ele>
        <time>2026-05-14T12:49:36.108000Z</time>
      </trkpt>
      <trkpt lat="48.150941" lon="10.717992">
        <ele>560.1</ele>
        <time>2026-05-14T12:52:56.632000Z</time>
      </trkpt>
      <trkpt lat="48.152086" lon="10.71754">
        <ele>559.6</ele>
        <time>2026-05-14T12:54:56.076000Z</time>
      </trkpt>
      <trkpt lat="48.151813" lon="10.716176">
        <ele>559.1</ele>
        <time>2026-05-14T12:56:32.245000Z</time>
      </trkpt>
      <trkpt lat="48.152205" lon="10.716176">
        <ele>558.9</ele>
        <time>2026-05-14T12:57:11.881000Z</time>
      </trkpt>
      <trkpt lat="48.153166" lon="10.71562">
        <ele>558.5</ele>
        <time>2026-05-14T12:58:55.878000Z</time>
      </trkpt>
      <trkpt lat="48.154674" lon="10.714168">
        <ele>558.1</ele>
        <time>2026-05-14T13:01:56.017000Z</time>
      </trkpt>
      <trkpt lat="48.155149" lon="10.713657">
        <ele>558.2</ele>
        <time>2026-05-14T13:02:54.792000Z</time>
      </trkpt>
      <trkpt lat="48.155091" lon="10.713463">
        <ele>558.3</ele>
        <time>2026-05-14T13:03:09.077000Z</time>
      </trkpt>
      <trkpt lat="48.153166" lon="10.715432">
        <ele>558.5</ele>
        <time>2026-05-14T13:07:03.143000Z</time>
      </trkpt>
      <trkpt lat="48.152918" lon="10.715571">
        <ele>558.5</ele>
        <time>2026-05-14T13:07:29.832000Z</time>
      </trkpt>
      <trkpt lat="48.152713" lon="10.715633">
        <ele>558.6</ele>
        <time>2026-05-14T13:07:50.988000Z</time>
      </trkpt>
      <trkpt lat="48.152202" lon="10.715967">
        <ele>559</ele>
        <time>2026-05-14T13:08:48.047000Z</time>
      </trkpt>
      <trkpt lat="48.151965" lon="10.715944">
        <ele>559.1</ele>
        <time>2026-05-14T13:09:12.443000Z</time>
      </trkpt>
      <trkpt lat="48.15169" lon="10.715857">
        <ele>559.4</ele>
        <time>2026-05-14T13:09:41.394000Z</time>
      </trkpt>
      <trkpt lat="48.151358" lon="10.715855">
        <ele>559.6</ele>
        <time>2026-05-14T13:10:15.441000Z</time>
      </trkpt>
      <trkpt lat="48.151167" lon="10.715665">
        <ele>559.8</ele>
        <time>2026-05-14T13:10:38.988000Z</time>
      </trkpt>
      <trkpt lat="48.150752" lon="10.715171">
        <ele>560.1</ele>
        <time>2026-05-14T13:11:33.136000Z</time>
      </trkpt>
      <trkpt lat="48.150263" lon="10.714819">
        <ele>560.2</ele>
        <time>2026-05-14T13:12:27.901000Z</time>
      </trkpt>
      <trkpt lat="48.150043" lon="10.714573">
        <ele>560.2</ele>
        <time>2026-05-14T13:12:55.382000Z</time>
      </trkpt>
      <trkpt lat="48.149697" lon="10.714309">
        <ele>560.3</ele>
        <time>2026-05-14T13:13:34.425000Z</time>
      </trkpt>
      <trkpt lat="48.148864" lon="10.713898">
        <ele>560.6</ele>
        <time>2026-05-14T13:15:03.505000Z</time>
      </trkpt>
      <trkpt lat="48.148246" lon="10.713448">
        <ele>561</ele>
        <time>2026-05-14T13:16:13.656000Z</time>
      </trkpt>
      <trkpt lat="48.147585" lon="10.71322">
        <ele>561.4</ele>
        <time>2026-05-14T13:17:23.089000Z</time>
      </trkpt>
      <trkpt lat="48.146021" lon="10.712311">
        <ele>562.3</ele>
        <time>2026-05-14T13:20:13.875000Z</time>
      </trkpt>
      <trkpt lat="48.145747" lon="10.712214">
        <ele>562.4</ele>
        <time>2026-05-14T13:20:42.668000Z</time>
      </trkpt>
      <trkpt lat="48.145335" lon="10.712221">
        <ele>562.7</ele>
        <time>2026-05-14T13:21:24.768000Z</time>
      </trkpt>
      <trkpt lat="48.144761" lon="10.712129">
        <ele>563.1</ele>
        <time>2026-05-14T13:22:23.864000Z</time>
      </trkpt>
      <trkpt lat="48.144082" lon="10.712088">
        <ele>563.4</ele>
        <time>2026-05-14T13:23:33.141000Z</time>
      </trkpt>
      <trkpt lat="48.142798" lon="10.711749">
        <ele>563.8</ele>
        <time>2026-05-14T13:25:45.232000Z</time>
      </trkpt>
      <trkpt lat="48.142207" lon="10.71176">
        <ele>564</ele>
        <time>2026-05-14T13:26:44.903000Z</time>
      </trkpt>
      <trkpt lat="48.142042" lon="10.711827">
        <ele>564</ele>
        <time>2026-05-14T13:27:02.178000Z</time>
      </trkpt>
      <trkpt lat="48.141908" lon="10.711956">
        <ele>564.1</ele>
        <time>2026-05-14T13:27:18.217000Z</time>
      </trkpt>
      <trkpt lat="48.14178" lon="10.712015">
        <ele>564.1</ele>
        <time>2026-05-14T13:27:31.654000Z</time>
      </trkpt>
      <trkpt lat="48.141329" lon="10.712103">
        <ele>564.2</ele>
        <time>2026-05-14T13:28:17.506000Z</time>
      </trkpt>
      <trkpt lat="48.140913" lon="10.712248">
        <ele>564.2</ele>
        <time>2026-05-14T13:29:00.434000Z</time>
      </trkpt>
      <trkpt lat="48.140797" lon="10.71223">
        <ele>564.2</ele>
        <time>2026-05-14T13:29:12.198000Z</time>
      </trkpt>
      <trkpt lat="48.140685" lon="10.712212">
        <ele>564.3</ele>
        <time>2026-05-14T13:29:23.511000Z</time>
      </trkpt>
      <trkpt lat="48.139191" lon="10.712098">
        <ele>564.5</ele>
        <time>2026-05-14T13:31:54.262000Z</time>
      </trkpt>
      <trkpt lat="48.139027" lon="10.712127">
        <ele>564.6</ele>
        <time>2026-05-14T13:32:10.799000Z</time>
      </trkpt>
      <trkpt lat="48.138687" lon="10.712004">
        <ele>564.6</ele>
        <time>2026-05-14T13:32:45.937000Z</time>
      </trkpt>
      <trkpt lat="48.137386" lon="10.711951">
        <ele>564.9</ele>
        <time>2026-05-14T13:34:57.195000Z</time>
      </trkpt>
      <trkpt lat="48.137279" lon="10.711925">
        <ele>564.9</ele>
        <time>2026-05-14T13:35:08.311000Z</time>
      </trkpt>
      <trkpt lat="48.137054" lon="10.711782">
        <ele>565.1</ele>
        <time>2026-05-14T13:35:33.165000Z</time>
      </trkpt>
      <trkpt lat="48.136886" lon="10.71175">
        <ele>565.2</ele>
        <time>2026-05-14T13:35:50.532000Z</time>
      </trkpt>
      <trkpt lat="48.136769" lon="10.711767">
        <ele>565.2</ele>
        <time>2026-05-14T13:36:02.474000Z</time>
      </trkpt>
      <trkpt lat="48.136305" lon="10.712092">
        <ele>565.6</ele>
        <time>2026-05-14T13:36:54.933000Z</time>
      </trkpt>
      <trkpt lat="48.135561" lon="10.712514">
        <ele>566</ele>
        <time>2026-05-14T13:38:16.067000Z</time>
      </trkpt>
      <trkpt lat="48.13405" lon="10.713139">
        <ele>566.6</ele>
        <time>2026-05-14T13:40:55.160000Z</time>
      </trkpt>
      <trkpt lat="48.133707" lon="10.713342">
        <ele>566.8</ele>
        <time>2026-05-14T13:41:32.856000Z</time>
      </trkpt>
      <trkpt lat="48.133597" lon="10.713439">
        <ele>566.9</ele>
        <time>2026-05-14T13:41:45.875000Z</time>
      </trkpt>
      <trkpt lat="48.133456" lon="10.71346">
        <ele>567</ele>
        <time>2026-05-14T13:42:00.402000Z</time>
      </trkpt>
      <trkpt lat="48.133286" lon="10.713439">
        <ele>567.1</ele>
        <time>2026-05-14T13:42:17.835000Z</time>
      </trkpt>
      <trkpt lat="48.133272" lon="10.71364">
        <ele>567.2</ele>
        <time>2026-05-14T13:42:31.646000Z</time>
      </trkpt>
      <trkpt lat="48.133244" lon="10.713969">
        <ele>567.3</ele>
        <time>2026-05-14T13:42:54.216000Z</time>
      </trkpt>
      <trkpt lat="48.133004" lon="10.714281">
        <ele>567.5</ele>
        <time>2026-05-14T13:43:26.670000Z</time>
      </trkpt>
      <trkpt lat="48.132901" lon="10.714467">
        <ele>567.6</ele>
        <time>2026-05-14T13:43:43.019000Z</time>
      </trkpt>
      <trkpt lat="48.132803" lon="10.714999">
        <ele>567.6</ele>
        <time>2026-05-14T13:44:20.074000Z</time>
      </trkpt>
      <trkpt lat="48.132901" lon="10.714467">
        <ele>567.6</ele>
        <time>2026-05-14T13:44:57.045000Z</time>
      </trkpt>
      <trkpt lat="48.133004" lon="10.714281">
        <ele>567.6</ele>
        <time>2026-05-14T13:45:13.155000Z</time>
      </trkpt>
      <trkpt lat="48.133244" lon="10.713969">
        <ele>567.7</ele>
        <time>2026-05-14T13:45:45.071000Z</time>
      </trkpt>
      <trkpt lat="48.133272" lon="10.71364">
        <ele>567.7</ele>
        <time>2026-05-14T13:46:07.251000Z</time>
      </trkpt>
      <trkpt lat="48.133286" lon="10.713439">
        <ele>567.7</ele>
        <time>2026-05-14T13:46:20.820000Z</time>
      </trkpt>
      <trkpt lat="48.131634" lon="10.712912">
        <ele>568.4</ele>
        <time>2026-05-14T13:49:12.291000Z</time>
      </trkpt>
      <trkpt lat="48.130356" lon="10.712555">
        <ele>568.7</ele>
        <time>2026-05-14T13:51:23.691000Z</time>
      </trkpt>
      <trkpt lat="48.129868" lon="10.712327">
        <ele>568.9</ele>
        <time>2026-05-14T13:52:15.428000Z</time>
      </trkpt>
      <trkpt lat="48.129536" lon="10.712311">
        <ele>569.1</ele>
        <time>2026-05-14T13:52:49.345000Z</time>
      </trkpt>
      <trkpt lat="48.12903" lon="10.712412">
        <ele>569.4</ele>
        <time>2026-05-14T13:53:41.577000Z</time>
      </trkpt>
      <trkpt lat="48.128291" lon="10.712427">
        <ele>569.9</ele>
        <time>2026-05-14T13:54:57.211000Z</time>
      </trkpt>
      <trkpt lat="48.128289" lon="10.7123">
        <ele>569.9</ele>
        <time>2026-05-14T13:55:05.859000Z</time>
      </trkpt>
      <trkpt lat="48.128002" lon="10.710693">
        <ele>570.3</ele>
        <time>2026-05-14T13:56:58.517000Z</time>
      </trkpt>
      <trkpt lat="48.127907" lon="10.710164">
        <ele>570.4</ele>
        <time>2026-05-14T13:57:35.279000Z</time>
      </trkpt>
      <trkpt lat="48.127429" lon="10.707489">
        <ele>570.1</ele>
        <time>2026-05-14T14:00:40.797000Z</time>
      </trkpt>
      <trkpt lat="48.126618" lon="10.702943">
        <ele>569.1</ele>
        <time>2026-05-14T14:05:57.369000Z</time>
      </trkpt>
      <trkpt lat="48.126581" lon="10.702637">
        <ele>569</ele>
        <time>2026-05-14T14:06:18.223000Z</time>
      </trkpt>
      <trkpt lat="48.126785" lon="10.702475">
        <ele>569.1</ele>
        <time>2026-05-14T14:06:41.495000Z</time>
      </trkpt>
      <trkpt lat="48.126658" lon="10.701672">
        <ele>569.3</ele>
        <time>2026-05-14T14:07:37.533000Z</time>
      </trkpt>
      <trkpt lat="48.126524" lon="10.700832">
        <ele>569.9</ele>
        <time>2026-05-14T14:08:37.169000Z</time>
      </trkpt>
      <trkpt lat="48.126256" lon="10.699514">
        <ele>570.6</ele>
        <time>2026-05-14T14:10:11.741000Z</time>
      </trkpt>
      <trkpt lat="48.125678" lon="10.697306">
        <ele>569.9</ele>
        <time>2026-05-14T14:12:51.468000Z</time>
      </trkpt>
      <trkpt lat="48.125551" lon="10.697171">
        <ele>569.9</ele>
        <time>2026-05-14T14:13:07.126000Z</time>
      </trkpt>
      <trkpt lat="48.122683" lon="10.697676">
        <ele>572.1</ele>
        <time>2026-05-14T14:18:03.899000Z</time>
      </trkpt>
      <trkpt lat="48.122051" lon="10.698044">
        <ele>572.6</ele>
        <time>2026-05-14T14:19:13.479000Z</time>
      </trkpt>
      <trkpt lat="48.120785" lon="10.699012">
        <ele>572.9</ele>
        <time>2026-05-14T14:21:36.889000Z</time>
      </trkpt>
      <trkpt lat="48.119477" lon="10.699953">
        <ele>573.1</ele>
        <time>2026-05-14T14:24:03.021000Z</time>
      </trkpt>
      <trkpt lat="48.118088" lon="10.700494">
        <ele>574.1</ele>
        <time>2026-05-14T14:26:30.310000Z</time>
      </trkpt>
      <trkpt lat="48.117858" lon="10.700591">
        <ele>574.3</ele>
        <time>2026-05-14T14:26:54.865000Z</time>
      </trkpt>
      <trkpt lat="48.117035" lon="10.70092">
        <ele>574.9</ele>
        <time>2026-05-14T14:28:22.219000Z</time>
      </trkpt>
      <trkpt lat="48.110059" lon="10.70338">
        <ele>578</ele>
        <time>2026-05-14T14:40:30.324000Z</time>
      </trkpt>
      <trkpt lat="48.109313" lon="10.699509">
        <ele>578.5</ele>
        <time>2026-05-14T14:45:01.615000Z</time>
      </trkpt>
      <trkpt lat="48.105398" lon="10.70022">
        <ele>579.9</ele>
        <time>2026-05-14T14:51:41.163000Z</time>
      </trkpt>
      <trkpt lat="48.105286" lon="10.70024">
        <ele>580</ele>
        <time>2026-05-14T14:51:52.636000Z</time>
      </trkpt>
      <trkpt lat="48.101674" lon="10.700803">
        <ele>581.5</ele>
        <time>2026-05-14T14:58:01.453000Z</time>
      </trkpt>
      <trkpt lat="48.10206" lon="10.702857">
        <ele>581.4</ele>
        <time>2026-05-14T15:00:24.184000Z</time>
      </trkpt>
      <trkpt lat="48.102439" lon="10.704815">
        <ele>580.8</ele>
        <time>2026-05-14T15:02:41.725000Z</time>
      </trkpt>
      <trkpt lat="48.102486" lon="10.704878">
        <ele>580.7</ele>
        <time>2026-05-14T15:02:48.132000Z</time>
      </trkpt>
      <trkpt lat="48.102555" lon="10.704899">
        <ele>580.7</ele>
        <time>2026-05-14T15:02:55.254000Z</time>
      </trkpt>
      <trkpt lat="48.106078" lon="10.70431">
        <ele>579.3</ele>
        <time>2026-05-14T15:08:52.874000Z</time>
      </trkpt>
      <trkpt lat="48.110059" lon="10.70338">
        <ele>578.1</ele>
        <time>2026-05-14T15:15:38.668000Z</time>
      </trkpt>
      <trkpt lat="48.111213" lon="10.70776">
        <ele>577.8</ele>
        <time>2026-05-14T15:20:53.988000Z</time>
      </trkpt>
      <trkpt lat="48.110599" lon="10.708003">
        <ele>577.8</ele>
        <time>2026-05-14T15:21:57.767000Z</time>
      </trkpt>
      <trkpt lat="48.110171" lon="10.708265">
        <ele>578</ele>
        <time>2026-05-14T15:22:44.702000Z</time>
      </trkpt>
      <trkpt lat="48.109897" lon="10.708384">
        <ele>578.2</ele>
        <time>2026-05-14T15:23:13.793000Z</time>
      </trkpt>
      <trkpt lat="48.109566" lon="10.708474">
        <ele>578.4</ele>
        <time>2026-05-14T15:23:48.182000Z</time>
      </trkpt>
      <trkpt lat="48.109205" lon="10.708532">
        <ele>578.6</ele>
        <time>2026-05-14T15:24:25.391000Z</time>
      </trkpt>
      <trkpt lat="48.107777" lon="10.708603">
        <ele>579.1</ele>
        <time>2026-05-14T15:26:50.012000Z</time>
      </trkpt>
      <trkpt lat="48.106579" lon="10.708766">
        <ele>578.9</ele>
        <time>2026-05-14T15:28:50.739000Z</time>
      </trkpt>
      <trkpt lat="48.106182" lon="10.708813">
        <ele>578.9</ele>
        <time>2026-05-14T15:29:30.730000Z</time>
      </trkpt>
      <trkpt lat="48.105568" lon="10.708912">
        <ele>579.2</ele>
        <time>2026-05-14T15:30:33.600000Z</time>
      </trkpt>
      <trkpt lat="48.104939" lon="10.709174">
        <ele>579.7</ele>
        <time>2026-05-14T15:31:40.733000Z</time>
      </trkpt>
      <trkpt lat="48.104165" lon="10.709673">
        <ele>580.5</ele>
        <time>2026-05-14T15:33:07.623000Z</time>
      </trkpt>
      <trkpt lat="48.103364" lon="10.71019">
        <ele>581</ele>
        <time>2026-05-14T15:34:37.007000Z</time>
      </trkpt>
      <trkpt lat="48.102548" lon="10.710679">
        <ele>581.1</ele>
        <time>2026-05-14T15:36:05.342000Z</time>
      </trkpt>
      <trkpt lat="48.102557" lon="10.710729">
        <ele>581.1</ele>
        <time>2026-05-14T15:36:08.886000Z</time>
      </trkpt>
      <trkpt lat="48.102567" lon="10.710868">
        <ele>581.1</ele>
        <time>2026-05-14T15:36:18.236000Z</time>
      </trkpt>
      <trkpt lat="48.102706" lon="10.712658">
        <ele>581.6</ele>
        <time>2026-05-14T15:38:20.464000Z</time>
      </trkpt>
      <trkpt lat="48.102956" lon="10.714106">
        <ele>582.2</ele>
        <time>2026-05-14T15:40:02.445000Z</time>
      </trkpt>
      <trkpt lat="48.103042" lon="10.714599">
        <ele>582.3</ele>
        <time>2026-05-14T15:40:36.866000Z</time>
      </trkpt>
      <trkpt lat="48.1032" lon="10.715003">
        <ele>582.2</ele>
        <time>2026-05-14T15:41:08.314000Z</time>
      </trkpt>
      <trkpt lat="48.103623" lon="10.71744">
        <ele>580.9</ele>
        <time>2026-05-14T15:43:59.364000Z</time>
      </trkpt>
      <trkpt lat="48.103716" lon="10.71764">
        <ele>580.8</ele>
        <time>2026-05-14T15:44:15.816000Z</time>
      </trkpt>
      <trkpt lat="48.103821" lon="10.717831">
        <ele>580.8</ele>
        <time>2026-05-14T15:44:32.470000Z</time>
      </trkpt>
      <trkpt lat="48.104046" lon="10.71813">
        <ele>580.6</ele>
        <time>2026-05-14T15:45:02.784000Z</time>
      </trkpt>
      <trkpt lat="48.105502" lon="10.71969">
        <ele>580.1</ele>
        <time>2026-05-14T15:48:03.123000Z</time>
      </trkpt>
      <trkpt lat="48.107044" lon="10.722463">
        <ele>579.5</ele>
        <time>2026-05-14T15:52:05.562000Z</time>
      </trkpt>
      <trkpt lat="48.107078" lon="10.722525">
        <ele>579.5</ele>
        <time>2026-05-14T15:52:10.943000Z</time>
      </trkpt>
      <trkpt lat="48.107303" lon="10.722974">
        <ele>579.4</ele>
        <time>2026-05-14T15:52:48.604000Z</time>
      </trkpt>
      <trkpt lat="48.107729" lon="10.724006">
        <ele>579.2</ele>
        <time>2026-05-14T15:54:10.023000Z</time>
      </trkpt>
      <trkpt lat="48.108612" lon="10.72615">
        <ele>578.8</ele>
        <time>2026-05-14T15:56:59.214000Z</time>
      </trkpt>
      <trkpt lat="48.108671" lon="10.726295">
        <ele>578.8</ele>
        <time>2026-05-14T15:57:10.655000Z</time>
      </trkpt>
      <trkpt lat="48.1111" lon="10.724056">
        <ele>577.4</ele>
        <time>2026-05-14T16:01:59.029000Z</time>
      </trkpt>
      <trkpt lat="48.114239" lon="10.72248">
        <ele>575.8</ele>
        <time>2026-05-14T16:07:33.691000Z</time>
      </trkpt>
      <trkpt lat="48.117819" lon="10.721271">
        <ele>574.1</ele>
        <time>2026-05-14T16:13:44.322000Z</time>
      </trkpt>
      <trkpt lat="48.120283" lon="10.720245">
        <ele>573.6</ele>
        <time>2026-05-14T16:18:01.430000Z</time>
      </trkpt>
      <trkpt lat="48.122453" lon="10.718294">
        <ele>573.4</ele>
        <time>2026-05-14T16:22:15.164000Z</time>
      </trkpt>
      <trkpt lat="48.123621" lon="10.717481">
        <ele>573.3</ele>
        <time>2026-05-14T16:24:24.294000Z</time>
      </trkpt>
      <trkpt lat="48.123685" lon="10.717439">
        <ele>573.3</ele>
        <time>2026-05-14T16:24:31.253000Z</time>
      </trkpt>
      <trkpt lat="48.12379" lon="10.71737">
        <ele>573.3</ele>
        <time>2026-05-14T16:24:42.828000Z</time>
      </trkpt>
      <trkpt lat="48.123919" lon="10.717285">
        <ele>573.3</ele>
        <time>2026-05-14T16:24:56.866000Z</time>
      </trkpt>
      <trkpt lat="48.124104" lon="10.71718">
        <ele>573.2</ele>
        <time>2026-05-14T16:25:16.717000Z</time>
      </trkpt>
      <trkpt lat="48.124677" lon="10.716869">
        <ele>573.1</ele>
        <time>2026-05-14T16:26:18.069000Z</time>
      </trkpt>
      <trkpt lat="48.124827" lon="10.716788">
        <ele>573</ele>
        <time>2026-05-14T16:26:34.211000Z</time>
      </trkpt>
      <trkpt lat="48.12544" lon="10.718571">
        <ele>572.1</ele>
        <time>2026-05-14T16:28:50.123000Z</time>
      </trkpt>
      <trkpt lat="48.125992" lon="10.720069">
        <ele>571.4</ele>
        <time>2026-05-14T16:30:45.857000Z</time>
      </trkpt>
      <trkpt lat="48.128092" lon="10.719178">
        <ele>570.5</ele>
        <time>2026-05-14T16:34:26.059000Z</time>
      </trkpt>
      <trkpt lat="48.131787" lon="10.717621">
        <ele>570.2</ele>
        <time>2026-05-14T16:40:50.965000Z</time>
      </trkpt>
      <trkpt lat="48.131795" lon="10.717964">
        <ele>570.1</ele>
        <time>2026-05-14T16:41:14.029000Z</time>
      </trkpt>
      <trkpt lat="48.131864" lon="10.718463">
        <ele>570</ele>
        <time>2026-05-14T16:41:48.239000Z</time>
      </trkpt>
      <trkpt lat="48.132026" lon="10.71905">
        <ele>569.8</ele>
        <time>2026-05-14T16:42:31.029000Z</time>
      </trkpt>
      <trkpt lat="48.132197" lon="10.719454">
        <ele>569.7</ele>
        <time>2026-05-14T16:43:03.216000Z</time>
      </trkpt>
      <trkpt lat="48.132585" lon="10.72102">
        <ele>569.1</ele>
        <time>2026-05-14T16:44:56.049000Z</time>
      </trkpt>
      <trkpt lat="48.132741" lon="10.721573">
        <ele>568.8</ele>
        <time>2026-05-14T16:45:36.786000Z</time>
      </trkpt>
      <trkpt lat="48.133426" lon="10.723988">
        <ele>567.6</ele>
        <time>2026-05-14T16:48:34.574000Z</time>
      </trkpt>
      <trkpt lat="48.134515" lon="10.727402">
        <ele>567.8</ele>
        <time>2026-05-14T16:52:47.844000Z</time>
      </trkpt>
      <trkpt lat="48.134829" lon="10.728409">
        <ele>567.9</ele>
        <time>2026-05-14T16:54:02.377000Z</time>
      </trkpt>
      <trkpt lat="48.135571" lon="10.730793">
        <ele>567.6</ele>
        <time>2026-05-14T16:56:58.589000Z</time>
      </trkpt>
      <trkpt lat="48.135075" lon="10.731035">
        <ele>567.3</ele>
        <time>2026-05-14T16:57:51.276000Z</time>
      </trkpt>
      <trkpt lat="48.135354" lon="10.73309">
        <ele>566.7</ele>
        <time>2026-05-14T17:00:12.708000Z</time>
      </trkpt>
      <trkpt lat="48.135297" lon="10.736531">
        <ele>567.3</ele>
        <time>2026-05-14T17:04:04.731000Z</time>
      </trkpt>
      <trkpt lat="48.135253" lon="10.736676">
        <ele>567.3</ele>
        <time>2026-05-14T17:04:15.684000Z</time>
      </trkpt>
      <trkpt lat="48.13513" lon="10.736922">
        <ele>567.5</ele>
        <time>2026-05-14T17:04:36.738000Z</time>
      </trkpt>
      <trkpt lat="48.134976" lon="10.73706">
        <ele>567.6</ele>
        <time>2026-05-14T17:04:55.302000Z</time>
      </trkpt>
      <trkpt lat="48.134842" lon="10.737229">
        <ele>567.9</ele>
        <time>2026-05-14T17:05:13.540000Z</time>
      </trkpt>
      <trkpt lat="48.134943" lon="10.737789">
        <ele>568.6</ele>
        <time>2026-05-14T17:05:54.747000Z</time>
      </trkpt>
      <trkpt lat="48.134896" lon="10.738443">
        <ele>569.5</ele>
        <time>2026-05-14T17:06:41.949000Z</time>
      </trkpt>
      <trkpt lat="48.134709" lon="10.739059">
        <ele>570</ele>
        <time>2026-05-14T17:07:29.098000Z</time>
      </trkpt>
      <trkpt lat="48.134549" lon="10.739534">
        <ele>570.2</ele>
        <time>2026-05-14T17:08:05.244000Z</time>
      </trkpt>
      <trkpt lat="48.134495" lon="10.739713">
        <ele>570.2</ele>
        <time>2026-05-14T17:08:18.422000Z</time>
      </trkpt>
      <trkpt lat="48.134713" lon="10.739834">
        <ele>570.2</ele>
        <time>2026-05-14T17:08:41.690000Z</time>
      </trkpt>
      <trkpt lat="48.135264" lon="10.740017">
        <ele>569.8</ele>
        <time>2026-05-14T17:09:39.174000Z</time>
      </trkpt>
      <trkpt lat="48.135882" lon="10.740418">
        <ele>568.6</ele>
        <time>2026-05-14T17:10:49.124000Z</time>
      </trkpt>
      <trkpt lat="48.13733" lon="10.741501">
        <ele>567</ele>
        <time>2026-05-14T17:13:34.310000Z</time>
      </trkpt>
      <trkpt lat="48.139374" lon="10.742973">
        <ele>566.5</ele>
        <time>2026-05-14T17:17:22.378000Z</time>
      </trkpt>
      <trkpt lat="48.141157" lon="10.744238">
        <ele>565.6</ele>
        <time>2026-05-14T17:20:41.638000Z</time>
      </trkpt>
      <trkpt lat="48.141663" lon="10.744619">
        <ele>565.3</ele>
        <time>2026-05-14T17:21:38.945000Z</time>
      </trkpt>
      <trkpt lat="48.144876" lon="10.747035">
        <ele>563.2</ele>
        <time>2026-05-14T17:27:43.036000Z</time>
      </trkpt>
      <trkpt lat="48.144984" lon="10.747168">
        <ele>563.2</ele>
        <time>2026-05-14T17:27:57.076000Z</time>
      </trkpt>
      <trkpt lat="48.144991" lon="10.747303">
        <ele>563.1</ele>
        <time>2026-05-14T17:28:06.186000Z</time>
      </trkpt>
      <trkpt lat="48.145055" lon="10.747431">
        <ele>563.1</ele>
        <time>2026-05-14T17:28:16.952000Z</time>
      </trkpt>
      <trkpt lat="48.145123" lon="10.747502">
        <ele>563.1</ele>
        <time>2026-05-14T17:28:25.321000Z</time>
      </trkpt>
      <trkpt lat="48.145222" lon="10.747194">
        <ele>563</ele>
        <time>2026-05-14T17:28:48.332000Z</time>
      </trkpt>
      <trkpt lat="48.145282" lon="10.747015">
        <ele>563</ele>
        <time>2026-05-14T17:29:01.719000Z</time>
      </trkpt>
      <trkpt lat="48.145393" lon="10.746651">
        <ele>562.9</ele>
        <time>2026-05-14T17:29:28.613000Z</time>
      </trkpt>
      <trkpt lat="48.145456" lon="10.746731">
        <ele>562.9</ele>
        <time>2026-05-14T17:29:36.922000Z</time>
      </trkpt>
      <trkpt lat="48.145484" lon="10.746826">
        <ele>562.9</ele>
        <time>2026-05-14T17:29:43.905000Z</time>
      </trkpt>
      <trkpt lat="48.145484" lon="10.746978">
        <ele>562.8</ele>
        <time>2026-05-14T17:29:54.098000Z</time>
      </trkpt>
      <trkpt lat="48.148407" lon="10.749166">
        <ele>561.3</ele>
        <time>2026-05-14T17:35:24.264000Z</time>
      </trkpt>
      <trkpt lat="48.151641" lon="10.751587">
        <ele>560.5</ele>
        <time>2026-05-14T17:41:27.825000Z</time>
      </trkpt>
      <trkpt lat="48.15189" lon="10.751708">
        <ele>560.4</ele>
        <time>2026-05-14T17:41:54.084000Z</time>
      </trkpt>
      <trkpt lat="48.15216" lon="10.751753">
        <ele>560.3</ele>
        <time>2026-05-14T17:42:21.484000Z</time>
      </trkpt>
      <trkpt lat="48.152405" lon="10.751742">
        <ele>560.2</ele>
        <time>2026-05-14T17:42:46.277000Z</time>
      </trkpt>
      <trkpt lat="48.152194" lon="10.75245">
        <ele>559.9</ele>
        <time>2026-05-14T17:43:38.539000Z</time>
      </trkpt>
      <trkpt lat="48.152042" lon="10.752848">
        <ele>559.9</ele>
        <time>2026-05-14T17:44:09.328000Z</time>
      </trkpt>
      <trkpt lat="48.151905" lon="10.753167">
        <ele>559.8</ele>
        <time>2026-05-14T17:44:34.817000Z</time>
      </trkpt>
      <trkpt lat="48.151832" lon="10.753334">
        <ele>559.7</ele>
        <time>2026-05-14T17:44:48.160000Z</time>
      </trkpt>
      <trkpt lat="48.151743" lon="10.753549">
        <ele>559.7</ele>
        <time>2026-05-14T17:45:05.142000Z</time>
      </trkpt>
      <trkpt lat="48.151525" lon="10.754075">
        <ele>559.6</ele>
        <time>2026-05-14T17:45:46.768000Z</time>
      </trkpt>
      <trkpt lat="48.151466" lon="10.754217">
        <ele>559.6</ele>
        <time>2026-05-14T17:45:58.007000Z</time>
      </trkpt>
      <trkpt lat="48.151313" lon="10.754556">
        <ele>559.5</ele>
        <time>2026-05-14T17:46:25.367000Z</time>
      </trkpt>
    </trkseg>
  </trk>
</gpx>