<?xml version="1.0" encoding="UTF-8"?>
<gpx xmlns="http://www.topografix.com/GPX/1/1" xmlns:xsi="http://www.w3.org/2001/XMLSchema-instance" xsi:schemaLocation="http://www.topografix.com/GPX/1/1 http://www.topografix.com/GPX/1/1/gpx.xsd" version="1.1" creator="Robert Kampf">
  <metadata>
    <name>Wegkreuz mit Rastplatz – Blick auf die Alpenkette Runde von Obermühlhausen</name>
    <desc>Distance: 10.359km, Estimated duration: 2.71h, Elevation up: 75.71401149319092m, Elevation down: 75.71401149319104m, Grade: moderate</desc>
    <author>
      <name>Robert Kampf</name>
      <link href="https://www.komoot.de/user/4125295338453">
        <text>View Robert Kampf's Profile on Komoot</text>
      </link>
    </author>
    <link href="https://www.komoot.de/tour/2538739597">
      <text>View tour on Komoot</text>
    </link>
  </metadata>
  <wpt lat="47.991198" lon="10.976871">
    <name>Grünsink</name>
    <cmt></cmt>
    <desc></desc>
    <src>Komoot</src>
    <type>POI</type>
  </wpt>
  <wpt lat="47.991309" lon="10.989151">
    <ele>679</ele>
    <name>Picturesque Schlöglbach</name>
    <cmt>https://d2exd72xrrp1s7.cloudfront.net/www/000/1k5/16/16fox3ha2aarb1rsfrjuo2gnz33yb8la4y-uhi43540573/0</cmt>
    <desc>Bo: bei richtigem Wetter hat man von hier einen guten Blick auf die Alpen und die Zugspitze.</desc>
    <src>Komoot</src>
    <link href="https://www.komoot.de/highlight/2996622">
      <text>View POI on Komoot</text>
    </link>
    <type>Highlight</type>
  </wpt>
  <wpt lat="47.98884" lon="10.994485">
    <ele>673</ele>
    <name>Wayside Cross with Rest Area</name>
    <cmt>https://d2exd72xrrp1s7.cloudfront.net/www/000/1k4/1m/1m0138y2b3ysg19rlzjuyw0sjw3m939t6h-uhi27119805/0</cmt>
    <desc>ubahnsurfer: Schöne Sitzgelegenheit für eine kurze Rast
――――――――――
Bo: Gut zum wandern oder graveln. Hier ist fast noch ein Moor.
――――――――――
Anderl: "Geh in die Wälder und Fluhren und lerne von der Natur. Dort findest Du Antworten auf viele Fragen." wie wahr ...</desc>
    <src>Komoot</src>
    <link href="https://www.komoot.de/highlight/2881798">
      <text>View POI on Komoot</text>
    </link>
    <type>Highlight</type>
  </wpt>
  <wpt lat="47.985504" lon="11.002975">
    <ele>676.2</ele>
    <name>Small Stream in Upper Bavaria</name>
    <cmt>https://d2exd72xrrp1s7.cloudfront.net/www/000/1k4/ho/hoh2s3yam94wkssoz3qzraxm387cjcuh-uhi9882252/0</cmt>
    <desc>Anderl: unter der Brücke chillen oft Fische und etwas östlich an der Strasse hat ein Biogärtner einen Laden.</desc>
    <src>Komoot</src>
    <link href="https://www.komoot.de/highlight/1077298">
      <text>View POI on Komoot</text>
    </link>
    <type>Highlight</type>
  </wpt>
  <wpt lat="47.992783" lon="11.005241">
    <ele>671.2</ele>
    <name>Scenic View Near Windachalm</name>
    <cmt>https://d2exd72xrrp1s7.cloudfront.net/www/000/1k4/5i/5i5q9xotf6wi1fb87nd8rltjw387cjy9s-uhi9882282/0</cmt>
    <desc>Bo: Leicht zu wandern, schönes Panorama, baden im Speichersee. Da gibt es auch eine Wirtschaft. Windachalm?!</desc>
    <src>Komoot</src>
    <link href="https://www.komoot.de/highlight/1077300">
      <text>View POI on Komoot</text>
    </link>
    <type>Highlight</type>
  </wpt>
  <wpt lat="47.99943" lon="11.00901">
    <ele>644.1</ele>
    <name>Root trail at Windach Reservoir</name>
    <cmt>https://d2exd72xrrp1s7.cloudfront.net/www/000/1k6/dd/dd90dfduknsj1i3v1mibrlv4e4dsiamze-uhi56413321/0</cmt>
    <desc>Volker: Sehr schöner Wanderweg mit verschiedenen Untergründen
――――――――――
Anderl: Der Wurzelweg am Windachspeicher ist tatsächlich empfehlenswert aber sicher nicht im Dorf Hofstetten gelegen. Er beginnt am Ende der Liegewiese am Windachspeicher - Parkplatz unterhalb der Staumauer; und führt südlich vom Weiher dann im Wälchen, später daran entlang Richtung Obermühlhausen.
――――――――――
kdalu: Schöner Blick auf ganz viel grüne Gegend und den Kirchturm von Obermühlhausen</desc>
    <src>Komoot</src>
    <link href="https://www.komoot.de/highlight/3297699">
      <text>View POI on Komoot</text>
    </link>
    <type>Highlight</type>
  </wpt>
  <wpt lat="48.002261" lon="11.012753">
    <ele>633.5</ele>
    <name>Windach Reservoir</name>
    <cmt>https://d2exd72xrrp1s7.cloudfront.net/www/000/1k5/ds/dsmgzjvtd4gd212gnvm3mvp33vxe7b9c-uhi39973506/0</cmt>
    <desc>Conan (Peti): Badesee mit einwandfreier Wasserqualität und einer großen Liegewiese. In der Nähe gibt es auch eine Einkehrmöglichkeit.
――――――――――
Anne FFB: Ein schönes Ausflugziel
――――――――――
Manfred: Schöner Badesee in der nähe von Finning
――――――――――
Carsten (📍FFB): Liegt gut und nicht so voll.
Schönes Ausflugsziel.🍺🥨📍
――――――――――
HPT: Der Windachspeicher oder Windachsee ist ein künstliches Rückhaltebecken, das 1961–1964 zum Hochwasserschutz der Gemeinden Ober- und Unterfinning, Windach, Greifenberg und Eching am Ammersee gebaut wurde. Hinter einem knapp 13 Meter hohen und rund 240 Meter langen Damm wird die Windach zu einem fast 2 Kilometer langen See aufgestaut. Dieser herrliche Badesee ist (noch) ein Geheimtipp. Wenn die Liegewiesen rund um den Ammersee und Wörthsee überfüllt sind, kann man sich hier noch in Ruhe und Abgeschiedenheit erholen.
An der Nordostseite des Sees liegt das Ausflugslokal "Windachsee-Alm" mit einem schön eingewachsenen Biergarten.
――――――――――
Hardi: Schöner Rastpunkt bei einer Cross County Tour in der Gegend
――――――――――
Hardi: Badsee mit Staumauer und guter Einkehrmöglichkeit
――――――――――
RITTER MARTON 🐑 🐿: sehr schön wie auch die farbigen Bäume spiegeln
――――――――――
Carsten (📍FFB): Sehr schön hier und nicht so voll.
――――――――――
Stefan: A scheene ruhige Landschaft
――――――――――
Stefan: Unbedingt die Windachsee Alm besuchen.
――――――――――
Martin  👣: Ab dem 02.03.2018 unter neuer  Leitung wieder geöffnet.

Dem Alten Wirt  wünsche ich einen schönen wohlverdienten Ruhestand.

Die Almstube hat bei jedem Wetter durchgehend für Sie geöffnet.

Freitag - Samstag - Sonntag -  Montag    .........   ab 11:30 Uhr
und an Feiertagen

Der Biergarten ist bei schönem Wetter geöffnet.

 telefonische Reservierung

08806 / 957400

Wer die neuen Wirtsleut dann  besucht  hat soll doch mal hier bescheid geben ob ein besuch immer noch  so sehr  lohnt wie früher !
――――――――――
Woki Muc: Nette Alm
――――――――――
Bo: Im November waren wir hier ganz allein.
――――――――――
RITTER MARTON 🐑 🐿: Sehr schön
――――――――――
Anderl: Ich hätte ein Bitte - weniger ein Tipp, auch wenn ich selber MTB fahre an alle E-oder Bio Biker: Ja, wir können technisch problemlos über Wiesen und durch Wälder heizen - aber muss ich alles machen was ich technisch kann? 
Bitte die Pfade den Spaziergängern lassen und nicht durch das Naturschutzgebiet pflügen. Lasst uns mit den Bikes auf den festen Wegen bleiben. Besonders am Ufer des Windachspeichers.
――――――――――
Benedikt: Wunderbarer kleiner Badesee (Stausee), auch geeignet für kurze SUP- oder Kayaktour. Und, mit der immer guten Windachseealm ein echtes Highlight!

Mit viel Glück kann man seltene Vögel beobachten, vor allem im südlich gelegenen Bodenbrütergebiet. Betretungsregeln unbedingt ernst nehmen!
――――――――――
Martin  👣: Essen gut und preiswert auch die neuen Wirtsleut sind nett und zuvorkommend
――――――――――
Peter Engelschall: netter Badesee
――――――――――
HeinzF: schöner See...auch zum Baden geeignet …..mit FKK Bereich
――――――――――
KlaPePe: Guter Ausgangspunkt zum Wandern
――――――――――
kiwitt: Leider keine ruhige Landschaft mehr. Runde über Obermühlhausen total überlaufen, auch, wenn die Alm nicht auf hat. Es sind auch vermehrt Leute unterwegs, die ihren Müll fallen lassen, die quer durch die geschützten Bereiche stampfen, ihre Hunde jagen lassen, obwohl auf etlichen Schildern auf Wild im Wintermodus und Bodenbrüter hingewiesen wird. Ich konnte die Runde nicht mehr genießen, weil ich mich die ganze Zeit über das Unverständis meiner lieben Mitmenschen geärgert habe. Kiebitz und Schwarzstorch wird man hier in Zukunft wohl nicht mehr sehen - schade.
――――――――――
Bo: Infotafel über den Bau der Staumauer
――――――――――
RITTER MARTON 🐑 🐿: Auf dem Staudamm schöner Blick auf den Windachsee</desc>
    <src>Komoot</src>
    <link href="https://www.komoot.de/highlight/250245">
      <text>View POI on Komoot</text>
    </link>
    <type>Highlight</type>
  </wpt>
  <wpt lat="48.003178" lon="10.997625">
    <ele>711</ele>
    <name>View of the Alpine Range</name>
    <cmt>https://d2exd72xrrp1s7.cloudfront.net/www/000/1jz/i0/i0j9v9mg2ks3biifc39bab0t1ltltmzn-uhinull/0</cmt>
    <desc>RITTER MARTON 🐑 🐿: schöner Blick auf die Alpen
――――――――――
Carsten (📍FFB): Sehr schöner Blick von hier.
――――――――――
Osoguia: sehr schöne Aussicht hier
――――――――――
Stefan: schöne ruhige Landschaft. Schöner Ausblick
――――――――――
HeinzF: muss bei Fön phantastisch sein
――――――――――
Andreas Lohr: traumhafter Blick</desc>
    <src>Komoot</src>
    <link href="https://www.komoot.de/highlight/124013">
      <text>View POI on Komoot</text>
    </link>
    <type>Highlight</type>
  </wpt>
  <wpt lat="48.003028" lon="10.993591">
    <ele>716.2</ele>
    <name>Bench With a View of the Alps</name>
    <cmt>https://d2exd72xrrp1s7.cloudfront.net/www/000/1ka/1x/1xmzgq3k3nm26jcpl19oqkeat5n32c3nx-uhi97374664/0</cmt>
    <desc>RITTER MARTON 🐑 🐿: sehr schön für eine kleine Pause
――――――――――
Didier: Die Bank steht auf Privatgelände (ohne Zaun), aber ich denke man darf sie nutzen.</desc>
    <src>Komoot</src>
    <link href="https://www.komoot.de/highlight/3879512">
      <text>View POI on Komoot</text>
    </link>
    <type>Highlight</type>
  </wpt>
  <trk>
    <name>Wegkreuz mit Rastplatz – Blick auf die Alpenkette Runde von Obermühlhausen</name>
    <desc>Distance: 10.359km, Estimated duration: 2.71h, Elevation up: 75.71401149319092m, Elevation down: 75.71401149319104m, Grade: moderate</desc>
    <link href="https://www.komoot.de/tour/2538739597">
      <text>View tour on Komoot</text>
    </link>
    <trkseg>
      <trkpt lat="47.991164" lon="10.976907">
        <ele>650</ele>
        <time>2025-08-30T12:27:05.584000Z</time>
      </trkpt>
      <trkpt lat="47.991473" lon="10.977083">
        <ele>649.8</ele>
        <time>2025-08-30T12:27:39.040000Z</time>
      </trkpt>
      <trkpt lat="47.991617" lon="10.977182">
        <ele>649.7</ele>
        <time>2025-08-30T12:27:55.145000Z</time>
      </trkpt>
      <trkpt lat="47.991635" lon="10.977207">
        <ele>649.7</ele>
        <time>2025-08-30T12:27:57.669000Z</time>
      </trkpt>
      <trkpt lat="47.991861" lon="10.977527">
        <ele>649.3</ele>
        <time>2025-08-30T12:28:29.692000Z</time>
      </trkpt>
      <trkpt lat="47.992172" lon="10.977855">
        <ele>648.6</ele>
        <time>2025-08-30T12:29:09.263000Z</time>
      </trkpt>
      <trkpt lat="47.992152" lon="10.978495">
        <ele>647.4</ele>
        <time>2025-08-30T12:29:54.512000Z</time>
      </trkpt>
      <trkpt lat="47.992212" lon="10.978865">
        <ele>646.6</ele>
        <time>2025-08-30T12:30:21.729000Z</time>
      </trkpt>
      <trkpt lat="47.992323" lon="10.979195">
        <ele>645.7</ele>
        <time>2025-08-30T12:30:48.157000Z</time>
      </trkpt>
      <trkpt lat="47.992544" lon="10.979704">
        <ele>644.3</ele>
        <time>2025-08-30T12:31:31.635000Z</time>
      </trkpt>
      <trkpt lat="47.992768" lon="10.980351">
        <ele>642.7</ele>
        <time>2025-08-30T12:32:23.850000Z</time>
      </trkpt>
      <trkpt lat="47.992567" lon="10.98158">
        <ele>640.1</ele>
        <time>2025-08-30T12:33:53.831000Z</time>
      </trkpt>
      <trkpt lat="47.992534" lon="10.981976">
        <ele>639.4</ele>
        <time>2025-08-30T12:34:22.087000Z</time>
      </trkpt>
      <trkpt lat="47.992621" lon="10.984092">
        <ele>635.9</ele>
        <time>2025-08-30T12:36:51.279000Z</time>
      </trkpt>
      <trkpt lat="47.992886" lon="10.985791">
        <ele>633.8</ele>
        <time>2025-08-30T12:38:52.598000Z</time>
      </trkpt>
      <trkpt lat="47.99295" lon="10.985922">
        <ele>633.6</ele>
        <time>2025-08-30T12:39:03.668000Z</time>
      </trkpt>
      <trkpt lat="47.993122" lon="10.986155">
        <ele>633.3</ele>
        <time>2025-08-30T12:39:27.604000Z</time>
      </trkpt>
      <trkpt lat="47.993153" lon="10.986326">
        <ele>633.2</ele>
        <time>2025-08-30T12:39:39.735000Z</time>
      </trkpt>
      <trkpt lat="47.992805" lon="10.987931">
        <ele>632</ele>
        <time>2025-08-30T12:41:35.284000Z</time>
      </trkpt>
      <trkpt lat="47.992789" lon="10.988464">
        <ele>631.4</ele>
        <time>2025-08-30T12:42:12.201000Z</time>
      </trkpt>
      <trkpt lat="47.991724" lon="10.989092">
        <ele>629.4</ele>
        <time>2025-08-30T12:44:11.020000Z</time>
      </trkpt>
      <trkpt lat="47.991573" lon="10.989155">
        <ele>629.2</ele>
        <time>2025-08-30T12:44:27.118000Z</time>
      </trkpt>
      <trkpt lat="47.991372" lon="10.989169">
        <ele>629</ele>
        <time>2025-08-30T12:44:47.654000Z</time>
      </trkpt>
      <trkpt lat="47.991304" lon="10.989168">
        <ele>628.9</ele>
        <time>2025-08-30T12:44:54.576000Z</time>
      </trkpt>
      <trkpt lat="47.991078" lon="10.98917">
        <ele>628.8</ele>
        <time>2025-08-30T12:45:17.388000Z</time>
      </trkpt>
      <trkpt lat="47.990962" lon="10.989209">
        <ele>628.8</ele>
        <time>2025-08-30T12:45:29.335000Z</time>
      </trkpt>
      <trkpt lat="47.990834" lon="10.98931">
        <ele>628.8</ele>
        <time>2025-08-30T12:45:43.879000Z</time>
      </trkpt>
      <trkpt lat="47.990731" lon="10.989439">
        <ele>628.9</ele>
        <time>2025-08-30T12:45:57.464000Z</time>
      </trkpt>
      <trkpt lat="47.990654" lon="10.989595">
        <ele>628.9</ele>
        <time>2025-08-30T12:46:10.618000Z</time>
      </trkpt>
      <trkpt lat="47.990263" lon="10.990766">
        <ele>629.6</ele>
        <time>2025-08-30T12:47:40.617000Z</time>
      </trkpt>
      <trkpt lat="47.990086" lon="10.991021">
        <ele>629.7</ele>
        <time>2025-08-30T12:48:05.770000Z</time>
      </trkpt>
      <trkpt lat="47.989927" lon="10.991115">
        <ele>629.8</ele>
        <time>2025-08-30T12:48:23.114000Z</time>
      </trkpt>
      <trkpt lat="47.989191" lon="10.991253">
        <ele>629.9</ele>
        <time>2025-08-30T12:49:37.790000Z</time>
      </trkpt>
      <trkpt lat="47.988898" lon="10.992459">
        <ele>629.9</ele>
        <time>2025-08-30T12:51:03.764000Z</time>
      </trkpt>
      <trkpt lat="47.988779" lon="10.993525">
        <ele>629.7</ele>
        <time>2025-08-30T12:52:16.527000Z</time>
      </trkpt>
      <trkpt lat="47.988778" lon="10.994016">
        <ele>629.7</ele>
        <time>2025-08-30T12:52:49.551000Z</time>
      </trkpt>
      <trkpt lat="47.988852" lon="10.994481">
        <ele>629.7</ele>
        <time>2025-08-30T12:53:21.542000Z</time>
      </trkpt>
      <trkpt lat="47.988975" lon="10.995258">
        <ele>629.7</ele>
        <time>2025-08-30T12:54:15.125000Z</time>
      </trkpt>
      <trkpt lat="47.98897" lon="10.995348">
        <ele>629.7</ele>
        <time>2025-08-30T12:54:21.241000Z</time>
      </trkpt>
      <trkpt lat="47.98893" lon="10.995398">
        <ele>629.7</ele>
        <time>2025-08-30T12:54:26.466000Z</time>
      </trkpt>
      <trkpt lat="47.987987" lon="10.996001">
        <ele>629.9</ele>
        <time>2025-08-30T12:56:09.806000Z</time>
      </trkpt>
      <trkpt lat="47.987926" lon="10.996138">
        <ele>630</ele>
        <time>2025-08-30T12:56:21.078000Z</time>
      </trkpt>
      <trkpt lat="47.987931" lon="10.996897">
        <ele>630.4</ele>
        <time>2025-08-30T12:57:13.588000Z</time>
      </trkpt>
      <trkpt lat="47.987874" lon="10.997051">
        <ele>630.6</ele>
        <time>2025-08-30T12:57:25.881000Z</time>
      </trkpt>
      <trkpt lat="47.986572" lon="10.997486">
        <ele>632.2</ele>
        <time>2025-08-30T12:59:45.418000Z</time>
      </trkpt>
      <trkpt lat="47.98649" lon="10.997482">
        <ele>632.3</ele>
        <time>2025-08-30T12:59:53.784000Z</time>
      </trkpt>
      <trkpt lat="47.98641" lon="10.99839">
        <ele>632.3</ele>
        <time>2025-08-30T13:00:55.233000Z</time>
      </trkpt>
      <trkpt lat="47.986399" lon="10.998623">
        <ele>632.1</ele>
        <time>2025-08-30T13:01:11.155000Z</time>
      </trkpt>
      <trkpt lat="47.986424" lon="10.999187">
        <ele>631.7</ele>
        <time>2025-08-30T13:01:49.971000Z</time>
      </trkpt>
      <trkpt lat="47.986218" lon="10.999607">
        <ele>631.2</ele>
        <time>2025-08-30T13:02:25.705000Z</time>
      </trkpt>
      <trkpt lat="47.986006" lon="11.000169">
        <ele>630.7</ele>
        <time>2025-08-30T13:03:09.977000Z</time>
      </trkpt>
      <trkpt lat="47.985649" lon="11.001294">
        <ele>630.3</ele>
        <time>2025-08-30T13:04:34.352000Z</time>
      </trkpt>
      <trkpt lat="47.985473" lon="11.002061">
        <ele>630.1</ele>
        <time>2025-08-30T13:05:28.856000Z</time>
      </trkpt>
      <trkpt lat="47.985429" lon="11.002375">
        <ele>630.2</ele>
        <time>2025-08-30T13:05:50.462000Z</time>
      </trkpt>
      <trkpt lat="47.985444" lon="11.002756">
        <ele>630.3</ele>
        <time>2025-08-30T13:06:16.355000Z</time>
      </trkpt>
      <trkpt lat="47.985463" lon="11.002888">
        <ele>630.3</ele>
        <time>2025-08-30T13:06:25.495000Z</time>
      </trkpt>
      <trkpt lat="47.985471" lon="11.002981">
        <ele>630.3</ele>
        <time>2025-08-30T13:06:31.918000Z</time>
      </trkpt>
      <trkpt lat="47.985481" lon="11.003106">
        <ele>630.4</ele>
        <time>2025-08-30T13:06:40.493000Z</time>
      </trkpt>
      <trkpt lat="47.985481" lon="11.003202">
        <ele>630.4</ele>
        <time>2025-08-30T13:06:47.077000Z</time>
      </trkpt>
      <trkpt lat="47.985666" lon="11.005014">
        <ele>631</ele>
        <time>2025-08-30T13:08:52.031000Z</time>
      </trkpt>
      <trkpt lat="47.987016" lon="11.005606">
        <ele>631.1</ele>
        <time>2025-08-30T13:11:12.996000Z</time>
      </trkpt>
      <trkpt lat="47.987361" lon="11.005736">
        <ele>631.2</ele>
        <time>2025-08-30T13:11:48.927000Z</time>
      </trkpt>
      <trkpt lat="47.987628" lon="11.005953">
        <ele>631.3</ele>
        <time>2025-08-30T13:12:19.845000Z</time>
      </trkpt>
      <trkpt lat="47.987785" lon="11.006179">
        <ele>631.4</ele>
        <time>2025-08-30T13:12:42.110000Z</time>
      </trkpt>
      <trkpt lat="47.988165" lon="11.005928">
        <ele>631.7</ele>
        <time>2025-08-30T13:13:24.506000Z</time>
      </trkpt>
      <trkpt lat="47.988508" lon="11.005749">
        <ele>631.7</ele>
        <time>2025-08-30T13:14:01.197000Z</time>
      </trkpt>
      <trkpt lat="47.98881" lon="11.005517">
        <ele>631.8</ele>
        <time>2025-08-30T13:14:35.231000Z</time>
      </trkpt>
      <trkpt lat="47.989524" lon="11.005235">
        <ele>631.5</ele>
        <time>2025-08-30T13:15:49.631000Z</time>
      </trkpt>
      <trkpt lat="47.989959" lon="11.005111">
        <ele>631.3</ele>
        <time>2025-08-30T13:16:34.510000Z</time>
      </trkpt>
      <trkpt lat="47.990223" lon="11.005035">
        <ele>631.1</ele>
        <time>2025-08-30T13:17:01.748000Z</time>
      </trkpt>
      <trkpt lat="47.990461" lon="11.004917">
        <ele>631</ele>
        <time>2025-08-30T13:17:27.072000Z</time>
      </trkpt>
      <trkpt lat="47.990895" lon="11.004554">
        <ele>630.8</ele>
        <time>2025-08-30T13:18:17.281000Z</time>
      </trkpt>
      <trkpt lat="47.991459" lon="11.004359">
        <ele>630.6</ele>
        <time>2025-08-30T13:19:15.583000Z</time>
      </trkpt>
      <trkpt lat="47.991771" lon="11.004293">
        <ele>630.6</ele>
        <time>2025-08-30T13:19:47.137000Z</time>
      </trkpt>
      <trkpt lat="47.992216" lon="11.00437">
        <ele>630.6</ele>
        <time>2025-08-30T13:20:32.104000Z</time>
      </trkpt>
      <trkpt lat="47.992362" lon="11.004467">
        <ele>630.6</ele>
        <time>2025-08-30T13:20:48.050000Z</time>
      </trkpt>
      <trkpt lat="47.992592" lon="11.005106">
        <ele>630.6</ele>
        <time>2025-08-30T13:21:36.667000Z</time>
      </trkpt>
      <trkpt lat="47.992737" lon="11.005225">
        <ele>630.6</ele>
        <time>2025-08-30T13:21:53.232000Z</time>
      </trkpt>
      <trkpt lat="47.992784" lon="11.005231">
        <ele>630.6</ele>
        <time>2025-08-30T13:21:57.953000Z</time>
      </trkpt>
      <trkpt lat="47.993674" lon="11.005342">
        <ele>630.8</ele>
        <time>2025-08-30T13:23:28.051000Z</time>
      </trkpt>
      <trkpt lat="47.994407" lon="11.00547">
        <ele>631.7</ele>
        <time>2025-08-30T13:24:45.022000Z</time>
      </trkpt>
      <trkpt lat="47.994496" lon="11.00553">
        <ele>631.9</ele>
        <time>2025-08-30T13:24:55.439000Z</time>
      </trkpt>
      <trkpt lat="47.994796" lon="11.005602">
        <ele>632.4</ele>
        <time>2025-08-30T13:25:27.965000Z</time>
      </trkpt>
      <trkpt lat="47.995003" lon="11.005771">
        <ele>632.8</ele>
        <time>2025-08-30T13:25:52.987000Z</time>
      </trkpt>
      <trkpt lat="47.99513" lon="11.005986">
        <ele>633.1</ele>
        <time>2025-08-30T13:26:13.036000Z</time>
      </trkpt>
      <trkpt lat="47.995221" lon="11.006226">
        <ele>633.2</ele>
        <time>2025-08-30T13:26:32.058000Z</time>
      </trkpt>
      <trkpt lat="47.995311" lon="11.006386">
        <ele>633.3</ele>
        <time>2025-08-30T13:26:46.283000Z</time>
      </trkpt>
      <trkpt lat="47.995335" lon="11.006606">
        <ele>633.4</ele>
        <time>2025-08-30T13:27:01.402000Z</time>
      </trkpt>
      <trkpt lat="47.995465" lon="11.006749">
        <ele>633.3</ele>
        <time>2025-08-30T13:27:17.579000Z</time>
      </trkpt>
      <trkpt lat="47.995599" lon="11.007182">
        <ele>633.2</ele>
        <time>2025-08-30T13:27:49.882000Z</time>
      </trkpt>
      <trkpt lat="47.995592" lon="11.007351">
        <ele>633.1</ele>
        <time>2025-08-30T13:28:01.433000Z</time>
      </trkpt>
      <trkpt lat="47.99562" lon="11.007601">
        <ele>632.9</ele>
        <time>2025-08-30T13:28:18.779000Z</time>
      </trkpt>
      <trkpt lat="47.996068" lon="11.00808">
        <ele>632.5</ele>
        <time>2025-08-30T13:29:14.715000Z</time>
      </trkpt>
      <trkpt lat="47.996202" lon="11.008266">
        <ele>632.5</ele>
        <time>2025-08-30T13:29:33.153000Z</time>
      </trkpt>
      <trkpt lat="47.996342" lon="11.00858">
        <ele>632.7</ele>
        <time>2025-08-30T13:29:58.925000Z</time>
      </trkpt>
      <trkpt lat="47.996411" lon="11.008905">
        <ele>632.9</ele>
        <time>2025-08-30T13:30:22.578000Z</time>
      </trkpt>
      <trkpt lat="47.996494" lon="11.009077">
        <ele>633.1</ele>
        <time>2025-08-30T13:30:37.322000Z</time>
      </trkpt>
      <trkpt lat="47.996547" lon="11.009307">
        <ele>633.3</ele>
        <time>2025-08-30T13:30:54.279000Z</time>
      </trkpt>
      <trkpt lat="47.996843" lon="11.009516">
        <ele>633.5</ele>
        <time>2025-08-30T13:31:28.122000Z</time>
      </trkpt>
      <trkpt lat="47.9972" lon="11.009966">
        <ele>633.5</ele>
        <time>2025-08-30T13:32:14.938000Z</time>
      </trkpt>
      <trkpt lat="47.997356" lon="11.009833">
        <ele>633.3</ele>
        <time>2025-08-30T13:32:33.289000Z</time>
      </trkpt>
      <trkpt lat="47.997471" lon="11.009857">
        <ele>633.2</ele>
        <time>2025-08-30T13:32:45.232000Z</time>
      </trkpt>
      <trkpt lat="47.997713" lon="11.00983">
        <ele>632.7</ele>
        <time>2025-08-30T13:33:10.469000Z</time>
      </trkpt>
      <trkpt lat="47.997972" lon="11.009851">
        <ele>631.9</ele>
        <time>2025-08-30T13:33:37.974000Z</time>
      </trkpt>
      <trkpt lat="47.998054" lon="11.00981">
        <ele>631.6</ele>
        <time>2025-08-30T13:33:47.240000Z</time>
      </trkpt>
      <trkpt lat="47.998189" lon="11.009889">
        <ele>631.2</ele>
        <time>2025-08-30T13:34:02.663000Z</time>
      </trkpt>
      <trkpt lat="47.998272" lon="11.009808">
        <ele>630.8</ele>
        <time>2025-08-30T13:34:13.270000Z</time>
      </trkpt>
      <trkpt lat="47.99846" lon="11.009803">
        <ele>630.2</ele>
        <time>2025-08-30T13:34:33.447000Z</time>
      </trkpt>
      <trkpt lat="47.998638" lon="11.009686">
        <ele>629.6</ele>
        <time>2025-08-30T13:34:54.075000Z</time>
      </trkpt>
      <trkpt lat="47.998746" lon="11.009681">
        <ele>629.3</ele>
        <time>2025-08-30T13:35:05.527000Z</time>
      </trkpt>
      <trkpt lat="47.998749" lon="11.009603">
        <ele>629.2</ele>
        <time>2025-08-30T13:35:11.003000Z</time>
      </trkpt>
      <trkpt lat="47.998838" lon="11.009412">
        <ele>628.8</ele>
        <time>2025-08-30T13:35:27.282000Z</time>
      </trkpt>
      <trkpt lat="47.998943" lon="11.009309">
        <ele>628.7</ele>
        <time>2025-08-30T13:35:40.255000Z</time>
      </trkpt>
      <trkpt lat="47.999087" lon="11.009276">
        <ele>628.6</ele>
        <time>2025-08-30T13:35:55.066000Z</time>
      </trkpt>
      <trkpt lat="47.99919" lon="11.009151">
        <ele>628.6</ele>
        <time>2025-08-30T13:36:08.385000Z</time>
      </trkpt>
      <trkpt lat="47.999249" lon="11.009029">
        <ele>628.7</ele>
        <time>2025-08-30T13:36:18.790000Z</time>
      </trkpt>
      <trkpt lat="47.99943" lon="11.009018">
        <ele>629</ele>
        <time>2025-08-30T13:36:37.981000Z</time>
      </trkpt>
      <trkpt lat="47.999596" lon="11.009009">
        <ele>629.4</ele>
        <time>2025-08-30T13:36:56.192000Z</time>
      </trkpt>
      <trkpt lat="47.999768" lon="11.009097">
        <ele>630.1</ele>
        <time>2025-08-30T13:37:16.964000Z</time>
      </trkpt>
      <trkpt lat="47.999871" lon="11.00922">
        <ele>630.8</ele>
        <time>2025-08-30T13:37:32.483000Z</time>
      </trkpt>
      <trkpt lat="48.000032" lon="11.009259">
        <ele>631.7</ele>
        <time>2025-08-30T13:37:51.910000Z</time>
      </trkpt>
      <trkpt lat="48.000174" lon="11.009332">
        <ele>632.5</ele>
        <time>2025-08-30T13:38:09.750000Z</time>
      </trkpt>
      <trkpt lat="48.000238" lon="11.009489">
        <ele>633.2</ele>
        <time>2025-08-30T13:38:24.508000Z</time>
      </trkpt>
      <trkpt lat="48.000096" lon="11.009847">
        <ele>634.2</ele>
        <time>2025-08-30T13:38:55.780000Z</time>
      </trkpt>
      <trkpt lat="48.000116" lon="11.010013">
        <ele>634.5</ele>
        <time>2025-08-30T13:39:07.978000Z</time>
      </trkpt>
      <trkpt lat="48.000048" lon="11.010172">
        <ele>634.6</ele>
        <time>2025-08-30T13:39:21.267000Z</time>
      </trkpt>
      <trkpt lat="48.00011" lon="11.010421">
        <ele>634.8</ele>
        <time>2025-08-30T13:39:39.491000Z</time>
      </trkpt>
      <trkpt lat="48.000269" lon="11.010539">
        <ele>634.7</ele>
        <time>2025-08-30T13:39:57.353000Z</time>
      </trkpt>
      <trkpt lat="48.000207" lon="11.010684">
        <ele>634.7</ele>
        <time>2025-08-30T13:40:08.989000Z</time>
      </trkpt>
      <trkpt lat="48.000241" lon="11.010802">
        <ele>634.6</ele>
        <time>2025-08-30T13:40:17.720000Z</time>
      </trkpt>
      <trkpt lat="48.000297" lon="11.010795">
        <ele>634.5</ele>
        <time>2025-08-30T13:40:23.497000Z</time>
      </trkpt>
      <trkpt lat="48.000352" lon="11.010788">
        <ele>634.4</ele>
        <time>2025-08-30T13:40:29.308000Z</time>
      </trkpt>
      <trkpt lat="48.000421" lon="11.010587">
        <ele>634.1</ele>
        <time>2025-08-30T13:40:45.076000Z</time>
      </trkpt>
      <trkpt lat="48.00055" lon="11.010511">
        <ele>633.7</ele>
        <time>2025-08-30T13:40:59.683000Z</time>
      </trkpt>
      <trkpt lat="48.000582" lon="11.010491">
        <ele>633.6</ele>
        <time>2025-08-30T13:41:03.332000Z</time>
      </trkpt>
      <trkpt lat="48.000698" lon="11.010558">
        <ele>633.2</ele>
        <time>2025-08-30T13:41:16.668000Z</time>
      </trkpt>
      <trkpt lat="48.00087" lon="11.010817">
        <ele>632.1</ele>
        <time>2025-08-30T13:41:43.312000Z</time>
      </trkpt>
      <trkpt lat="48.000912" lon="11.010902">
        <ele>631.8</ele>
        <time>2025-08-30T13:41:51.040000Z</time>
      </trkpt>
      <trkpt lat="48.00096" lon="11.011119">
        <ele>631.1</ele>
        <time>2025-08-30T13:42:07.645000Z</time>
      </trkpt>
      <trkpt lat="48.00108" lon="11.011424">
        <ele>630.2</ele>
        <time>2025-08-30T13:42:33.321000Z</time>
      </trkpt>
      <trkpt lat="48.001498" lon="11.012286">
        <ele>629.7</ele>
        <time>2025-08-30T13:43:45.651000Z</time>
      </trkpt>
      <trkpt lat="48.001579" lon="11.012459">
        <ele>629.6</ele>
        <time>2025-08-30T13:43:59.852000Z</time>
      </trkpt>
      <trkpt lat="48.001695" lon="11.012865">
        <ele>629.6</ele>
        <time>2025-08-30T13:44:29.543000Z</time>
      </trkpt>
      <trkpt lat="48.001672" lon="11.013165">
        <ele>629.5</ele>
        <time>2025-08-30T13:44:49.882000Z</time>
      </trkpt>
      <trkpt lat="48.001735" lon="11.013154">
        <ele>629.4</ele>
        <time>2025-08-30T13:44:56.308000Z</time>
      </trkpt>
      <trkpt lat="48.001814" lon="11.013191">
        <ele>629.4</ele>
        <time>2025-08-30T13:45:04.772000Z</time>
      </trkpt>
      <trkpt lat="48.001915" lon="11.013075">
        <ele>629.2</ele>
        <time>2025-08-30T13:45:17.772000Z</time>
      </trkpt>
      <trkpt lat="48.002584" lon="11.01246">
        <ele>628</ele>
        <time>2025-08-30T13:46:38.990000Z</time>
      </trkpt>
      <trkpt lat="48.00346" lon="11.011654">
        <ele>628.5</ele>
        <time>2025-08-30T13:48:23.612000Z</time>
      </trkpt>
      <trkpt lat="48.003603" lon="11.011625">
        <ele>628.7</ele>
        <time>2025-08-30T13:48:39.003000Z</time>
      </trkpt>
      <trkpt lat="48.003711" lon="11.011436">
        <ele>629.1</ele>
        <time>2025-08-30T13:48:56.868000Z</time>
      </trkpt>
      <trkpt lat="48.003802" lon="11.011351">
        <ele>629.3</ele>
        <time>2025-08-30T13:49:08.511000Z</time>
      </trkpt>
      <trkpt lat="48.003887" lon="11.011215">
        <ele>629.6</ele>
        <time>2025-08-30T13:49:22.073000Z</time>
      </trkpt>
      <trkpt lat="48.003742" lon="11.010804">
        <ele>630.5</ele>
        <time>2025-08-30T13:49:56.064000Z</time>
      </trkpt>
      <trkpt lat="48.003128" lon="11.009505">
        <ele>632.6</ele>
        <time>2025-08-30T13:51:50.053000Z</time>
      </trkpt>
      <trkpt lat="48.002892" lon="11.00938">
        <ele>633</ele>
        <time>2025-08-30T13:52:16.547000Z</time>
      </trkpt>
      <trkpt lat="48.002604" lon="11.008745">
        <ele>634.2</ele>
        <time>2025-08-30T13:53:12.399000Z</time>
      </trkpt>
      <trkpt lat="48.002171" lon="11.007563">
        <ele>638.2</ele>
        <time>2025-08-30T13:54:56.359000Z</time>
      </trkpt>
      <trkpt lat="48.002141" lon="11.007298">
        <ele>639.3</ele>
        <time>2025-08-30T13:55:18.203000Z</time>
      </trkpt>
      <trkpt lat="48.002183" lon="11.007245">
        <ele>639.7</ele>
        <time>2025-08-30T13:55:25.023000Z</time>
      </trkpt>
      <trkpt lat="48.002591" lon="11.007141">
        <ele>642.6</ele>
        <time>2025-08-30T13:56:16.331000Z</time>
      </trkpt>
      <trkpt lat="48.002679" lon="11.005707">
        <ele>648.4</ele>
        <time>2025-08-30T13:58:12.615000Z</time>
      </trkpt>
      <trkpt lat="48.00262" lon="11.003938">
        <ele>652.3</ele>
        <time>2025-08-30T14:00:25.144000Z</time>
      </trkpt>
      <trkpt lat="48.002419" lon="11.00252">
        <ele>653.2</ele>
        <time>2025-08-30T14:02:05.359000Z</time>
      </trkpt>
      <trkpt lat="48.003125" lon="10.999075">
        <ele>655.8</ele>
        <time>2025-08-30T14:06:15.631000Z</time>
      </trkpt>
      <trkpt lat="48.003171" lon="10.998117">
        <ele>658.2</ele>
        <time>2025-08-30T14:07:28.321000Z</time>
      </trkpt>
      <trkpt lat="48.003155" lon="10.997627">
        <ele>659.5</ele>
        <time>2025-08-30T14:08:06.034000Z</time>
      </trkpt>
      <trkpt lat="48.003149" lon="10.99744">
        <ele>660.1</ele>
        <time>2025-08-30T14:08:20.483000Z</time>
      </trkpt>
      <trkpt lat="48.003051" lon="10.996355">
        <ele>662.6</ele>
        <time>2025-08-30T14:09:42.669000Z</time>
      </trkpt>
      <trkpt lat="48.003012" lon="10.995357">
        <ele>663.3</ele>
        <time>2025-08-30T14:10:51.838000Z</time>
      </trkpt>
      <trkpt lat="48.003028" lon="10.993698">
        <ele>662.4</ele>
        <time>2025-08-30T14:12:44.773000Z</time>
      </trkpt>
      <trkpt lat="48.003031" lon="10.993591">
        <ele>662.3</ele>
        <time>2025-08-30T14:12:52.111000Z</time>
      </trkpt>
      <trkpt lat="48.003123" lon="10.990493">
        <ele>661.4</ele>
        <time>2025-08-30T14:16:21.596000Z</time>
      </trkpt>
      <trkpt lat="48.003143" lon="10.989908">
        <ele>661.2</ele>
        <time>2025-08-30T14:17:01.258000Z</time>
      </trkpt>
      <trkpt lat="48.003162" lon="10.989356">
        <ele>660.8</ele>
        <time>2025-08-30T14:17:39.066000Z</time>
      </trkpt>
      <trkpt lat="48.003164" lon="10.98929">
        <ele>660.8</ele>
        <time>2025-08-30T14:17:43.607000Z</time>
      </trkpt>
      <trkpt lat="48.003091" lon="10.989415">
        <ele>660.6</ele>
        <time>2025-08-30T14:17:55.067000Z</time>
      </trkpt>
      <trkpt lat="47.99852" lon="10.99161">
        <ele>647.1</ele>
        <time>2025-08-30T14:26:23.407000Z</time>
      </trkpt>
      <trkpt lat="47.997671" lon="10.992232">
        <ele>643.5</ele>
        <time>2025-08-30T14:28:05.267000Z</time>
      </trkpt>
      <trkpt lat="47.997293" lon="10.992657">
        <ele>641.5</ele>
        <time>2025-08-30T14:28:56.742000Z</time>
      </trkpt>
      <trkpt lat="47.996455" lon="10.993698">
        <ele>637.3</ele>
        <time>2025-08-30T14:30:54.514000Z</time>
      </trkpt>
      <trkpt lat="47.996371" lon="10.993668">
        <ele>636.9</ele>
        <time>2025-08-30T14:31:03.804000Z</time>
      </trkpt>
      <trkpt lat="47.996141" lon="10.993137">
        <ele>635.4</ele>
        <time>2025-08-30T14:31:49.310000Z</time>
      </trkpt>
      <trkpt lat="47.996095" lon="10.993074">
        <ele>635.1</ele>
        <time>2025-08-30T14:31:56.084000Z</time>
      </trkpt>
      <trkpt lat="47.99605" lon="10.993065">
        <ele>635</ele>
        <time>2025-08-30T14:32:00.893000Z</time>
      </trkpt>
      <trkpt lat="47.994645" lon="10.993918">
        <ele>630.1</ele>
        <time>2025-08-30T14:34:42.732000Z</time>
      </trkpt>
      <trkpt lat="47.994571" lon="10.993906">
        <ele>630</ele>
        <time>2025-08-30T14:34:50.391000Z</time>
      </trkpt>
      <trkpt lat="47.994457" lon="10.993644">
        <ele>629.6</ele>
        <time>2025-08-30T14:35:11.999000Z</time>
      </trkpt>
      <trkpt lat="47.994339" lon="10.993002">
        <ele>629.3</ele>
        <time>2025-08-30T14:35:57.273000Z</time>
      </trkpt>
      <trkpt lat="47.993741" lon="10.991044">
        <ele>630.8</ele>
        <time>2025-08-30T14:38:26.575000Z</time>
      </trkpt>
      <trkpt lat="47.993298" lon="10.990258">
        <ele>631.4</ele>
        <time>2025-08-30T14:39:37.742000Z</time>
      </trkpt>
      <trkpt lat="47.99309" lon="10.989779">
        <ele>631.8</ele>
        <time>2025-08-30T14:40:17.078000Z</time>
      </trkpt>
      <trkpt lat="47.992908" lon="10.989286">
        <ele>632.3</ele>
        <time>2025-08-30T14:40:56.866000Z</time>
      </trkpt>
      <trkpt lat="47.992837" lon="10.989054">
        <ele>632.7</ele>
        <time>2025-08-30T14:41:15.368000Z</time>
      </trkpt>
      <trkpt lat="47.992789" lon="10.988464">
        <ele>633.9</ele>
        <time>2025-08-30T14:41:59.345000Z</time>
      </trkpt>
      <trkpt lat="47.993006" lon="10.988394">
        <ele>634.8</ele>
        <time>2025-08-30T14:42:24.498000Z</time>
      </trkpt>
      <trkpt lat="47.994025" lon="10.988069">
        <ele>639.3</ele>
        <time>2025-08-30T14:44:24.686000Z</time>
      </trkpt>
      <trkpt lat="47.995951" lon="10.987049">
        <ele>644.3</ele>
        <time>2025-08-30T14:48:06.845000Z</time>
      </trkpt>
      <trkpt lat="47.99609" lon="10.986938">
        <ele>644.4</ele>
        <time>2025-08-30T14:48:22.807000Z</time>
      </trkpt>
      <trkpt lat="47.996816" lon="10.986258">
        <ele>644.1</ele>
        <time>2025-08-30T14:49:49.144000Z</time>
      </trkpt>
      <trkpt lat="47.996964" lon="10.986083">
        <ele>643.9</ele>
        <time>2025-08-30T14:50:08.293000Z</time>
      </trkpt>
      <trkpt lat="47.996986" lon="10.986">
        <ele>643.9</ele>
        <time>2025-08-30T14:50:14.402000Z</time>
      </trkpt>
      <trkpt lat="47.997001" lon="10.98554">
        <ele>643.7</ele>
        <time>2025-08-30T14:50:45.658000Z</time>
      </trkpt>
      <trkpt lat="47.99708" lon="10.985058">
        <ele>643.5</ele>
        <time>2025-08-30T14:51:19.249000Z</time>
      </trkpt>
      <trkpt lat="47.997205" lon="10.98475">
        <ele>643.4</ele>
        <time>2025-08-30T14:51:43.616000Z</time>
      </trkpt>
      <trkpt lat="47.997316" lon="10.984671">
        <ele>643.4</ele>
        <time>2025-08-30T14:51:55.898000Z</time>
      </trkpt>
      <trkpt lat="47.99709" lon="10.984651">
        <ele>643.3</ele>
        <time>2025-08-30T14:52:18.651000Z</time>
      </trkpt>
      <trkpt lat="47.99623" lon="10.984813">
        <ele>643</ele>
        <time>2025-08-30T14:53:46.108000Z</time>
      </trkpt>
      <trkpt lat="47.995369" lon="10.984974">
        <ele>642.1</ele>
        <time>2025-08-30T14:55:14.743000Z</time>
      </trkpt>
      <trkpt lat="47.995305" lon="10.984902">
        <ele>642</ele>
        <time>2025-08-30T14:55:23.020000Z</time>
      </trkpt>
      <trkpt lat="47.995291" lon="10.984782">
        <ele>641.9</ele>
        <time>2025-08-30T14:55:31.337000Z</time>
      </trkpt>
      <trkpt lat="47.995248" lon="10.981823">
        <ele>640</ele>
        <time>2025-08-30T14:58:53.540000Z</time>
      </trkpt>
      <trkpt lat="47.995205" lon="10.981545">
        <ele>640</ele>
        <time>2025-08-30T14:59:12.701000Z</time>
      </trkpt>
      <trkpt lat="47.995108" lon="10.981368">
        <ele>640</ele>
        <time>2025-08-30T14:59:28.039000Z</time>
      </trkpt>
      <trkpt lat="47.994981" lon="10.981295">
        <ele>640</ele>
        <time>2025-08-30T14:59:41.752000Z</time>
      </trkpt>
      <trkpt lat="47.993763" lon="10.981234">
        <ele>641.1</ele>
        <time>2025-08-30T15:01:47.431000Z</time>
      </trkpt>
      <trkpt lat="47.993375" lon="10.980915">
        <ele>641.6</ele>
        <time>2025-08-30T15:02:33.780000Z</time>
      </trkpt>
      <trkpt lat="47.992989" lon="10.980923">
        <ele>642.3</ele>
        <time>2025-08-30T15:03:14.737000Z</time>
      </trkpt>
      <trkpt lat="47.992768" lon="10.980351">
        <ele>643.2</ele>
        <time>2025-08-30T15:04:02.238000Z</time>
      </trkpt>
      <trkpt lat="47.992544" lon="10.979704">
        <ele>644.5</ele>
        <time>2025-08-30T15:04:55.493000Z</time>
      </trkpt>
      <trkpt lat="47.992323" lon="10.979195">
        <ele>645.8</ele>
        <time>2025-08-30T15:05:40.617000Z</time>
      </trkpt>
      <trkpt lat="47.992212" lon="10.978865">
        <ele>646.6</ele>
        <time>2025-08-30T15:06:08.222000Z</time>
      </trkpt>
      <trkpt lat="47.992152" lon="10.978495">
        <ele>647.4</ele>
        <time>2025-08-30T15:06:36.626000Z</time>
      </trkpt>
      <trkpt lat="47.992172" lon="10.977855">
        <ele>648.6</ele>
        <time>2025-08-30T15:07:23.563000Z</time>
      </trkpt>
      <trkpt lat="47.991861" lon="10.977527">
        <ele>649.3</ele>
        <time>2025-08-30T15:08:04.181000Z</time>
      </trkpt>
      <trkpt lat="47.991635" lon="10.977207">
        <ele>649.7</ele>
        <time>2025-08-30T15:08:36.807000Z</time>
      </trkpt>
      <trkpt lat="47.991617" lon="10.977182">
        <ele>649.7</ele>
        <time>2025-08-30T15:08:39.374000Z</time>
      </trkpt>
      <trkpt lat="47.991473" lon="10.977083">
        <ele>649.8</ele>
        <time>2025-08-30T15:08:55.686000Z</time>
      </trkpt>
      <trkpt lat="47.991164" lon="10.976907">
        <ele>650</ele>
        <time>2025-08-30T15:09:29.394000Z</time>
      </trkpt>
    </trkseg>
  </trk>
</gpx>