<?xml version="1.0" encoding="UTF-8"?>
<gpx xmlns="http://www.topografix.com/GPX/1/1" xmlns:xsi="http://www.w3.org/2001/XMLSchema-instance" xsi:schemaLocation="http://www.topografix.com/GPX/1/1 http://www.topografix.com/GPX/1/1/gpx.xsd" version="1.1" creator="Robert Kampf">
  <metadata>
    <name>Windachsee Alm – Wurzel-Trail am Windachsee Runde von Windachspeicher</name>
    <desc>Distance: 3.375km, Estimated duration: 0.89h, Elevation up: 32.407936066361685m, Elevation down: 32.40793606636157m, Grade: easy</desc>
    <author>
      <name>Robert Kampf</name>
      <link href="https://www.komoot.de/user/4125295338453">
        <text>View Robert Kampf's Profile on Komoot</text>
      </link>
    </author>
    <link href="https://www.komoot.de/tour/3064384409">
      <text>View tour on Komoot</text>
    </link>
  </metadata>
  <wpt lat="48.003007" lon="11.013057">
    <name>Parking</name>
    <cmt></cmt>
    <desc>Accessible, Free</desc>
    <src>Komoot</src>
    <type>POI</type>
  </wpt>
  <wpt lat="48.002261" lon="11.012753">
    <ele>633.5</ele>
    <name>Windach Reservoir</name>
    <cmt>https://d2exd72xrrp1s7.cloudfront.net/www/000/1k5/ds/dsmgzjvtd4gd212gnvm3mvp33vxe7b9c-uhi39973506/0</cmt>
    <desc>Conan (Peti): Badesee mit einwandfreier Wasserqualität und einer großen Liegewiese. In der Nähe gibt es auch eine Einkehrmöglichkeit.
――――――――――
Anne FFB: Ein schönes Ausflugziel
――――――――――
Manfred: Schöner Badesee in der nähe von Finning
――――――――――
Carsten (📍FFB): Liegt gut und nicht so voll.
Schönes Ausflugsziel.🍺🥨📍
――――――――――
HPT: Der Windachspeicher oder Windachsee ist ein künstliches Rückhaltebecken, das 1961–1964 zum Hochwasserschutz der Gemeinden Ober- und Unterfinning, Windach, Greifenberg und Eching am Ammersee gebaut wurde. Hinter einem knapp 13 Meter hohen und rund 240 Meter langen Damm wird die Windach zu einem fast 2 Kilometer langen See aufgestaut. Dieser herrliche Badesee ist (noch) ein Geheimtipp. Wenn die Liegewiesen rund um den Ammersee und Wörthsee überfüllt sind, kann man sich hier noch in Ruhe und Abgeschiedenheit erholen.
An der Nordostseite des Sees liegt das Ausflugslokal "Windachsee-Alm" mit einem schön eingewachsenen Biergarten.
――――――――――
Hardi: Schöner Rastpunkt bei einer Cross County Tour in der Gegend
――――――――――
Hardi: Badsee mit Staumauer und guter Einkehrmöglichkeit
――――――――――
RITTER MARTON 🐑 🐿: sehr schön wie auch die farbigen Bäume spiegeln
――――――――――
Carsten (📍FFB): Sehr schön hier und nicht so voll.
――――――――――
Stefan: A scheene ruhige Landschaft
――――――――――
Stefan: Unbedingt die Windachsee Alm besuchen.
――――――――――
Martin  👣: Ab dem 02.03.2018 unter neuer  Leitung wieder geöffnet.

Dem Alten Wirt  wünsche ich einen schönen wohlverdienten Ruhestand.

Die Almstube hat bei jedem Wetter durchgehend für Sie geöffnet.

Freitag - Samstag - Sonntag -  Montag    .........   ab 11:30 Uhr
und an Feiertagen

Der Biergarten ist bei schönem Wetter geöffnet.

 telefonische Reservierung

08806 / 957400

Wer die neuen Wirtsleut dann  besucht  hat soll doch mal hier bescheid geben ob ein besuch immer noch  so sehr  lohnt wie früher !
――――――――――
Woki Muc: Nette Alm
――――――――――
Bo: Im November waren wir hier ganz allein.
――――――――――
RITTER MARTON 🐑 🐿: Sehr schön
――――――――――
Anderl: Ich hätte ein Bitte - weniger ein Tipp, auch wenn ich selber MTB fahre an alle E-oder Bio Biker: Ja, wir können technisch problemlos über Wiesen und durch Wälder heizen - aber muss ich alles machen was ich technisch kann? 
Bitte die Pfade den Spaziergängern lassen und nicht durch das Naturschutzgebiet pflügen. Lasst uns mit den Bikes auf den festen Wegen bleiben. Besonders am Ufer des Windachspeichers.
――――――――――
Benedikt: Wunderbarer kleiner Badesee (Stausee), auch geeignet für kurze SUP- oder Kayaktour. Und, mit der immer guten Windachseealm ein echtes Highlight!

Mit viel Glück kann man seltene Vögel beobachten, vor allem im südlich gelegenen Bodenbrütergebiet. Betretungsregeln unbedingt ernst nehmen!
――――――――――
Martin  👣: Essen gut und preiswert auch die neuen Wirtsleut sind nett und zuvorkommend
――――――――――
Peter Engelschall: netter Badesee
――――――――――
HeinzF: schöner See...auch zum Baden geeignet …..mit FKK Bereich
――――――――――
KlaPePe: Guter Ausgangspunkt zum Wandern
――――――――――
kiwitt: Leider keine ruhige Landschaft mehr. Runde über Obermühlhausen total überlaufen, auch, wenn die Alm nicht auf hat. Es sind auch vermehrt Leute unterwegs, die ihren Müll fallen lassen, die quer durch die geschützten Bereiche stampfen, ihre Hunde jagen lassen, obwohl auf etlichen Schildern auf Wild im Wintermodus und Bodenbrüter hingewiesen wird. Ich konnte die Runde nicht mehr genießen, weil ich mich die ganze Zeit über das Unverständis meiner lieben Mitmenschen geärgert habe. Kiebitz und Schwarzstorch wird man hier in Zukunft wohl nicht mehr sehen - schade.
――――――――――
Bo: Infotafel über den Bau der Staumauer
――――――――――
RITTER MARTON 🐑 🐿: Auf dem Staudamm schöner Blick auf den Windachsee</desc>
    <src>Komoot</src>
    <link href="https://www.komoot.de/highlight/250245">
      <text>View POI on Komoot</text>
    </link>
    <type>Highlight</type>
  </wpt>
  <wpt lat="48.001383" lon="11.013149">
    <ele>640.9</ele>
    <name>Windachsee Alm</name>
    <cmt>https://d2exd72xrrp1s7.cloudfront.net/www/000/1k1/1b/1bda1a4fkl4wtr9ztqc24jhva2bm1520s-uhi1644129/0</cmt>
    <desc>Anne FFB: Schöner Biergarten
――――――――――
HPT: Direkt am Windachspeicher gelegen. Gemütliches Lokal mit sehr schön eingewachsenem Biergarten. Die angebotenen Speisen schmecken ausgezeichnet und sind preislich absolut fair. 
Montag und Dienstag sind Ruhetage.
――――――――――
Manfred: Topp Rastmöglichkeit bei größeren Touren mit Seeblick
――――――――――
Carsten (📍FFB): Tolle Gegend mit super Aussichten in die Berge.
――――――――――
Manfred: schön gelegene Einkehrmöglichkeit am Windachspeicher
――――――――――
Rosradler: Der Speicher ist schöner als die Gaststätte
――――――――――
uetzlibruetz: Kühles Bier und/oder Bad, beides erfrischend
――――――――――
Conan (Peti): Urige Einkehr, leckere Speißen und Kuchen
――――――――――
HPT: Das Lokal ist derzeit wegen Corona geschlossen aber der Kiosk mit einem Angebot wechselnder Tagesgerichte ist geöffnet.
――――――――――
Spichal: Sommerabend am Windachspeicher - traumhaft schön!
――――――――――
PuraVida: Der Windachspeicher mit Alm bietet sich als schönes (Zwischen-) Ziel zur Einkehr auf einer Radtour an.
――――――――――
Horst: Idyllisch gelegen, nicht überlaufen, gutes Essen (zumindest was wir probiert haben).
――――――――――
RITTER MARTON 🐑 🐿: schaut schön aus, war leider nicht offen.  Im Frühjahr wieder 👍🏽
――――――――――
DazzleOne: Energiespeicher aufladen, an der Windachsee Alm
――――――――――
Caelius: Sehr nett &amp; leckeres Essen
――――――――――
Roland: Tolles Bad  heute bei 21 Grad Wassertemperatur </desc>
    <src>Komoot</src>
    <link href="https://www.komoot.de/highlight/852740">
      <text>View POI on Komoot</text>
    </link>
    <type>Highlight</type>
  </wpt>
  <wpt lat="48.000257" lon="11.009965">
    <ele>626.6</ele>
    <name>Root Trail at Windachsee</name>
    <cmt>https://d2exd72xrrp1s7.cloudfront.net/www/000/1k2/1k/1kklxolxwqslra651awlbsxxm2n8hqlec-uhi3120409/0</cmt>
    <desc>Bo: Gleich am südlichen Ende gibt es einen Biogärtner mit Verkauf.
――――――――――
HeinzF: Interessanter Weg, nicht leicht zu begehen! Trittsicherheit und gutes Schuhwerk erforderlich
――――――――――
Stefan: Schöne entspannte spazier Runde mit tollem Ausblick und sehr ruhig. Am Ende ungedingt in die Windachsee-Alm einkehren!
――――――――――
Anderl: Bitte nicht mit E-Bikes oder Ähnlichem versuchen, weil weicher und sensibler Waldboden. Der Pfad ist wg. steiler Böschung &amp; fetten Wurzeln praktisch unbefahrbar. Das Waldstück kann ganz leicht etwas südlich umfahren werden und ihr kommt direkt am Biergarten vorbei.</desc>
    <src>Komoot</src>
    <link href="https://www.komoot.de/highlight/269772">
      <text>View POI on Komoot</text>
    </link>
    <type>Highlight</type>
  </wpt>
  <trk>
    <name>Windachsee Alm – Wurzel-Trail am Windachsee Runde von Windachspeicher</name>
    <desc>Distance: 3.375km, Estimated duration: 0.89h, Elevation up: 32.407936066361685m, Elevation down: 32.40793606636157m, Grade: easy</desc>
    <link href="https://www.komoot.de/tour/3064384409">
      <text>View tour on Komoot</text>
    </link>
    <trkseg>
      <trkpt lat="48.003069" lon="11.0131">
        <ele>622.8</ele>
        <time>2026-06-25T19:07:21.295000Z</time>
      </trkpt>
      <trkpt lat="48.002616" lon="11.013549">
        <ele>624.4</ele>
        <time>2026-06-25T19:08:21.344000Z</time>
      </trkpt>
      <trkpt lat="48.002543" lon="11.013423">
        <ele>624.7</ele>
        <time>2026-06-25T19:08:33.792000Z</time>
      </trkpt>
      <trkpt lat="48.002561" lon="11.013399">
        <ele>624.8</ele>
        <time>2026-06-25T19:08:36.406000Z</time>
      </trkpt>
      <trkpt lat="48.002499" lon="11.013384">
        <ele>625</ele>
        <time>2026-06-25T19:08:43.284000Z</time>
      </trkpt>
      <trkpt lat="48.002432" lon="11.013414">
        <ele>625.2</ele>
        <time>2026-06-25T19:08:51.060000Z</time>
      </trkpt>
      <trkpt lat="48.002145" lon="11.013317">
        <ele>626.1</ele>
        <time>2026-06-25T19:09:23.832000Z</time>
      </trkpt>
      <trkpt lat="48.001915" lon="11.013075">
        <ele>627.3</ele>
        <time>2026-06-25T19:09:55.954000Z</time>
      </trkpt>
      <trkpt lat="48.002262" lon="11.012756">
        <ele>629.2</ele>
        <time>2026-06-25T19:10:43.436000Z</time>
      </trkpt>
      <trkpt lat="48.001915" lon="11.013075">
        <ele>630.8</ele>
        <time>2026-06-25T19:11:30.072000Z</time>
      </trkpt>
      <trkpt lat="48.001814" lon="11.013191">
        <ele>631.2</ele>
        <time>2026-06-25T19:11:43.873000Z</time>
      </trkpt>
      <trkpt lat="48.001735" lon="11.013154">
        <ele>631.3</ele>
        <time>2026-06-25T19:11:52.720000Z</time>
      </trkpt>
      <trkpt lat="48.001672" lon="11.013165">
        <ele>631.4</ele>
        <time>2026-06-25T19:11:59.329000Z</time>
      </trkpt>
      <trkpt lat="48.001651" lon="11.013264">
        <ele>631.5</ele>
        <time>2026-06-25T19:12:06.520000Z</time>
      </trkpt>
      <trkpt lat="48.00161" lon="11.013461">
        <ele>631.6</ele>
        <time>2026-06-25T19:12:20.721000Z</time>
      </trkpt>
      <trkpt lat="48.001546" lon="11.013321">
        <ele>631.6</ele>
        <time>2026-06-25T19:12:32.372000Z</time>
      </trkpt>
      <trkpt lat="48.001404" lon="11.013152">
        <ele>631.8</ele>
        <time>2026-06-25T19:12:51.099000Z</time>
      </trkpt>
      <trkpt lat="48.001546" lon="11.013321">
        <ele>631.9</ele>
        <time>2026-06-25T19:13:09.720000Z</time>
      </trkpt>
      <trkpt lat="48.00161" lon="11.013461">
        <ele>632</ele>
        <time>2026-06-25T19:13:21.254000Z</time>
      </trkpt>
      <trkpt lat="48.001651" lon="11.013264">
        <ele>632</ele>
        <time>2026-06-25T19:13:35.176000Z</time>
      </trkpt>
      <trkpt lat="48.001672" lon="11.013165">
        <ele>632</ele>
        <time>2026-06-25T19:13:42.242000Z</time>
      </trkpt>
      <trkpt lat="48.001695" lon="11.012865">
        <ele>631.7</ele>
        <time>2026-06-25T19:14:02.979000Z</time>
      </trkpt>
      <trkpt lat="48.001579" lon="11.012459">
        <ele>631</ele>
        <time>2026-06-25T19:14:33.933000Z</time>
      </trkpt>
      <trkpt lat="48.001498" lon="11.012286">
        <ele>630.6</ele>
        <time>2026-06-25T19:14:48.892000Z</time>
      </trkpt>
      <trkpt lat="48.00108" lon="11.011424">
        <ele>630.2</ele>
        <time>2026-06-25T19:16:01.149000Z</time>
      </trkpt>
      <trkpt lat="48.00087" lon="11.010817">
        <ele>632.1</ele>
        <time>2026-06-25T19:16:53.622000Z</time>
      </trkpt>
      <trkpt lat="48.000698" lon="11.010558">
        <ele>633.2</ele>
        <time>2026-06-25T19:17:21.821000Z</time>
      </trkpt>
      <trkpt lat="48.000582" lon="11.010491">
        <ele>633.6</ele>
        <time>2026-06-25T19:17:35.822000Z</time>
      </trkpt>
      <trkpt lat="48.00055" lon="11.010511">
        <ele>633.7</ele>
        <time>2026-06-25T19:17:39.596000Z</time>
      </trkpt>
      <trkpt lat="48.000421" lon="11.010588">
        <ele>634.1</ele>
        <time>2026-06-25T19:17:54.720000Z</time>
      </trkpt>
      <trkpt lat="48.000352" lon="11.010788">
        <ele>634.4</ele>
        <time>2026-06-25T19:18:10.939000Z</time>
      </trkpt>
      <trkpt lat="48.000297" lon="11.010795">
        <ele>634.5</ele>
        <time>2026-06-25T19:18:16.929000Z</time>
      </trkpt>
      <trkpt lat="48.000241" lon="11.010802">
        <ele>634.6</ele>
        <time>2026-06-25T19:18:22.860000Z</time>
      </trkpt>
      <trkpt lat="48.000207" lon="11.010684">
        <ele>634.7</ele>
        <time>2026-06-25T19:18:31.678000Z</time>
      </trkpt>
      <trkpt lat="48.000269" lon="11.010539">
        <ele>634.7</ele>
        <time>2026-06-25T19:18:43.381000Z</time>
      </trkpt>
      <trkpt lat="48.00011" lon="11.010421">
        <ele>634.8</ele>
        <time>2026-06-25T19:19:01.302000Z</time>
      </trkpt>
      <trkpt lat="48.000048" lon="11.010172">
        <ele>634.6</ele>
        <time>2026-06-25T19:19:19.356000Z</time>
      </trkpt>
      <trkpt lat="48.000116" lon="11.010013">
        <ele>634.5</ele>
        <time>2026-06-25T19:19:32.378000Z</time>
      </trkpt>
      <trkpt lat="48.000096" lon="11.009847">
        <ele>634.2</ele>
        <time>2026-06-25T19:19:44.211000Z</time>
      </trkpt>
      <trkpt lat="48.000238" lon="11.009489">
        <ele>633.2</ele>
        <time>2026-06-25T19:20:14.063000Z</time>
      </trkpt>
      <trkpt lat="48.000174" lon="11.009332">
        <ele>632.5</ele>
        <time>2026-06-25T19:20:27.800000Z</time>
      </trkpt>
      <trkpt lat="48.000032" lon="11.009259">
        <ele>631.7</ele>
        <time>2026-06-25T19:20:44.486000Z</time>
      </trkpt>
      <trkpt lat="47.999871" lon="11.00922">
        <ele>630.8</ele>
        <time>2026-06-25T19:21:02.647000Z</time>
      </trkpt>
      <trkpt lat="47.999768" lon="11.009097">
        <ele>630.1</ele>
        <time>2026-06-25T19:21:17.201000Z</time>
      </trkpt>
      <trkpt lat="47.999596" lon="11.009009">
        <ele>629.4</ele>
        <time>2026-06-25T19:21:36.887000Z</time>
      </trkpt>
      <trkpt lat="47.999249" lon="11.009029">
        <ele>628.7</ele>
        <time>2026-06-25T19:22:13.222000Z</time>
      </trkpt>
      <trkpt lat="47.99919" lon="11.009151">
        <ele>628.6</ele>
        <time>2026-06-25T19:22:23.491000Z</time>
      </trkpt>
      <trkpt lat="47.999087" lon="11.009276">
        <ele>628.6</ele>
        <time>2026-06-25T19:22:36.779000Z</time>
      </trkpt>
      <trkpt lat="47.998943" lon="11.009309">
        <ele>628.7</ele>
        <time>2026-06-25T19:22:51.733000Z</time>
      </trkpt>
      <trkpt lat="47.998838" lon="11.009412">
        <ele>628.8</ele>
        <time>2026-06-25T19:23:04.975000Z</time>
      </trkpt>
      <trkpt lat="47.998749" lon="11.009603">
        <ele>629.2</ele>
        <time>2026-06-25T19:23:21.746000Z</time>
      </trkpt>
      <trkpt lat="47.998746" lon="11.009681">
        <ele>629.3</ele>
        <time>2026-06-25T19:23:27.416000Z</time>
      </trkpt>
      <trkpt lat="47.998638" lon="11.009686">
        <ele>629.6</ele>
        <time>2026-06-25T19:23:39.306000Z</time>
      </trkpt>
      <trkpt lat="47.99846" lon="11.009803">
        <ele>630.2</ele>
        <time>2026-06-25T19:24:00.811000Z</time>
      </trkpt>
      <trkpt lat="47.998272" lon="11.009808">
        <ele>630.8</ele>
        <time>2026-06-25T19:24:21.911000Z</time>
      </trkpt>
      <trkpt lat="47.998189" lon="11.009889">
        <ele>631.2</ele>
        <time>2026-06-25T19:24:33.007000Z</time>
      </trkpt>
      <trkpt lat="47.998054" lon="11.00981">
        <ele>631.6</ele>
        <time>2026-06-25T19:24:49.124000Z</time>
      </trkpt>
      <trkpt lat="47.997972" lon="11.009851">
        <ele>631.9</ele>
        <time>2026-06-25T19:24:58.794000Z</time>
      </trkpt>
      <trkpt lat="47.997713" lon="11.00983">
        <ele>632.7</ele>
        <time>2026-06-25T19:25:27.386000Z</time>
      </trkpt>
      <trkpt lat="47.997531" lon="11.00985">
        <ele>633</ele>
        <time>2026-06-25T19:25:46.979000Z</time>
      </trkpt>
      <trkpt lat="47.997471" lon="11.009857">
        <ele>633.2</ele>
        <time>2026-06-25T19:25:53.345000Z</time>
      </trkpt>
      <trkpt lat="47.997356" lon="11.009833">
        <ele>633.3</ele>
        <time>2026-06-25T19:26:05.528000Z</time>
      </trkpt>
      <trkpt lat="47.9972" lon="11.009966">
        <ele>633.5</ele>
        <time>2026-06-25T19:26:24.158000Z</time>
      </trkpt>
      <trkpt lat="47.996843" lon="11.009516">
        <ele>633.5</ele>
        <time>2026-06-25T19:27:11.044000Z</time>
      </trkpt>
      <trkpt lat="47.996547" lon="11.009307">
        <ele>633.3</ele>
        <time>2026-06-25T19:27:44.462000Z</time>
      </trkpt>
      <trkpt lat="47.996494" lon="11.009077">
        <ele>633.1</ele>
        <time>2026-06-25T19:28:01.156000Z</time>
      </trkpt>
      <trkpt lat="47.996411" lon="11.008905">
        <ele>632.9</ele>
        <time>2026-06-25T19:28:15.660000Z</time>
      </trkpt>
      <trkpt lat="47.996342" lon="11.00858">
        <ele>632.7</ele>
        <time>2026-06-25T19:28:38.969000Z</time>
      </trkpt>
      <trkpt lat="47.996202" lon="11.008266">
        <ele>632.5</ele>
        <time>2026-06-25T19:29:04.529000Z</time>
      </trkpt>
      <trkpt lat="47.996068" lon="11.00808">
        <ele>632.5</ele>
        <time>2026-06-25T19:29:22.925000Z</time>
      </trkpt>
      <trkpt lat="47.99562" lon="11.007601">
        <ele>632.9</ele>
        <time>2026-06-25T19:30:19.404000Z</time>
      </trkpt>
      <trkpt lat="47.995592" lon="11.007351">
        <ele>633.1</ele>
        <time>2026-06-25T19:30:37.009000Z</time>
      </trkpt>
      <trkpt lat="47.995599" lon="11.007182">
        <ele>633.2</ele>
        <time>2026-06-25T19:30:48.730000Z</time>
      </trkpt>
      <trkpt lat="47.995465" lon="11.006749">
        <ele>633.3</ele>
        <time>2026-06-25T19:31:21.301000Z</time>
      </trkpt>
      <trkpt lat="47.995335" lon="11.006606">
        <ele>633.4</ele>
        <time>2026-06-25T19:31:37.495000Z</time>
      </trkpt>
      <trkpt lat="47.995311" lon="11.006386">
        <ele>633.3</ele>
        <time>2026-06-25T19:31:52.529000Z</time>
      </trkpt>
      <trkpt lat="47.995221" lon="11.006226">
        <ele>633.4</ele>
        <time>2026-06-25T19:32:06.643000Z</time>
      </trkpt>
      <trkpt lat="47.99513" lon="11.005986">
        <ele>633.6</ele>
        <time>2026-06-25T19:32:25.771000Z</time>
      </trkpt>
      <trkpt lat="47.995003" lon="11.005771">
        <ele>633.8</ele>
        <time>2026-06-25T19:32:45.660000Z</time>
      </trkpt>
      <trkpt lat="47.994796" lon="11.005602">
        <ele>634.1</ele>
        <time>2026-06-25T19:33:10.309000Z</time>
      </trkpt>
      <trkpt lat="47.994496" lon="11.00553">
        <ele>634.6</ele>
        <time>2026-06-25T19:33:42.703000Z</time>
      </trkpt>
      <trkpt lat="47.994543" lon="11.00561">
        <ele>634.8</ele>
        <time>2026-06-25T19:33:50.485000Z</time>
      </trkpt>
      <trkpt lat="47.994564" lon="11.005708">
        <ele>635</ele>
        <time>2026-06-25T19:33:57.903000Z</time>
      </trkpt>
      <trkpt lat="47.994508" lon="11.006026">
        <ele>635.6</ele>
        <time>2026-06-25T19:34:22.237000Z</time>
      </trkpt>
      <trkpt lat="47.994635" lon="11.007236">
        <ele>639.2</ele>
        <time>2026-06-25T19:35:56.766000Z</time>
      </trkpt>
      <trkpt lat="47.994865" lon="11.007734">
        <ele>641</ele>
        <time>2026-06-25T19:36:43.419000Z</time>
      </trkpt>
      <trkpt lat="47.99541" lon="11.009322">
        <ele>644.3</ele>
        <time>2026-06-25T19:38:54.862000Z</time>
      </trkpt>
      <trkpt lat="47.995685" lon="11.009892">
        <ele>645.2</ele>
        <time>2026-06-25T19:39:44.913000Z</time>
      </trkpt>
      <trkpt lat="47.995991" lon="11.010232">
        <ele>645.8</ele>
        <time>2026-06-25T19:40:25.089000Z</time>
      </trkpt>
      <trkpt lat="47.997083" lon="11.010948">
        <ele>646.1</ele>
        <time>2026-06-25T19:42:25.608000Z</time>
      </trkpt>
      <trkpt lat="47.997929" lon="11.01145">
        <ele>644.5</ele>
        <time>2026-06-25T19:44:00.020000Z</time>
      </trkpt>
      <trkpt lat="47.998245" lon="11.012897">
        <ele>642.4</ele>
        <time>2026-06-25T19:45:46.290000Z</time>
      </trkpt>
      <trkpt lat="47.998543" lon="11.014265">
        <ele>641.8</ele>
        <time>2026-06-25T19:47:23.891000Z</time>
      </trkpt>
      <trkpt lat="47.998535" lon="11.014544">
        <ele>641.8</ele>
        <time>2026-06-25T19:47:42.606000Z</time>
      </trkpt>
      <trkpt lat="47.998484" lon="11.014966">
        <ele>641.8</ele>
        <time>2026-06-25T19:48:11.270000Z</time>
      </trkpt>
      <trkpt lat="47.998724" lon="11.014869">
        <ele>641.8</ele>
        <time>2026-06-25T19:48:36.141000Z</time>
      </trkpt>
      <trkpt lat="47.99886" lon="11.014847">
        <ele>641.8</ele>
        <time>2026-06-25T19:48:49.883000Z</time>
      </trkpt>
      <trkpt lat="47.999181" lon="11.014673">
        <ele>641.8</ele>
        <time>2026-06-25T19:49:24.067000Z</time>
      </trkpt>
      <trkpt lat="47.999377" lon="11.014403">
        <ele>641.7</ele>
        <time>2026-06-25T19:49:50.828000Z</time>
      </trkpt>
      <trkpt lat="48.000917" lon="11.015872">
        <ele>641.2</ele>
        <time>2026-06-25T19:52:54.910000Z</time>
      </trkpt>
      <trkpt lat="48.00122" lon="11.016108">
        <ele>640.9</ele>
        <time>2026-06-25T19:53:29.640000Z</time>
      </trkpt>
      <trkpt lat="48.001432" lon="11.015732">
        <ele>640.6</ele>
        <time>2026-06-25T19:54:03.228000Z</time>
      </trkpt>
      <trkpt lat="48.001457" lon="11.015478">
        <ele>640.4</ele>
        <time>2026-06-25T19:54:20.832000Z</time>
      </trkpt>
      <trkpt lat="48.001439" lon="11.015384">
        <ele>640.3</ele>
        <time>2026-06-25T19:54:27.556000Z</time>
      </trkpt>
      <trkpt lat="48.00129" lon="11.015113">
        <ele>639.8</ele>
        <time>2026-06-25T19:54:51.951000Z</time>
      </trkpt>
      <trkpt lat="48.00114" lon="11.014928">
        <ele>639.3</ele>
        <time>2026-06-25T19:55:12.444000Z</time>
      </trkpt>
      <trkpt lat="48.00099" lon="11.014743">
        <ele>638.7</ele>
        <time>2026-06-25T19:55:33.195000Z</time>
      </trkpt>
      <trkpt lat="48.001063" lon="11.014596">
        <ele>638.2</ele>
        <time>2026-06-25T19:55:46.419000Z</time>
      </trkpt>
      <trkpt lat="48.001159" lon="11.014403">
        <ele>637.6</ele>
        <time>2026-06-25T19:56:03.890000Z</time>
      </trkpt>
      <trkpt lat="48.001248" lon="11.014229">
        <ele>636.9</ele>
        <time>2026-06-25T19:56:19.961000Z</time>
      </trkpt>
      <trkpt lat="48.001397" lon="11.013931">
        <ele>635.6</ele>
        <time>2026-06-25T19:56:47.512000Z</time>
      </trkpt>
      <trkpt lat="48.001582" lon="11.013551">
        <ele>633.7</ele>
        <time>2026-06-25T19:57:22.821000Z</time>
      </trkpt>
      <trkpt lat="48.00161" lon="11.013461">
        <ele>633.2</ele>
        <time>2026-06-25T19:57:30.390000Z</time>
      </trkpt>
      <trkpt lat="48.001651" lon="11.013264">
        <ele>632.3</ele>
        <time>2026-06-25T19:57:46.082000Z</time>
      </trkpt>
      <trkpt lat="48.001672" lon="11.013165">
        <ele>631.8</ele>
        <time>2026-06-25T19:57:54.026000Z</time>
      </trkpt>
      <trkpt lat="48.001735" lon="11.013154">
        <ele>631.4</ele>
        <time>2026-06-25T19:58:01.189000Z</time>
      </trkpt>
      <trkpt lat="48.001814" lon="11.013191">
        <ele>630.8</ele>
        <time>2026-06-25T19:58:10.685000Z</time>
      </trkpt>
      <trkpt lat="48.001915" lon="11.013075">
        <ele>629.9</ele>
        <time>2026-06-25T19:58:25.150000Z</time>
      </trkpt>
      <trkpt lat="48.002145" lon="11.013317">
        <ele>628</ele>
        <time>2026-06-25T19:58:57.217000Z</time>
      </trkpt>
      <trkpt lat="48.002432" lon="11.013414">
        <ele>626.1</ele>
        <time>2026-06-25T19:59:30.521000Z</time>
      </trkpt>
      <trkpt lat="48.002499" lon="11.013384">
        <ele>625.7</ele>
        <time>2026-06-25T19:59:38.336000Z</time>
      </trkpt>
      <trkpt lat="48.002561" lon="11.013399">
        <ele>625.3</ele>
        <time>2026-06-25T19:59:45.248000Z</time>
      </trkpt>
      <trkpt lat="48.002543" lon="11.013423">
        <ele>625.2</ele>
        <time>2026-06-25T19:59:47.911000Z</time>
      </trkpt>
      <trkpt lat="48.002616" lon="11.013549">
        <ele>624.7</ele>
        <time>2026-06-25T20:00:00.293000Z</time>
      </trkpt>
      <trkpt lat="48.003069" lon="11.0131">
        <ele>622.8</ele>
        <time>2026-06-25T20:00:58.521000Z</time>
      </trkpt>
    </trkseg>
  </trk>
</gpx>